{"type": "FeatureCollection", "features": [{"type": "Feature", "geometry": {"type": "Point", "coordinates": [2.557123, 48.476793]}, "properties": {"street_name": "RUE DE MELUN", "sales": 43, "sales_appt": 5, "sales_maison": 15, "median_price": 278100.0, "median_price_per_sqm": 3143.6921296296296, "turnover_score": 100.0, "turnover_rank": 1, "first_year": 2021, "last_year": 2024, "years_active": 4}}, {"type": "Feature", "geometry": {"type": "Point", "coordinates": [2.5517895, 48.478267]}, "properties": {"street_name": "RUE DU DOC SIFFRE", "sales": 38, "sales_appt": 3, "sales_maison": 17, "median_price": 226400.0, "median_price_per_sqm": 3439.381774387796, "turnover_score": 88.4, "turnover_rank": 2, "first_year": 2021, "last_year": 2025, "years_active": 5}}, {"type": "Feature", "geometry": {"type": "Point", "coordinates": [2.551658, 48.474432]}, "properties": {"street_name": "RUE DE MILLY", "sales": 37, "sales_appt": 3, "sales_maison": 12, "median_price": 290000.0, "median_price_per_sqm": 3538.068181818182, "turnover_score": 86.0, "turnover_rank": 3, "first_year": 2021, "last_year": 2025, "years_active": 5}}, {"type": "Feature", "geometry": {"type": "Point", "coordinates": [2.5539525000000003, 48.477844]}, "properties": {"street_name": "RUE LOUIS RODIER", "sales": 34, "sales_appt": 1, "sales_maison": 16, "median_price": 315800.0, "median_price_per_sqm": 3174.1410256410254, "turnover_score": 79.1, "turnover_rank": 4, "first_year": 2021, "last_year": 2025, "years_active": 5}}, {"type": "Feature", "geometry": {"type": "Point", "coordinates": [2.554285, 48.480193]}, "properties": {"street_name": "RUE DE LA FOSSE AUX MOINES", "sales": 27, "sales_appt": 4, "sales_maison": 10, "median_price": 320000.0, "median_price_per_sqm": 3902.439024390244, "turnover_score": 62.8, "turnover_rank": 5, "first_year": 2021, "last_year": 2025, "years_active": 4}}, {"type": "Feature", "geometry": {"type": "Point", "coordinates": [2.557718, 48.4738835]}, "properties": {"street_name": "RUE DE CHAILLY", "sales": 24, "sales_appt": 0, "sales_maison": 9, "median_price": 360000.0, "median_price_per_sqm": 3050.8474576271187, "turnover_score": 55.8, "turnover_rank": 6, "first_year": 2021, "last_year": 2025, "years_active": 5}}, {"type": "Feature", "geometry": {"type": "Point", "coordinates": [2.5462350000000002, 48.47656]}, "properties": {"street_name": "RUE DE SAINT GERMAIN", "sales": 22, "sales_appt": 0, "sales_maison": 13, "median_price": 350000.0, "median_price_per_sqm": 3535.3535353535353, "turnover_score": 51.2, "turnover_rank": 7, "first_year": 2021, "last_year": 2025, "years_active": 5}}, {"type": "Feature", "geometry": {"type": "Point", "coordinates": [2.524648, 48.483508]}, "properties": {"street_name": "RUE DES GROUETTES", "sales": 21, "sales_appt": 0, "sales_maison": 10, "median_price": 268000.0, "median_price_per_sqm": 2940.8492395631315, "turnover_score": 48.8, "turnover_rank": 8, "first_year": 2021, "last_year": 2025, "years_active": 5}}, {"type": "Feature", "geometry": {"type": "Point", "coordinates": [2.552329, 48.476626]}, "properties": {"street_name": "RUE DU GRAND MOULIN", "sales": 21, "sales_appt": 3, "sales_maison": 8, "median_price": 357000.0, "median_price_per_sqm": 4911.111111111111, "turnover_score": 48.8, "turnover_rank": 8, "first_year": 2022, "last_year": 2025, "years_active": 4}}, {"type": "Feature", "geometry": {"type": "Point", "coordinates": [2.5391665000000003, 48.480107]}, "properties": {"street_name": "LES CARREAUX", "sales": 20, "sales_appt": 0, "sales_maison": 0, "median_price": 6124.5, "median_price_per_sqm": null, "turnover_score": 46.5, "turnover_rank": 9, "first_year": 2021, "last_year": 2024, "years_active": 3}}, {"type": "Feature", "geometry": {"type": "Point", "coordinates": [2.554488, 48.474927]}, "properties": {"street_name": "RUE DE FLEURY", "sales": 19, "sales_appt": 4, "sales_maison": 2, "median_price": 130000.0, "median_price_per_sqm": 3250.0, "turnover_score": 44.2, "turnover_rank": 10, "first_year": 2021, "last_year": 2025, "years_active": 4}}, {"type": "Feature", "geometry": {"type": "Point", "coordinates": [2.5315510000000003, 48.4772805]}, "properties": {"street_name": "LES SUGETS", "sales": 16, "sales_appt": 0, "sales_maison": 0, "median_price": 4680.0, "median_price_per_sqm": null, "turnover_score": 37.2, "turnover_rank": 11, "first_year": 2021, "last_year": 2024, "years_active": 3}}, {"type": "Feature", "geometry": {"type": "Point", "coordinates": [2.557004, 48.472842]}, "properties": {"street_name": "ALL DES ALISIERS", "sales": 12, "sales_appt": 6, "sales_maison": 0, "median_price": 360000.0, "median_price_per_sqm": 12000.0, "turnover_score": 27.9, "turnover_rank": 12, "first_year": 2022, "last_year": 2022, "years_active": 1}}, {"type": "Feature", "geometry": {"type": "Point", "coordinates": [2.555114, 48.477321]}, "properties": {"street_name": "RUE GEORGES BOUET", "sales": 11, "sales_appt": 0, "sales_maison": 4, "median_price": 535000.0, "median_price_per_sqm": 3518.739513422819, "turnover_score": 25.6, "turnover_rank": 13, "first_year": 2021, "last_year": 2025, "years_active": 3}}, {"type": "Feature", "geometry": {"type": "Point", "coordinates": [2.539183, 48.488124]}, "properties": {"street_name": "RUE DES BELLES VUES", "sales": 11, "sales_appt": 0, "sales_maison": 7, "median_price": 433500.0, "median_price_per_sqm": 2994.5054945054944, "turnover_score": 25.6, "turnover_rank": 13, "first_year": 2021, "last_year": 2024, "years_active": 3}}, {"type": "Feature", "geometry": {"type": "Point", "coordinates": [2.5285770000000003, 48.476986499999995]}, "properties": {"street_name": "LA BEZAUDE", "sales": 10, "sales_appt": 0, "sales_maison": 0, "median_price": 4680.0, "median_price_per_sqm": null, "turnover_score": 23.3, "turnover_rank": 14, "first_year": 2021, "last_year": 2024, "years_active": 2}}, {"type": "Feature", "geometry": {"type": "Point", "coordinates": [2.547451, 48.48224]}, "properties": {"street_name": "RES LES SABLONS", "sales": 9, "sales_appt": 0, "sales_maison": 5, "median_price": 275600.0, "median_price_per_sqm": 3157.8947368421054, "turnover_score": 20.9, "turnover_rank": 15, "first_year": 2021, "last_year": 2024, "years_active": 3}}, {"type": "Feature", "geometry": {"type": "Point", "coordinates": [2.52606, 48.476321]}, "properties": {"street_name": "LES FRECULS", "sales": 9, "sales_appt": 0, "sales_maison": 0, "median_price": 7587.6, "median_price_per_sqm": null, "turnover_score": 20.9, "turnover_rank": 15, "first_year": 2022, "last_year": 2024, "years_active": 3}}, {"type": "Feature", "geometry": {"type": "Point", "coordinates": [2.536512, 48.485954]}, "properties": {"street_name": "RUE DES CHESNEAUX", "sales": 8, "sales_appt": 2, "sales_maison": 0, "median_price": 125000.0, "median_price_per_sqm": 3515.625, "turnover_score": 18.6, "turnover_rank": 16, "first_year": 2024, "last_year": 2024, "years_active": 1}}, {"type": "Feature", "geometry": {"type": "Point", "coordinates": [2.548122, 48.480824]}, "properties": {"street_name": "RUE DE LA PLANCHE", "sales": 7, "sales_appt": 0, "sales_maison": 4, "median_price": 338000.0, "median_price_per_sqm": 3294.198485845951, "turnover_score": 16.3, "turnover_rank": 17, "first_year": 2021, "last_year": 2022, "years_active": 2}}, {"type": "Feature", "geometry": {"type": "Point", "coordinates": [2.530196, 48.472384]}, "properties": {"street_name": "LES MOCQUE PANIERS", "sales": 7, "sales_appt": 0, "sales_maison": 0, "median_price": 4680.0, "median_price_per_sqm": null, "turnover_score": 16.3, "turnover_rank": 17, "first_year": 2021, "last_year": 2025, "years_active": 4}}, {"type": "Feature", "geometry": {"type": "Point", "coordinates": [2.550399, 48.475002]}, "properties": {"street_name": "CHE DES MARINIERS", "sales": 7, "sales_appt": 0, "sales_maison": 5, "median_price": 438200.0, "median_price_per_sqm": 3550.0, "turnover_score": 16.3, "turnover_rank": 17, "first_year": 2021, "last_year": 2023, "years_active": 3}}, {"type": "Feature", "geometry": {"type": "Point", "coordinates": [2.5333125, 48.4746115]}, "properties": {"street_name": "BOIS DE LA MOTTE LAMBERT", "sales": 6, "sales_appt": 0, "sales_maison": 0, "median_price": 85548.0, "median_price_per_sqm": null, "turnover_score": 14.0, "turnover_rank": 18, "first_year": 2021, "last_year": 2024, "years_active": 2}}, {"type": "Feature", "geometry": {"type": "Point", "coordinates": [2.518991, 48.481947]}, "properties": {"street_name": "CHE DU MONCEAU", "sales": 6, "sales_appt": 0, "sales_maison": 3, "median_price": 195000.0, "median_price_per_sqm": 5571.428571428572, "turnover_score": 14.0, "turnover_rank": 18, "first_year": 2022, "last_year": 2022, "years_active": 1}}, {"type": "Feature", "geometry": {"type": "Point", "coordinates": [2.531455, 48.481391]}, "properties": {"street_name": "LE GRAND MOULIN", "sales": 6, "sales_appt": 0, "sales_maison": 4, "median_price": 1663800.0, "median_price_per_sqm": 22288.360215053763, "turnover_score": 14.0, "turnover_rank": 18, "first_year": 2021, "last_year": 2021, "years_active": 1}}, {"type": "Feature", "geometry": {"type": "Point", "coordinates": [2.565852, 48.48464]}, "properties": {"street_name": "LA PETITE PLAINE", "sales": 5, "sales_appt": 0, "sales_maison": 0, "median_price": 12000.0, "median_price_per_sqm": null, "turnover_score": 11.6, "turnover_rank": 19, "first_year": 2022, "last_year": 2023, "years_active": 2}}, {"type": "Feature", "geometry": {"type": "Point", "coordinates": [2.531743, 48.481705]}, "properties": {"street_name": "LES PRES DU GRAND MOULIN", "sales": 5, "sales_appt": 0, "sales_maison": 0, "median_price": 1663800.0, "median_price_per_sqm": null, "turnover_score": 11.6, "turnover_rank": 19, "first_year": 2021, "last_year": 2021, "years_active": 1}}, {"type": "Feature", "geometry": {"type": "Point", "coordinates": [2.539133, 48.47557]}, "properties": {"street_name": "LE MARCHE RANCOURT", "sales": 5, "sales_appt": 0, "sales_maison": 0, "median_price": 349455.0, "median_price_per_sqm": null, "turnover_score": 11.6, "turnover_rank": 19, "first_year": 2022, "last_year": 2025, "years_active": 2}}, {"type": "Feature", "geometry": {"type": "Point", "coordinates": [2.534159, 48.485058]}, "properties": {"street_name": "RUE DU BATARDEAU", "sales": 5, "sales_appt": 0, "sales_maison": 2, "median_price": 533400.0, "median_price_per_sqm": 3232.7272727272725, "turnover_score": 11.6, "turnover_rank": 19, "first_year": 2021, "last_year": 2024, "years_active": 3}}, {"type": "Feature", "geometry": {"type": "Point", "coordinates": [2.541805, 48.4736]}, "properties": {"street_name": "LA LONGUE RAIE", "sales": 5, "sales_appt": 0, "sales_maison": 0, "median_price": 11310.0, "median_price_per_sqm": null, "turnover_score": 11.6, "turnover_rank": 19, "first_year": 2021, "last_year": 2025, "years_active": 2}}, {"type": "Feature", "geometry": {"type": "Point", "coordinates": [2.5368475, 48.483598]}, "properties": {"street_name": "LES BAS CHESNEAUX", "sales": 4, "sales_appt": 0, "sales_maison": 0, "median_price": 10524.5, "median_price_per_sqm": null, "turnover_score": 9.3, "turnover_rank": 20, "first_year": 2021, "last_year": 2022, "years_active": 2}}, {"type": "Feature", "geometry": {"type": "Point", "coordinates": [2.519178, 48.482325]}, "properties": {"street_name": "RUE DE LA FONTAINE", "sales": 4, "sales_appt": 0, "sales_maison": 2, "median_price": 382000.0, "median_price_per_sqm": 2768.1159420289855, "turnover_score": 9.3, "turnover_rank": 20, "first_year": 2022, "last_year": 2022, "years_active": 1}}, {"type": "Feature", "geometry": {"type": "Point", "coordinates": [2.5361465, 48.485600500000004]}, "properties": {"street_name": "RUE DE LA VALLEE", "sales": 4, "sales_appt": 0, "sales_maison": 1, "median_price": 572300.0, "median_price_per_sqm": 6153.763440860215, "turnover_score": 9.3, "turnover_rank": 20, "first_year": 2023, "last_year": 2023, "years_active": 1}}, {"type": "Feature", "geometry": {"type": "Point", "coordinates": [2.557389, 48.472466]}, "properties": {"street_name": "ALL DES ACACIAS", "sales": 3, "sales_appt": 0, "sales_maison": 2, "median_price": 428430.0, "median_price_per_sqm": 3407.4666666666667, "turnover_score": 7.0, "turnover_rank": 21, "first_year": 2021, "last_year": 2025, "years_active": 2}}, {"type": "Feature", "geometry": {"type": "Point", "coordinates": [2.548882, 48.46677]}, "properties": {"street_name": "LES CANNES", "sales": 3, "sales_appt": 0, "sales_maison": 0, "median_price": 85548.0, "median_price_per_sqm": null, "turnover_score": 7.0, "turnover_rank": 21, "first_year": 2021, "last_year": 2024, "years_active": 2}}, {"type": "Feature", "geometry": {"type": "Point", "coordinates": [2.524757, 48.482597]}, "properties": {"street_name": "LES GLAISES", "sales": 3, "sales_appt": 0, "sales_maison": 0, "median_price": 4680.0, "median_price_per_sqm": null, "turnover_score": 7.0, "turnover_rank": 21, "first_year": 2023, "last_year": 2024, "years_active": 2}}, {"type": "Feature", "geometry": {"type": "Point", "coordinates": [2.521428, 48.48241]}, "properties": {"street_name": "CHE DU PETIT MOULIN", "sales": 3, "sales_appt": 0, "sales_maison": 1, "median_price": 150000.0, "median_price_per_sqm": 645.1612903225806, "turnover_score": 7.0, "turnover_rank": 21, "first_year": 2023, "last_year": 2023, "years_active": 1}}, {"type": "Feature", "geometry": {"type": "Point", "coordinates": [2.532815, 48.473566]}, "properties": {"street_name": "LA MOTTE LAMBERT", "sales": 3, "sales_appt": 0, "sales_maison": 0, "median_price": 85548.0, "median_price_per_sqm": null, "turnover_score": 7.0, "turnover_rank": 21, "first_year": 2021, "last_year": 2023, "years_active": 2}}, {"type": "Feature", "geometry": {"type": "Point", "coordinates": [2.541692, 48.485553]}, "properties": {"street_name": "LA PISSEROTTE", "sales": 3, "sales_appt": 0, "sales_maison": 0, "median_price": 11178.0, "median_price_per_sqm": null, "turnover_score": 7.0, "turnover_rank": 21, "first_year": 2022, "last_year": 2025, "years_active": 3}}, {"type": "Feature", "geometry": {"type": "Point", "coordinates": [2.539837, 48.481677]}, "properties": {"street_name": "LES HAUTS CHESNEAUX", "sales": 3, "sales_appt": 0, "sales_maison": 0, "median_price": 8060.0, "median_price_per_sqm": null, "turnover_score": 7.0, "turnover_rank": 21, "first_year": 2022, "last_year": 2022, "years_active": 1}}, {"type": "Feature", "geometry": {"type": "Point", "coordinates": [2.554072, 48.476413]}, "properties": {"street_name": "RUE DE L EGLISE", "sales": 3, "sales_appt": 0, "sales_maison": 2, "median_price": 470000.0, "median_price_per_sqm": 3830.2696078431372, "turnover_score": 7.0, "turnover_rank": 21, "first_year": 2025, "last_year": 2025, "years_active": 1}}, {"type": "Feature", "geometry": {"type": "Point", "coordinates": [2.526772, 48.47498]}, "properties": {"street_name": "LES HAUTES SOUCHES", "sales": 3, "sales_appt": 0, "sales_maison": 0, "median_price": 7587.6, "median_price_per_sqm": null, "turnover_score": 7.0, "turnover_rank": 21, "first_year": 2022, "last_year": 2024, "years_active": 2}}, {"type": "Feature", "geometry": {"type": "Point", "coordinates": [2.548178, 48.486893]}, "properties": {"street_name": "LES BELLES VUES", "sales": 3, "sales_appt": 0, "sales_maison": 0, "median_price": 1687.5, "median_price_per_sqm": null, "turnover_score": 7.0, "turnover_rank": 21, "first_year": 2021, "last_year": 2022, "years_active": 2}}, {"type": "Feature", "geometry": {"type": "Point", "coordinates": [2.552194, 48.487675]}, "properties": {"street_name": "LES GUIGNES CHEVRES", "sales": 3, "sales_appt": 0, "sales_maison": 0, "median_price": 6600.0, "median_price_per_sqm": null, "turnover_score": 7.0, "turnover_rank": 21, "first_year": 2021, "last_year": 2025, "years_active": 2}}, {"type": "Feature", "geometry": {"type": "Point", "coordinates": [2.5506915, 48.483841]}, "properties": {"street_name": "LES ROUGES LETS", "sales": 2, "sales_appt": 0, "sales_maison": 0, "median_price": 2151.0, "median_price_per_sqm": null, "turnover_score": 4.7, "turnover_rank": 22, "first_year": 2022, "last_year": 2022, "years_active": 1}}, {"type": "Feature", "geometry": {"type": "Point", "coordinates": [2.5603315, 48.480945000000006]}, "properties": {"street_name": "CHE DE FARONVILLE", "sales": 2, "sales_appt": 0, "sales_maison": 0, "median_price": 900.0, "median_price_per_sqm": null, "turnover_score": 4.7, "turnover_rank": 22, "first_year": 2024, "last_year": 2025, "years_active": 2}}, {"type": "Feature", "geometry": {"type": "Point", "coordinates": [2.533232, 48.484649]}, "properties": {"street_name": "CHE DES GLAISES", "sales": 2, "sales_appt": 0, "sales_maison": 2, "median_price": 645000.0, "median_price_per_sqm": 2087.378640776699, "turnover_score": 4.7, "turnover_rank": 22, "first_year": 2021, "last_year": 2021, "years_active": 1}}, {"type": "Feature", "geometry": {"type": "Point", "coordinates": [2.5457894999999997, 48.4693925]}, "properties": {"street_name": "LES VEAUX", "sales": 2, "sales_appt": 0, "sales_maison": 0, "median_price": 63474.0, "median_price_per_sqm": null, "turnover_score": 4.7, "turnover_rank": 22, "first_year": 2021, "last_year": 2023, "years_active": 2}}, {"type": "Feature", "geometry": {"type": "Point", "coordinates": [2.527769, 48.478179]}, "properties": {"street_name": "GUIGNE FOULON", "sales": 2, "sales_appt": 0, "sales_maison": 0, "median_price": 2690.0, "median_price_per_sqm": null, "turnover_score": 4.7, "turnover_rank": 22, "first_year": 2023, "last_year": 2024, "years_active": 2}}, {"type": "Feature", "geometry": {"type": "Point", "coordinates": [2.552532, 48.476677]}, "properties": {"street_name": "CHE DU GRAND MOULIN", "sales": 1, "sales_appt": 0, "sales_maison": 1, "median_price": 255000.0, "median_price_per_sqm": 5100.0, "turnover_score": 2.3, "turnover_rank": 23, "first_year": 2025, "last_year": 2025, "years_active": 1}}, {"type": "Feature", "geometry": {"type": "Point", "coordinates": [2.557866, 48.481793]}, "properties": {"street_name": "LE VIEUX PAVE", "sales": 1, "sales_appt": 0, "sales_maison": 0, "median_price": 672.75, "median_price_per_sqm": null, "turnover_score": 2.3, "turnover_rank": 23, "first_year": 2022, "last_year": 2022, "years_active": 1}}, {"type": "Feature", "geometry": {"type": "Point", "coordinates": [2.546132, 48.474767]}, "properties": {"street_name": "LA POULETTE", "sales": 1, "sales_appt": 0, "sales_maison": 0, "median_price": 400.0, "median_price_per_sqm": null, "turnover_score": 2.3, "turnover_rank": 23, "first_year": 2025, "last_year": 2025, "years_active": 1}}, {"type": "Feature", "geometry": {"type": "Point", "coordinates": [2.543052, 48.480993]}, "properties": {"street_name": "LES BAFFAUX SUD", "sales": 1, "sales_appt": 0, "sales_maison": 0, "median_price": 41400.0, "median_price_per_sqm": null, "turnover_score": 2.3, "turnover_rank": 23, "first_year": 2023, "last_year": 2023, "years_active": 1}}, {"type": "Feature", "geometry": {"type": "Point", "coordinates": [2.548119, 48.479779]}, "properties": {"street_name": "CHE DES BAFFAUX", "sales": 1, "sales_appt": 0, "sales_maison": 0, "median_price": 2000.0, "median_price_per_sqm": null, "turnover_score": 2.3, "turnover_rank": 23, "first_year": 2023, "last_year": 2023, "years_active": 1}}, {"type": "Feature", "geometry": {"type": "Point", "coordinates": [2.56192, 48.481476]}, "properties": {"street_name": "L ORME A LA MEURIENNE", "sales": 1, "sales_appt": 0, "sales_maison": 0, "median_price": 41400.0, "median_price_per_sqm": null, "turnover_score": 2.3, "turnover_rank": 23, "first_year": 2023, "last_year": 2023, "years_active": 1}}, {"type": "Feature", "geometry": {"type": "Point", "coordinates": [2.565597, 48.49078]}, "properties": {"street_name": "L ESCARGOT", "sales": 1, "sales_appt": 0, "sales_maison": 0, "median_price": 41400.0, "median_price_per_sqm": null, "turnover_score": 2.3, "turnover_rank": 23, "first_year": 2023, "last_year": 2023, "years_active": 1}}, {"type": "Feature", "geometry": {"type": "Point", "coordinates": [2.561891, 48.470929]}, "properties": {"street_name": "LA GENETRIERE", "sales": 1, "sales_appt": 0, "sales_maison": 0, "median_price": 8060.0, "median_price_per_sqm": null, "turnover_score": 2.3, "turnover_rank": 23, "first_year": 2022, "last_year": 2022, "years_active": 1}}, {"type": "Feature", "geometry": {"type": "Point", "coordinates": [2.571219, 48.476905]}, "properties": {"street_name": "LA MADELAINE", "sales": 1, "sales_appt": 0, "sales_maison": 0, "median_price": 41400.0, "median_price_per_sqm": null, "turnover_score": 2.3, "turnover_rank": 23, "first_year": 2023, "last_year": 2023, "years_active": 1}}, {"type": "Feature", "geometry": {"type": "Point", "coordinates": [2.529037, 48.476146]}, "properties": {"street_name": "BOIS DU PETIT MOULIN", "sales": 1, "sales_appt": 0, "sales_maison": 0, "median_price": 4680.0, "median_price_per_sqm": null, "turnover_score": 2.3, "turnover_rank": 23, "first_year": 2024, "last_year": 2024, "years_active": 1}}, {"type": "Feature", "geometry": {"type": "Point", "coordinates": [2.552246, 48.478512]}, "properties": {"street_name": "RUE DE L ANGELUS", "sales": 1, "sales_appt": 0, "sales_maison": 1, "median_price": 160000.0, "median_price_per_sqm": 1616.1616161616162, "turnover_score": 2.3, "turnover_rank": 23, "first_year": 2022, "last_year": 2022, "years_active": 1}}, {"type": "Feature", "geometry": {"type": "Point", "coordinates": [2.535712, 48.481598]}, "properties": {"street_name": "LES PIECES DU GRAND MOULIN", "sales": 1, "sales_appt": 0, "sales_maison": 0, "median_price": 7587.6, "median_price_per_sqm": null, "turnover_score": 2.3, "turnover_rank": 23, "first_year": 2022, "last_year": 2022, "years_active": 1}}, {"type": "Feature", "geometry": {"type": "Point", "coordinates": [2.548737, 48.484164]}, "properties": {"street_name": "LES SABLONS", "sales": 1, "sales_appt": 0, "sales_maison": 0, "median_price": 2151.0, "median_price_per_sqm": null, "turnover_score": 2.3, "turnover_rank": 23, "first_year": 2022, "last_year": 2022, "years_active": 1}}, {"type": "Feature", "geometry": {"type": "Point", "coordinates": [2.559314, 48.487014]}, "properties": {"street_name": "LES PETITS ROUSSEAUX", "sales": 1, "sales_appt": 0, "sales_maison": 0, "median_price": 41400.0, "median_price_per_sqm": null, "turnover_score": 2.3, "turnover_rank": 23, "first_year": 2023, "last_year": 2023, "years_active": 1}}, {"type": "Feature", "geometry": {"type": "Point", "coordinates": [2.521065, 48.479442]}, "properties": {"street_name": "PRES DE LA RUELLE DU COLOM", "sales": 1, "sales_appt": 0, "sales_maison": 0, "median_price": 4680.0, "median_price_per_sqm": null, "turnover_score": 2.3, "turnover_rank": 23, "first_year": 2024, "last_year": 2024, "years_active": 1}}, {"type": "Feature", "geometry": {"type": "Point", "coordinates": [2.552588, 48.477669]}, "properties": {"street_name": "RUE DE LA TUILERIE", "sales": 1, "sales_appt": 0, "sales_maison": 1, "median_price": 275300.0, "median_price_per_sqm": 3484.8101265822784, "turnover_score": 2.3, "turnover_rank": 23, "first_year": 2021, "last_year": 2021, "years_active": 1}}, {"type": "Feature", "geometry": {"type": "Point", "coordinates": [2.55107, 48.477868]}, "properties": {"street_name": "RUE SAINT GERMAIN", "sales": 1, "sales_appt": 0, "sales_maison": 1, "median_price": 250100.0, "median_price_per_sqm": 3126.25, "turnover_score": 2.3, "turnover_rank": 23, "first_year": 2024, "last_year": 2024, "years_active": 1}}]}