{"type": "FeatureCollection", "features": [{"type": "Feature", "geometry": {"type": "Polygon", "coordinates": [[[3.040702, 48.995198], [3.040516, 48.994627], [3.04045, 48.994248], [3.040457, 48.993624], [3.040551, 48.99319], [3.040729, 48.992728], [3.040986, 48.992243], [3.0415, 48.991702], [3.042322, 48.991107], [3.042695, 48.990693], [3.042929, 48.990295], [3.043057, 48.989899], [3.043035, 48.988881], [3.043109, 48.988348], [3.043316, 48.98751], [3.043671, 48.986709], [3.044368, 48.985448], [3.045214, 48.983846], [3.045584, 48.982841], [3.045596, 48.982128], [3.044865, 48.980803], [3.04367, 48.979397], [3.042549, 48.978119], [3.04123, 48.977112], [3.040432, 48.976652], [3.039713, 48.97634], [3.038604, 48.975896], [3.037151, 48.975399], [3.035987, 48.97506], [3.034824, 48.974825], [3.033643, 48.974718], [3.031863, 48.974658], [3.030263, 48.974634], [3.028483, 48.974578], [3.026642, 48.97433], [3.024947, 48.974093], [3.024096, 48.973961], [3.023443, 48.973928], [3.022738, 48.973945], [3.021704, 48.974095], [3.020893, 48.974323], [3.01999, 48.974549], [3.019043, 48.97472], [3.017664, 48.975053], [3.015157, 48.975929], [3.013173, 48.97647], [3.012425, 48.976665], [3.01192, 48.976858], [3.011428, 48.977072], [3.010769, 48.977294], [3.009482, 48.977834], [3.008746, 48.978097], [3.008028, 48.97815], [3.007121, 48.978137], [3.00591, 48.977743], [3.004886, 48.97718], [3.003698, 48.97634], [3.002735, 48.975748], [3.001869, 48.975326], [3.00091, 48.974395], [2.999755, 48.973253], [2.999052, 48.971746], [2.99872, 48.970618], [2.998509, 48.969136], [2.998507, 48.967849], [2.998847, 48.966519], [2.999517, 48.964814], [2.999988, 48.964288], [3.000998, 48.963866], [3.001367, 48.963673], [3.000707, 48.963281], [3.000731, 48.963223], [3.00115, 48.962711], [3.001474, 48.962382], [3.00186, 48.962036], [3.001818, 48.961948], [3.000705, 48.961407], [3.000376, 48.961365], [3.000108, 48.961106], [2.999888, 48.960829], [2.999713, 48.960553], [2.999575, 48.960239], [2.999332, 48.960024], [2.999164, 48.959822], [2.998977, 48.959543], [2.998935, 48.959273], [2.998628, 48.959262], [2.99722, 48.959214], [2.997175, 48.959662], [2.997165, 48.960552], [2.997192, 48.960876], [2.997252, 48.961206], [2.997143, 48.961499], [2.996987, 48.96172], [2.996716, 48.96203], [2.996535, 48.962109], [2.996283, 48.962602], [2.996135, 48.963205], [2.995989, 48.96332], [2.995701, 48.963475], [2.995519, 48.963636], [2.995447, 48.963768], [2.995402, 48.964033], [2.99525, 48.964262], [2.994753, 48.964609], [2.994555, 48.964815], [2.994324, 48.96512], [2.994077, 48.966058], [2.994002, 48.966236], [2.99375, 48.966608], [2.993618, 48.966963], [2.993615, 48.967218], [2.993388, 48.967254], [2.993153, 48.967174], [2.992216, 48.967301], [2.992076, 48.967243], [2.990546, 48.967087], [2.98959, 48.966964], [2.989606, 48.967053], [2.989393, 48.967719], [2.988624, 48.970176], [2.988375, 48.97122], [2.988294, 48.972407], [2.98842, 48.973153], [2.988135, 48.973612], [2.988007, 48.973784], [2.987266, 48.974589], [2.986616, 48.975021], [2.986142, 48.975299], [2.984085, 48.977678], [2.984016, 48.977729], [2.983417, 48.978023], [2.984617, 48.978617], [2.986467, 48.979546], [2.986631, 48.979663], [2.982251, 48.979676], [2.979541, 48.980428], [2.979181, 48.980601], [2.979807, 48.980624], [2.981258, 48.980866], [2.982188, 48.981038], [2.983506, 48.981318], [2.984084, 48.981475], [2.98481, 48.981656], [2.985457, 48.981867], [2.985939, 48.982046], [2.986437, 48.982276], [2.986995, 48.982572], [2.987894, 48.983023], [2.9887, 48.983482], [2.989204, 48.983918], [2.990515, 48.984973], [2.990466, 48.984719], [2.990786, 48.983781], [2.990958, 48.983322], [2.991594, 48.98173], [2.99178, 48.981213], [2.992833, 48.981258], [2.992915, 48.981971], [2.992849, 48.982382], [2.994594, 48.982643], [2.994754, 48.982695], [2.99606, 48.983036], [2.996927, 48.983275], [2.997014, 48.982741], [2.999015, 48.982874], [2.999806, 48.982934], [3.001527, 48.983838], [3.002802, 48.984516], [3.003824, 48.984939], [3.004443, 48.985264], [3.005405, 48.985582], [3.006493, 48.985926], [3.008736, 48.986665], [3.010038, 48.987103], [3.010469, 48.987189], [3.011369, 48.987392], [3.012301, 48.987633], [3.013338, 48.987918], [3.013699, 48.988039], [3.014133, 48.988258], [3.015412, 48.988575], [3.015184, 48.988927], [3.016034, 48.989227], [3.017339, 48.989608], [3.018193, 48.989829], [3.019146, 48.990038], [3.019624, 48.990188], [3.020232, 48.990348], [3.022158, 48.991081], [3.023475, 48.991577], [3.024113, 48.991833], [3.02652, 48.992754], [3.027332, 48.992966], [3.028898, 48.99333], [3.029383, 48.993434], [3.029919, 48.993568], [3.031428, 48.993898], [3.032614, 48.994179], [3.035595, 48.994841], [3.035766, 48.994863], [3.036053, 48.994959], [3.036706, 48.995107], [3.039393, 48.995471], [3.039591, 48.995476], [3.040788, 48.995461], [3.040702, 48.995198]]]}, "properties": {"code_iris": "770080000", "nom_iris": "Armentières-en-Brie (commune entière)", "type_iris": "Z", "lat": 48.9773, "lng": 3.0124, "dvf_sales_total": 273, "dvf_sales_appt": 0, "dvf_sales_maison": 0, "dvf_median_price": 182480.0, "dvf_median_ppsqm": 2845.528455284553, "dvf_by_year": "[{\"year\": 2021, \"sales\": 51, \"median_price\": 350000.0}, {\"year\": 2022, \"sales\": 25, \"median_price\": 220000.0}, {\"year\": 2023, \"sales\": 29, \"median_price\": 242000.0}, {\"year\": 2024, \"sales\": 101, \"median_price\": 15000.0}, {\"year\": 2025, \"sales\": 67, \"median_price\": 274500.0}]", "population": 1176, "n_log": null, "n_rp": null, "pct_proprio": null, "pct_hlm": null, "pct_appart": null, "pct_cadres": null, "pct_bac5p": null, "pct_etrangers": null, "pct_0_14": null, "pct_65p": null, "bpe_total": null, "bpe_commerces": null, "bpe_enseignement": null, "bpe_sante": null, "dpe": null, "attractivity_score": null, "rank_attractivity_score": null, "rank_total_attractivity_score": 1, "commune_avg": null, "is_stub": true}}]}