{"type": "FeatureCollection", "features": [{"type": "Feature", "geometry": {"type": "Point", "coordinates": [2.934343, 48.335568]}, "properties": {"year": 2021, "valeur_fonciere": 185000.0, "type_local": null, "surface_reelle_bati": null, "nombre_pieces_principales": null, "adresse_nom_voie": "LE VILLAGE", "price_per_sqm": null, "date_iso": "2021-02-06", "parcelle": "773380000B1116", "addr_num": ""}}, {"type": "Feature", "geometry": {"type": "Point", "coordinates": [2.934557, 48.335703]}, "properties": {"year": 2021, "valeur_fonciere": 185000.0, "type_local": null, "surface_reelle_bati": null, "nombre_pieces_principales": null, "adresse_nom_voie": "LE VILLAGE", "price_per_sqm": null, "date_iso": "2021-02-06", "parcelle": "773380000B1140", "addr_num": ""}}, {"type": "Feature", "geometry": {"type": "Point", "coordinates": [2.934461, 48.335677]}, "properties": {"year": 2021, "valeur_fonciere": 185000.0, "type_local": null, "surface_reelle_bati": null, "nombre_pieces_principales": null, "adresse_nom_voie": "LE VILLAGE", "price_per_sqm": null, "date_iso": "2021-02-06", "parcelle": "773380000B1141", "addr_num": ""}}, {"type": "Feature", "geometry": {"type": "Point", "coordinates": [2.934075, 48.33564]}, "properties": {"year": 2021, "valeur_fonciere": 185000.0, "type_local": "Maison", "surface_reelle_bati": 88.0, "nombre_pieces_principales": 5.0, "adresse_nom_voie": "GR GDE RUE", "price_per_sqm": 2102.2727272727275, "date_iso": "2021-02-06", "parcelle": "773380000B1142", "addr_num": "31"}}, {"type": "Feature", "geometry": {"type": "Point", "coordinates": [2.934075, 48.33564]}, "properties": {"year": 2021, "valeur_fonciere": 185000.0, "type_local": "Maison", "surface_reelle_bati": 88.0, "nombre_pieces_principales": 5.0, "adresse_nom_voie": "GR GDE RUE", "price_per_sqm": 2102.2727272727275, "date_iso": "2021-02-06", "parcelle": "773380000B1142", "addr_num": "31"}}, {"type": "Feature", "geometry": {"type": "Point", "coordinates": [2.933896, 48.337707]}, "properties": {"year": 2021, "valeur_fonciere": 1000.0, "type_local": null, "surface_reelle_bati": null, "nombre_pieces_principales": null, "adresse_nom_voie": "LES TETES", "price_per_sqm": null, "date_iso": "2021-03-04", "parcelle": "773380000A0419", "addr_num": ""}}, {"type": "Feature", "geometry": {"type": "Point", "coordinates": [2.9318, 48.33618]}, "properties": {"year": 2021, "valeur_fonciere": 10000.0, "type_local": null, "surface_reelle_bati": null, "nombre_pieces_principales": null, "adresse_nom_voie": "LE VILLAGE", "price_per_sqm": null, "date_iso": "2021-04-15", "parcelle": "773380000B1266", "addr_num": ""}}, {"type": "Feature", "geometry": {"type": "Point", "coordinates": [2.931884, 48.336193]}, "properties": {"year": 2021, "valeur_fonciere": 10000.0, "type_local": null, "surface_reelle_bati": null, "nombre_pieces_principales": null, "adresse_nom_voie": "LE VILLAGE", "price_per_sqm": null, "date_iso": "2021-04-15", "parcelle": "773380000B1269", "addr_num": ""}}, {"type": "Feature", "geometry": {"type": "Point", "coordinates": [2.937846, 48.335512]}, "properties": {"year": 2021, "valeur_fonciere": 232000.0, "type_local": "Maison", "surface_reelle_bati": 107.0, "nombre_pieces_principales": 6.0, "adresse_nom_voie": "RTE D ESMANS", "price_per_sqm": 2168.2242990654204, "date_iso": "2021-06-03", "parcelle": "77338000ZC0292", "addr_num": "17"}}, {"type": "Feature", "geometry": {"type": "Point", "coordinates": [2.937846, 48.335512]}, "properties": {"year": 2021, "valeur_fonciere": 232000.0, "type_local": "Maison", "surface_reelle_bati": 107.0, "nombre_pieces_principales": 6.0, "adresse_nom_voie": "RTE D ESMANS", "price_per_sqm": 2168.2242990654204, "date_iso": "2021-06-03", "parcelle": "77338000ZC0292", "addr_num": "17"}}, {"type": "Feature", "geometry": {"type": "Point", "coordinates": [2.934312, 48.347165]}, "properties": {"year": 2021, "valeur_fonciere": 107200.0, "type_local": null, "surface_reelle_bati": null, "nombre_pieces_principales": null, "adresse_nom_voie": "LE TERTRE BAUSSERON", "price_per_sqm": null, "date_iso": "2021-06-18", "parcelle": "773380000A0134", "addr_num": ""}}, {"type": "Feature", "geometry": {"type": "Point", "coordinates": [2.937679, 48.355134]}, "properties": {"year": 2021, "valeur_fonciere": 107200.0, "type_local": null, "surface_reelle_bati": null, "nombre_pieces_principales": null, "adresse_nom_voie": "LES MOUILLERES", "price_per_sqm": null, "date_iso": "2021-06-18", "parcelle": "77338000ZA0007", "addr_num": ""}}, {"type": "Feature", "geometry": {"type": "Point", "coordinates": [2.934773, 48.350299]}, "properties": {"year": 2021, "valeur_fonciere": 107200.0, "type_local": null, "surface_reelle_bati": null, "nombre_pieces_principales": null, "adresse_nom_voie": "LE TERTRE BAUSSERON", "price_per_sqm": null, "date_iso": "2021-06-18", "parcelle": "77338000ZA0043", "addr_num": ""}}, {"type": "Feature", "geometry": {"type": "Point", "coordinates": [2.934773, 48.350299]}, "properties": {"year": 2021, "valeur_fonciere": 107200.0, "type_local": null, "surface_reelle_bati": null, "nombre_pieces_principales": null, "adresse_nom_voie": "LE TERTRE BAUSSERON", "price_per_sqm": null, "date_iso": "2021-06-18", "parcelle": "77338000ZA0043", "addr_num": ""}}, {"type": "Feature", "geometry": {"type": "Point", "coordinates": [2.931265, 48.350345]}, "properties": {"year": 2021, "valeur_fonciere": 107200.0, "type_local": null, "surface_reelle_bati": null, "nombre_pieces_principales": null, "adresse_nom_voie": "LES MOUILLERES", "price_per_sqm": null, "date_iso": "2021-06-18", "parcelle": "77338000ZA0068", "addr_num": ""}}, {"type": "Feature", "geometry": {"type": "Point", "coordinates": [2.930242, 48.345238]}, "properties": {"year": 2021, "valeur_fonciere": 107200.0, "type_local": null, "surface_reelle_bati": null, "nombre_pieces_principales": null, "adresse_nom_voie": "LES MOUILLERES", "price_per_sqm": null, "date_iso": "2021-06-18", "parcelle": "77338000ZA0081", "addr_num": ""}}, {"type": "Feature", "geometry": {"type": "Point", "coordinates": [2.930242, 48.345238]}, "properties": {"year": 2021, "valeur_fonciere": 107200.0, "type_local": null, "surface_reelle_bati": null, "nombre_pieces_principales": null, "adresse_nom_voie": "LES MOUILLERES", "price_per_sqm": null, "date_iso": "2021-06-18", "parcelle": "77338000ZA0081", "addr_num": ""}}, {"type": "Feature", "geometry": {"type": "Point", "coordinates": [2.922497, 48.337035]}, "properties": {"year": 2021, "valeur_fonciere": 107200.0, "type_local": null, "surface_reelle_bati": null, "nombre_pieces_principales": null, "adresse_nom_voie": "LE PETIT PRE", "price_per_sqm": null, "date_iso": "2021-06-18", "parcelle": "77338000ZB0038", "addr_num": ""}}, {"type": "Feature", "geometry": {"type": "Point", "coordinates": [2.925742, 48.337547]}, "properties": {"year": 2021, "valeur_fonciere": 107200.0, "type_local": null, "surface_reelle_bati": null, "nombre_pieces_principales": null, "adresse_nom_voie": "LES VIGNES DE CHAMPFOU", "price_per_sqm": null, "date_iso": "2021-06-18", "parcelle": "77338000ZB0045", "addr_num": ""}}, {"type": "Feature", "geometry": {"type": "Point", "coordinates": [2.92449, 48.331605]}, "properties": {"year": 2021, "valeur_fonciere": 107200.0, "type_local": null, "surface_reelle_bati": null, "nombre_pieces_principales": null, "adresse_nom_voie": "LE CHEMIN DE DORMELLES", "price_per_sqm": null, "date_iso": "2021-06-18", "parcelle": "77338000ZB0078", "addr_num": ""}}, {"type": "Feature", "geometry": {"type": "Point", "coordinates": [2.936892, 48.341338]}, "properties": {"year": 2021, "valeur_fonciere": 107200.0, "type_local": null, "surface_reelle_bati": null, "nombre_pieces_principales": null, "adresse_nom_voie": "LES PUIZATS", "price_per_sqm": null, "date_iso": "2021-06-18", "parcelle": "77338000ZC0015", "addr_num": ""}}, {"type": "Feature", "geometry": {"type": "Point", "coordinates": [2.936892, 48.341338]}, "properties": {"year": 2021, "valeur_fonciere": 107200.0, "type_local": null, "surface_reelle_bati": null, "nombre_pieces_principales": null, "adresse_nom_voie": "LES PUIZATS", "price_per_sqm": null, "date_iso": "2021-06-18", "parcelle": "77338000ZC0015", "addr_num": ""}}, {"type": "Feature", "geometry": {"type": "Point", "coordinates": [2.937072, 48.340318]}, "properties": {"year": 2021, "valeur_fonciere": 107200.0, "type_local": null, "surface_reelle_bati": null, "nombre_pieces_principales": null, "adresse_nom_voie": "LES PUIZATS", "price_per_sqm": null, "date_iso": "2021-06-18", "parcelle": "77338000ZC0019", "addr_num": ""}}, {"type": "Feature", "geometry": {"type": "Point", "coordinates": [2.937072, 48.340318]}, "properties": {"year": 2021, "valeur_fonciere": 107200.0, "type_local": null, "surface_reelle_bati": null, "nombre_pieces_principales": null, "adresse_nom_voie": "LES PUIZATS", "price_per_sqm": null, "date_iso": "2021-06-18", "parcelle": "77338000ZC0019", "addr_num": ""}}, {"type": "Feature", "geometry": {"type": "Point", "coordinates": [2.932146, 48.339926]}, "properties": {"year": 2021, "valeur_fonciere": 107200.0, "type_local": null, "surface_reelle_bati": null, "nombre_pieces_principales": null, "adresse_nom_voie": "JERUSALEM", "price_per_sqm": null, "date_iso": "2021-06-18", "parcelle": "77338000ZC0120", "addr_num": ""}}, {"type": "Feature", "geometry": {"type": "Point", "coordinates": [2.932634, 48.340351]}, "properties": {"year": 2021, "valeur_fonciere": 107200.0, "type_local": null, "surface_reelle_bati": null, "nombre_pieces_principales": null, "adresse_nom_voie": "JERUSALEM", "price_per_sqm": null, "date_iso": "2021-06-18", "parcelle": "77338000ZC0141", "addr_num": ""}}, {"type": "Feature", "geometry": {"type": "Point", "coordinates": [2.932634, 48.340351]}, "properties": {"year": 2021, "valeur_fonciere": 107200.0, "type_local": null, "surface_reelle_bati": null, "nombre_pieces_principales": null, "adresse_nom_voie": "JERUSALEM", "price_per_sqm": null, "date_iso": "2021-06-18", "parcelle": "77338000ZC0141", "addr_num": ""}}, {"type": "Feature", "geometry": {"type": "Point", "coordinates": [2.936819, 48.327789]}, "properties": {"year": 2021, "valeur_fonciere": 107200.0, "type_local": null, "surface_reelle_bati": null, "nombre_pieces_principales": null, "adresse_nom_voie": "LA CHAMPAGNE", "price_per_sqm": null, "date_iso": "2021-06-18", "parcelle": "77338000ZC0175", "addr_num": ""}}, {"type": "Feature", "geometry": {"type": "Point", "coordinates": [2.936122, 48.328331]}, "properties": {"year": 2021, "valeur_fonciere": 107200.0, "type_local": null, "surface_reelle_bati": null, "nombre_pieces_principales": null, "adresse_nom_voie": "LA CHAMPAGNE", "price_per_sqm": null, "date_iso": "2021-06-18", "parcelle": "77338000ZC0177", "addr_num": ""}}, {"type": "Feature", "geometry": {"type": "Point", "coordinates": [2.936455, 48.328752]}, "properties": {"year": 2021, "valeur_fonciere": 107200.0, "type_local": null, "surface_reelle_bati": null, "nombre_pieces_principales": null, "adresse_nom_voie": "LA CHAMPAGNE", "price_per_sqm": null, "date_iso": "2021-06-18", "parcelle": "77338000ZC0178", "addr_num": ""}}, {"type": "Feature", "geometry": {"type": "Point", "coordinates": [2.944708, 48.335118]}, "properties": {"year": 2021, "valeur_fonciere": 754200.0, "type_local": null, "surface_reelle_bati": null, "nombre_pieces_principales": null, "adresse_nom_voie": "RUDIGNON", "price_per_sqm": null, "date_iso": "2021-06-24", "parcelle": "773380000C0211", "addr_num": ""}}, {"type": "Feature", "geometry": {"type": "Point", "coordinates": [2.9447, 48.335036]}, "properties": {"year": 2021, "valeur_fonciere": 754200.0, "type_local": "Maison", "surface_reelle_bati": 250.0, "nombre_pieces_principales": 10.0, "adresse_nom_voie": "RUE BICHEREAU", "price_per_sqm": 3016.8, "date_iso": "2021-06-24", "parcelle": "773380000C0581", "addr_num": "3"}}, {"type": "Feature", "geometry": {"type": "Point", "coordinates": [2.9447, 48.335036]}, "properties": {"year": 2021, "valeur_fonciere": 754200.0, "type_local": "Dépendance", "surface_reelle_bati": null, "nombre_pieces_principales": 0.0, "adresse_nom_voie": "RUE BICHEREAU", "price_per_sqm": null, "date_iso": "2021-06-24", "parcelle": "773380000C0581", "addr_num": "3"}}, {"type": "Feature", "geometry": {"type": "Point", "coordinates": [2.9447, 48.335036]}, "properties": {"year": 2021, "valeur_fonciere": 754200.0, "type_local": "Dépendance", "surface_reelle_bati": null, "nombre_pieces_principales": 0.0, "adresse_nom_voie": "RUE BICHEREAU", "price_per_sqm": null, "date_iso": "2021-06-24", "parcelle": "773380000C0581", "addr_num": "3"}}, {"type": "Feature", "geometry": {"type": "Point", "coordinates": [2.9447, 48.335036]}, "properties": {"year": 2021, "valeur_fonciere": 754200.0, "type_local": "Dépendance", "surface_reelle_bati": null, "nombre_pieces_principales": 0.0, "adresse_nom_voie": "RUE BICHEREAU", "price_per_sqm": null, "date_iso": "2021-06-24", "parcelle": "773380000C0581", "addr_num": "3"}}, {"type": "Feature", "geometry": {"type": "Point", "coordinates": [2.9447, 48.335036]}, "properties": {"year": 2021, "valeur_fonciere": 754200.0, "type_local": "Maison", "surface_reelle_bati": 54.0, "nombre_pieces_principales": 2.0, "adresse_nom_voie": "RUE BICHEREAU", "price_per_sqm": 13966.666666666666, "date_iso": "2021-06-24", "parcelle": "773380000C0581", "addr_num": "3"}}, {"type": "Feature", "geometry": {"type": "Point", "coordinates": [2.944913, 48.334949]}, "properties": {"year": 2021, "valeur_fonciere": 754200.0, "type_local": null, "surface_reelle_bati": null, "nombre_pieces_principales": null, "adresse_nom_voie": "RUE BICHEREAU", "price_per_sqm": null, "date_iso": "2021-06-24", "parcelle": "773380000C0582", "addr_num": "5"}}, {"type": "Feature", "geometry": {"type": "Point", "coordinates": [2.931729, 48.335457]}, "properties": {"year": 2021, "valeur_fonciere": 195000.0, "type_local": "Dépendance", "surface_reelle_bati": null, "nombre_pieces_principales": 0.0, "adresse_nom_voie": "IMP GRANDE COUR", "price_per_sqm": null, "date_iso": "2021-09-07", "parcelle": "773380000B0752", "addr_num": "4"}}, {"type": "Feature", "geometry": {"type": "Point", "coordinates": [2.931729, 48.335457]}, "properties": {"year": 2021, "valeur_fonciere": 195000.0, "type_local": "Maison", "surface_reelle_bati": 123.0, "nombre_pieces_principales": 6.0, "adresse_nom_voie": "IMP GRANDE COUR", "price_per_sqm": 1585.3658536585365, "date_iso": "2021-09-07", "parcelle": "773380000B0752", "addr_num": "4"}}, {"type": "Feature", "geometry": {"type": "Point", "coordinates": [2.931729, 48.335457]}, "properties": {"year": 2021, "valeur_fonciere": 195000.0, "type_local": "Dépendance", "surface_reelle_bati": null, "nombre_pieces_principales": 0.0, "adresse_nom_voie": "IMP GRANDE COUR", "price_per_sqm": null, "date_iso": "2021-09-07", "parcelle": "773380000B0752", "addr_num": "4"}}, {"type": "Feature", "geometry": {"type": "Point", "coordinates": [2.93173, 48.33533]}, "properties": {"year": 2021, "valeur_fonciere": 195000.0, "type_local": null, "surface_reelle_bati": null, "nombre_pieces_principales": null, "adresse_nom_voie": "IMP GRANDE COUR", "price_per_sqm": null, "date_iso": "2021-09-07", "parcelle": "773380000B0753", "addr_num": ""}}, {"type": "Feature", "geometry": {"type": "Point", "coordinates": [2.931723, 48.335408]}, "properties": {"year": 2021, "valeur_fonciere": 195000.0, "type_local": null, "surface_reelle_bati": null, "nombre_pieces_principales": null, "adresse_nom_voie": "IMP GRANDE COUR", "price_per_sqm": null, "date_iso": "2021-09-07", "parcelle": "773380000B0974", "addr_num": ""}}, {"type": "Feature", "geometry": {"type": "Point", "coordinates": [2.931752, 48.335488]}, "properties": {"year": 2021, "valeur_fonciere": 195000.0, "type_local": null, "surface_reelle_bati": null, "nombre_pieces_principales": null, "adresse_nom_voie": "IMP GRANDE COUR", "price_per_sqm": null, "date_iso": "2021-09-07", "parcelle": "773380000B1018", "addr_num": ""}}, {"type": "Feature", "geometry": {"type": "Point", "coordinates": [2.932808, 48.33613]}, "properties": {"year": 2021, "valeur_fonciere": 276000.0, "type_local": null, "surface_reelle_bati": null, "nombre_pieces_principales": null, "adresse_nom_voie": "LES TETES", "price_per_sqm": null, "date_iso": "2021-09-08", "parcelle": "773380000B0867", "addr_num": ""}}, {"type": "Feature", "geometry": {"type": "Point", "coordinates": [2.932554, 48.336091]}, "properties": {"year": 2021, "valeur_fonciere": 276000.0, "type_local": "Maison", "surface_reelle_bati": 200.0, "nombre_pieces_principales": 5.0, "adresse_nom_voie": "GR GDE RUE", "price_per_sqm": 1380.0, "date_iso": "2021-09-08", "parcelle": "773380000B0868", "addr_num": "25"}}, {"type": "Feature", "geometry": {"type": "Point", "coordinates": [2.932161, 48.336016]}, "properties": {"year": 2021, "valeur_fonciere": 276000.0, "type_local": null, "surface_reelle_bati": null, "nombre_pieces_principales": null, "adresse_nom_voie": "LES TETES", "price_per_sqm": null, "date_iso": "2021-09-08", "parcelle": "773380000B0869", "addr_num": ""}}, {"type": "Feature", "geometry": {"type": "Point", "coordinates": [2.930232, 48.334669]}, "properties": {"year": 2021, "valeur_fonciere": 100000.0, "type_local": null, "surface_reelle_bati": null, "nombre_pieces_principales": null, "adresse_nom_voie": "LE VILLAGE", "price_per_sqm": null, "date_iso": "2021-10-15", "parcelle": "773380000B1286", "addr_num": ""}}, {"type": "Feature", "geometry": {"type": "Point", "coordinates": [2.930192, 48.334366]}, "properties": {"year": 2021, "valeur_fonciere": 100000.0, "type_local": null, "surface_reelle_bati": null, "nombre_pieces_principales": null, "adresse_nom_voie": "RUE DE LA PETITE FONTAINE", "price_per_sqm": null, "date_iso": "2021-10-15", "parcelle": "773380000B1291", "addr_num": ""}}, {"type": "Feature", "geometry": {"type": "Point", "coordinates": [2.930266, 48.334475]}, "properties": {"year": 2021, "valeur_fonciere": 100000.0, "type_local": "Maison", "surface_reelle_bati": 88.0, "nombre_pieces_principales": 4.0, "adresse_nom_voie": "RUE DE L ABREUVOIR", "price_per_sqm": 1136.3636363636363, "date_iso": "2021-10-15", "parcelle": "773380000B1292", "addr_num": "7"}}, {"type": "Feature", "geometry": {"type": "Point", "coordinates": [2.930339, 48.334605]}, "properties": {"year": 2021, "valeur_fonciere": 100000.0, "type_local": null, "surface_reelle_bati": null, "nombre_pieces_principales": null, "adresse_nom_voie": "LE VILLAGE", "price_per_sqm": null, "date_iso": "2021-10-15", "parcelle": "773380000B1294", "addr_num": ""}}, {"type": "Feature", "geometry": {"type": "Point", "coordinates": [2.934117, 48.337641]}, "properties": {"year": 2021, "valeur_fonciere": 400.0, "type_local": null, "surface_reelle_bati": null, "nombre_pieces_principales": null, "adresse_nom_voie": "LES TETES", "price_per_sqm": null, "date_iso": "2021-10-16", "parcelle": "773380000A0417", "addr_num": ""}}, {"type": "Feature", "geometry": {"type": "Point", "coordinates": [2.933873, 48.337661]}, "properties": {"year": 2021, "valeur_fonciere": 400.0, "type_local": null, "surface_reelle_bati": null, "nombre_pieces_principales": null, "adresse_nom_voie": "LES TETES", "price_per_sqm": null, "date_iso": "2021-10-16", "parcelle": "773380000A0418", "addr_num": ""}}, {"type": "Feature", "geometry": {"type": "Point", "coordinates": [2.929607, 48.334803]}, "properties": {"year": 2021, "valeur_fonciere": 236700.0, "type_local": "Maison", "surface_reelle_bati": 136.0, "nombre_pieces_principales": 4.0, "adresse_nom_voie": "RUE DE LA PETITE FONTAINE", "price_per_sqm": 1740.4411764705883, "date_iso": "2021-12-16", "parcelle": "773380000B0707", "addr_num": "4"}}, {"type": "Feature", "geometry": {"type": "Point", "coordinates": [2.929534, 48.334873]}, "properties": {"year": 2021, "valeur_fonciere": 236700.0, "type_local": null, "surface_reelle_bati": null, "nombre_pieces_principales": null, "adresse_nom_voie": "LE VILLAGE", "price_per_sqm": null, "date_iso": "2021-12-16", "parcelle": "773380000B1151", "addr_num": ""}}, {"type": "Feature", "geometry": {"type": "Point", "coordinates": [2.93215, 48.335371]}, "properties": {"year": 2022, "valeur_fonciere": 220000.0, "type_local": "Maison", "surface_reelle_bati": 130.0, "nombre_pieces_principales": 5.0, "adresse_nom_voie": "IMP SAINT ELOI", "price_per_sqm": 1692.3076923076924, "date_iso": "2022-01-07", "parcelle": "773380000B0983", "addr_num": "6"}}, {"type": "Feature", "geometry": {"type": "Point", "coordinates": [2.930694, 48.334568]}, "properties": {"year": 2022, "valeur_fonciere": 265700.0, "type_local": null, "surface_reelle_bati": null, "nombre_pieces_principales": null, "adresse_nom_voie": "LE VILLAGE", "price_per_sqm": null, "date_iso": "2022-02-18", "parcelle": "773380000B1159", "addr_num": ""}}, {"type": "Feature", "geometry": {"type": "Point", "coordinates": [2.930744, 48.334529]}, "properties": {"year": 2022, "valeur_fonciere": 265700.0, "type_local": null, "surface_reelle_bati": null, "nombre_pieces_principales": null, "adresse_nom_voie": "LE VILLAGE", "price_per_sqm": null, "date_iso": "2022-02-18", "parcelle": "773380000B1161", "addr_num": ""}}, {"type": "Feature", "geometry": {"type": "Point", "coordinates": [2.930645, 48.334462]}, "properties": {"year": 2022, "valeur_fonciere": 265700.0, "type_local": "Maison", "surface_reelle_bati": 133.0, "nombre_pieces_principales": 5.0, "adresse_nom_voie": "RUE DE L ABREUVOIR", "price_per_sqm": 1997.7443609022557, "date_iso": "2022-02-18", "parcelle": "773380000B1162", "addr_num": "11"}}, {"type": "Feature", "geometry": {"type": "Point", "coordinates": [2.945658, 48.333191]}, "properties": {"year": 2022, "valeur_fonciere": 20745.0, "type_local": null, "surface_reelle_bati": null, "nombre_pieces_principales": null, "adresse_nom_voie": "LA RUE CREUSE", "price_per_sqm": null, "date_iso": "2022-03-26", "parcelle": "77338000ZD0003", "addr_num": ""}}, {"type": "Feature", "geometry": {"type": "Point", "coordinates": [2.940096, 48.334359]}, "properties": {"year": 2022, "valeur_fonciere": 85737.0, "type_local": "Maison", "surface_reelle_bati": 88.0, "nombre_pieces_principales": 5.0, "adresse_nom_voie": "ALL DES GRIOTTES", "price_per_sqm": 974.2840909090909, "date_iso": "2022-05-14", "parcelle": "77338000ZC0214", "addr_num": "17"}}, {"type": "Feature", "geometry": {"type": "Point", "coordinates": [2.940096, 48.334359]}, "properties": {"year": 2022, "valeur_fonciere": 85737.0, "type_local": "Maison", "surface_reelle_bati": 88.0, "nombre_pieces_principales": 5.0, "adresse_nom_voie": "ALL DES GRIOTTES", "price_per_sqm": 974.2840909090909, "date_iso": "2022-05-14", "parcelle": "77338000ZC0214", "addr_num": "17"}}, {"type": "Feature", "geometry": {"type": "Point", "coordinates": [2.93191, 48.335297]}, "properties": {"year": 2022, "valeur_fonciere": 148000.0, "type_local": "Maison", "surface_reelle_bati": 65.0, "nombre_pieces_principales": 2.0, "adresse_nom_voie": "IMP GRANDE COUR", "price_per_sqm": 2276.923076923077, "date_iso": "2022-05-28", "parcelle": "773380000B0754", "addr_num": "7"}}, {"type": "Feature", "geometry": {"type": "Point", "coordinates": [2.93191, 48.335297]}, "properties": {"year": 2022, "valeur_fonciere": 148000.0, "type_local": "Dépendance", "surface_reelle_bati": null, "nombre_pieces_principales": 0.0, "adresse_nom_voie": "IMP GRANDE COUR", "price_per_sqm": null, "date_iso": "2022-05-28", "parcelle": "773380000B0754", "addr_num": "7"}}, {"type": "Feature", "geometry": {"type": "Point", "coordinates": [2.932039, 48.335303]}, "properties": {"year": 2022, "valeur_fonciere": 148000.0, "type_local": null, "surface_reelle_bati": null, "nombre_pieces_principales": null, "adresse_nom_voie": "LE VILLAGE", "price_per_sqm": null, "date_iso": "2022-05-28", "parcelle": "773380000B0984", "addr_num": ""}}, {"type": "Feature", "geometry": {"type": "Point", "coordinates": [2.934484, 48.337581]}, "properties": {"year": 2022, "valeur_fonciere": 2200.0, "type_local": null, "surface_reelle_bati": null, "nombre_pieces_principales": null, "adresse_nom_voie": "LES TETES", "price_per_sqm": null, "date_iso": "2022-06-16", "parcelle": "773380000A0412", "addr_num": ""}}, {"type": "Feature", "geometry": {"type": "Point", "coordinates": [2.926615, 48.338746]}, "properties": {"year": 2022, "valeur_fonciere": 2200.0, "type_local": null, "surface_reelle_bati": null, "nombre_pieces_principales": null, "adresse_nom_voie": "CHAMPFOU", "price_per_sqm": null, "date_iso": "2022-06-16", "parcelle": "77338000ZB0012", "addr_num": ""}}, {"type": "Feature", "geometry": {"type": "Point", "coordinates": [2.926493, 48.338784]}, "properties": {"year": 2022, "valeur_fonciere": 2200.0, "type_local": null, "surface_reelle_bati": null, "nombre_pieces_principales": null, "adresse_nom_voie": "CHAMPFOU", "price_per_sqm": null, "date_iso": "2022-06-16", "parcelle": "77338000ZB0013", "addr_num": ""}}, {"type": "Feature", "geometry": {"type": "Point", "coordinates": [2.922938, 48.33346]}, "properties": {"year": 2022, "valeur_fonciere": 18000.0, "type_local": null, "surface_reelle_bati": null, "nombre_pieces_principales": null, "adresse_nom_voie": "LE FOND DE VAUBERT", "price_per_sqm": null, "date_iso": "2022-06-16", "parcelle": "773380000B0374", "addr_num": ""}}, {"type": "Feature", "geometry": {"type": "Point", "coordinates": [2.922915, 48.333646]}, "properties": {"year": 2022, "valeur_fonciere": 18000.0, "type_local": null, "surface_reelle_bati": null, "nombre_pieces_principales": null, "adresse_nom_voie": "LE FOND DE VAUBERT", "price_per_sqm": null, "date_iso": "2022-06-16", "parcelle": "773380000B0375", "addr_num": ""}}, {"type": "Feature", "geometry": {"type": "Point", "coordinates": [2.922825, 48.333742]}, "properties": {"year": 2022, "valeur_fonciere": 18000.0, "type_local": null, "surface_reelle_bati": null, "nombre_pieces_principales": null, "adresse_nom_voie": "LE FOND DE VAUBERT", "price_per_sqm": null, "date_iso": "2022-06-16", "parcelle": "773380000B0378", "addr_num": ""}}, {"type": "Feature", "geometry": {"type": "Point", "coordinates": [2.927134, 48.333281]}, "properties": {"year": 2022, "valeur_fonciere": 18000.0, "type_local": null, "surface_reelle_bati": null, "nombre_pieces_principales": null, "adresse_nom_voie": "LE BOIS BLONDEAU", "price_per_sqm": null, "date_iso": "2022-06-16", "parcelle": "773380000B0453", "addr_num": ""}}, {"type": "Feature", "geometry": {"type": "Point", "coordinates": [2.927247, 48.333283]}, "properties": {"year": 2022, "valeur_fonciere": 18000.0, "type_local": null, "surface_reelle_bati": null, "nombre_pieces_principales": null, "adresse_nom_voie": "LE BOIS BLONDEAU", "price_per_sqm": null, "date_iso": "2022-06-16", "parcelle": "773380000B0455", "addr_num": ""}}, {"type": "Feature", "geometry": {"type": "Point", "coordinates": [2.927384, 48.333288]}, "properties": {"year": 2022, "valeur_fonciere": 18000.0, "type_local": null, "surface_reelle_bati": null, "nombre_pieces_principales": null, "adresse_nom_voie": "LE BOIS BLONDEAU", "price_per_sqm": null, "date_iso": "2022-06-16", "parcelle": "773380000B0457", "addr_num": ""}}, {"type": "Feature", "geometry": {"type": "Point", "coordinates": [2.925948, 48.333046]}, "properties": {"year": 2022, "valeur_fonciere": 18000.0, "type_local": null, "surface_reelle_bati": null, "nombre_pieces_principales": null, "adresse_nom_voie": "LE CHEMIN DE DORMELLES", "price_per_sqm": null, "date_iso": "2022-06-16", "parcelle": "77338000ZB0073", "addr_num": ""}}, {"type": "Feature", "geometry": {"type": "Point", "coordinates": [2.942099, 48.323377]}, "properties": {"year": 2022, "valeur_fonciere": 18000.0, "type_local": null, "surface_reelle_bati": null, "nombre_pieces_principales": null, "adresse_nom_voie": "LES TERRES FORTES", "price_per_sqm": null, "date_iso": "2022-06-16", "parcelle": "77338000ZD0051", "addr_num": ""}}, {"type": "Feature", "geometry": {"type": "Point", "coordinates": [2.942099, 48.323377]}, "properties": {"year": 2022, "valeur_fonciere": 18000.0, "type_local": null, "surface_reelle_bati": null, "nombre_pieces_principales": null, "adresse_nom_voie": "LES TERRES FORTES", "price_per_sqm": null, "date_iso": "2022-06-16", "parcelle": "77338000ZD0051", "addr_num": ""}}, {"type": "Feature", "geometry": {"type": "Point", "coordinates": [2.942568, 48.33506]}, "properties": {"year": 2022, "valeur_fonciere": 200000.0, "type_local": "Dépendance", "surface_reelle_bati": null, "nombre_pieces_principales": 0.0, "adresse_nom_voie": "RUE DE FLAGY", "price_per_sqm": null, "date_iso": "2022-06-17", "parcelle": "773380000C0173", "addr_num": "3"}}, {"type": "Feature", "geometry": {"type": "Point", "coordinates": [2.942568, 48.33506]}, "properties": {"year": 2022, "valeur_fonciere": 200000.0, "type_local": "Maison", "surface_reelle_bati": 130.0, "nombre_pieces_principales": 4.0, "adresse_nom_voie": "RUE DE FLAGY", "price_per_sqm": 1538.4615384615386, "date_iso": "2022-06-17", "parcelle": "773380000C0173", "addr_num": "3"}}, {"type": "Feature", "geometry": {"type": "Point", "coordinates": [2.942568, 48.33506]}, "properties": {"year": 2022, "valeur_fonciere": 200000.0, "type_local": "Dépendance", "surface_reelle_bati": null, "nombre_pieces_principales": 0.0, "adresse_nom_voie": "RUE DE FLAGY", "price_per_sqm": null, "date_iso": "2022-06-17", "parcelle": "773380000C0173", "addr_num": "3"}}, {"type": "Feature", "geometry": {"type": "Point", "coordinates": [2.942568, 48.33506]}, "properties": {"year": 2022, "valeur_fonciere": 200000.0, "type_local": "Maison", "surface_reelle_bati": 130.0, "nombre_pieces_principales": 4.0, "adresse_nom_voie": "RUE DE FLAGY", "price_per_sqm": 1538.4615384615386, "date_iso": "2022-06-17", "parcelle": "773380000C0173", "addr_num": "3"}}, {"type": "Feature", "geometry": {"type": "Point", "coordinates": [2.942568, 48.33506]}, "properties": {"year": 2022, "valeur_fonciere": 200000.0, "type_local": "Dépendance", "surface_reelle_bati": null, "nombre_pieces_principales": 0.0, "adresse_nom_voie": "RUE DE FLAGY", "price_per_sqm": null, "date_iso": "2022-06-17", "parcelle": "773380000C0173", "addr_num": "3"}}, {"type": "Feature", "geometry": {"type": "Point", "coordinates": [2.942568, 48.33506]}, "properties": {"year": 2022, "valeur_fonciere": 200000.0, "type_local": "Dépendance", "surface_reelle_bati": null, "nombre_pieces_principales": 0.0, "adresse_nom_voie": "RUE DE FLAGY", "price_per_sqm": null, "date_iso": "2022-06-17", "parcelle": "773380000C0173", "addr_num": "3"}}, {"type": "Feature", "geometry": {"type": "Point", "coordinates": [2.942568, 48.33506]}, "properties": {"year": 2022, "valeur_fonciere": 200000.0, "type_local": "Dépendance", "surface_reelle_bati": null, "nombre_pieces_principales": 0.0, "adresse_nom_voie": "RUE DE FLAGY", "price_per_sqm": null, "date_iso": "2022-06-17", "parcelle": "773380000C0173", "addr_num": "3"}}, {"type": "Feature", "geometry": {"type": "Point", "coordinates": [2.942568, 48.33506]}, "properties": {"year": 2022, "valeur_fonciere": 200000.0, "type_local": "Dépendance", "surface_reelle_bati": null, "nombre_pieces_principales": 0.0, "adresse_nom_voie": "RUE DE FLAGY", "price_per_sqm": null, "date_iso": "2022-06-17", "parcelle": "773380000C0173", "addr_num": "3"}}, {"type": "Feature", "geometry": {"type": "Point", "coordinates": [2.946455, 48.320741]}, "properties": {"year": 2022, "valeur_fonciere": 7718.0, "type_local": null, "surface_reelle_bati": null, "nombre_pieces_principales": null, "adresse_nom_voie": "FOND DE LA FONTAINE AUX AN", "price_per_sqm": null, "date_iso": "2022-07-02", "parcelle": "77338000ZD0035", "addr_num": ""}}, {"type": "Feature", "geometry": {"type": "Point", "coordinates": [2.923979, 48.335072]}, "properties": {"year": 2022, "valeur_fonciere": 295000.0, "type_local": "Maison", "surface_reelle_bati": 135.0, "nombre_pieces_principales": 5.0, "adresse_nom_voie": "RUE DE MORET", "price_per_sqm": 2185.185185185185, "date_iso": "2022-08-02", "parcelle": "77338000ZB0114", "addr_num": ""}}, {"type": "Feature", "geometry": {"type": "Point", "coordinates": [2.93053, 48.335739]}, "properties": {"year": 2022, "valeur_fonciere": 378000.0, "type_local": "Maison", "surface_reelle_bati": 110.0, "nombre_pieces_principales": 3.0, "adresse_nom_voie": "IMP JERUSALEM", "price_per_sqm": 3436.3636363636365, "date_iso": "2022-08-31", "parcelle": "773380000B0966", "addr_num": "6"}}, {"type": "Feature", "geometry": {"type": "Point", "coordinates": [2.93053, 48.335739]}, "properties": {"year": 2022, "valeur_fonciere": 378000.0, "type_local": "Maison", "surface_reelle_bati": 40.0, "nombre_pieces_principales": 2.0, "adresse_nom_voie": "IMP JERUSALEM", "price_per_sqm": 9450.0, "date_iso": "2022-08-31", "parcelle": "773380000B0966", "addr_num": "6"}}, {"type": "Feature", "geometry": {"type": "Point", "coordinates": [2.93053, 48.335739]}, "properties": {"year": 2022, "valeur_fonciere": 378000.0, "type_local": "Appartement", "surface_reelle_bati": 88.0, "nombre_pieces_principales": 4.0, "adresse_nom_voie": "IMP JERUSALEM", "price_per_sqm": 4295.454545454545, "date_iso": "2022-08-31", "parcelle": "773380000B0966", "addr_num": "6"}}, {"type": "Feature", "geometry": {"type": "Point", "coordinates": [2.93053, 48.335739]}, "properties": {"year": 2022, "valeur_fonciere": 378000.0, "type_local": "Dépendance", "surface_reelle_bati": null, "nombre_pieces_principales": 0.0, "adresse_nom_voie": "IMP JERUSALEM", "price_per_sqm": null, "date_iso": "2022-08-31", "parcelle": "773380000B0966", "addr_num": "6"}}, {"type": "Feature", "geometry": {"type": "Point", "coordinates": [2.930367, 48.335674]}, "properties": {"year": 2022, "valeur_fonciere": 378000.0, "type_local": null, "surface_reelle_bati": null, "nombre_pieces_principales": null, "adresse_nom_voie": "LE VILLAGE", "price_per_sqm": null, "date_iso": "2022-08-31", "parcelle": "773380000B0967", "addr_num": ""}}, {"type": "Feature", "geometry": {"type": "Point", "coordinates": [2.929007, 48.335676]}, "properties": {"year": 2022, "valeur_fonciere": 210000.0, "type_local": "Maison", "surface_reelle_bati": 89.0, "nombre_pieces_principales": 4.0, "adresse_nom_voie": "RUE DE L EGLISE", "price_per_sqm": 2359.550561797753, "date_iso": "2022-09-20", "parcelle": "773380000B1301", "addr_num": "7"}}, {"type": "Feature", "geometry": {"type": "Point", "coordinates": [2.929007, 48.335676]}, "properties": {"year": 2022, "valeur_fonciere": 210000.0, "type_local": "Dépendance", "surface_reelle_bati": null, "nombre_pieces_principales": 0.0, "adresse_nom_voie": "RUE DE L EGLISE", "price_per_sqm": null, "date_iso": "2022-09-20", "parcelle": "773380000B1301", "addr_num": "7"}}, {"type": "Feature", "geometry": {"type": "Point", "coordinates": [2.929007, 48.335676]}, "properties": {"year": 2022, "valeur_fonciere": 210000.0, "type_local": "Dépendance", "surface_reelle_bati": null, "nombre_pieces_principales": 0.0, "adresse_nom_voie": "RUE DE L EGLISE", "price_per_sqm": null, "date_iso": "2022-09-20", "parcelle": "773380000B1301", "addr_num": "7"}}, {"type": "Feature", "geometry": {"type": "Point", "coordinates": [2.922938, 48.33346]}, "properties": {"year": 2022, "valeur_fonciere": 14000.0, "type_local": null, "surface_reelle_bati": null, "nombre_pieces_principales": null, "adresse_nom_voie": "LE FOND DE VAUBERT", "price_per_sqm": null, "date_iso": "2022-09-20", "parcelle": "773380000B0374", "addr_num": ""}}, {"type": "Feature", "geometry": {"type": "Point", "coordinates": [2.922915, 48.333646]}, "properties": {"year": 2022, "valeur_fonciere": 14000.0, "type_local": null, "surface_reelle_bati": null, "nombre_pieces_principales": null, "adresse_nom_voie": "LE FOND DE VAUBERT", "price_per_sqm": null, "date_iso": "2022-09-20", "parcelle": "773380000B0375", "addr_num": ""}}, {"type": "Feature", "geometry": {"type": "Point", "coordinates": [2.922825, 48.333742]}, "properties": {"year": 2022, "valeur_fonciere": 14000.0, "type_local": null, "surface_reelle_bati": null, "nombre_pieces_principales": null, "adresse_nom_voie": "LE FOND DE VAUBERT", "price_per_sqm": null, "date_iso": "2022-09-20", "parcelle": "773380000B0378", "addr_num": ""}}, {"type": "Feature", "geometry": {"type": "Point", "coordinates": [2.927134, 48.333281]}, "properties": {"year": 2022, "valeur_fonciere": 14000.0, "type_local": null, "surface_reelle_bati": null, "nombre_pieces_principales": null, "adresse_nom_voie": "LE BOIS BLONDEAU", "price_per_sqm": null, "date_iso": "2022-09-20", "parcelle": "773380000B0453", "addr_num": ""}}, {"type": "Feature", "geometry": {"type": "Point", "coordinates": [2.927247, 48.333283]}, "properties": {"year": 2022, "valeur_fonciere": 14000.0, "type_local": null, "surface_reelle_bati": null, "nombre_pieces_principales": null, "adresse_nom_voie": "LE BOIS BLONDEAU", "price_per_sqm": null, "date_iso": "2022-09-20", "parcelle": "773380000B0455", "addr_num": ""}}, {"type": "Feature", "geometry": {"type": "Point", "coordinates": [2.927384, 48.333288]}, "properties": {"year": 2022, "valeur_fonciere": 14000.0, "type_local": null, "surface_reelle_bati": null, "nombre_pieces_principales": null, "adresse_nom_voie": "LE BOIS BLONDEAU", "price_per_sqm": null, "date_iso": "2022-09-20", "parcelle": "773380000B0457", "addr_num": ""}}, {"type": "Feature", "geometry": {"type": "Point", "coordinates": [2.926615, 48.338746]}, "properties": {"year": 2022, "valeur_fonciere": 14000.0, "type_local": null, "surface_reelle_bati": null, "nombre_pieces_principales": null, "adresse_nom_voie": "CHAMPFOU", "price_per_sqm": null, "date_iso": "2022-09-20", "parcelle": "77338000ZB0012", "addr_num": ""}}, {"type": "Feature", "geometry": {"type": "Point", "coordinates": [2.926493, 48.338784]}, "properties": {"year": 2022, "valeur_fonciere": 14000.0, "type_local": null, "surface_reelle_bati": null, "nombre_pieces_principales": null, "adresse_nom_voie": "CHAMPFOU", "price_per_sqm": null, "date_iso": "2022-09-20", "parcelle": "77338000ZB0013", "addr_num": ""}}, {"type": "Feature", "geometry": {"type": "Point", "coordinates": [2.925948, 48.333046]}, "properties": {"year": 2022, "valeur_fonciere": 14000.0, "type_local": null, "surface_reelle_bati": null, "nombre_pieces_principales": null, "adresse_nom_voie": "LE CHEMIN DE DORMELLES", "price_per_sqm": null, "date_iso": "2022-09-20", "parcelle": "77338000ZB0073", "addr_num": ""}}, {"type": "Feature", "geometry": {"type": "Point", "coordinates": [2.9442, 48.333857]}, "properties": {"year": 2022, "valeur_fonciere": 232800.0, "type_local": null, "surface_reelle_bati": null, "nombre_pieces_principales": null, "adresse_nom_voie": "RUDIGNON", "price_per_sqm": null, "date_iso": "2022-09-16", "parcelle": "773380000C0195", "addr_num": ""}}, {"type": "Feature", "geometry": {"type": "Point", "coordinates": [2.944323, 48.33386]}, "properties": {"year": 2022, "valeur_fonciere": 232800.0, "type_local": "Maison", "surface_reelle_bati": 103.0, "nombre_pieces_principales": 6.0, "adresse_nom_voie": "RUE DU GOGUET", "price_per_sqm": 2260.1941747572814, "date_iso": "2022-09-16", "parcelle": "773380000C0196", "addr_num": "7"}}, {"type": "Feature", "geometry": {"type": "Point", "coordinates": [2.929254, 48.335596]}, "properties": {"year": 2022, "valeur_fonciere": 195000.0, "type_local": "Maison", "surface_reelle_bati": 95.0, "nombre_pieces_principales": 4.0, "adresse_nom_voie": "RUE DE DORMELLES", "price_per_sqm": 2052.6315789473683, "date_iso": "2022-10-17", "parcelle": "773380000B0267", "addr_num": "2"}}, {"type": "Feature", "geometry": {"type": "Point", "coordinates": [2.929906, 48.335931]}, "properties": {"year": 2022, "valeur_fonciere": 15000.0, "type_local": null, "surface_reelle_bati": null, "nombre_pieces_principales": null, "adresse_nom_voie": "LE VILLAGE", "price_per_sqm": null, "date_iso": "2022-10-20", "parcelle": "773380000B0667", "addr_num": ""}}, {"type": "Feature", "geometry": {"type": "Point", "coordinates": [2.929967, 48.335879]}, "properties": {"year": 2022, "valeur_fonciere": 15000.0, "type_local": null, "surface_reelle_bati": null, "nombre_pieces_principales": null, "adresse_nom_voie": "LE VILLAGE", "price_per_sqm": null, "date_iso": "2022-10-20", "parcelle": "773380000B0669", "addr_num": ""}}, {"type": "Feature", "geometry": {"type": "Point", "coordinates": [2.932593, 48.334651]}, "properties": {"year": 2022, "valeur_fonciere": 300.0, "type_local": null, "surface_reelle_bati": null, "nombre_pieces_principales": null, "adresse_nom_voie": "LA MENAGERIE", "price_per_sqm": null, "date_iso": "2022-11-19", "parcelle": "773380000B0803", "addr_num": ""}}, {"type": "Feature", "geometry": {"type": "Point", "coordinates": [2.923588, 48.33837]}, "properties": {"year": 2022, "valeur_fonciere": 1500.0, "type_local": null, "surface_reelle_bati": null, "nombre_pieces_principales": null, "adresse_nom_voie": "CHAMPFOU", "price_per_sqm": null, "date_iso": "2022-11-09", "parcelle": "77338000ZB0019", "addr_num": ""}}, {"type": "Feature", "geometry": {"type": "Point", "coordinates": [2.934484, 48.337581]}, "properties": {"year": 2022, "valeur_fonciere": 12000.0, "type_local": null, "surface_reelle_bati": null, "nombre_pieces_principales": null, "adresse_nom_voie": "LES TETES", "price_per_sqm": null, "date_iso": "2022-11-25", "parcelle": "773380000A0412", "addr_num": ""}}, {"type": "Feature", "geometry": {"type": "Point", "coordinates": [2.942099, 48.323377]}, "properties": {"year": 2022, "valeur_fonciere": 12000.0, "type_local": null, "surface_reelle_bati": null, "nombre_pieces_principales": null, "adresse_nom_voie": "LES TERRES FORTES", "price_per_sqm": null, "date_iso": "2022-11-25", "parcelle": "77338000ZD0051", "addr_num": ""}}, {"type": "Feature", "geometry": {"type": "Point", "coordinates": [2.942099, 48.323377]}, "properties": {"year": 2022, "valeur_fonciere": 12000.0, "type_local": null, "surface_reelle_bati": null, "nombre_pieces_principales": null, "adresse_nom_voie": "LES TERRES FORTES", "price_per_sqm": null, "date_iso": "2022-11-25", "parcelle": "77338000ZD0051", "addr_num": ""}}, {"type": "Feature", "geometry": {"type": "Point", "coordinates": [2.927754, 48.334795]}, "properties": {"year": 2022, "valeur_fonciere": 217630.0, "type_local": "Maison", "surface_reelle_bati": 85.0, "nombre_pieces_principales": 4.0, "adresse_nom_voie": "RUE DE MORET", "price_per_sqm": 2560.3529411764707, "date_iso": "2022-12-19", "parcelle": "773380000B1279", "addr_num": "2"}}, {"type": "Feature", "geometry": {"type": "Point", "coordinates": [2.930181, 48.336982]}, "properties": {"year": 2023, "valeur_fonciere": 15000.0, "type_local": null, "surface_reelle_bati": null, "nombre_pieces_principales": null, "adresse_nom_voie": "LE VILLAGE", "price_per_sqm": null, "date_iso": "2023-01-25", "parcelle": "773380000B1299", "addr_num": ""}}, {"type": "Feature", "geometry": {"type": "Point", "coordinates": [2.932795, 48.33654]}, "properties": {"year": 2023, "valeur_fonciere": 88791.0, "type_local": null, "surface_reelle_bati": null, "nombre_pieces_principales": null, "adresse_nom_voie": "LES TETES", "price_per_sqm": null, "date_iso": "2023-02-15", "parcelle": "773380000B1310", "addr_num": ""}}, {"type": "Feature", "geometry": {"type": "Point", "coordinates": [2.944877, 48.320832]}, "properties": {"year": 2023, "valeur_fonciere": 34591.5, "type_local": null, "surface_reelle_bati": null, "nombre_pieces_principales": null, "adresse_nom_voie": "FOND DE LA FONTAINE AUX AN", "price_per_sqm": null, "date_iso": "2023-02-28", "parcelle": "77338000ZD0042", "addr_num": ""}}, {"type": "Feature", "geometry": {"type": "Point", "coordinates": [2.94045, 48.334723]}, "properties": {"year": 2023, "valeur_fonciere": 200000.0, "type_local": "Maison", "surface_reelle_bati": 120.0, "nombre_pieces_principales": 6.0, "adresse_nom_voie": "ALL DES GRIOTTES", "price_per_sqm": 1666.6666666666667, "date_iso": "2023-03-04", "parcelle": "77338000ZC0285", "addr_num": "21"}}, {"type": "Feature", "geometry": {"type": "Point", "coordinates": [2.94045, 48.334723]}, "properties": {"year": 2023, "valeur_fonciere": 200000.0, "type_local": "Maison", "surface_reelle_bati": 120.0, "nombre_pieces_principales": 6.0, "adresse_nom_voie": "ALL DES GRIOTTES", "price_per_sqm": 1666.6666666666667, "date_iso": "2023-03-04", "parcelle": "77338000ZC0285", "addr_num": "21"}}, {"type": "Feature", "geometry": {"type": "Point", "coordinates": [2.940626, 48.334635]}, "properties": {"year": 2023, "valeur_fonciere": 200000.0, "type_local": null, "surface_reelle_bati": null, "nombre_pieces_principales": null, "adresse_nom_voie": "ALL DES GRIOTTES", "price_per_sqm": null, "date_iso": "2023-03-04", "parcelle": "77338000ZC0287", "addr_num": ""}}, {"type": "Feature", "geometry": {"type": "Point", "coordinates": [2.943871, 48.334049]}, "properties": {"year": 2023, "valeur_fonciere": 17096.0, "type_local": null, "surface_reelle_bati": null, "nombre_pieces_principales": null, "adresse_nom_voie": "RUDIGNON", "price_per_sqm": null, "date_iso": "2023-03-18", "parcelle": "773380000C0181", "addr_num": ""}}, {"type": "Feature", "geometry": {"type": "Point", "coordinates": [2.944029, 48.333948]}, "properties": {"year": 2023, "valeur_fonciere": 17096.0, "type_local": "Dépendance", "surface_reelle_bati": null, "nombre_pieces_principales": 0.0, "adresse_nom_voie": "RUE DU GOGUET", "price_per_sqm": null, "date_iso": "2023-03-18", "parcelle": "773380000C0542", "addr_num": "5133"}}, {"type": "Feature", "geometry": {"type": "Point", "coordinates": [2.938348, 48.335576]}, "properties": {"year": 2023, "valeur_fonciere": 246000.0, "type_local": "Maison", "surface_reelle_bati": 35.0, "nombre_pieces_principales": 1.0, "adresse_nom_voie": "RTE D ESMANS", "price_per_sqm": 7028.571428571428, "date_iso": "2023-04-06", "parcelle": "77338000ZC0290", "addr_num": "21"}}, {"type": "Feature", "geometry": {"type": "Point", "coordinates": [2.938348, 48.335576]}, "properties": {"year": 2023, "valeur_fonciere": 246000.0, "type_local": "Maison", "surface_reelle_bati": 80.0, "nombre_pieces_principales": 4.0, "adresse_nom_voie": "RTE D ESMANS", "price_per_sqm": 3075.0, "date_iso": "2023-04-06", "parcelle": "77338000ZC0290", "addr_num": "21"}}, {"type": "Feature", "geometry": {"type": "Point", "coordinates": [2.929131, 48.334282]}, "properties": {"year": 2023, "valeur_fonciere": 268000.0, "type_local": "Maison", "surface_reelle_bati": 90.0, "nombre_pieces_principales": 5.0, "adresse_nom_voie": "RUE DE DORMELLES", "price_per_sqm": 2977.777777777778, "date_iso": "2023-05-24", "parcelle": "773380000B0703", "addr_num": "11"}}, {"type": "Feature", "geometry": {"type": "Point", "coordinates": [2.929131, 48.334282]}, "properties": {"year": 2023, "valeur_fonciere": 268000.0, "type_local": "Dépendance", "surface_reelle_bati": null, "nombre_pieces_principales": 0.0, "adresse_nom_voie": "RUE DE DORMELLES", "price_per_sqm": null, "date_iso": "2023-05-24", "parcelle": "773380000B0703", "addr_num": "11"}}, {"type": "Feature", "geometry": {"type": "Point", "coordinates": [2.929131, 48.334282]}, "properties": {"year": 2023, "valeur_fonciere": 268000.0, "type_local": "Dépendance", "surface_reelle_bati": null, "nombre_pieces_principales": 0.0, "adresse_nom_voie": "RUE DE DORMELLES", "price_per_sqm": null, "date_iso": "2023-05-24", "parcelle": "773380000B0703", "addr_num": "11"}}, {"type": "Feature", "geometry": {"type": "Point", "coordinates": [2.940994, 48.333989]}, "properties": {"year": 2023, "valeur_fonciere": 225000.0, "type_local": "Maison", "surface_reelle_bati": 74.0, "nombre_pieces_principales": 4.0, "adresse_nom_voie": "ALL DES GRIOTTES", "price_per_sqm": 3040.5405405405404, "date_iso": "2023-07-11", "parcelle": "77338000ZC0218", "addr_num": "9"}}, {"type": "Feature", "geometry": {"type": "Point", "coordinates": [2.940994, 48.333989]}, "properties": {"year": 2023, "valeur_fonciere": 225000.0, "type_local": "Dépendance", "surface_reelle_bati": null, "nombre_pieces_principales": 0.0, "adresse_nom_voie": "ALL DES GRIOTTES", "price_per_sqm": null, "date_iso": "2023-07-11", "parcelle": "77338000ZC0218", "addr_num": "9"}}, {"type": "Feature", "geometry": {"type": "Point", "coordinates": [2.940994, 48.333989]}, "properties": {"year": 2023, "valeur_fonciere": 225000.0, "type_local": "Dépendance", "surface_reelle_bati": null, "nombre_pieces_principales": 0.0, "adresse_nom_voie": "ALL DES GRIOTTES", "price_per_sqm": null, "date_iso": "2023-07-11", "parcelle": "77338000ZC0218", "addr_num": "9"}}, {"type": "Feature", "geometry": {"type": "Point", "coordinates": [2.929448, 48.334635]}, "properties": {"year": 2023, "valeur_fonciere": 180000.0, "type_local": "Dépendance", "surface_reelle_bati": null, "nombre_pieces_principales": 0.0, "adresse_nom_voie": "RUE DE LA PETITE FONTAINE", "price_per_sqm": null, "date_iso": "2023-09-16", "parcelle": "773380000B1045", "addr_num": "6"}}, {"type": "Feature", "geometry": {"type": "Point", "coordinates": [2.929448, 48.334635]}, "properties": {"year": 2023, "valeur_fonciere": 180000.0, "type_local": "Maison", "surface_reelle_bati": 84.0, "nombre_pieces_principales": 5.0, "adresse_nom_voie": "RUE DE LA PETITE FONTAINE", "price_per_sqm": 2142.8571428571427, "date_iso": "2023-09-16", "parcelle": "773380000B1045", "addr_num": "6"}}, {"type": "Feature", "geometry": {"type": "Point", "coordinates": [2.923442, 48.333579]}, "properties": {"year": 2023, "valeur_fonciere": 1520.54, "type_local": null, "surface_reelle_bati": null, "nombre_pieces_principales": null, "adresse_nom_voie": "LE FOND DE VAUBERT", "price_per_sqm": null, "date_iso": "2023-10-17", "parcelle": "773380000B0369", "addr_num": ""}}, {"type": "Feature", "geometry": {"type": "Point", "coordinates": [2.923229, 48.333618]}, "properties": {"year": 2023, "valeur_fonciere": 1520.54, "type_local": null, "surface_reelle_bati": null, "nombre_pieces_principales": null, "adresse_nom_voie": "LE FOND DE VAUBERT", "price_per_sqm": null, "date_iso": "2023-10-17", "parcelle": "773380000B0371", "addr_num": ""}}, {"type": "Feature", "geometry": {"type": "Point", "coordinates": [2.92311, 48.333779]}, "properties": {"year": 2023, "valeur_fonciere": 1520.54, "type_local": null, "surface_reelle_bati": null, "nombre_pieces_principales": null, "adresse_nom_voie": "LE FOND DE VAUBERT", "price_per_sqm": null, "date_iso": "2023-10-17", "parcelle": "773380000B0372", "addr_num": ""}}, {"type": "Feature", "geometry": {"type": "Point", "coordinates": [2.930836, 48.335611]}, "properties": {"year": 2024, "valeur_fonciere": 165000.0, "type_local": "Maison", "surface_reelle_bati": 80.0, "nombre_pieces_principales": 3.0, "adresse_nom_voie": "GR GDE RUE", "price_per_sqm": 2062.5, "date_iso": "2024-07-03", "parcelle": "773380000B1246", "addr_num": "17"}}, {"type": "Feature", "geometry": {"type": "Point", "coordinates": [2.930738, 48.335589]}, "properties": {"year": 2024, "valeur_fonciere": 165000.0, "type_local": null, "surface_reelle_bati": null, "nombre_pieces_principales": null, "adresse_nom_voie": "GR GDE RUE", "price_per_sqm": null, "date_iso": "2024-07-03", "parcelle": "773380000B1247", "addr_num": ""}}, {"type": "Feature", "geometry": {"type": "Point", "coordinates": [2.930642, 48.33561]}, "properties": {"year": 2024, "valeur_fonciere": 165000.0, "type_local": null, "surface_reelle_bati": null, "nombre_pieces_principales": null, "adresse_nom_voie": "LE VILLAGE", "price_per_sqm": null, "date_iso": "2024-07-03", "parcelle": "773380000B1248", "addr_num": ""}}, {"type": "Feature", "geometry": {"type": "Point", "coordinates": [2.93075, 48.335666]}, "properties": {"year": 2024, "valeur_fonciere": 165000.0, "type_local": null, "surface_reelle_bati": null, "nombre_pieces_principales": null, "adresse_nom_voie": "LE VILLAGE", "price_per_sqm": null, "date_iso": "2024-07-03", "parcelle": "773380000B1251", "addr_num": ""}}, {"type": "Feature", "geometry": {"type": "Point", "coordinates": [2.929907, 48.337818]}, "properties": {"year": 2024, "valeur_fonciere": 203000.0, "type_local": "Maison", "surface_reelle_bati": 152.0, "nombre_pieces_principales": 5.0, "adresse_nom_voie": "ROUTE DEPARTEMENTALE", "price_per_sqm": 1335.5263157894738, "date_iso": "2024-06-21", "parcelle": "773380000A0789", "addr_num": "11"}}, {"type": "Feature", "geometry": {"type": "Point", "coordinates": [2.92987, 48.335876]}, "properties": {"year": 2024, "valeur_fonciere": 17000.0, "type_local": "Dépendance", "surface_reelle_bati": null, "nombre_pieces_principales": 0.0, "adresse_nom_voie": "IMP JERUSALEM", "price_per_sqm": null, "date_iso": "2024-07-01", "parcelle": "773380000B0668", "addr_num": "5129"}}, {"type": "Feature", "geometry": {"type": "Point", "coordinates": [2.92991, 48.335482]}, "properties": {"year": 2024, "valeur_fonciere": 17000.0, "type_local": "Maison", "surface_reelle_bati": 67.0, "nombre_pieces_principales": 3.0, "adresse_nom_voie": "GR GRANDE RUE", "price_per_sqm": 253.73134328358208, "date_iso": "2024-07-01", "parcelle": "773380000B1097", "addr_num": "13"}}, {"type": "Feature", "geometry": {"type": "Point", "coordinates": [2.92991, 48.335482]}, "properties": {"year": 2024, "valeur_fonciere": 17000.0, "type_local": "Dépendance", "surface_reelle_bati": null, "nombre_pieces_principales": 0.0, "adresse_nom_voie": "GR GRANDE RUE", "price_per_sqm": null, "date_iso": "2024-07-01", "parcelle": "773380000B1097", "addr_num": "13"}}, {"type": "Feature", "geometry": {"type": "Point", "coordinates": [2.923979, 48.335072]}, "properties": {"year": 2024, "valeur_fonciere": 330000.0, "type_local": "Maison", "surface_reelle_bati": 135.0, "nombre_pieces_principales": 5.0, "adresse_nom_voie": "RUE DE MORET", "price_per_sqm": 2444.4444444444443, "date_iso": "2024-08-21", "parcelle": "77338000ZB0114", "addr_num": ""}}, {"type": "Feature", "geometry": {"type": "Point", "coordinates": [2.937337, 48.335491]}, "properties": {"year": 2024, "valeur_fonciere": 174000.0, "type_local": "Maison", "surface_reelle_bati": 74.0, "nombre_pieces_principales": 5.0, "adresse_nom_voie": "RTE D ESMANS", "price_per_sqm": 2351.3513513513512, "date_iso": "2024-10-29", "parcelle": "77338000ZC0276", "addr_num": "13"}}, {"type": "Feature", "geometry": {"type": "Point", "coordinates": [2.937337, 48.335491]}, "properties": {"year": 2024, "valeur_fonciere": 174000.0, "type_local": "Dépendance", "surface_reelle_bati": null, "nombre_pieces_principales": 0.0, "adresse_nom_voie": "RTE D ESMANS", "price_per_sqm": null, "date_iso": "2024-10-29", "parcelle": "77338000ZC0276", "addr_num": "13"}}, {"type": "Feature", "geometry": {"type": "Point", "coordinates": [2.937337, 48.335491]}, "properties": {"year": 2024, "valeur_fonciere": 174000.0, "type_local": "Maison", "surface_reelle_bati": 74.0, "nombre_pieces_principales": 5.0, "adresse_nom_voie": "RTE D ESMANS", "price_per_sqm": 2351.3513513513512, "date_iso": "2024-10-29", "parcelle": "77338000ZC0276", "addr_num": "13"}}, {"type": "Feature", "geometry": {"type": "Point", "coordinates": [2.937337, 48.335491]}, "properties": {"year": 2024, "valeur_fonciere": 174000.0, "type_local": "Dépendance", "surface_reelle_bati": null, "nombre_pieces_principales": 0.0, "adresse_nom_voie": "RTE D ESMANS", "price_per_sqm": null, "date_iso": "2024-10-29", "parcelle": "77338000ZC0276", "addr_num": "13"}}, {"type": "Feature", "geometry": {"type": "Point", "coordinates": [2.940994, 48.333989]}, "properties": {"year": 2024, "valeur_fonciere": 237000.0, "type_local": "Dépendance", "surface_reelle_bati": null, "nombre_pieces_principales": 0.0, "adresse_nom_voie": "ALL DES GRIOTTES", "price_per_sqm": null, "date_iso": "2024-10-23", "parcelle": "77338000ZC0218", "addr_num": "9"}}, {"type": "Feature", "geometry": {"type": "Point", "coordinates": [2.940994, 48.333989]}, "properties": {"year": 2024, "valeur_fonciere": 237000.0, "type_local": "Maison", "surface_reelle_bati": 74.0, "nombre_pieces_principales": 4.0, "adresse_nom_voie": "ALL DES GRIOTTES", "price_per_sqm": 3202.7027027027025, "date_iso": "2024-10-23", "parcelle": "77338000ZC0218", "addr_num": "9"}}, {"type": "Feature", "geometry": {"type": "Point", "coordinates": [2.940994, 48.333989]}, "properties": {"year": 2024, "valeur_fonciere": 237000.0, "type_local": "Dépendance", "surface_reelle_bati": null, "nombre_pieces_principales": 0.0, "adresse_nom_voie": "ALL DES GRIOTTES", "price_per_sqm": null, "date_iso": "2024-10-23", "parcelle": "77338000ZC0218", "addr_num": "9"}}, {"type": "Feature", "geometry": {"type": "Point", "coordinates": [2.928776, 48.334164]}, "properties": {"year": 2024, "valeur_fonciere": 35000.0, "type_local": null, "surface_reelle_bati": null, "nombre_pieces_principales": null, "adresse_nom_voie": "LE BOIS BLONDEAU", "price_per_sqm": null, "date_iso": "2024-11-13", "parcelle": "773380000B0449", "addr_num": ""}}, {"type": "Feature", "geometry": {"type": "Point", "coordinates": [2.936491, 48.345328]}, "properties": {"year": 2024, "valeur_fonciere": 4000.0, "type_local": null, "surface_reelle_bati": null, "nombre_pieces_principales": null, "adresse_nom_voie": "LE TERTRE BAUSSERON", "price_per_sqm": null, "date_iso": "2024-11-27", "parcelle": "773380000A0166", "addr_num": ""}}, {"type": "Feature", "geometry": {"type": "Point", "coordinates": [2.930181, 48.336982]}, "properties": {"year": 2025, "valeur_fonciere": 38000.0, "type_local": null, "surface_reelle_bati": null, "nombre_pieces_principales": null, "adresse_nom_voie": "LE VILLAGE", "price_per_sqm": null, "date_iso": "2025-01-06", "parcelle": "773380000B1299", "addr_num": ""}}, {"type": "Feature", "geometry": {"type": "Point", "coordinates": [2.941949, 48.334864]}, "properties": {"year": 2025, "valeur_fonciere": 255000.0, "type_local": "Maison", "surface_reelle_bati": 160.0, "nombre_pieces_principales": 5.0, "adresse_nom_voie": "RUE DE FLAGY", "price_per_sqm": 1593.75, "date_iso": "2025-02-22", "parcelle": "77338000ZC0113", "addr_num": "4"}}, {"type": "Feature", "geometry": {"type": "Point", "coordinates": [2.929008, 48.334573]}, "properties": {"year": 2025, "valeur_fonciere": 222000.0, "type_local": "Maison", "surface_reelle_bati": 123.0, "nombre_pieces_principales": 6.0, "adresse_nom_voie": "RUE DE DORMELLES", "price_per_sqm": 1804.878048780488, "date_iso": "2025-02-07", "parcelle": "773380000B1190", "addr_num": "7"}}, {"type": "Feature", "geometry": {"type": "Point", "coordinates": [2.929937, 48.334237]}, "properties": {"year": 2025, "valeur_fonciere": 110000.0, "type_local": null, "surface_reelle_bati": null, "nombre_pieces_principales": null, "adresse_nom_voie": "LA MENAGERIE", "price_per_sqm": null, "date_iso": "2025-02-19", "parcelle": "773380000B0813", "addr_num": ""}}, {"type": "Feature", "geometry": {"type": "Point", "coordinates": [2.930134, 48.334581]}, "properties": {"year": 2025, "valeur_fonciere": 110000.0, "type_local": null, "surface_reelle_bati": null, "nombre_pieces_principales": null, "adresse_nom_voie": "LE VILLAGE", "price_per_sqm": null, "date_iso": "2025-02-19", "parcelle": "773380000B1287", "addr_num": ""}}, {"type": "Feature", "geometry": {"type": "Point", "coordinates": [2.930021, 48.334537]}, "properties": {"year": 2025, "valeur_fonciere": 110000.0, "type_local": null, "surface_reelle_bati": null, "nombre_pieces_principales": null, "adresse_nom_voie": "LE VILLAGE", "price_per_sqm": null, "date_iso": "2025-02-19", "parcelle": "773380000B1288", "addr_num": ""}}, {"type": "Feature", "geometry": {"type": "Point", "coordinates": [2.930023, 48.33441]}, "properties": {"year": 2025, "valeur_fonciere": 110000.0, "type_local": "Maison", "surface_reelle_bati": 135.0, "nombre_pieces_principales": 7.0, "adresse_nom_voie": "RUE DE LA PETITE FONTAINE", "price_per_sqm": 814.8148148148148, "date_iso": "2025-02-19", "parcelle": "773380000B1290", "addr_num": "3"}}, {"type": "Feature", "geometry": {"type": "Point", "coordinates": [2.930191, 48.334486]}, "properties": {"year": 2025, "valeur_fonciere": 110000.0, "type_local": null, "surface_reelle_bati": null, "nombre_pieces_principales": null, "adresse_nom_voie": "LE VILLAGE", "price_per_sqm": null, "date_iso": "2025-02-19", "parcelle": "773380000B1293", "addr_num": ""}}, {"type": "Feature", "geometry": {"type": "Point", "coordinates": [2.929401, 48.335889]}, "properties": {"year": 2025, "valeur_fonciere": 12500.0, "type_local": null, "surface_reelle_bati": null, "nombre_pieces_principales": null, "adresse_nom_voie": "LE VILLAGE", "price_per_sqm": null, "date_iso": "2025-03-04", "parcelle": "773380000B0263", "addr_num": ""}}, {"type": "Feature", "geometry": {"type": "Point", "coordinates": [2.930894, 48.339399]}, "properties": {"year": 2025, "valeur_fonciere": 4011.0, "type_local": null, "surface_reelle_bati": null, "nombre_pieces_principales": null, "adresse_nom_voie": "JERUSALEM", "price_per_sqm": null, "date_iso": "2025-06-25", "parcelle": "77338000ZC0359", "addr_num": ""}}, {"type": "Feature", "geometry": {"type": "Point", "coordinates": [2.930856, 48.339057]}, "properties": {"year": 2025, "valeur_fonciere": 4011.0, "type_local": null, "surface_reelle_bati": null, "nombre_pieces_principales": null, "adresse_nom_voie": "JERUSALEM", "price_per_sqm": null, "date_iso": "2025-06-25", "parcelle": "77338000ZC0362", "addr_num": ""}}, {"type": "Feature", "geometry": {"type": "Point", "coordinates": [2.928411, 48.334224]}, "properties": {"year": 2025, "valeur_fonciere": 170000.0, "type_local": "Maison", "surface_reelle_bati": 126.0, "nombre_pieces_principales": 7.0, "adresse_nom_voie": "VC LA RUELLE", "price_per_sqm": 1349.2063492063492, "date_iso": "2025-06-21", "parcelle": "773380000B1213", "addr_num": "4"}}, {"type": "Feature", "geometry": {"type": "Point", "coordinates": [2.938859, 48.334589]}, "properties": {"year": 2025, "valeur_fonciere": 188000.0, "type_local": "Maison", "surface_reelle_bati": 97.0, "nombre_pieces_principales": 4.0, "adresse_nom_voie": "RTE D ESMANS", "price_per_sqm": 1938.1443298969073, "date_iso": "2025-07-11", "parcelle": "77338000ZC0353", "addr_num": "10"}}, {"type": "Feature", "geometry": {"type": "Point", "coordinates": [2.936966, 48.335186]}, "properties": {"year": 2025, "valeur_fonciere": 210000.0, "type_local": null, "surface_reelle_bati": null, "nombre_pieces_principales": null, "adresse_nom_voie": "RTE D ESMANS", "price_per_sqm": null, "date_iso": "2025-08-19", "parcelle": "77338000ZC0336", "addr_num": ""}}, {"type": "Feature", "geometry": {"type": "Point", "coordinates": [2.93696, 48.334945]}, "properties": {"year": 2025, "valeur_fonciere": 210000.0, "type_local": "Maison", "surface_reelle_bati": 60.0, "nombre_pieces_principales": 2.0, "adresse_nom_voie": "RTE D ESMANS", "price_per_sqm": 3500.0, "date_iso": "2025-08-19", "parcelle": "77338000ZC0337", "addr_num": "2"}}, {"type": "Feature", "geometry": {"type": "Point", "coordinates": [2.93696, 48.334945]}, "properties": {"year": 2025, "valeur_fonciere": 210000.0, "type_local": "Maison", "surface_reelle_bati": 60.0, "nombre_pieces_principales": 2.0, "adresse_nom_voie": "RTE D ESMANS", "price_per_sqm": 3500.0, "date_iso": "2025-08-19", "parcelle": "77338000ZC0337", "addr_num": "2"}}, {"type": "Feature", "geometry": {"type": "Point", "coordinates": [2.93696, 48.334945]}, "properties": {"year": 2025, "valeur_fonciere": 210000.0, "type_local": "Maison", "surface_reelle_bati": 100.0, "nombre_pieces_principales": 3.0, "adresse_nom_voie": "RTE D ESMANS", "price_per_sqm": 2100.0, "date_iso": "2025-08-19", "parcelle": "77338000ZC0337", "addr_num": "2"}}, {"type": "Feature", "geometry": {"type": "Point", "coordinates": [2.93696, 48.334945]}, "properties": {"year": 2025, "valeur_fonciere": 210000.0, "type_local": "Maison", "surface_reelle_bati": 100.0, "nombre_pieces_principales": 3.0, "adresse_nom_voie": "RTE D ESMANS", "price_per_sqm": 2100.0, "date_iso": "2025-08-19", "parcelle": "77338000ZC0337", "addr_num": "2"}}, {"type": "Feature", "geometry": {"type": "Point", "coordinates": [2.927757, 48.333828]}, "properties": {"year": 2025, "valeur_fonciere": 488000.0, "type_local": "Maison", "surface_reelle_bati": 143.0, "nombre_pieces_principales": 6.0, "adresse_nom_voie": "VC LA RUELLE", "price_per_sqm": 3412.5874125874125, "date_iso": "2025-09-30", "parcelle": "773380000B1061", "addr_num": "1"}}, {"type": "Feature", "geometry": {"type": "Point", "coordinates": [2.927757, 48.333828]}, "properties": {"year": 2025, "valeur_fonciere": 488000.0, "type_local": "Dépendance", "surface_reelle_bati": null, "nombre_pieces_principales": 0.0, "adresse_nom_voie": "VC LA RUELLE", "price_per_sqm": null, "date_iso": "2025-09-30", "parcelle": "773380000B1061", "addr_num": "1"}}, {"type": "Feature", "geometry": {"type": "Point", "coordinates": [2.927757, 48.333828]}, "properties": {"year": 2025, "valeur_fonciere": 488000.0, "type_local": "Dépendance", "surface_reelle_bati": null, "nombre_pieces_principales": 0.0, "adresse_nom_voie": "VC LA RUELLE", "price_per_sqm": null, "date_iso": "2025-09-30", "parcelle": "773380000B1061", "addr_num": "1"}}, {"type": "Feature", "geometry": {"type": "Point", "coordinates": [2.927757, 48.333828]}, "properties": {"year": 2025, "valeur_fonciere": 488000.0, "type_local": "Dépendance", "surface_reelle_bati": null, "nombre_pieces_principales": 0.0, "adresse_nom_voie": "VC LA RUELLE", "price_per_sqm": null, "date_iso": "2025-09-30", "parcelle": "773380000B1061", "addr_num": "1"}}, {"type": "Feature", "geometry": {"type": "Point", "coordinates": [2.927757, 48.333828]}, "properties": {"year": 2025, "valeur_fonciere": 488000.0, "type_local": "Dépendance", "surface_reelle_bati": null, "nombre_pieces_principales": 0.0, "adresse_nom_voie": "VC LA RUELLE", "price_per_sqm": null, "date_iso": "2025-09-30", "parcelle": "773380000B1061", "addr_num": "1"}}, {"type": "Feature", "geometry": {"type": "Point", "coordinates": [2.927757, 48.333828]}, "properties": {"year": 2025, "valeur_fonciere": 488000.0, "type_local": "Dépendance", "surface_reelle_bati": null, "nombre_pieces_principales": 0.0, "adresse_nom_voie": "VC LA RUELLE", "price_per_sqm": null, "date_iso": "2025-09-30", "parcelle": "773380000B1061", "addr_num": "1"}}, {"type": "Feature", "geometry": {"type": "Point", "coordinates": [2.927757, 48.333828]}, "properties": {"year": 2025, "valeur_fonciere": 488000.0, "type_local": "Maison", "surface_reelle_bati": 143.0, "nombre_pieces_principales": 6.0, "adresse_nom_voie": "VC LA RUELLE", "price_per_sqm": 3412.5874125874125, "date_iso": "2025-09-30", "parcelle": "773380000B1061", "addr_num": "1"}}, {"type": "Feature", "geometry": {"type": "Point", "coordinates": [2.927757, 48.333828]}, "properties": {"year": 2025, "valeur_fonciere": 488000.0, "type_local": "Dépendance", "surface_reelle_bati": null, "nombre_pieces_principales": 0.0, "adresse_nom_voie": "VC LA RUELLE", "price_per_sqm": null, "date_iso": "2025-09-30", "parcelle": "773380000B1061", "addr_num": "1"}}, {"type": "Feature", "geometry": {"type": "Point", "coordinates": [2.931825, 48.337168]}, "properties": {"year": 2025, "valeur_fonciere": 257000.0, "type_local": "Dépendance", "surface_reelle_bati": null, "nombre_pieces_principales": 0.0, "adresse_nom_voie": "RUE DU CASSE POT", "price_per_sqm": null, "date_iso": "2025-12-03", "parcelle": "773380000B1341", "addr_num": "2"}}, {"type": "Feature", "geometry": {"type": "Point", "coordinates": [2.931825, 48.337168]}, "properties": {"year": 2025, "valeur_fonciere": 257000.0, "type_local": "Maison", "surface_reelle_bati": 148.0, "nombre_pieces_principales": 4.0, "adresse_nom_voie": "RUE DU CASSE POT", "price_per_sqm": 1736.4864864864865, "date_iso": "2025-12-03", "parcelle": "773380000B1341", "addr_num": "2"}}, {"type": "Feature", "geometry": {"type": "Point", "coordinates": [2.931943, 48.337248]}, "properties": {"year": 2025, "valeur_fonciere": 257000.0, "type_local": null, "surface_reelle_bati": null, "nombre_pieces_principales": null, "adresse_nom_voie": "RUE DU CASSE POT", "price_per_sqm": null, "date_iso": "2025-12-03", "parcelle": "773380000B1344", "addr_num": "2"}}]}