{"type": "FeatureCollection", "features": [{"type": "Feature", "geometry": {"type": "Polygon", "coordinates": [[[2.927118, 48.435098], [2.926934, 48.435029], [2.926238, 48.434576], [2.926041, 48.434547], [2.92464, 48.433529], [2.924447, 48.43328], [2.924938, 48.432822], [2.924982, 48.432736], [2.923723, 48.432868], [2.923023, 48.432371], [2.92141, 48.431264], [2.92038, 48.430542], [2.919101, 48.429667], [2.917147, 48.428294], [2.916379, 48.427775], [2.916277, 48.42768], [2.915769, 48.428026], [2.914305, 48.42683], [2.913766, 48.426451], [2.913016, 48.425885], [2.912989, 48.426012], [2.91172, 48.426556], [2.91072, 48.427008], [2.91023, 48.427253], [2.910268, 48.427303], [2.909453, 48.427878], [2.908971, 48.428296], [2.908751, 48.428505], [2.908085, 48.428842], [2.907365, 48.429177], [2.906963, 48.429457], [2.906909, 48.429656], [2.906804, 48.43102], [2.906724, 48.431835], [2.906651, 48.432017], [2.906351, 48.432376], [2.90602, 48.432581], [2.904443, 48.433452], [2.903793, 48.433071], [2.902451, 48.432305], [2.901552, 48.431811], [2.901283, 48.431674], [2.900733, 48.431342], [2.900511, 48.431186], [2.900357, 48.431027], [2.899906, 48.430478], [2.899656, 48.430067], [2.899431, 48.429511], [2.899095, 48.428934], [2.898784, 48.428634], [2.897603, 48.426729], [2.897424, 48.426612], [2.896548, 48.426422], [2.895405, 48.426142], [2.895192, 48.426095], [2.894914, 48.425963], [2.894523, 48.425718], [2.893982, 48.425472], [2.893926, 48.425677], [2.892927, 48.425786], [2.892163, 48.425857], [2.892303, 48.426325], [2.890564, 48.426602], [2.889722, 48.426874], [2.889504, 48.427055], [2.889061, 48.427717], [2.888846, 48.42775], [2.888465, 48.42823], [2.88829, 48.428425], [2.888051, 48.428994], [2.888073, 48.429022], [2.887807, 48.429918], [2.887693, 48.430076], [2.887444, 48.430331], [2.886227, 48.431319], [2.885009, 48.432262], [2.884898, 48.432375], [2.884624, 48.432961], [2.884474, 48.433326], [2.884397, 48.433512], [2.884089, 48.434065], [2.883968, 48.434219], [2.883102, 48.435054], [2.882377, 48.435951], [2.881977, 48.436466], [2.88149, 48.437195], [2.881243, 48.437426], [2.881095, 48.437484], [2.880702, 48.437521], [2.879729, 48.437415], [2.878818, 48.43735], [2.878448, 48.437376], [2.878205, 48.437437], [2.877354, 48.43779], [2.876343, 48.438388], [2.875772, 48.438655], [2.875191, 48.438785], [2.874262, 48.438919], [2.873363, 48.439117], [2.872419, 48.439216], [2.872248, 48.43932], [2.872026, 48.439558], [2.871477, 48.439882], [2.871236, 48.439969], [2.870651, 48.440056], [2.869467, 48.4403], [2.868992, 48.440454], [2.868392, 48.440734], [2.867629, 48.44106], [2.866971, 48.441278], [2.867014, 48.441355], [2.867459, 48.441894], [2.867757, 48.442398], [2.867862, 48.442623], [2.868029, 48.443191], [2.868061, 48.443396], [2.867916, 48.443786], [2.867657, 48.444219], [2.867318, 48.444649], [2.867005, 48.444935], [2.86673, 48.445216], [2.866149, 48.445445], [2.865681, 48.445581], [2.864395, 48.445651], [2.864091, 48.445679], [2.864649, 48.446603], [2.863761, 48.446805], [2.862064, 48.447222], [2.859895, 48.447741], [2.859076, 48.44792], [2.859233, 48.448472], [2.859587, 48.449657], [2.859601, 48.450029], [2.859447, 48.45081], [2.859402, 48.451275], [2.862037, 48.452326], [2.862664, 48.452579], [2.863577, 48.452974], [2.864256, 48.453217], [2.865039, 48.453533], [2.865452, 48.453723], [2.866347, 48.454061], [2.8666, 48.453903], [2.867024, 48.45373], [2.8678, 48.453646], [2.868339, 48.453466], [2.868626, 48.453339], [2.868893, 48.453162], [2.86932, 48.45277], [2.869545, 48.452621], [2.870507, 48.452233], [2.870762, 48.452151], [2.871869, 48.451852], [2.87248, 48.451579], [2.872643, 48.451976], [2.872951, 48.452373], [2.873339, 48.452968], [2.873623, 48.453241], [2.874267, 48.453709], [2.874507, 48.453949], [2.874909, 48.45419], [2.876285, 48.454966], [2.876798, 48.455233], [2.877299, 48.455463], [2.877793, 48.455654], [2.878496, 48.455807], [2.879232, 48.456008], [2.879679, 48.45617], [2.87786, 48.457482], [2.878021, 48.457574], [2.878942, 48.458653], [2.879647, 48.459552], [2.879947, 48.459676], [2.880366, 48.459974], [2.881102, 48.460542], [2.882456, 48.461664], [2.882109, 48.461808], [2.882342, 48.462015], [2.883208, 48.462099], [2.883726, 48.462182], [2.884648, 48.462345], [2.886213, 48.462645], [2.887645, 48.462909], [2.888441, 48.463079], [2.890012, 48.463462], [2.891288, 48.463744], [2.891954, 48.463925], [2.891959, 48.464091], [2.891907, 48.465711], [2.891852, 48.466526], [2.891787, 48.467108], [2.891808, 48.46761], [2.891826, 48.468664], [2.891842, 48.46906], [2.892041, 48.47016], [2.892133, 48.470332], [2.892343, 48.470518], [2.892668, 48.471188], [2.892939, 48.471683], [2.893716, 48.473201], [2.8944, 48.474574], [2.894805, 48.475331], [2.89518, 48.476064], [2.896361, 48.475873], [2.898036, 48.475614], [2.899786, 48.475327], [2.901379, 48.475072], [2.902624, 48.474894], [2.904635, 48.474581], [2.904563, 48.474657], [2.905004, 48.474597], [2.90508, 48.474248], [2.905029, 48.474211], [2.905008, 48.473999], [2.90472, 48.473823], [2.904282, 48.473417], [2.904183, 48.473218], [2.904226, 48.472977], [2.904745, 48.472604], [2.904873, 48.472419], [2.904967, 48.472165], [2.904974, 48.471993], [2.904816, 48.47156], [2.904535, 48.471288], [2.904349, 48.471076], [2.904294, 48.4709], [2.904385, 48.470012], [2.904327, 48.469773], [2.904067, 48.46916], [2.903868, 48.46836], [2.903862, 48.46826], [2.903934, 48.467964], [2.903802, 48.467731], [2.903729, 48.467364], [2.903722, 48.46712], [2.903623, 48.466868], [2.903344, 48.466578], [2.902846, 48.46583], [2.9023, 48.465124], [2.90199, 48.464757], [2.901929, 48.464473], [2.901599, 48.463449], [2.901537, 48.463303], [2.901383, 48.463102], [2.901153, 48.462873], [2.901012, 48.46266], [2.900866, 48.461816], [2.900846, 48.461446], [2.900889, 48.461077], [2.901031, 48.460573], [2.901238, 48.460012], [2.901259, 48.45971], [2.901367, 48.458803], [2.901379, 48.458433], [2.901421, 48.458192], [2.901354, 48.458104], [2.901323, 48.457857], [2.901283, 48.456915], [2.901294, 48.456777], [2.901487, 48.456101], [2.901505, 48.455829], [2.9014, 48.455245], [2.901332, 48.455159], [2.901538, 48.455], [2.901712, 48.454658], [2.901761, 48.454406], [2.901967, 48.453901], [2.902112, 48.453692], [2.902148, 48.452802], [2.901986, 48.451868], [2.902082, 48.451737], [2.902218, 48.451364], [2.902452, 48.45082], [2.902648, 48.450312], [2.902698, 48.450254], [2.902529, 48.449943], [2.902881, 48.449949], [2.903139, 48.449912], [2.903258, 48.449824], [2.903377, 48.449405], [2.903507, 48.44923], [2.903797, 48.449027], [2.903798, 48.448983], [2.90357, 48.448827], [2.903286, 48.448762], [2.902887, 48.448791], [2.902664, 48.448752], [2.902491, 48.448474], [2.902398, 48.448392], [2.901901, 48.448168], [2.901948, 48.447494], [2.902211, 48.446736], [2.90228, 48.446502], [2.903103, 48.446012], [2.903307, 48.446026], [2.903916, 48.443527], [2.903962, 48.443442], [2.906273, 48.440608], [2.907606, 48.440068], [2.909076, 48.439729], [2.909195, 48.439685], [2.909695, 48.439256], [2.909914, 48.439097], [2.910471, 48.438847], [2.911351, 48.438327], [2.91171, 48.438598], [2.912373, 48.439067], [2.914001, 48.440246], [2.915181, 48.441019], [2.916063, 48.441589], [2.91651, 48.441889], [2.917337, 48.441365], [2.918649, 48.440549], [2.919074, 48.440268], [2.922124, 48.438299], [2.92256, 48.438011], [2.922782, 48.437892], [2.924862, 48.436584], [2.926206, 48.435745], [2.927118, 48.435098]]]}, "properties": {"code_iris": "774800000", "nom_iris": "Valence-en-Brie (commune entière)", "type_iris": "Z", "lat": 48.4508, "lng": 2.8931, "dvf_sales_total": 172, "dvf_sales_appt": 0, "dvf_sales_maison": 0, "dvf_median_price": 205227.5, "dvf_median_ppsqm": 2267.0680870773504, "dvf_by_year": "[{\"year\": 2021, \"sales\": 51, \"median_price\": 217000.0}, {\"year\": 2022, \"sales\": 32, \"median_price\": 230000.0}, {\"year\": 2023, \"sales\": 24, \"median_price\": 205500.0}, {\"year\": 2024, \"sales\": 24, \"median_price\": 170000.0}, {\"year\": 2025, \"sales\": 41, \"median_price\": 199000.0}]", "population": 1007, "n_log": null, "n_rp": null, "pct_proprio": null, "pct_hlm": null, "pct_appart": null, "pct_cadres": null, "pct_bac5p": null, "pct_etrangers": null, "pct_0_14": null, "pct_65p": null, "bpe_total": null, "bpe_commerces": null, "bpe_enseignement": null, "bpe_sante": null, "dpe": null, "attractivity_score": null, "rank_attractivity_score": null, "rank_total_attractivity_score": 1, "commune_avg": null, "is_stub": true}}]}