{"type": "FeatureCollection", "features": [{"type": "Feature", "geometry": {"type": "Polygon", "coordinates": [[[2.631999, 48.527582], [2.629172, 48.526267], [2.624635, 48.524424], [2.621923, 48.523531], [2.619334, 48.521825], [2.614967, 48.519588], [2.612254, 48.518385], [2.609159, 48.517072], [2.605602, 48.516125], [2.604123, 48.515876], [2.600731, 48.515905], [2.600776, 48.516537], [2.600881, 48.518718], [2.601141, 48.518728], [2.601422, 48.51969], [2.601566, 48.51977], [2.601642, 48.519928], [2.601608, 48.520595], [2.601664, 48.520806], [2.601482, 48.520913], [2.600782, 48.521063], [2.601323, 48.522424], [2.601386, 48.522541], [2.601914, 48.524055], [2.602245, 48.523996], [2.603315, 48.523871], [2.60394, 48.523774], [2.604423, 48.523745], [2.605125, 48.523728], [2.605476, 48.523653], [2.606041, 48.523502], [2.606274, 48.523545], [2.606504, 48.523491], [2.606904, 48.523476], [2.607662, 48.523365], [2.608265, 48.523315], [2.608682, 48.523326], [2.608677, 48.523372], [2.608931, 48.523444], [2.609148, 48.523686], [2.609534, 48.523829], [2.609649, 48.523673], [2.609742, 48.523811], [2.61009, 48.524004], [2.610262, 48.524031], [2.610694, 48.524027], [2.610931, 48.524105], [2.611071, 48.523981], [2.611363, 48.524075], [2.611798, 48.52416], [2.612004, 48.52418], [2.612226, 48.524874], [2.61235, 48.525614], [2.612261, 48.525731], [2.612229, 48.527681], [2.612098, 48.527708], [2.611938, 48.528284], [2.611151, 48.528558], [2.609877, 48.529902], [2.609547, 48.530198], [2.608744, 48.53079], [2.609058, 48.530618], [2.615176, 48.527444], [2.616167, 48.526933], [2.618745, 48.527627], [2.619909, 48.527936], [2.622087, 48.5285], [2.623428, 48.528838], [2.623743, 48.528891], [2.623966, 48.52897], [2.6249, 48.529224], [2.625193, 48.529362], [2.625592, 48.529658], [2.626223, 48.530161], [2.626634, 48.53047], [2.626859, 48.530662], [2.627682, 48.53131], [2.627878, 48.531542], [2.628038, 48.531531], [2.628623, 48.530963], [2.62887, 48.530693], [2.62893, 48.530492], [2.629206, 48.530304], [2.629176, 48.530135], [2.629227, 48.530045], [2.630282, 48.529047], [2.631999, 48.527582]]]}, "properties": {"code_iris": "770380000", "nom_iris": "Boissettes (commune entière)", "type_iris": "Z", "lat": 48.5237, "lng": 2.6164, "dvf_sales_total": 164, "dvf_sales_appt": 0, "dvf_sales_maison": 0, "dvf_median_price": 442500.0, "dvf_median_ppsqm": 4073.958333333333, "dvf_by_year": "[{\"year\": 2021, \"sales\": 33, \"median_price\": 180000.0}, {\"year\": 2022, \"sales\": 57, \"median_price\": 440000.0}, {\"year\": 2023, \"sales\": 29, \"median_price\": 979000.0}, {\"year\": 2024, \"sales\": 16, \"median_price\": 370000.0}, {\"year\": 2025, \"sales\": 29, \"median_price\": 478357.0}]", "population": 437, "n_log": null, "n_rp": null, "pct_proprio": null, "pct_hlm": null, "pct_appart": null, "pct_cadres": null, "pct_bac5p": null, "pct_etrangers": null, "pct_0_14": null, "pct_65p": null, "bpe_total": null, "bpe_commerces": null, "bpe_enseignement": null, "bpe_sante": null, "dpe": null, "attractivity_score": null, "rank_attractivity_score": null, "rank_total_attractivity_score": 1, "commune_avg": null, "is_stub": true}}]}