{"type": "FeatureCollection", "features": [{"type": "Feature", "geometry": {"type": "Point", "coordinates": [3.235033, 48.412253]}, "properties": {"street_name": "RUE DANTON", "sales": 45, "sales_appt": 0, "sales_maison": 14, "median_price": 167180.0, "median_price_per_sqm": 2079.4166666666665, "turnover_score": 100.0, "turnover_rank": 1, "first_year": 2021, "last_year": 2025, "years_active": 4}}, {"type": "Feature", "geometry": {"type": "Point", "coordinates": [3.237649, 48.4126035]}, "properties": {"street_name": "RUE DE BOURGOGNE", "sales": 28, "sales_appt": 1, "sales_maison": 11, "median_price": 141500.0, "median_price_per_sqm": 1592.9203539823009, "turnover_score": 62.2, "turnover_rank": 2, "first_year": 2021, "last_year": 2025, "years_active": 4}}, {"type": "Feature", "geometry": {"type": "Point", "coordinates": [3.237365, 48.415923]}, "properties": {"street_name": "RUE VICTOR HUGO", "sales": 24, "sales_appt": 10, "sales_maison": 0, "median_price": 380000.0, "median_price_per_sqm": 7037.037037037037, "turnover_score": 53.3, "turnover_rank": 3, "first_year": 2024, "last_year": 2025, "years_active": 2}}, {"type": "Feature", "geometry": {"type": "Point", "coordinates": [3.239864, 48.414079]}, "properties": {"street_name": "RUE DES FILOIRS", "sales": 19, "sales_appt": 4, "sales_maison": 3, "median_price": 149000.0, "median_price_per_sqm": 2292.3076923076924, "turnover_score": 42.2, "turnover_rank": 4, "first_year": 2022, "last_year": 2025, "years_active": 3}}, {"type": "Feature", "geometry": {"type": "Point", "coordinates": [3.241196, 48.414862]}, "properties": {"street_name": "RUE DES PATURES", "sales": 18, "sales_appt": 0, "sales_maison": 4, "median_price": 175000.0, "median_price_per_sqm": 2183.0051369863013, "turnover_score": 40.0, "turnover_rank": 5, "first_year": 2021, "last_year": 2025, "years_active": 4}}, {"type": "Feature", "geometry": {"type": "Point", "coordinates": [3.237885, 48.415768]}, "properties": {"street_name": "RUE GRANDE", "sales": 18, "sales_appt": 4, "sales_maison": 3, "median_price": 245000.0, "median_price_per_sqm": 1983.3333333333333, "turnover_score": 40.0, "turnover_rank": 5, "first_year": 2021, "last_year": 2025, "years_active": 4}}, {"type": "Feature", "geometry": {"type": "Point", "coordinates": [3.2392269999999996, 48.415462500000004]}, "properties": {"street_name": "RUE DE LA PECHERIE", "sales": 16, "sales_appt": 9, "sales_maison": 2, "median_price": 142000.0, "median_price_per_sqm": 1790.1960784313726, "turnover_score": 35.6, "turnover_rank": 6, "first_year": 2021, "last_year": 2025, "years_active": 5}}, {"type": "Feature", "geometry": {"type": "Point", "coordinates": [3.238938, 48.415067]}, "properties": {"street_name": "RUE DE LA PAIX", "sales": 15, "sales_appt": 9, "sales_maison": 3, "median_price": 86000.0, "median_price_per_sqm": 2046.875, "turnover_score": 33.3, "turnover_rank": 7, "first_year": 2021, "last_year": 2025, "years_active": 3}}, {"type": "Feature", "geometry": {"type": "Point", "coordinates": [3.240576, 48.419411]}, "properties": {"street_name": "RUE D HENRIEN", "sales": 13, "sales_appt": 3, "sales_maison": 3, "median_price": 120000.0, "median_price_per_sqm": 1599.5475113122172, "turnover_score": 28.9, "turnover_rank": 8, "first_year": 2021, "last_year": 2025, "years_active": 4}}, {"type": "Feature", "geometry": {"type": "Point", "coordinates": [3.238635, 48.415756]}, "properties": {"street_name": "BRAY", "sales": 12, "sales_appt": 0, "sales_maison": 0, "median_price": 91000.0, "median_price_per_sqm": null, "turnover_score": 26.7, "turnover_rank": 9, "first_year": 2021, "last_year": 2025, "years_active": 4}}, {"type": "Feature", "geometry": {"type": "Point", "coordinates": [3.239111, 48.415624]}, "properties": {"street_name": "RUE DU FOUR", "sales": 11, "sales_appt": 3, "sales_maison": 2, "median_price": 220000.0, "median_price_per_sqm": 3928.5714285714284, "turnover_score": 24.4, "turnover_rank": 10, "first_year": 2021, "last_year": 2025, "years_active": 3}}, {"type": "Feature", "geometry": {"type": "Point", "coordinates": [3.245975, 48.408901]}, "properties": {"street_name": "RTE DE MONTIGNY", "sales": 10, "sales_appt": 0, "sales_maison": 1, "median_price": 195000.0, "median_price_per_sqm": 1125.0, "turnover_score": 22.2, "turnover_rank": 11, "first_year": 2021, "last_year": 2024, "years_active": 4}}, {"type": "Feature", "geometry": {"type": "Point", "coordinates": [3.237918, 48.4162545]}, "properties": {"street_name": "RUE DU GENERAL LECLERC", "sales": 10, "sales_appt": 5, "sales_maison": 2, "median_price": 136500.0, "median_price_per_sqm": 2428.5714285714284, "turnover_score": 22.2, "turnover_rank": 11, "first_year": 2021, "last_year": 2023, "years_active": 3}}, {"type": "Feature", "geometry": {"type": "Point", "coordinates": [3.239636, 48.4159595]}, "properties": {"street_name": "QUAI SAINT NICOLAS", "sales": 10, "sales_appt": 3, "sales_maison": 2, "median_price": 96500.0, "median_price_per_sqm": 2482.1428571428573, "turnover_score": 22.2, "turnover_rank": 11, "first_year": 2021, "last_year": 2024, "years_active": 3}}, {"type": "Feature", "geometry": {"type": "Point", "coordinates": [3.236852, 48.41598]}, "properties": {"street_name": "RLE DES DEUX PORTES", "sales": 9, "sales_appt": 8, "sales_maison": 0, "median_price": 405000.0, "median_price_per_sqm": 7363.636363636364, "turnover_score": 20.0, "turnover_rank": 12, "first_year": 2021, "last_year": 2024, "years_active": 2}}, {"type": "Feature", "geometry": {"type": "Point", "coordinates": [3.2381585, 48.4152525]}, "properties": {"street_name": "RUE DE L EGLISE", "sales": 8, "sales_appt": 2, "sales_maison": 4, "median_price": 129500.0, "median_price_per_sqm": 1519.2307692307693, "turnover_score": 17.8, "turnover_rank": 13, "first_year": 2021, "last_year": 2025, "years_active": 4}}, {"type": "Feature", "geometry": {"type": "Point", "coordinates": [3.2399755, 48.413916]}, "properties": {"street_name": "FAUBOURG DE JAULNES", "sales": 8, "sales_appt": 0, "sales_maison": 0, "median_price": 155000.0, "median_price_per_sqm": null, "turnover_score": 17.8, "turnover_rank": 13, "first_year": 2022, "last_year": 2025, "years_active": 2}}, {"type": "Feature", "geometry": {"type": "Point", "coordinates": [3.2342465000000002, 48.410799]}, "properties": {"street_name": "LA MALADRIE", "sales": 8, "sales_appt": 0, "sales_maison": 0, "median_price": 125250.0, "median_price_per_sqm": null, "turnover_score": 17.8, "turnover_rank": 13, "first_year": 2021, "last_year": 2025, "years_active": 4}}, {"type": "Feature", "geometry": {"type": "Point", "coordinates": [3.2386095, 48.4162325]}, "properties": {"street_name": "RUE DU PRESIDENT CARNOT", "sales": 8, "sales_appt": 2, "sales_maison": 4, "median_price": 108000.0, "median_price_per_sqm": 1576.3081395348836, "turnover_score": 17.8, "turnover_rank": 13, "first_year": 2021, "last_year": 2025, "years_active": 3}}, {"type": "Feature", "geometry": {"type": "Point", "coordinates": [3.2348464999999997, 48.4171335]}, "properties": {"street_name": "RUE DE L ABREUVOIR", "sales": 8, "sales_appt": 3, "sales_maison": 3, "median_price": 166000.0, "median_price_per_sqm": 1620.5845436614668, "turnover_score": 17.8, "turnover_rank": 13, "first_year": 2022, "last_year": 2025, "years_active": 3}}, {"type": "Feature", "geometry": {"type": "Point", "coordinates": [3.247353, 48.408417]}, "properties": {"street_name": "RUE ALBERT EINSTEIN", "sales": 7, "sales_appt": 0, "sales_maison": 0, "median_price": 250000.0, "median_price_per_sqm": 172.76785714285717, "turnover_score": 15.6, "turnover_rank": 14, "first_year": 2021, "last_year": 2024, "years_active": 3}}, {"type": "Feature", "geometry": {"type": "Point", "coordinates": [3.237238, 48.414534]}, "properties": {"street_name": "RUE DES TAUPINS", "sales": 7, "sales_appt": 3, "sales_maison": 3, "median_price": 177000.0, "median_price_per_sqm": 2700.0, "turnover_score": 15.6, "turnover_rank": 14, "first_year": 2021, "last_year": 2024, "years_active": 2}}, {"type": "Feature", "geometry": {"type": "Point", "coordinates": [3.241336, 48.414205]}, "properties": {"street_name": "AV DE LA LIBERATION", "sales": 7, "sales_appt": 0, "sales_maison": 5, "median_price": 165000.0, "median_price_per_sqm": 970.679012345679, "turnover_score": 15.6, "turnover_rank": 14, "first_year": 2021, "last_year": 2023, "years_active": 3}}, {"type": "Feature", "geometry": {"type": "Point", "coordinates": [3.238154, 48.416096]}, "properties": {"street_name": "RUE DE L ECHELLE", "sales": 7, "sales_appt": 2, "sales_maison": 1, "median_price": 116000.0, "median_price_per_sqm": 2416.6666666666665, "turnover_score": 15.6, "turnover_rank": 14, "first_year": 2021, "last_year": 2024, "years_active": 3}}, {"type": "Feature", "geometry": {"type": "Point", "coordinates": [3.241677, 48.419335]}, "properties": {"street_name": "LE BOUT DU PONT", "sales": 7, "sales_appt": 0, "sales_maison": 0, "median_price": 115000.0, "median_price_per_sqm": null, "turnover_score": 15.6, "turnover_rank": 14, "first_year": 2023, "last_year": 2025, "years_active": 3}}, {"type": "Feature", "geometry": {"type": "Point", "coordinates": [3.2369525, 48.409953]}, "properties": {"street_name": "RUE MARIE CURIE", "sales": 6, "sales_appt": 0, "sales_maison": 6, "median_price": 210000.0, "median_price_per_sqm": 1944.270015698587, "turnover_score": 13.3, "turnover_rank": 15, "first_year": 2021, "last_year": 2025, "years_active": 3}}, {"type": "Feature", "geometry": {"type": "Point", "coordinates": [3.2345715000000004, 48.417454]}, "properties": {"street_name": "FAUBOURG SAINT JEAN", "sales": 6, "sales_appt": 0, "sales_maison": 0, "median_price": 29500.0, "median_price_per_sqm": null, "turnover_score": 13.3, "turnover_rank": 15, "first_year": 2022, "last_year": 2025, "years_active": 2}}, {"type": "Feature", "geometry": {"type": "Point", "coordinates": [3.249334, 48.4104035]}, "properties": {"street_name": "RUE ANTOINE LAURENT LAVOISIER", "sales": 6, "sales_appt": 1, "sales_maison": 0, "median_price": 177000.0, "median_price_per_sqm": 1121.487636480411, "turnover_score": 13.3, "turnover_rank": 15, "first_year": 2021, "last_year": 2024, "years_active": 4}}, {"type": "Feature", "geometry": {"type": "Point", "coordinates": [3.231929, 48.410844]}, "properties": {"street_name": "RTE DE SENS", "sales": 6, "sales_appt": 0, "sales_maison": 3, "median_price": 150000.0, "median_price_per_sqm": 1500.0, "turnover_score": 13.3, "turnover_rank": 15, "first_year": 2023, "last_year": 2025, "years_active": 2}}, {"type": "Feature", "geometry": {"type": "Point", "coordinates": [3.238543, 48.409599]}, "properties": {"street_name": "RUE DES CHAMPS FLEURIS", "sales": 5, "sales_appt": 0, "sales_maison": 4, "median_price": 151000.0, "median_price_per_sqm": 1614.8504273504273, "turnover_score": 11.1, "turnover_rank": 16, "first_year": 2021, "last_year": 2023, "years_active": 3}}, {"type": "Feature", "geometry": {"type": "Point", "coordinates": [3.23499, 48.413791]}, "properties": {"street_name": "L ETANG BRODA", "sales": 5, "sales_appt": 0, "sales_maison": 0, "median_price": 93000.0, "median_price_per_sqm": null, "turnover_score": 11.1, "turnover_rank": 16, "first_year": 2022, "last_year": 2025, "years_active": 4}}, {"type": "Feature", "geometry": {"type": "Point", "coordinates": [3.239812, 48.413668]}, "properties": {"street_name": "RUE DU TRIPOT", "sales": 4, "sales_appt": 0, "sales_maison": 2, "median_price": 155000.0, "median_price_per_sqm": 1313.5593220338983, "turnover_score": 8.9, "turnover_rank": 17, "first_year": 2025, "last_year": 2025, "years_active": 1}}, {"type": "Feature", "geometry": {"type": "Point", "coordinates": [3.237055, 48.416293]}, "properties": {"street_name": "RUE EMILE ZOLA", "sales": 4, "sales_appt": 1, "sales_maison": 0, "median_price": 126000.0, "median_price_per_sqm": 1750.0, "turnover_score": 8.9, "turnover_rank": 17, "first_year": 2022, "last_year": 2022, "years_active": 1}}, {"type": "Feature", "geometry": {"type": "Point", "coordinates": [3.2338445, 48.412971]}, "properties": {"street_name": "RUE EUGENE PENANCIER", "sales": 4, "sales_appt": 0, "sales_maison": 4, "median_price": 212500.0, "median_price_per_sqm": 1895.1355661881978, "turnover_score": 8.9, "turnover_rank": 17, "first_year": 2022, "last_year": 2025, "years_active": 3}}, {"type": "Feature", "geometry": {"type": "Point", "coordinates": [3.2384335, 48.415175]}, "properties": {"street_name": "RUE JOSEPH BARA", "sales": 4, "sales_appt": 0, "sales_maison": 2, "median_price": 108000.0, "median_price_per_sqm": 1404.0677966101694, "turnover_score": 8.9, "turnover_rank": 17, "first_year": 2024, "last_year": 2025, "years_active": 2}}, {"type": "Feature", "geometry": {"type": "Point", "coordinates": [3.236495, 48.41446]}, "properties": {"street_name": "RUE DES BUTTES", "sales": 3, "sales_appt": 0, "sales_maison": 0, "median_price": 15000.0, "median_price_per_sqm": 167.28855721393035, "turnover_score": 6.7, "turnover_rank": 18, "first_year": 2024, "last_year": 2024, "years_active": 1}}, {"type": "Feature", "geometry": {"type": "Point", "coordinates": [3.242678, 48.413697]}, "properties": {"street_name": "RUE DU VIEUX MARCHE", "sales": 3, "sales_appt": 0, "sales_maison": 2, "median_price": 111500.0, "median_price_per_sqm": 1927.9214559386974, "turnover_score": 6.7, "turnover_rank": 18, "first_year": 2022, "last_year": 2022, "years_active": 1}}, {"type": "Feature", "geometry": {"type": "Point", "coordinates": [3.236101, 48.410336]}, "properties": {"street_name": "CITE ERTEVENT", "sales": 3, "sales_appt": 0, "sales_maison": 3, "median_price": 160000.0, "median_price_per_sqm": 1702.127659574468, "turnover_score": 6.7, "turnover_rank": 18, "first_year": 2021, "last_year": 2022, "years_active": 2}}, {"type": "Feature", "geometry": {"type": "Point", "coordinates": [3.237467, 48.416841]}, "properties": {"street_name": "QUAI DE L ILE", "sales": 3, "sales_appt": 1, "sales_maison": 0, "median_price": 118800.0, "median_price_per_sqm": 1414.2857142857142, "turnover_score": 6.7, "turnover_rank": 18, "first_year": 2021, "last_year": 2021, "years_active": 1}}, {"type": "Feature", "geometry": {"type": "Point", "coordinates": [3.242036, 48.40997]}, "properties": {"street_name": "RUE DE HEMSBACH", "sales": 3, "sales_appt": 0, "sales_maison": 3, "median_price": 145000.0, "median_price_per_sqm": 1606.741573033708, "turnover_score": 6.7, "turnover_rank": 18, "first_year": 2022, "last_year": 2024, "years_active": 3}}, {"type": "Feature", "geometry": {"type": "Point", "coordinates": [3.242502, 48.409538]}, "properties": {"street_name": "RUE GUILLAUME DE BRAY", "sales": 3, "sales_appt": 0, "sales_maison": 3, "median_price": 165000.0, "median_price_per_sqm": 1875.0, "turnover_score": 6.7, "turnover_rank": 18, "first_year": 2022, "last_year": 2023, "years_active": 2}}, {"type": "Feature", "geometry": {"type": "Point", "coordinates": [3.236961, 48.416767]}, "properties": {"street_name": "RUE DES ERMITES", "sales": 3, "sales_appt": 2, "sales_maison": 1, "median_price": 117000.0, "median_price_per_sqm": 2387.7551020408164, "turnover_score": 6.7, "turnover_rank": 18, "first_year": 2021, "last_year": 2022, "years_active": 2}}, {"type": "Feature", "geometry": {"type": "Point", "coordinates": [3.236591, 48.416698]}, "properties": {"street_name": "RUE DU MINAGE", "sales": 3, "sales_appt": 2, "sales_maison": 0, "median_price": 114150.0, "median_price_per_sqm": 2195.1923076923076, "turnover_score": 6.7, "turnover_rank": 18, "first_year": 2021, "last_year": 2022, "years_active": 2}}, {"type": "Feature", "geometry": {"type": "Point", "coordinates": [3.234344, 48.412574]}, "properties": {"street_name": "RUE DU DOCTEUR SCHWEITZER", "sales": 3, "sales_appt": 0, "sales_maison": 2, "median_price": 206000.0, "median_price_per_sqm": 1876.2132604237868, "turnover_score": 6.7, "turnover_rank": 18, "first_year": 2022, "last_year": 2025, "years_active": 3}}, {"type": "Feature", "geometry": {"type": "Point", "coordinates": [3.244479, 48.411829499999996]}, "properties": {"street_name": "ALL DES HIRONDELLES", "sales": 2, "sales_appt": 0, "sales_maison": 2, "median_price": 230000.0, "median_price_per_sqm": 1923.9766081871346, "turnover_score": 4.4, "turnover_rank": 19, "first_year": 2022, "last_year": 2025, "years_active": 2}}, {"type": "Feature", "geometry": {"type": "Point", "coordinates": [3.2375355, 48.409186]}, "properties": {"street_name": "RUE RONDELET", "sales": 2, "sales_appt": 0, "sales_maison": 2, "median_price": 275850.0, "median_price_per_sqm": 2170.2195423623994, "turnover_score": 4.4, "turnover_rank": 19, "first_year": 2023, "last_year": 2024, "years_active": 2}}, {"type": "Feature", "geometry": {"type": "Point", "coordinates": [3.2341225, 48.4173855]}, "properties": {"street_name": "RUE DU FAUBOURG SAINT JEAN", "sales": 2, "sales_appt": 0, "sales_maison": 0, "median_price": 30000.0, "median_price_per_sqm": null, "turnover_score": 4.4, "turnover_rank": 19, "first_year": 2025, "last_year": 2025, "years_active": 1}}, {"type": "Feature", "geometry": {"type": "Point", "coordinates": [3.23677, 48.416201]}, "properties": {"street_name": "RUE DU BAILLAGE", "sales": 2, "sales_appt": 0, "sales_maison": 1, "median_price": 110000.0, "median_price_per_sqm": 1557.2033898305085, "turnover_score": 4.4, "turnover_rank": 19, "first_year": 2024, "last_year": 2024, "years_active": 1}}, {"type": "Feature", "geometry": {"type": "Point", "coordinates": [3.237367, 48.408429999999996]}, "properties": {"street_name": "RUE DU CHANOINE BERNIER", "sales": 2, "sales_appt": 0, "sales_maison": 2, "median_price": 196500.0, "median_price_per_sqm": 1904.7461159530126, "turnover_score": 4.4, "turnover_rank": 19, "first_year": 2022, "last_year": 2022, "years_active": 1}}, {"type": "Feature", "geometry": {"type": "Point", "coordinates": [3.238548, 48.416301]}, "properties": {"street_name": "RUE DES TUILOTS", "sales": 2, "sales_appt": 0, "sales_maison": 0, "median_price": 25000.0, "median_price_per_sqm": null, "turnover_score": 4.4, "turnover_rank": 19, "first_year": 2021, "last_year": 2021, "years_active": 1}}, {"type": "Feature", "geometry": {"type": "Point", "coordinates": [3.235127, 48.415314]}, "properties": {"street_name": "RUE DES FOSSES DE LA TOUR", "sales": 2, "sales_appt": 0, "sales_maison": 1, "median_price": 101000.0, "median_price_per_sqm": 1147.7272727272727, "turnover_score": 4.4, "turnover_rank": 19, "first_year": 2024, "last_year": 2024, "years_active": 1}}, {"type": "Feature", "geometry": {"type": "Point", "coordinates": [3.236031, 48.416923]}, "properties": {"street_name": "RUE DES REMPARTS", "sales": 2, "sales_appt": 2, "sales_maison": 0, "median_price": 95000.0, "median_price_per_sqm": 1813.6363636363635, "turnover_score": 4.4, "turnover_rank": 19, "first_year": 2025, "last_year": 2025, "years_active": 1}}, {"type": "Feature", "geometry": {"type": "Point", "coordinates": [3.2444385000000002, 48.410967]}, "properties": {"street_name": "ALL DES PINSONS", "sales": 2, "sales_appt": 0, "sales_maison": 2, "median_price": 216250.0, "median_price_per_sqm": 2227.272727272727, "turnover_score": 4.4, "turnover_rank": 19, "first_year": 2021, "last_year": 2024, "years_active": 2}}, {"type": "Feature", "geometry": {"type": "Point", "coordinates": [3.239831, 48.408719]}, "properties": {"street_name": "ALL DES MARGUERITES", "sales": 1, "sales_appt": 0, "sales_maison": 1, "median_price": 177800.0, "median_price_per_sqm": 1433.8709677419354, "turnover_score": 2.2, "turnover_rank": 20, "first_year": 2021, "last_year": 2021, "years_active": 1}}, {"type": "Feature", "geometry": {"type": "Point", "coordinates": [3.243838, 48.412136]}, "properties": {"street_name": "ALL DES BOUVREUILS", "sales": 1, "sales_appt": 0, "sales_maison": 1, "median_price": 190000.0, "median_price_per_sqm": 2021.276595744681, "turnover_score": 2.2, "turnover_rank": 20, "first_year": 2022, "last_year": 2022, "years_active": 1}}, {"type": "Feature", "geometry": {"type": "Point", "coordinates": [3.238502, 48.408957]}, "properties": {"street_name": "ALL DES BLEUETS", "sales": 1, "sales_appt": 0, "sales_maison": 1, "median_price": 180000.0, "median_price_per_sqm": 1818.1818181818182, "turnover_score": 2.2, "turnover_rank": 20, "first_year": 2025, "last_year": 2025, "years_active": 1}}, {"type": "Feature", "geometry": {"type": "Point", "coordinates": [3.243221, 48.410444]}, "properties": {"street_name": "ALL DES ALOUETTES", "sales": 1, "sales_appt": 0, "sales_maison": 1, "median_price": 173000.0, "median_price_per_sqm": 1840.4255319148936, "turnover_score": 2.2, "turnover_rank": 20, "first_year": 2021, "last_year": 2021, "years_active": 1}}, {"type": "Feature", "geometry": {"type": "Point", "coordinates": [3.259995, 48.425422]}, "properties": {"street_name": "LE GRAND TARIF", "sales": 1, "sales_appt": 0, "sales_maison": 0, "median_price": 3700.0, "median_price_per_sqm": null, "turnover_score": 2.2, "turnover_rank": 20, "first_year": 2025, "last_year": 2025, "years_active": 1}}, {"type": "Feature", "geometry": {"type": "Point", "coordinates": [3.233587, 48.407711]}, "properties": {"street_name": "LA CROIX ROUGE", "sales": 1, "sales_appt": 0, "sales_maison": 0, "median_price": 40311.6, "median_price_per_sqm": null, "turnover_score": 2.2, "turnover_rank": 20, "first_year": 2021, "last_year": 2021, "years_active": 1}}, {"type": "Feature", "geometry": {"type": "Point", "coordinates": [3.234715, 48.41749]}, "properties": {"street_name": "QUAI DE LA GARE", "sales": 1, "sales_appt": 0, "sales_maison": 0, "median_price": 13000.0, "median_price_per_sqm": null, "turnover_score": 2.2, "turnover_rank": 20, "first_year": 2022, "last_year": 2022, "years_active": 1}}, {"type": "Feature", "geometry": {"type": "Point", "coordinates": [3.234649, 48.417116]}, "properties": {"street_name": "CHE DU CHATEAU FRILEUX", "sales": 1, "sales_appt": 0, "sales_maison": 1, "median_price": 140000.0, "median_price_per_sqm": 1166.6666666666667, "turnover_score": 2.2, "turnover_rank": 20, "first_year": 2025, "last_year": 2025, "years_active": 1}}, {"type": "Feature", "geometry": {"type": "Point", "coordinates": [3.236885, 48.410671]}, "properties": {"street_name": "RUE DE VILLECEAUX", "sales": 1, "sales_appt": 0, "sales_maison": 1, "median_price": 136000.0, "median_price_per_sqm": 1581.3953488372092, "turnover_score": 2.2, "turnover_rank": 20, "first_year": 2024, "last_year": 2024, "years_active": 1}}, {"type": "Feature", "geometry": {"type": "Point", "coordinates": [3.234852, 48.414935]}, "properties": {"street_name": "RUE DE L ETANG BRODA", "sales": 1, "sales_appt": 0, "sales_maison": 1, "median_price": 93000.0, "median_price_per_sqm": 2066.6666666666665, "turnover_score": 2.2, "turnover_rank": 20, "first_year": 2025, "last_year": 2025, "years_active": 1}}, {"type": "Feature", "geometry": {"type": "Point", "coordinates": [3.244437, 48.41371]}, "properties": {"street_name": "LES PATURES", "sales": 1, "sales_appt": 0, "sales_maison": 0, "median_price": 10000.0, "median_price_per_sqm": null, "turnover_score": 2.2, "turnover_rank": 20, "first_year": 2021, "last_year": 2021, "years_active": 1}}, {"type": "Feature", "geometry": {"type": "Point", "coordinates": [3.243828, 48.41097]}, "properties": {"street_name": "RUE DES CORNEILLES", "sales": 1, "sales_appt": 0, "sales_maison": 1, "median_price": 197000.0, "median_price_per_sqm": 2698.6301369863013, "turnover_score": 2.2, "turnover_rank": 20, "first_year": 2022, "last_year": 2022, "years_active": 1}}, {"type": "Feature", "geometry": {"type": "Point", "coordinates": [3.239417, 48.411933]}, "properties": {"street_name": "RUE DU DOCTEUR LOBLIGEOIS", "sales": 1, "sales_appt": 0, "sales_maison": 1, "median_price": 195000.0, "median_price_per_sqm": 2191.0112359550562, "turnover_score": 2.2, "turnover_rank": 20, "first_year": 2021, "last_year": 2021, "years_active": 1}}, {"type": "Feature", "geometry": {"type": "Point", "coordinates": [3.240239, 48.412673]}, "properties": {"street_name": "RUE JULES FERRY", "sales": 1, "sales_appt": 0, "sales_maison": 0, "median_price": 1700.0, "median_price_per_sqm": null, "turnover_score": 2.2, "turnover_rank": 20, "first_year": 2025, "last_year": 2025, "years_active": 1}}, {"type": "Feature", "geometry": {"type": "Point", "coordinates": [3.236164, 48.416832]}, "properties": {"street_name": "RUE RICHEBOURG", "sales": 1, "sales_appt": 0, "sales_maison": 1, "median_price": 102600.0, "median_price_per_sqm": 2052.0, "turnover_score": 2.2, "turnover_rank": 20, "first_year": 2022, "last_year": 2022, "years_active": 1}}, {"type": "Feature", "geometry": {"type": "Point", "coordinates": [3.236707, 48.408941]}, "properties": {"street_name": "RUE NICOLLE BERNARD", "sales": 1, "sales_appt": 0, "sales_maison": 1, "median_price": 240000.0, "median_price_per_sqm": 1500.0, "turnover_score": 2.2, "turnover_rank": 20, "first_year": 2025, "last_year": 2025, "years_active": 1}}]}