{"type": "FeatureCollection", "features": [{"type": "Feature", "geometry": {"type": "Point", "coordinates": [3.292089, 48.428262]}, "properties": {"year": 2021, "valeur_fonciere": 42000.0, "type_local": null, "surface_reelle_bati": null, "nombre_pieces_principales": null, "adresse_nom_voie": "CHAUMARD", "price_per_sqm": null, "date_iso": "2021-09-24", "parcelle": "77507000YD0016", "addr_num": ""}}, {"type": "Feature", "geometry": {"type": "Point", "coordinates": [3.292256, 48.428258]}, "properties": {"year": 2021, "valeur_fonciere": 42000.0, "type_local": null, "surface_reelle_bati": null, "nombre_pieces_principales": null, "adresse_nom_voie": "CHAUMARD", "price_per_sqm": null, "date_iso": "2021-09-24", "parcelle": "77507000YD0017", "addr_num": ""}}, {"type": "Feature", "geometry": {"type": "Point", "coordinates": [3.292356, 48.428256]}, "properties": {"year": 2021, "valeur_fonciere": 42000.0, "type_local": null, "surface_reelle_bati": null, "nombre_pieces_principales": null, "adresse_nom_voie": "CHAUMARD", "price_per_sqm": null, "date_iso": "2021-09-24", "parcelle": "77507000YD0018", "addr_num": ""}}, {"type": "Feature", "geometry": {"type": "Point", "coordinates": [3.293362, 48.428506]}, "properties": {"year": 2021, "valeur_fonciere": 42000.0, "type_local": null, "surface_reelle_bati": null, "nombre_pieces_principales": null, "adresse_nom_voie": "CHAUMARD", "price_per_sqm": null, "date_iso": "2021-09-24", "parcelle": "77507000YD0028", "addr_num": ""}}, {"type": "Feature", "geometry": {"type": "Point", "coordinates": [3.298715, 48.428716]}, "properties": {"year": 2021, "valeur_fonciere": 42000.0, "type_local": null, "surface_reelle_bati": null, "nombre_pieces_principales": null, "adresse_nom_voie": "CHAUMARD", "price_per_sqm": null, "date_iso": "2021-09-24", "parcelle": "77507000ZB0079", "addr_num": ""}}, {"type": "Feature", "geometry": {"type": "Point", "coordinates": [3.309844, 48.403642]}, "properties": {"year": 2021, "valeur_fonciere": 117000.0, "type_local": "Dépendance", "surface_reelle_bati": null, "nombre_pieces_principales": 0.0, "adresse_nom_voie": "RTE DE BRAY", "price_per_sqm": null, "date_iso": "2021-10-15", "parcelle": "77507000AB0068", "addr_num": "4"}}, {"type": "Feature", "geometry": {"type": "Point", "coordinates": [3.309844, 48.403642]}, "properties": {"year": 2021, "valeur_fonciere": 117000.0, "type_local": "Maison", "surface_reelle_bati": 80.0, "nombre_pieces_principales": 3.0, "adresse_nom_voie": "RTE DE BRAY", "price_per_sqm": 1462.5, "date_iso": "2021-10-15", "parcelle": "77507000AB0068", "addr_num": "4"}}, {"type": "Feature", "geometry": {"type": "Point", "coordinates": [3.309484, 48.403637]}, "properties": {"year": 2021, "valeur_fonciere": 117000.0, "type_local": null, "surface_reelle_bati": null, "nombre_pieces_principales": null, "adresse_nom_voie": "VILLENAUXE LA PETITE", "price_per_sqm": null, "date_iso": "2021-10-15", "parcelle": "77507000AB0069", "addr_num": ""}}, {"type": "Feature", "geometry": {"type": "Point", "coordinates": [3.309512, 48.403831]}, "properties": {"year": 2021, "valeur_fonciere": 117000.0, "type_local": null, "surface_reelle_bati": null, "nombre_pieces_principales": null, "adresse_nom_voie": "VILLENAUXE LA PETITE", "price_per_sqm": null, "date_iso": "2021-10-15", "parcelle": "77507000AB0070", "addr_num": ""}}, {"type": "Feature", "geometry": {"type": "Point", "coordinates": [3.312648, 48.4067]}, "properties": {"year": 2021, "valeur_fonciere": 35000.0, "type_local": null, "surface_reelle_bati": null, "nombre_pieces_principales": null, "adresse_nom_voie": "VILLENAUXE LA PETITE", "price_per_sqm": null, "date_iso": "2021-09-28", "parcelle": "77507000AB0379", "addr_num": ""}}, {"type": "Feature", "geometry": {"type": "Point", "coordinates": [3.294312, 48.392891]}, "properties": {"year": 2021, "valeur_fonciere": 230000.0, "type_local": null, "surface_reelle_bati": null, "nombre_pieces_principales": null, "adresse_nom_voie": "SIBOULARD", "price_per_sqm": null, "date_iso": "2021-12-22", "parcelle": "77507000ZT0017", "addr_num": ""}}, {"type": "Feature", "geometry": {"type": "Point", "coordinates": [3.294312, 48.392891]}, "properties": {"year": 2021, "valeur_fonciere": 230000.0, "type_local": null, "surface_reelle_bati": null, "nombre_pieces_principales": null, "adresse_nom_voie": "SIBOULARD", "price_per_sqm": null, "date_iso": "2021-12-22", "parcelle": "77507000ZT0017", "addr_num": ""}}, {"type": "Feature", "geometry": {"type": "Point", "coordinates": [3.294674, 48.392161]}, "properties": {"year": 2021, "valeur_fonciere": 230000.0, "type_local": null, "surface_reelle_bati": null, "nombre_pieces_principales": null, "adresse_nom_voie": "SIBOULARD", "price_per_sqm": null, "date_iso": "2021-12-22", "parcelle": "77507000ZT0018", "addr_num": ""}}, {"type": "Feature", "geometry": {"type": "Point", "coordinates": [3.294674, 48.392161]}, "properties": {"year": 2021, "valeur_fonciere": 230000.0, "type_local": null, "surface_reelle_bati": null, "nombre_pieces_principales": null, "adresse_nom_voie": "SIBOULARD", "price_per_sqm": null, "date_iso": "2021-12-22", "parcelle": "77507000ZT0018", "addr_num": ""}}, {"type": "Feature", "geometry": {"type": "Point", "coordinates": [3.292221, 48.391768]}, "properties": {"year": 2021, "valeur_fonciere": 230000.0, "type_local": null, "surface_reelle_bati": null, "nombre_pieces_principales": null, "adresse_nom_voie": "SIBOULARD", "price_per_sqm": null, "date_iso": "2021-12-22", "parcelle": "77507000ZT0019", "addr_num": ""}}, {"type": "Feature", "geometry": {"type": "Point", "coordinates": [3.292221, 48.391768]}, "properties": {"year": 2021, "valeur_fonciere": 230000.0, "type_local": null, "surface_reelle_bati": null, "nombre_pieces_principales": null, "adresse_nom_voie": "SIBOULARD", "price_per_sqm": null, "date_iso": "2021-12-22", "parcelle": "77507000ZT0019", "addr_num": ""}}, {"type": "Feature", "geometry": {"type": "Point", "coordinates": [3.295103, 48.392198]}, "properties": {"year": 2021, "valeur_fonciere": 230000.0, "type_local": "Local industriel. commercial ou assimilé", "surface_reelle_bati": 390.0, "nombre_pieces_principales": 0.0, "adresse_nom_voie": "RUE DE VILLIERS", "price_per_sqm": 589.7435897435897, "date_iso": "2021-12-22", "parcelle": "77507000ZT0093", "addr_num": "1"}}, {"type": "Feature", "geometry": {"type": "Point", "coordinates": [3.295103, 48.392198]}, "properties": {"year": 2021, "valeur_fonciere": 230000.0, "type_local": "Dépendance", "surface_reelle_bati": null, "nombre_pieces_principales": 0.0, "adresse_nom_voie": "RUE DE VILLIERS", "price_per_sqm": null, "date_iso": "2021-12-22", "parcelle": "77507000ZT0093", "addr_num": "1"}}, {"type": "Feature", "geometry": {"type": "Point", "coordinates": [3.295103, 48.392198]}, "properties": {"year": 2021, "valeur_fonciere": 230000.0, "type_local": "Maison", "surface_reelle_bati": 109.0, "nombre_pieces_principales": 3.0, "adresse_nom_voie": "RUE DE VILLIERS", "price_per_sqm": 2110.091743119266, "date_iso": "2021-12-22", "parcelle": "77507000ZT0093", "addr_num": "1"}}, {"type": "Feature", "geometry": {"type": "Point", "coordinates": [3.294735, 48.392632]}, "properties": {"year": 2021, "valeur_fonciere": 230000.0, "type_local": null, "surface_reelle_bati": null, "nombre_pieces_principales": null, "adresse_nom_voie": "SIBOULARD", "price_per_sqm": null, "date_iso": "2021-12-22", "parcelle": "77507000ZT0094", "addr_num": ""}}, {"type": "Feature", "geometry": {"type": "Point", "coordinates": [3.297603, 48.395501]}, "properties": {"year": 2021, "valeur_fonciere": 299300.0, "type_local": "Maison", "surface_reelle_bati": 137.0, "nombre_pieces_principales": 6.0, "adresse_nom_voie": "RUE DE VILLIERS", "price_per_sqm": 2184.6715328467153, "date_iso": "2021-01-16", "parcelle": "77507000ZR0122", "addr_num": "12"}}, {"type": "Feature", "geometry": {"type": "Point", "coordinates": [3.297603, 48.395501]}, "properties": {"year": 2021, "valeur_fonciere": 299300.0, "type_local": "Maison", "surface_reelle_bati": 137.0, "nombre_pieces_principales": 6.0, "adresse_nom_voie": "RUE DE VILLIERS", "price_per_sqm": 2184.6715328467153, "date_iso": "2021-01-16", "parcelle": "77507000ZR0122", "addr_num": "12"}}, {"type": "Feature", "geometry": {"type": "Point", "coordinates": [3.310482, 48.409937]}, "properties": {"year": 2021, "valeur_fonciere": 130000.0, "type_local": "Maison", "surface_reelle_bati": 197.0, "nombre_pieces_principales": 6.0, "adresse_nom_voie": "RUE GRANDE", "price_per_sqm": 659.8984771573604, "date_iso": "2021-01-23", "parcelle": "77507000AB0203", "addr_num": "47"}}, {"type": "Feature", "geometry": {"type": "Point", "coordinates": [3.312913, 48.410718]}, "properties": {"year": 2021, "valeur_fonciere": 2500.0, "type_local": null, "surface_reelle_bati": null, "nombre_pieces_principales": null, "adresse_nom_voie": "LE CHEMIN DE LA LIMOUSINE", "price_per_sqm": null, "date_iso": "2021-02-03", "parcelle": "77507000ZI0003", "addr_num": ""}}, {"type": "Feature", "geometry": {"type": "Point", "coordinates": [3.312913, 48.410718]}, "properties": {"year": 2021, "valeur_fonciere": 2500.0, "type_local": null, "surface_reelle_bati": null, "nombre_pieces_principales": null, "adresse_nom_voie": "LE CHEMIN DE LA LIMOUSINE", "price_per_sqm": null, "date_iso": "2021-02-03", "parcelle": "77507000ZI0003", "addr_num": ""}}, {"type": "Feature", "geometry": {"type": "Point", "coordinates": [3.313161, 48.410799]}, "properties": {"year": 2021, "valeur_fonciere": 2500.0, "type_local": null, "surface_reelle_bati": null, "nombre_pieces_principales": null, "adresse_nom_voie": "LE CHEMIN DE LA LIMOUSINE", "price_per_sqm": null, "date_iso": "2021-02-03", "parcelle": "77507000ZI0004", "addr_num": ""}}, {"type": "Feature", "geometry": {"type": "Point", "coordinates": [3.336473, 48.420389]}, "properties": {"year": 2021, "valeur_fonciere": 500.0, "type_local": null, "surface_reelle_bati": null, "nombre_pieces_principales": null, "adresse_nom_voie": "LES BOIS DE VERNOY", "price_per_sqm": null, "date_iso": "2021-02-20", "parcelle": "77507000ZH0033", "addr_num": ""}}, {"type": "Feature", "geometry": {"type": "Point", "coordinates": [3.300439, 48.428707]}, "properties": {"year": 2021, "valeur_fonciere": 125000.0, "type_local": null, "surface_reelle_bati": null, "nombre_pieces_principales": null, "adresse_nom_voie": "LE PETIT ETANG", "price_per_sqm": null, "date_iso": "2021-03-08", "parcelle": "77507000ZB0006", "addr_num": ""}}, {"type": "Feature", "geometry": {"type": "Point", "coordinates": [3.300652, 48.427776]}, "properties": {"year": 2021, "valeur_fonciere": 125000.0, "type_local": null, "surface_reelle_bati": null, "nombre_pieces_principales": null, "adresse_nom_voie": "LE MOULIN DE HAUTS FOSSES", "price_per_sqm": null, "date_iso": "2021-03-08", "parcelle": "77507000ZB0059", "addr_num": ""}}, {"type": "Feature", "geometry": {"type": "Point", "coordinates": [3.300652, 48.427776]}, "properties": {"year": 2021, "valeur_fonciere": 125000.0, "type_local": null, "surface_reelle_bati": null, "nombre_pieces_principales": null, "adresse_nom_voie": "LE MOULIN DE HAUTS FOSSES", "price_per_sqm": null, "date_iso": "2021-03-08", "parcelle": "77507000ZB0059", "addr_num": ""}}, {"type": "Feature", "geometry": {"type": "Point", "coordinates": [3.30057, 48.427117]}, "properties": {"year": 2021, "valeur_fonciere": 125000.0, "type_local": "Maison", "surface_reelle_bati": 253.0, "nombre_pieces_principales": 8.0, "adresse_nom_voie": "LE MOULIN DE HAUTS FOSSES", "price_per_sqm": 494.0711462450593, "date_iso": "2021-03-08", "parcelle": "77507000ZB0082", "addr_num": "5007"}}, {"type": "Feature", "geometry": {"type": "Point", "coordinates": [3.296133, 48.391719]}, "properties": {"year": 2021, "valeur_fonciere": 247500.0, "type_local": "Maison", "surface_reelle_bati": 164.0, "nombre_pieces_principales": 5.0, "adresse_nom_voie": "RUE DE VILLIERS", "price_per_sqm": 1509.1463414634147, "date_iso": "2021-04-17", "parcelle": "77507000ZS0079", "addr_num": "4"}}, {"type": "Feature", "geometry": {"type": "Point", "coordinates": [3.30786, 48.410015]}, "properties": {"year": 2021, "valeur_fonciere": 118000.0, "type_local": null, "surface_reelle_bati": null, "nombre_pieces_principales": null, "adresse_nom_voie": "VILLENAUXE LA PETITE", "price_per_sqm": null, "date_iso": "2021-06-01", "parcelle": "77507000AB0177", "addr_num": ""}}, {"type": "Feature", "geometry": {"type": "Point", "coordinates": [3.308326, 48.410153]}, "properties": {"year": 2021, "valeur_fonciere": 118000.0, "type_local": "Dépendance", "surface_reelle_bati": null, "nombre_pieces_principales": 0.0, "adresse_nom_voie": "RUE DES MARDELLES", "price_per_sqm": null, "date_iso": "2021-06-01", "parcelle": "77507000AB0302", "addr_num": "37"}}, {"type": "Feature", "geometry": {"type": "Point", "coordinates": [3.308326, 48.410153]}, "properties": {"year": 2021, "valeur_fonciere": 118000.0, "type_local": "Maison", "surface_reelle_bati": 45.0, "nombre_pieces_principales": 4.0, "adresse_nom_voie": "RUE DES MARDELLES", "price_per_sqm": 2622.222222222222, "date_iso": "2021-06-01", "parcelle": "77507000AB0302", "addr_num": "37"}}, {"type": "Feature", "geometry": {"type": "Point", "coordinates": [3.308326, 48.410153]}, "properties": {"year": 2021, "valeur_fonciere": 118000.0, "type_local": "Dépendance", "surface_reelle_bati": null, "nombre_pieces_principales": 0.0, "adresse_nom_voie": "RUE DES MARDELLES", "price_per_sqm": null, "date_iso": "2021-06-01", "parcelle": "77507000AB0302", "addr_num": "37"}}, {"type": "Feature", "geometry": {"type": "Point", "coordinates": [3.310295, 48.4106]}, "properties": {"year": 2021, "valeur_fonciere": 69000.0, "type_local": "Maison", "surface_reelle_bati": 50.0, "nombre_pieces_principales": 1.0, "adresse_nom_voie": "RUE COUVERTE", "price_per_sqm": 1380.0, "date_iso": "2021-06-05", "parcelle": "77507000AB0217", "addr_num": "2"}}, {"type": "Feature", "geometry": {"type": "Point", "coordinates": [3.316209, 48.405064]}, "properties": {"year": 2021, "valeur_fonciere": 221000.0, "type_local": null, "surface_reelle_bati": null, "nombre_pieces_principales": null, "adresse_nom_voie": "BEAUREGARD", "price_per_sqm": null, "date_iso": "2021-06-05", "parcelle": "77507000ZV0108", "addr_num": ""}}, {"type": "Feature", "geometry": {"type": "Point", "coordinates": [3.315392, 48.405391]}, "properties": {"year": 2021, "valeur_fonciere": 221000.0, "type_local": "Dépendance", "surface_reelle_bati": null, "nombre_pieces_principales": 0.0, "adresse_nom_voie": "RUE DE BEAUREGARD", "price_per_sqm": null, "date_iso": "2021-06-05", "parcelle": "77507000ZV0133", "addr_num": "6"}}, {"type": "Feature", "geometry": {"type": "Point", "coordinates": [3.315392, 48.405391]}, "properties": {"year": 2021, "valeur_fonciere": 221000.0, "type_local": "Maison", "surface_reelle_bati": 144.0, "nombre_pieces_principales": 5.0, "adresse_nom_voie": "RUE DE BEAUREGARD", "price_per_sqm": 1534.7222222222222, "date_iso": "2021-06-05", "parcelle": "77507000ZV0133", "addr_num": "6"}}, {"type": "Feature", "geometry": {"type": "Point", "coordinates": [3.315392, 48.405391]}, "properties": {"year": 2021, "valeur_fonciere": 221000.0, "type_local": "Maison", "surface_reelle_bati": 54.0, "nombre_pieces_principales": 2.0, "adresse_nom_voie": "RUE DE BEAUREGARD", "price_per_sqm": 4092.5925925925926, "date_iso": "2021-06-05", "parcelle": "77507000ZV0133", "addr_num": "6"}}, {"type": "Feature", "geometry": {"type": "Point", "coordinates": [3.315392, 48.405391]}, "properties": {"year": 2021, "valeur_fonciere": 221000.0, "type_local": "Dépendance", "surface_reelle_bati": null, "nombre_pieces_principales": 0.0, "adresse_nom_voie": "RUE DE BEAUREGARD", "price_per_sqm": null, "date_iso": "2021-06-05", "parcelle": "77507000ZV0133", "addr_num": "6"}}, {"type": "Feature", "geometry": {"type": "Point", "coordinates": [3.315507, 48.405008]}, "properties": {"year": 2021, "valeur_fonciere": 221000.0, "type_local": null, "surface_reelle_bati": null, "nombre_pieces_principales": null, "adresse_nom_voie": "BEAUREGARD", "price_per_sqm": null, "date_iso": "2021-06-05", "parcelle": "77507000ZV0134", "addr_num": ""}}, {"type": "Feature", "geometry": {"type": "Point", "coordinates": [3.315707, 48.405135]}, "properties": {"year": 2021, "valeur_fonciere": 221000.0, "type_local": null, "surface_reelle_bati": null, "nombre_pieces_principales": null, "adresse_nom_voie": "BEAUREGARD", "price_per_sqm": null, "date_iso": "2021-06-05", "parcelle": "77507000ZV0135", "addr_num": ""}}, {"type": "Feature", "geometry": {"type": "Point", "coordinates": [3.315685, 48.405455]}, "properties": {"year": 2021, "valeur_fonciere": 221000.0, "type_local": null, "surface_reelle_bati": null, "nombre_pieces_principales": null, "adresse_nom_voie": "BEAUREGARD", "price_per_sqm": null, "date_iso": "2021-06-05", "parcelle": "77507000ZV0136", "addr_num": ""}}, {"type": "Feature", "geometry": {"type": "Point", "coordinates": [3.315927, 48.405392]}, "properties": {"year": 2021, "valeur_fonciere": 221000.0, "type_local": null, "surface_reelle_bati": null, "nombre_pieces_principales": null, "adresse_nom_voie": "BEAUREGARD", "price_per_sqm": null, "date_iso": "2021-06-05", "parcelle": "77507000ZV0137", "addr_num": ""}}, {"type": "Feature", "geometry": {"type": "Point", "coordinates": [3.31624, 48.40523]}, "properties": {"year": 2021, "valeur_fonciere": 221000.0, "type_local": null, "surface_reelle_bati": null, "nombre_pieces_principales": null, "adresse_nom_voie": "BEAUREGARD", "price_per_sqm": null, "date_iso": "2021-06-05", "parcelle": "77507000ZV0138", "addr_num": ""}}, {"type": "Feature", "geometry": {"type": "Point", "coordinates": [3.310428, 48.404851]}, "properties": {"year": 2021, "valeur_fonciere": 174000.0, "type_local": "Maison", "surface_reelle_bati": 98.0, "nombre_pieces_principales": 2.0, "adresse_nom_voie": "RUE GRANDE", "price_per_sqm": 1775.5102040816328, "date_iso": "2021-07-02", "parcelle": "77507000AB0062", "addr_num": "10"}}, {"type": "Feature", "geometry": {"type": "Point", "coordinates": [3.297161, 48.392913]}, "properties": {"year": 2021, "valeur_fonciere": 160500.0, "type_local": null, "surface_reelle_bati": null, "nombre_pieces_principales": null, "adresse_nom_voie": "SIBOULARD", "price_per_sqm": null, "date_iso": "2021-07-01", "parcelle": "77507000ZT0088", "addr_num": ""}}, {"type": "Feature", "geometry": {"type": "Point", "coordinates": [3.297225, 48.392633]}, "properties": {"year": 2021, "valeur_fonciere": 160500.0, "type_local": "Dépendance", "surface_reelle_bati": null, "nombre_pieces_principales": 0.0, "adresse_nom_voie": "RUE DE VILLIERS", "price_per_sqm": null, "date_iso": "2021-07-01", "parcelle": "77507000ZT0089", "addr_num": "7"}}, {"type": "Feature", "geometry": {"type": "Point", "coordinates": [3.297225, 48.392633]}, "properties": {"year": 2021, "valeur_fonciere": 160500.0, "type_local": "Maison", "surface_reelle_bati": 83.0, "nombre_pieces_principales": 3.0, "adresse_nom_voie": "RUE DE VILLIERS", "price_per_sqm": 1933.7349397590363, "date_iso": "2021-07-01", "parcelle": "77507000ZT0089", "addr_num": "7"}}, {"type": "Feature", "geometry": {"type": "Point", "coordinates": [3.308104, 48.407933]}, "properties": {"year": 2022, "valeur_fonciere": 175000.0, "type_local": "Maison", "surface_reelle_bati": 108.0, "nombre_pieces_principales": 5.0, "adresse_nom_voie": "RUE DES MARDELLES", "price_per_sqm": 1620.3703703703704, "date_iso": "2022-01-29", "parcelle": "77507000AB0321", "addr_num": "21"}}, {"type": "Feature", "geometry": {"type": "Point", "coordinates": [3.307781, 48.407987]}, "properties": {"year": 2022, "valeur_fonciere": 175000.0, "type_local": null, "surface_reelle_bati": null, "nombre_pieces_principales": null, "adresse_nom_voie": "VILLENAUXE LA PETITE", "price_per_sqm": null, "date_iso": "2022-01-29", "parcelle": "77507000AB0324", "addr_num": ""}}, {"type": "Feature", "geometry": {"type": "Point", "coordinates": [3.332837, 48.421252]}, "properties": {"year": 2022, "valeur_fonciere": 90000.0, "type_local": null, "surface_reelle_bati": null, "nombre_pieces_principales": null, "adresse_nom_voie": "VERNOY", "price_per_sqm": null, "date_iso": "2022-02-24", "parcelle": "77507000ZE0031", "addr_num": ""}}, {"type": "Feature", "geometry": {"type": "Point", "coordinates": [3.332901, 48.421288]}, "properties": {"year": 2022, "valeur_fonciere": 90000.0, "type_local": null, "surface_reelle_bati": null, "nombre_pieces_principales": null, "adresse_nom_voie": "VERNOY", "price_per_sqm": null, "date_iso": "2022-02-24", "parcelle": "77507000ZE0032", "addr_num": ""}}, {"type": "Feature", "geometry": {"type": "Point", "coordinates": [3.332667, 48.421448]}, "properties": {"year": 2022, "valeur_fonciere": 90000.0, "type_local": "Maison", "surface_reelle_bati": 60.0, "nombre_pieces_principales": 2.0, "adresse_nom_voie": "RUE DE PASSY", "price_per_sqm": 1500.0, "date_iso": "2022-02-24", "parcelle": "77507000ZE0034", "addr_num": "4"}}, {"type": "Feature", "geometry": {"type": "Point", "coordinates": [3.332639, 48.421759]}, "properties": {"year": 2022, "valeur_fonciere": 90000.0, "type_local": null, "surface_reelle_bati": null, "nombre_pieces_principales": null, "adresse_nom_voie": "VERNOY", "price_per_sqm": null, "date_iso": "2022-02-24", "parcelle": "77507000ZE0035", "addr_num": ""}}, {"type": "Feature", "geometry": {"type": "Point", "coordinates": [3.297358, 48.378791]}, "properties": {"year": 2022, "valeur_fonciere": 216315.0, "type_local": null, "surface_reelle_bati": null, "nombre_pieces_principales": null, "adresse_nom_voie": "LE CHAPITRE DE VILLIERS", "price_per_sqm": null, "date_iso": "2022-03-17", "parcelle": "77507000YH0102", "addr_num": ""}}, {"type": "Feature", "geometry": {"type": "Point", "coordinates": [3.33312, 48.394995]}, "properties": {"year": 2022, "valeur_fonciere": 216315.0, "type_local": null, "surface_reelle_bati": null, "nombre_pieces_principales": null, "adresse_nom_voie": "VAUROGNON", "price_per_sqm": null, "date_iso": "2022-03-17", "parcelle": "77507000ZL0024", "addr_num": ""}}, {"type": "Feature", "geometry": {"type": "Point", "coordinates": [3.33312, 48.394995]}, "properties": {"year": 2022, "valeur_fonciere": 216315.0, "type_local": null, "surface_reelle_bati": null, "nombre_pieces_principales": null, "adresse_nom_voie": "VAUROGNON", "price_per_sqm": null, "date_iso": "2022-03-17", "parcelle": "77507000ZL0024", "addr_num": ""}}, {"type": "Feature", "geometry": {"type": "Point", "coordinates": [3.333606, 48.398401]}, "properties": {"year": 2022, "valeur_fonciere": 216315.0, "type_local": null, "surface_reelle_bati": null, "nombre_pieces_principales": null, "adresse_nom_voie": "BRIOTTE", "price_per_sqm": null, "date_iso": "2022-03-17", "parcelle": "77507000ZL0079", "addr_num": ""}}, {"type": "Feature", "geometry": {"type": "Point", "coordinates": [3.331266, 48.38251]}, "properties": {"year": 2022, "valeur_fonciere": 216315.0, "type_local": null, "surface_reelle_bati": null, "nombre_pieces_principales": null, "adresse_nom_voie": "LES 36 ARPENTS", "price_per_sqm": null, "date_iso": "2022-03-17", "parcelle": "77507000ZM0020", "addr_num": ""}}, {"type": "Feature", "geometry": {"type": "Point", "coordinates": [3.296438, 48.380372]}, "properties": {"year": 2022, "valeur_fonciere": 216315.0, "type_local": null, "surface_reelle_bati": null, "nombre_pieces_principales": null, "adresse_nom_voie": "LES ECREVISSIERS", "price_per_sqm": null, "date_iso": "2022-03-17", "parcelle": "77507000ZS0087", "addr_num": ""}}, {"type": "Feature", "geometry": {"type": "Point", "coordinates": [3.296438, 48.380372]}, "properties": {"year": 2022, "valeur_fonciere": 216315.0, "type_local": null, "surface_reelle_bati": null, "nombre_pieces_principales": null, "adresse_nom_voie": "LES ECREVISSIERS", "price_per_sqm": null, "date_iso": "2022-03-17", "parcelle": "77507000ZS0087", "addr_num": ""}}, {"type": "Feature", "geometry": {"type": "Point", "coordinates": [3.288305, 48.396788]}, "properties": {"year": 2022, "valeur_fonciere": 216315.0, "type_local": null, "surface_reelle_bati": null, "nombre_pieces_principales": null, "adresse_nom_voie": "LE PETIT BLEINE", "price_per_sqm": null, "date_iso": "2022-03-17", "parcelle": "77507000ZT0046", "addr_num": ""}}, {"type": "Feature", "geometry": {"type": "Point", "coordinates": [3.324237, 48.378869]}, "properties": {"year": 2022, "valeur_fonciere": 216315.0, "type_local": null, "surface_reelle_bati": null, "nombre_pieces_principales": null, "adresse_nom_voie": "LES GRANDS ECHARS", "price_per_sqm": null, "date_iso": "2022-03-17", "parcelle": "77507000ZY0001", "addr_num": ""}}, {"type": "Feature", "geometry": {"type": "Point", "coordinates": [3.312463, 48.406273]}, "properties": {"year": 2022, "valeur_fonciere": 120000.0, "type_local": "Maison", "surface_reelle_bati": 78.0, "nombre_pieces_principales": 3.0, "adresse_nom_voie": "RUE DU CHATEAU D EAU", "price_per_sqm": 1538.4615384615386, "date_iso": "2022-04-21", "parcelle": "77507000AB0412", "addr_num": "8"}}, {"type": "Feature", "geometry": {"type": "Point", "coordinates": [3.307156, 48.407202]}, "properties": {"year": 2022, "valeur_fonciere": 166000.0, "type_local": "Maison", "surface_reelle_bati": 81.0, "nombre_pieces_principales": 4.0, "adresse_nom_voie": "RUE DES MARDELLES", "price_per_sqm": 2049.382716049383, "date_iso": "2022-04-14", "parcelle": "77507000AB0139", "addr_num": "17"}}, {"type": "Feature", "geometry": {"type": "Point", "coordinates": [3.307156, 48.407202]}, "properties": {"year": 2022, "valeur_fonciere": 166000.0, "type_local": "Maison", "surface_reelle_bati": 81.0, "nombre_pieces_principales": 4.0, "adresse_nom_voie": "RUE DES MARDELLES", "price_per_sqm": 2049.382716049383, "date_iso": "2022-04-14", "parcelle": "77507000AB0139", "addr_num": "17"}}, {"type": "Feature", "geometry": {"type": "Point", "coordinates": [3.307156, 48.407202]}, "properties": {"year": 2022, "valeur_fonciere": 166000.0, "type_local": "Dépendance", "surface_reelle_bati": null, "nombre_pieces_principales": 0.0, "adresse_nom_voie": "RUE DES MARDELLES", "price_per_sqm": null, "date_iso": "2022-04-14", "parcelle": "77507000AB0139", "addr_num": "17"}}, {"type": "Feature", "geometry": {"type": "Point", "coordinates": [3.307156, 48.407202]}, "properties": {"year": 2022, "valeur_fonciere": 166000.0, "type_local": "Dépendance", "surface_reelle_bati": null, "nombre_pieces_principales": 0.0, "adresse_nom_voie": "RUE DES MARDELLES", "price_per_sqm": null, "date_iso": "2022-04-14", "parcelle": "77507000AB0139", "addr_num": "17"}}, {"type": "Feature", "geometry": {"type": "Point", "coordinates": [3.309425, 48.408256]}, "properties": {"year": 2022, "valeur_fonciere": 20000.0, "type_local": null, "surface_reelle_bati": null, "nombre_pieces_principales": null, "adresse_nom_voie": "VILLENAUXE LA PETITE", "price_per_sqm": null, "date_iso": "2022-04-14", "parcelle": "77507000AB0406", "addr_num": ""}}, {"type": "Feature", "geometry": {"type": "Point", "coordinates": [3.315857, 48.393792]}, "properties": {"year": 2022, "valeur_fonciere": 133480.0, "type_local": null, "surface_reelle_bati": null, "nombre_pieces_principales": null, "adresse_nom_voie": "LE PETIT CHAOUSSY", "price_per_sqm": null, "date_iso": "2022-04-26", "parcelle": "77507000YM0001", "addr_num": ""}}, {"type": "Feature", "geometry": {"type": "Point", "coordinates": [3.315857, 48.393792]}, "properties": {"year": 2022, "valeur_fonciere": 133480.0, "type_local": null, "surface_reelle_bati": null, "nombre_pieces_principales": null, "adresse_nom_voie": "LE PETIT CHAOUSSY", "price_per_sqm": null, "date_iso": "2022-04-26", "parcelle": "77507000YM0001", "addr_num": ""}}, {"type": "Feature", "geometry": {"type": "Point", "coordinates": [3.316848, 48.389695]}, "properties": {"year": 2022, "valeur_fonciere": 133480.0, "type_local": null, "surface_reelle_bati": null, "nombre_pieces_principales": null, "adresse_nom_voie": "LE PETIT CHAOUSSY", "price_per_sqm": null, "date_iso": "2022-04-26", "parcelle": "77507000YM0008", "addr_num": ""}}, {"type": "Feature", "geometry": {"type": "Point", "coordinates": [3.297441, 48.411502]}, "properties": {"year": 2022, "valeur_fonciere": 133480.0, "type_local": null, "surface_reelle_bati": null, "nombre_pieces_principales": null, "adresse_nom_voie": "JUCHE COQ", "price_per_sqm": null, "date_iso": "2022-04-26", "parcelle": "77507000ZC0018", "addr_num": ""}}, {"type": "Feature", "geometry": {"type": "Point", "coordinates": [3.309442, 48.413784]}, "properties": {"year": 2022, "valeur_fonciere": 133480.0, "type_local": null, "surface_reelle_bati": null, "nombre_pieces_principales": null, "adresse_nom_voie": "LA COUR BRULEE", "price_per_sqm": null, "date_iso": "2022-04-26", "parcelle": "77507000ZD0039", "addr_num": ""}}, {"type": "Feature", "geometry": {"type": "Point", "coordinates": [3.313358, 48.41707]}, "properties": {"year": 2022, "valeur_fonciere": 133480.0, "type_local": null, "surface_reelle_bati": null, "nombre_pieces_principales": null, "adresse_nom_voie": "LES CHAMPS BRONCEAUX", "price_per_sqm": null, "date_iso": "2022-04-26", "parcelle": "77507000ZI0019", "addr_num": ""}}, {"type": "Feature", "geometry": {"type": "Point", "coordinates": [3.312214, 48.411846]}, "properties": {"year": 2022, "valeur_fonciere": 133480.0, "type_local": null, "surface_reelle_bati": null, "nombre_pieces_principales": null, "adresse_nom_voie": "LE CHEMIN DE LA LIMOUSINE", "price_per_sqm": null, "date_iso": "2022-04-26", "parcelle": "77507000ZI0107", "addr_num": ""}}, {"type": "Feature", "geometry": {"type": "Point", "coordinates": [3.314952, 48.394964]}, "properties": {"year": 2022, "valeur_fonciere": 133480.0, "type_local": null, "surface_reelle_bati": null, "nombre_pieces_principales": null, "adresse_nom_voie": "LE PETIT CHAOUSSY", "price_per_sqm": null, "date_iso": "2022-04-26", "parcelle": "77507000ZP0005", "addr_num": ""}}, {"type": "Feature", "geometry": {"type": "Point", "coordinates": [3.307266, 48.402683]}, "properties": {"year": 2022, "valeur_fonciere": 133480.0, "type_local": null, "surface_reelle_bati": null, "nombre_pieces_principales": null, "adresse_nom_voie": "LES PRES DE COMPIGNY", "price_per_sqm": null, "date_iso": "2022-04-26", "parcelle": "77507000ZV0061", "addr_num": ""}}, {"type": "Feature", "geometry": {"type": "Point", "coordinates": [3.323262, 48.380512]}, "properties": {"year": 2022, "valeur_fonciere": 196500.0, "type_local": null, "surface_reelle_bati": null, "nombre_pieces_principales": null, "adresse_nom_voie": "LES PETIT ECHARS", "price_per_sqm": null, "date_iso": "2022-05-03", "parcelle": "77507000YK0017", "addr_num": ""}}, {"type": "Feature", "geometry": {"type": "Point", "coordinates": [3.323262, 48.380512]}, "properties": {"year": 2022, "valeur_fonciere": 196500.0, "type_local": null, "surface_reelle_bati": null, "nombre_pieces_principales": null, "adresse_nom_voie": "LES PETIT ECHARS", "price_per_sqm": null, "date_iso": "2022-05-03", "parcelle": "77507000YK0017", "addr_num": ""}}, {"type": "Feature", "geometry": {"type": "Point", "coordinates": [3.316505, 48.390232]}, "properties": {"year": 2022, "valeur_fonciere": 196500.0, "type_local": null, "surface_reelle_bati": null, "nombre_pieces_principales": null, "adresse_nom_voie": "LE PETIT CHAOUSSY", "price_per_sqm": null, "date_iso": "2022-05-03", "parcelle": "77507000YM0007", "addr_num": ""}}, {"type": "Feature", "geometry": {"type": "Point", "coordinates": [3.317593, 48.389568]}, "properties": {"year": 2022, "valeur_fonciere": 196500.0, "type_local": null, "surface_reelle_bati": null, "nombre_pieces_principales": null, "adresse_nom_voie": "LE PETIT CHAOUSSY", "price_per_sqm": null, "date_iso": "2022-05-03", "parcelle": "77507000YM0009", "addr_num": ""}}, {"type": "Feature", "geometry": {"type": "Point", "coordinates": [3.298497, 48.412341]}, "properties": {"year": 2022, "valeur_fonciere": 196500.0, "type_local": null, "surface_reelle_bati": null, "nombre_pieces_principales": null, "adresse_nom_voie": "JUCHE COQ", "price_per_sqm": null, "date_iso": "2022-05-03", "parcelle": "77507000ZC0019", "addr_num": ""}}, {"type": "Feature", "geometry": {"type": "Point", "coordinates": [3.307144, 48.413137]}, "properties": {"year": 2022, "valeur_fonciere": 196500.0, "type_local": null, "surface_reelle_bati": null, "nombre_pieces_principales": null, "adresse_nom_voie": "LES PRES DE COURTILAT", "price_per_sqm": null, "date_iso": "2022-05-03", "parcelle": "77507000ZC0111", "addr_num": ""}}, {"type": "Feature", "geometry": {"type": "Point", "coordinates": [3.31961, 48.40623]}, "properties": {"year": 2022, "valeur_fonciere": 196500.0, "type_local": null, "surface_reelle_bati": null, "nombre_pieces_principales": null, "adresse_nom_voie": "LES POTEREAUX", "price_per_sqm": null, "date_iso": "2022-05-03", "parcelle": "77507000ZI0049", "addr_num": ""}}, {"type": "Feature", "geometry": {"type": "Point", "coordinates": [3.31961, 48.40623]}, "properties": {"year": 2022, "valeur_fonciere": 196500.0, "type_local": null, "surface_reelle_bati": null, "nombre_pieces_principales": null, "adresse_nom_voie": "LES POTEREAUX", "price_per_sqm": null, "date_iso": "2022-05-03", "parcelle": "77507000ZI0049", "addr_num": ""}}, {"type": "Feature", "geometry": {"type": "Point", "coordinates": [3.31961, 48.40623]}, "properties": {"year": 2022, "valeur_fonciere": 196500.0, "type_local": null, "surface_reelle_bati": null, "nombre_pieces_principales": null, "adresse_nom_voie": "LES POTEREAUX", "price_per_sqm": null, "date_iso": "2022-05-03", "parcelle": "77507000ZI0049", "addr_num": ""}}, {"type": "Feature", "geometry": {"type": "Point", "coordinates": [3.320008, 48.401721]}, "properties": {"year": 2022, "valeur_fonciere": 196500.0, "type_local": null, "surface_reelle_bati": null, "nombre_pieces_principales": null, "adresse_nom_voie": "LES RANGES", "price_per_sqm": null, "date_iso": "2022-05-03", "parcelle": "77507000ZK0010", "addr_num": ""}}, {"type": "Feature", "geometry": {"type": "Point", "coordinates": [3.322009, 48.400194]}, "properties": {"year": 2022, "valeur_fonciere": 196500.0, "type_local": null, "surface_reelle_bati": null, "nombre_pieces_principales": null, "adresse_nom_voie": "LES RANGES", "price_per_sqm": null, "date_iso": "2022-05-03", "parcelle": "77507000ZK0089", "addr_num": ""}}, {"type": "Feature", "geometry": {"type": "Point", "coordinates": [3.322518, 48.400224]}, "properties": {"year": 2022, "valeur_fonciere": 196500.0, "type_local": null, "surface_reelle_bati": null, "nombre_pieces_principales": null, "adresse_nom_voie": "LES RANGES", "price_per_sqm": null, "date_iso": "2022-05-03", "parcelle": "77507000ZK0090", "addr_num": ""}}, {"type": "Feature", "geometry": {"type": "Point", "coordinates": [3.314241, 48.387145]}, "properties": {"year": 2022, "valeur_fonciere": 196500.0, "type_local": null, "surface_reelle_bati": null, "nombre_pieces_principales": null, "adresse_nom_voie": "CHARCON", "price_per_sqm": null, "date_iso": "2022-05-03", "parcelle": "77507000ZP0025", "addr_num": ""}}, {"type": "Feature", "geometry": {"type": "Point", "coordinates": [3.299426, 48.400948]}, "properties": {"year": 2022, "valeur_fonciere": 196500.0, "type_local": null, "surface_reelle_bati": null, "nombre_pieces_principales": null, "adresse_nom_voie": "LE BEIGNON", "price_per_sqm": null, "date_iso": "2022-05-03", "parcelle": "77507000ZV0001", "addr_num": ""}}, {"type": "Feature", "geometry": {"type": "Point", "coordinates": [3.298267, 48.400349]}, "properties": {"year": 2022, "valeur_fonciere": 196500.0, "type_local": null, "surface_reelle_bati": null, "nombre_pieces_principales": null, "adresse_nom_voie": "LE BEIGNON", "price_per_sqm": null, "date_iso": "2022-05-03", "parcelle": "77507000ZV0002", "addr_num": ""}}, {"type": "Feature", "geometry": {"type": "Point", "coordinates": [3.334612, 48.400082]}, "properties": {"year": 2022, "valeur_fonciere": 46000.0, "type_local": "Local industriel. commercial ou assimilé", "surface_reelle_bati": 1139.0, "nombre_pieces_principales": 0.0, "adresse_nom_voie": "RUE DE BRIOTTE", "price_per_sqm": 40.38630377524144, "date_iso": "2022-06-03", "parcelle": "77507000ZK0093", "addr_num": "5148"}}, {"type": "Feature", "geometry": {"type": "Point", "coordinates": [3.334612, 48.400082]}, "properties": {"year": 2022, "valeur_fonciere": 46000.0, "type_local": "Local industriel. commercial ou assimilé", "surface_reelle_bati": 1139.0, "nombre_pieces_principales": 0.0, "adresse_nom_voie": "RUE DE BRIOTTE", "price_per_sqm": 40.38630377524144, "date_iso": "2022-06-03", "parcelle": "77507000ZK0093", "addr_num": "5148"}}, {"type": "Feature", "geometry": {"type": "Point", "coordinates": [3.307233, 48.411688]}, "properties": {"year": 2022, "valeur_fonciere": 4000.0, "type_local": null, "surface_reelle_bati": null, "nombre_pieces_principales": null, "adresse_nom_voie": "LES PRES DE COURTILAT", "price_per_sqm": null, "date_iso": "2022-06-03", "parcelle": "77507000ZC0134", "addr_num": ""}}, {"type": "Feature", "geometry": {"type": "Point", "coordinates": [3.333142, 48.420628]}, "properties": {"year": 2022, "valeur_fonciere": 160000.0, "type_local": "Dépendance", "surface_reelle_bati": null, "nombre_pieces_principales": 0.0, "adresse_nom_voie": "RUE DE PASSY", "price_per_sqm": null, "date_iso": "2022-09-08", "parcelle": "77507000ZE0030", "addr_num": "10"}}, {"type": "Feature", "geometry": {"type": "Point", "coordinates": [3.333142, 48.420628]}, "properties": {"year": 2022, "valeur_fonciere": 160000.0, "type_local": "Maison", "surface_reelle_bati": 108.0, "nombre_pieces_principales": 4.0, "adresse_nom_voie": "RUE DE PASSY", "price_per_sqm": 1481.4814814814815, "date_iso": "2022-09-08", "parcelle": "77507000ZE0030", "addr_num": "10"}}, {"type": "Feature", "geometry": {"type": "Point", "coordinates": [3.297598, 48.395208]}, "properties": {"year": 2022, "valeur_fonciere": 245000.0, "type_local": "Maison", "surface_reelle_bati": 105.0, "nombre_pieces_principales": 4.0, "adresse_nom_voie": "RUE DE VILLIERS", "price_per_sqm": 2333.3333333333335, "date_iso": "2022-10-11", "parcelle": "77507000ZR0123", "addr_num": "12"}}, {"type": "Feature", "geometry": {"type": "Point", "coordinates": [3.297598, 48.395208]}, "properties": {"year": 2022, "valeur_fonciere": 245000.0, "type_local": "Maison", "surface_reelle_bati": 105.0, "nombre_pieces_principales": 4.0, "adresse_nom_voie": "RUE DE VILLIERS", "price_per_sqm": 2333.3333333333335, "date_iso": "2022-10-11", "parcelle": "77507000ZR0123", "addr_num": "12"}}, {"type": "Feature", "geometry": {"type": "Point", "coordinates": [3.313827, 48.42991]}, "properties": {"year": 2022, "valeur_fonciere": 30000.0, "type_local": null, "surface_reelle_bati": null, "nombre_pieces_principales": null, "adresse_nom_voie": "TOUSSAC", "price_per_sqm": null, "date_iso": "2022-10-26", "parcelle": "77507000ZB0073", "addr_num": ""}}, {"type": "Feature", "geometry": {"type": "Point", "coordinates": [3.314144, 48.430842]}, "properties": {"year": 2022, "valeur_fonciere": 30000.0, "type_local": null, "surface_reelle_bati": null, "nombre_pieces_principales": null, "adresse_nom_voie": "TOUSSAC", "price_per_sqm": null, "date_iso": "2022-10-26", "parcelle": "77507000ZB0110", "addr_num": ""}}, {"type": "Feature", "geometry": {"type": "Point", "coordinates": [3.313471, 48.430788]}, "properties": {"year": 2022, "valeur_fonciere": 30000.0, "type_local": null, "surface_reelle_bati": null, "nombre_pieces_principales": null, "adresse_nom_voie": "TOUSSAC", "price_per_sqm": null, "date_iso": "2022-10-26", "parcelle": "77507000ZB0112", "addr_num": ""}}, {"type": "Feature", "geometry": {"type": "Point", "coordinates": [3.297976, 48.428848]}, "properties": {"year": 2022, "valeur_fonciere": 33000.0, "type_local": null, "surface_reelle_bati": null, "nombre_pieces_principales": null, "adresse_nom_voie": "CHAUMARD", "price_per_sqm": null, "date_iso": "2022-10-18", "parcelle": "77507000ZB0116", "addr_num": ""}}, {"type": "Feature", "geometry": {"type": "Point", "coordinates": [3.296842, 48.39546]}, "properties": {"year": 2022, "valeur_fonciere": 225000.0, "type_local": "Maison", "surface_reelle_bati": 86.0, "nombre_pieces_principales": 5.0, "adresse_nom_voie": "RUE DE VILLIERS", "price_per_sqm": 2616.279069767442, "date_iso": "2022-10-28", "parcelle": "77507000ZT0080", "addr_num": "17"}}, {"type": "Feature", "geometry": {"type": "Point", "coordinates": [3.296979, 48.395548]}, "properties": {"year": 2022, "valeur_fonciere": 225000.0, "type_local": "Dépendance", "surface_reelle_bati": null, "nombre_pieces_principales": 0.0, "adresse_nom_voie": "RUE DE VILLIERS", "price_per_sqm": null, "date_iso": "2022-10-28", "parcelle": "77507000ZT0132", "addr_num": "17"}}, {"type": "Feature", "geometry": {"type": "Point", "coordinates": [3.310628, 48.41275]}, "properties": {"year": 2022, "valeur_fonciere": 189500.0, "type_local": "Maison", "surface_reelle_bati": 123.0, "nombre_pieces_principales": 6.0, "adresse_nom_voie": "RUE GRANDE", "price_per_sqm": 1540.6504065040651, "date_iso": "2022-11-23", "parcelle": "77507000ZD0053", "addr_num": "63"}}, {"type": "Feature", "geometry": {"type": "Point", "coordinates": [3.310628, 48.41275]}, "properties": {"year": 2022, "valeur_fonciere": 189500.0, "type_local": "Maison", "surface_reelle_bati": 123.0, "nombre_pieces_principales": 6.0, "adresse_nom_voie": "RUE GRANDE", "price_per_sqm": 1540.6504065040651, "date_iso": "2022-11-23", "parcelle": "77507000ZD0053", "addr_num": "63"}}, {"type": "Feature", "geometry": {"type": "Point", "coordinates": [3.305125, 48.429744]}, "properties": {"year": 2022, "valeur_fonciere": 10000.0, "type_local": "Maison", "surface_reelle_bati": 20.0, "nombre_pieces_principales": 3.0, "adresse_nom_voie": "CHE DU PORT DE TOUSSACQ", "price_per_sqm": 500.0, "date_iso": "2022-12-27", "parcelle": "77507000ZB0013", "addr_num": "5013"}}, {"type": "Feature", "geometry": {"type": "Point", "coordinates": [3.287245, 48.391276]}, "properties": {"year": 2022, "valeur_fonciere": 3467.45, "type_local": null, "surface_reelle_bati": null, "nombre_pieces_principales": null, "adresse_nom_voie": "LA HAIE D ANE", "price_per_sqm": null, "date_iso": "2022-12-23", "parcelle": "77507000ZT0027", "addr_num": ""}}, {"type": "Feature", "geometry": {"type": "Point", "coordinates": [3.287374, 48.392253]}, "properties": {"year": 2022, "valeur_fonciere": 3467.45, "type_local": null, "surface_reelle_bati": null, "nombre_pieces_principales": null, "adresse_nom_voie": "LA HAIE D ANE", "price_per_sqm": null, "date_iso": "2022-12-23", "parcelle": "77507000ZT0035", "addr_num": ""}}, {"type": "Feature", "geometry": {"type": "Point", "coordinates": [3.309289, 48.402214]}, "properties": {"year": 2022, "valeur_fonciere": 3467.45, "type_local": null, "surface_reelle_bati": null, "nombre_pieces_principales": null, "adresse_nom_voie": "LES PRES DE COMPIGNY", "price_per_sqm": null, "date_iso": "2022-12-23", "parcelle": "77507000ZV0095", "addr_num": ""}}, {"type": "Feature", "geometry": {"type": "Point", "coordinates": [3.308147, 48.402431]}, "properties": {"year": 2022, "valeur_fonciere": 3467.45, "type_local": null, "surface_reelle_bati": null, "nombre_pieces_principales": null, "adresse_nom_voie": "LES PRES DE COMPIGNY", "price_per_sqm": null, "date_iso": "2022-12-23", "parcelle": "77507000ZV0105", "addr_num": ""}}, {"type": "Feature", "geometry": {"type": "Point", "coordinates": [3.296749, 48.395176]}, "properties": {"year": 2023, "valeur_fonciere": 85682.0, "type_local": null, "surface_reelle_bati": null, "nombre_pieces_principales": null, "adresse_nom_voie": "RUE DE VILLIERS", "price_per_sqm": null, "date_iso": "2023-03-01", "parcelle": "77507000ZT0142", "addr_num": "15"}}, {"type": "Feature", "geometry": {"type": "Point", "coordinates": [3.296784, 48.395021]}, "properties": {"year": 2023, "valeur_fonciere": 85682.0, "type_local": null, "surface_reelle_bati": null, "nombre_pieces_principales": null, "adresse_nom_voie": "RUE DE VILLIERS", "price_per_sqm": null, "date_iso": "2023-03-01", "parcelle": "77507000ZT0143", "addr_num": "15"}}, {"type": "Feature", "geometry": {"type": "Point", "coordinates": [3.296713, 48.394824]}, "properties": {"year": 2023, "valeur_fonciere": 85682.0, "type_local": null, "surface_reelle_bati": null, "nombre_pieces_principales": null, "adresse_nom_voie": "RUE DE VILLIERS", "price_per_sqm": null, "date_iso": "2023-03-01", "parcelle": "77507000ZT0144", "addr_num": "15"}}, {"type": "Feature", "geometry": {"type": "Point", "coordinates": [3.296699, 48.395272]}, "properties": {"year": 2023, "valeur_fonciere": 13318.0, "type_local": null, "surface_reelle_bati": null, "nombre_pieces_principales": null, "adresse_nom_voie": "RUE DE VILLIERS", "price_per_sqm": null, "date_iso": "2023-03-01", "parcelle": "77507000ZT0141", "addr_num": "15"}}, {"type": "Feature", "geometry": {"type": "Point", "coordinates": [3.290008, 48.39167]}, "properties": {"year": 2023, "valeur_fonciere": 8827.0, "type_local": null, "surface_reelle_bati": null, "nombre_pieces_principales": null, "adresse_nom_voie": "LA HAIE D ANE", "price_per_sqm": null, "date_iso": "2023-03-31", "parcelle": "77507000ZT0021", "addr_num": ""}}, {"type": "Feature", "geometry": {"type": "Point", "coordinates": [3.310164, 48.4037]}, "properties": {"year": 2023, "valeur_fonciere": 236000.0, "type_local": "Dépendance", "surface_reelle_bati": null, "nombre_pieces_principales": 0.0, "adresse_nom_voie": "RTE DE BRAY", "price_per_sqm": null, "date_iso": "2023-04-18", "parcelle": "77507000AB0067", "addr_num": "2"}}, {"type": "Feature", "geometry": {"type": "Point", "coordinates": [3.310164, 48.4037]}, "properties": {"year": 2023, "valeur_fonciere": 236000.0, "type_local": "Maison", "surface_reelle_bati": 158.0, "nombre_pieces_principales": 4.0, "adresse_nom_voie": "RTE DE BRAY", "price_per_sqm": 1493.6708860759493, "date_iso": "2023-04-18", "parcelle": "77507000AB0067", "addr_num": "2"}}, {"type": "Feature", "geometry": {"type": "Point", "coordinates": [3.310078, 48.403968]}, "properties": {"year": 2023, "valeur_fonciere": 236000.0, "type_local": null, "surface_reelle_bati": null, "nombre_pieces_principales": null, "adresse_nom_voie": "VILLENAUXE LA PETITE", "price_per_sqm": null, "date_iso": "2023-04-18", "parcelle": "77507000AB0072", "addr_num": ""}}, {"type": "Feature", "geometry": {"type": "Point", "coordinates": [3.31334, 48.406571]}, "properties": {"year": 2023, "valeur_fonciere": 212000.0, "type_local": "Maison", "surface_reelle_bati": 80.0, "nombre_pieces_principales": 2.0, "adresse_nom_voie": "RUE DU CHATEAU D EAU", "price_per_sqm": 2650.0, "date_iso": "2023-05-06", "parcelle": "77507000AB0041", "addr_num": "13"}}, {"type": "Feature", "geometry": {"type": "Point", "coordinates": [3.313363, 48.406878]}, "properties": {"year": 2023, "valeur_fonciere": 212000.0, "type_local": null, "surface_reelle_bati": null, "nombre_pieces_principales": null, "adresse_nom_voie": "VILLENAUXE LA PETITE", "price_per_sqm": null, "date_iso": "2023-05-06", "parcelle": "77507000AB0042", "addr_num": ""}}, {"type": "Feature", "geometry": {"type": "Point", "coordinates": [3.310586, 48.410698]}, "properties": {"year": 2023, "valeur_fonciere": 115000.0, "type_local": "Maison", "surface_reelle_bati": 65.0, "nombre_pieces_principales": 3.0, "adresse_nom_voie": "RUE GRANDE", "price_per_sqm": 1769.2307692307693, "date_iso": "2023-09-04", "parcelle": "77507000AB0219", "addr_num": "53"}}, {"type": "Feature", "geometry": {"type": "Point", "coordinates": [3.293362, 48.428506]}, "properties": {"year": 2023, "valeur_fonciere": 43000.0, "type_local": null, "surface_reelle_bati": null, "nombre_pieces_principales": null, "adresse_nom_voie": "CHAUMARD", "price_per_sqm": null, "date_iso": "2023-09-16", "parcelle": "77507000YD0028", "addr_num": ""}}, {"type": "Feature", "geometry": {"type": "Point", "coordinates": [3.298715, 48.428716]}, "properties": {"year": 2023, "valeur_fonciere": 43000.0, "type_local": null, "surface_reelle_bati": null, "nombre_pieces_principales": null, "adresse_nom_voie": "CHAUMARD", "price_per_sqm": null, "date_iso": "2023-09-16", "parcelle": "77507000ZB0079", "addr_num": ""}}, {"type": "Feature", "geometry": {"type": "Point", "coordinates": [3.298152, 48.42853]}, "properties": {"year": 2023, "valeur_fonciere": 43000.0, "type_local": null, "surface_reelle_bati": null, "nombre_pieces_principales": null, "adresse_nom_voie": "CHAUMARD", "price_per_sqm": null, "date_iso": "2023-09-16", "parcelle": "77507000ZB0113", "addr_num": ""}}, {"type": "Feature", "geometry": {"type": "Point", "coordinates": [3.298463, 48.428889]}, "properties": {"year": 2023, "valeur_fonciere": 43000.0, "type_local": null, "surface_reelle_bati": null, "nombre_pieces_principales": null, "adresse_nom_voie": "CHAUMARD", "price_per_sqm": null, "date_iso": "2023-09-16", "parcelle": "77507000ZB0115", "addr_num": ""}}, {"type": "Feature", "geometry": {"type": "Point", "coordinates": [3.309116, 48.409686]}, "properties": {"year": 2023, "valeur_fonciere": 115000.0, "type_local": null, "surface_reelle_bati": null, "nombre_pieces_principales": null, "adresse_nom_voie": "VILLENAUXE LA PETITE", "price_per_sqm": null, "date_iso": "2023-12-22", "parcelle": "77507000AB0196", "addr_num": ""}}, {"type": "Feature", "geometry": {"type": "Point", "coordinates": [3.308723, 48.409692]}, "properties": {"year": 2023, "valeur_fonciere": 115000.0, "type_local": "Dépendance", "surface_reelle_bati": null, "nombre_pieces_principales": 0.0, "adresse_nom_voie": "RUE DES MARDELLES", "price_per_sqm": null, "date_iso": "2023-12-22", "parcelle": "77507000AB0197", "addr_num": "38"}}, {"type": "Feature", "geometry": {"type": "Point", "coordinates": [3.308723, 48.409692]}, "properties": {"year": 2023, "valeur_fonciere": 115000.0, "type_local": "Maison", "surface_reelle_bati": 100.0, "nombre_pieces_principales": 5.0, "adresse_nom_voie": "RUE DES MARDELLES", "price_per_sqm": 1150.0, "date_iso": "2023-12-22", "parcelle": "77507000AB0197", "addr_num": "38"}}, {"type": "Feature", "geometry": {"type": "Point", "coordinates": [3.290423, 48.404181]}, "properties": {"year": 2023, "valeur_fonciere": 80382.5, "type_local": null, "surface_reelle_bati": null, "nombre_pieces_principales": null, "adresse_nom_voie": "LE CHAMP FETU", "price_per_sqm": null, "date_iso": "2023-12-28", "parcelle": "77507000ZT0059", "addr_num": ""}}, {"type": "Feature", "geometry": {"type": "Point", "coordinates": [3.307247, 48.405674]}, "properties": {"year": 2024, "valeur_fonciere": 246500.0, "type_local": null, "surface_reelle_bati": null, "nombre_pieces_principales": null, "adresse_nom_voie": "VILLENAUXE LA PETITE", "price_per_sqm": null, "date_iso": "2024-03-12", "parcelle": "77507000AB0145", "addr_num": ""}}, {"type": "Feature", "geometry": {"type": "Point", "coordinates": [3.307247, 48.405674]}, "properties": {"year": 2024, "valeur_fonciere": 246500.0, "type_local": null, "surface_reelle_bati": null, "nombre_pieces_principales": null, "adresse_nom_voie": "VILLENAUXE LA PETITE", "price_per_sqm": null, "date_iso": "2024-03-12", "parcelle": "77507000AB0145", "addr_num": ""}}, {"type": "Feature", "geometry": {"type": "Point", "coordinates": [3.307336, 48.405587]}, "properties": {"year": 2024, "valeur_fonciere": 246500.0, "type_local": "Dépendance", "surface_reelle_bati": null, "nombre_pieces_principales": 0.0, "adresse_nom_voie": "RUE DES MARDELLES", "price_per_sqm": null, "date_iso": "2024-03-12", "parcelle": "77507000AB0146", "addr_num": "7"}}, {"type": "Feature", "geometry": {"type": "Point", "coordinates": [3.307336, 48.405587]}, "properties": {"year": 2024, "valeur_fonciere": 246500.0, "type_local": "Maison", "surface_reelle_bati": 167.0, "nombre_pieces_principales": 4.0, "adresse_nom_voie": "RUE DES MARDELLES", "price_per_sqm": 1476.0479041916167, "date_iso": "2024-03-12", "parcelle": "77507000AB0146", "addr_num": "7"}}, {"type": "Feature", "geometry": {"type": "Point", "coordinates": [3.307336, 48.405587]}, "properties": {"year": 2024, "valeur_fonciere": 246500.0, "type_local": "Dépendance", "surface_reelle_bati": null, "nombre_pieces_principales": 0.0, "adresse_nom_voie": "RUE DES MARDELLES", "price_per_sqm": null, "date_iso": "2024-03-12", "parcelle": "77507000AB0146", "addr_num": "7"}}, {"type": "Feature", "geometry": {"type": "Point", "coordinates": [3.308059, 48.410237]}, "properties": {"year": 2024, "valeur_fonciere": 121000.0, "type_local": "Maison", "surface_reelle_bati": 142.0, "nombre_pieces_principales": 5.0, "adresse_nom_voie": "RUE DES PATURES", "price_per_sqm": 852.112676056338, "date_iso": "2024-04-17", "parcelle": "77507000AB0174", "addr_num": "1"}}, {"type": "Feature", "geometry": {"type": "Point", "coordinates": [3.307908, 48.410124]}, "properties": {"year": 2024, "valeur_fonciere": 121000.0, "type_local": null, "surface_reelle_bati": null, "nombre_pieces_principales": null, "adresse_nom_voie": "VILLENAUXE LA PETITE", "price_per_sqm": null, "date_iso": "2024-04-17", "parcelle": "77507000AB0282", "addr_num": ""}}, {"type": "Feature", "geometry": {"type": "Point", "coordinates": [3.30822, 48.410172]}, "properties": {"year": 2024, "valeur_fonciere": 121000.0, "type_local": null, "surface_reelle_bati": null, "nombre_pieces_principales": null, "adresse_nom_voie": "VILLENAUXE LA PETITE", "price_per_sqm": null, "date_iso": "2024-04-17", "parcelle": "77507000AB0303", "addr_num": ""}}, {"type": "Feature", "geometry": {"type": "Point", "coordinates": [3.307172, 48.406801]}, "properties": {"year": 2024, "valeur_fonciere": 173000.0, "type_local": "Maison", "surface_reelle_bati": 88.0, "nombre_pieces_principales": 4.0, "adresse_nom_voie": "RUE DES MARDELLES", "price_per_sqm": 1965.909090909091, "date_iso": "2024-05-25", "parcelle": "77507000AB0404", "addr_num": "11"}}, {"type": "Feature", "geometry": {"type": "Point", "coordinates": [3.307172, 48.406801]}, "properties": {"year": 2024, "valeur_fonciere": 173000.0, "type_local": "Maison", "surface_reelle_bati": 88.0, "nombre_pieces_principales": 4.0, "adresse_nom_voie": "RUE DES MARDELLES", "price_per_sqm": 1965.909090909091, "date_iso": "2024-05-25", "parcelle": "77507000AB0404", "addr_num": "11"}}, {"type": "Feature", "geometry": {"type": "Point", "coordinates": [3.304085, 48.426752]}, "properties": {"year": 2024, "valeur_fonciere": 4160.0, "type_local": null, "surface_reelle_bati": null, "nombre_pieces_principales": null, "adresse_nom_voie": "LE PETIT ETANG", "price_per_sqm": null, "date_iso": "2024-05-31", "parcelle": "77507000ZB0022", "addr_num": ""}}, {"type": "Feature", "geometry": {"type": "Point", "coordinates": [3.303128, 48.429354]}, "properties": {"year": 2024, "valeur_fonciere": 58300.0, "type_local": "Dépendance", "surface_reelle_bati": null, "nombre_pieces_principales": 0.0, "adresse_nom_voie": "LE PETIT ETANG", "price_per_sqm": null, "date_iso": "2024-06-25", "parcelle": "77507000ZB0009", "addr_num": "5004"}}, {"type": "Feature", "geometry": {"type": "Point", "coordinates": [3.303128, 48.429354]}, "properties": {"year": 2024, "valeur_fonciere": 58300.0, "type_local": "Maison", "surface_reelle_bati": 32.0, "nombre_pieces_principales": 1.0, "adresse_nom_voie": "LE PETIT ETANG", "price_per_sqm": 1821.875, "date_iso": "2024-06-25", "parcelle": "77507000ZB0009", "addr_num": "5004"}}, {"type": "Feature", "geometry": {"type": "Point", "coordinates": [3.303128, 48.429354]}, "properties": {"year": 2024, "valeur_fonciere": 58300.0, "type_local": "Dépendance", "surface_reelle_bati": null, "nombre_pieces_principales": 0.0, "adresse_nom_voie": "LE PETIT ETANG", "price_per_sqm": null, "date_iso": "2024-06-25", "parcelle": "77507000ZB0009", "addr_num": "5004"}}, {"type": "Feature", "geometry": {"type": "Point", "coordinates": [3.303128, 48.429354]}, "properties": {"year": 2024, "valeur_fonciere": 58300.0, "type_local": "Maison", "surface_reelle_bati": 32.0, "nombre_pieces_principales": 1.0, "adresse_nom_voie": "LE PETIT ETANG", "price_per_sqm": 1821.875, "date_iso": "2024-06-25", "parcelle": "77507000ZB0009", "addr_num": "5004"}}, {"type": "Feature", "geometry": {"type": "Point", "coordinates": [3.301752, 48.428861]}, "properties": {"year": 2024, "valeur_fonciere": 150000.0, "type_local": "Maison", "surface_reelle_bati": 55.0, "nombre_pieces_principales": 3.0, "adresse_nom_voie": "LE PETIT ETANG", "price_per_sqm": 2727.2727272727275, "date_iso": "2024-08-27", "parcelle": "77507000ZB0007", "addr_num": "5005"}}, {"type": "Feature", "geometry": {"type": "Point", "coordinates": [3.301752, 48.428861]}, "properties": {"year": 2024, "valeur_fonciere": 150000.0, "type_local": "Maison", "surface_reelle_bati": 55.0, "nombre_pieces_principales": 3.0, "adresse_nom_voie": "LE PETIT ETANG", "price_per_sqm": 2727.2727272727275, "date_iso": "2024-08-27", "parcelle": "77507000ZB0007", "addr_num": "5005"}}, {"type": "Feature", "geometry": {"type": "Point", "coordinates": [3.301752, 48.428861]}, "properties": {"year": 2024, "valeur_fonciere": 150000.0, "type_local": "Maison", "surface_reelle_bati": 55.0, "nombre_pieces_principales": 3.0, "adresse_nom_voie": "LE PETIT ETANG", "price_per_sqm": 2727.2727272727275, "date_iso": "2024-08-27", "parcelle": "77507000ZB0007", "addr_num": "5005"}}, {"type": "Feature", "geometry": {"type": "Point", "coordinates": [3.293362, 48.428506]}, "properties": {"year": 2024, "valeur_fonciere": 120000.0, "type_local": null, "surface_reelle_bati": null, "nombre_pieces_principales": null, "adresse_nom_voie": "CHAUMARD", "price_per_sqm": null, "date_iso": "2024-09-23", "parcelle": "77507000YD0028", "addr_num": ""}}, {"type": "Feature", "geometry": {"type": "Point", "coordinates": [3.299814, 48.428894]}, "properties": {"year": 2024, "valeur_fonciere": 120000.0, "type_local": "Maison", "surface_reelle_bati": 54.0, "nombre_pieces_principales": 2.0, "adresse_nom_voie": "CHAUMARD", "price_per_sqm": 2222.222222222222, "date_iso": "2024-09-23", "parcelle": "77507000ZB0056", "addr_num": "5006"}}, {"type": "Feature", "geometry": {"type": "Point", "coordinates": [3.299814, 48.428894]}, "properties": {"year": 2024, "valeur_fonciere": 120000.0, "type_local": "Maison", "surface_reelle_bati": 54.0, "nombre_pieces_principales": 2.0, "adresse_nom_voie": "CHAUMARD", "price_per_sqm": 2222.222222222222, "date_iso": "2024-09-23", "parcelle": "77507000ZB0056", "addr_num": "5006"}}, {"type": "Feature", "geometry": {"type": "Point", "coordinates": [3.298715, 48.428716]}, "properties": {"year": 2024, "valeur_fonciere": 120000.0, "type_local": null, "surface_reelle_bati": null, "nombre_pieces_principales": null, "adresse_nom_voie": "CHAUMARD", "price_per_sqm": null, "date_iso": "2024-09-23", "parcelle": "77507000ZB0079", "addr_num": ""}}, {"type": "Feature", "geometry": {"type": "Point", "coordinates": [3.299884, 48.428626]}, "properties": {"year": 2024, "valeur_fonciere": 120000.0, "type_local": null, "surface_reelle_bati": null, "nombre_pieces_principales": null, "adresse_nom_voie": "CHAUMARD", "price_per_sqm": null, "date_iso": "2024-09-23", "parcelle": "77507000ZB0080", "addr_num": ""}}, {"type": "Feature", "geometry": {"type": "Point", "coordinates": [3.30034, 48.428742]}, "properties": {"year": 2024, "valeur_fonciere": 120000.0, "type_local": null, "surface_reelle_bati": null, "nombre_pieces_principales": null, "adresse_nom_voie": "CHAUMARD", "price_per_sqm": null, "date_iso": "2024-09-23", "parcelle": "77507000ZB0081", "addr_num": ""}}, {"type": "Feature", "geometry": {"type": "Point", "coordinates": [3.299997, 48.428193]}, "properties": {"year": 2024, "valeur_fonciere": 120000.0, "type_local": null, "surface_reelle_bati": null, "nombre_pieces_principales": null, "adresse_nom_voie": "CHAUMARD", "price_per_sqm": null, "date_iso": "2024-09-23", "parcelle": "77507000ZB0100", "addr_num": ""}}, {"type": "Feature", "geometry": {"type": "Point", "coordinates": [3.302516, 48.429256]}, "properties": {"year": 2024, "valeur_fonciere": 53000.0, "type_local": "Maison", "surface_reelle_bati": 15.0, "nombre_pieces_principales": 1.0, "adresse_nom_voie": "LE PETIT ETANG", "price_per_sqm": 3533.3333333333335, "date_iso": "2024-09-27", "parcelle": "77507000ZB0008", "addr_num": "5005"}}, {"type": "Feature", "geometry": {"type": "Point", "coordinates": [3.30756, 48.410221]}, "properties": {"year": 2024, "valeur_fonciere": 105000.0, "type_local": "Dépendance", "surface_reelle_bati": null, "nombre_pieces_principales": 0.0, "adresse_nom_voie": "RUE DES PATURES", "price_per_sqm": null, "date_iso": "2024-10-31", "parcelle": "77507000AB0173", "addr_num": "5"}}, {"type": "Feature", "geometry": {"type": "Point", "coordinates": [3.30756, 48.410221]}, "properties": {"year": 2024, "valeur_fonciere": 105000.0, "type_local": "Maison", "surface_reelle_bati": 69.0, "nombre_pieces_principales": 3.0, "adresse_nom_voie": "RUE DES PATURES", "price_per_sqm": 1521.7391304347825, "date_iso": "2024-10-31", "parcelle": "77507000AB0173", "addr_num": "5"}}, {"type": "Feature", "geometry": {"type": "Point", "coordinates": [3.307535, 48.410098]}, "properties": {"year": 2024, "valeur_fonciere": 105000.0, "type_local": null, "surface_reelle_bati": null, "nombre_pieces_principales": null, "adresse_nom_voie": "VILLENAUXE LA PETITE", "price_per_sqm": null, "date_iso": "2024-10-31", "parcelle": "77507000AB0283", "addr_num": ""}}, {"type": "Feature", "geometry": {"type": "Point", "coordinates": [3.307363, 48.41018]}, "properties": {"year": 2024, "valeur_fonciere": 105000.0, "type_local": null, "surface_reelle_bati": null, "nombre_pieces_principales": null, "adresse_nom_voie": "VILLENAUXE LA PETITE", "price_per_sqm": null, "date_iso": "2024-10-31", "parcelle": "77507000AB0284", "addr_num": ""}}, {"type": "Feature", "geometry": {"type": "Point", "coordinates": [3.310136, 48.408489]}, "properties": {"year": 2024, "valeur_fonciere": 199249.0, "type_local": "Dépendance", "surface_reelle_bati": null, "nombre_pieces_principales": 0.0, "adresse_nom_voie": "RUE DU VERGER", "price_per_sqm": null, "date_iso": "2024-12-27", "parcelle": "77507000AB0188", "addr_num": "2"}}, {"type": "Feature", "geometry": {"type": "Point", "coordinates": [3.310136, 48.408489]}, "properties": {"year": 2024, "valeur_fonciere": 199249.0, "type_local": "Dépendance", "surface_reelle_bati": null, "nombre_pieces_principales": 0.0, "adresse_nom_voie": "RUE DU VERGER", "price_per_sqm": null, "date_iso": "2024-12-27", "parcelle": "77507000AB0188", "addr_num": "2"}}, {"type": "Feature", "geometry": {"type": "Point", "coordinates": [3.310136, 48.408489]}, "properties": {"year": 2024, "valeur_fonciere": 199249.0, "type_local": "Appartement", "surface_reelle_bati": 65.0, "nombre_pieces_principales": 2.0, "adresse_nom_voie": "RUE DU VERGER", "price_per_sqm": 3065.369230769231, "date_iso": "2024-12-27", "parcelle": "77507000AB0188", "addr_num": "2"}}, {"type": "Feature", "geometry": {"type": "Point", "coordinates": [3.310136, 48.408489]}, "properties": {"year": 2024, "valeur_fonciere": 199249.0, "type_local": "Appartement", "surface_reelle_bati": 98.0, "nombre_pieces_principales": 4.0, "adresse_nom_voie": "RUE DU VERGER", "price_per_sqm": 2033.1530612244899, "date_iso": "2024-12-27", "parcelle": "77507000AB0188", "addr_num": "2"}}, {"type": "Feature", "geometry": {"type": "Point", "coordinates": [3.310136, 48.408489]}, "properties": {"year": 2024, "valeur_fonciere": 199249.0, "type_local": "Dépendance", "surface_reelle_bati": null, "nombre_pieces_principales": 0.0, "adresse_nom_voie": "RUE DU VERGER", "price_per_sqm": null, "date_iso": "2024-12-27", "parcelle": "77507000AB0188", "addr_num": "2"}}, {"type": "Feature", "geometry": {"type": "Point", "coordinates": [3.310952, 48.407432]}, "properties": {"year": 2025, "valeur_fonciere": 108000.0, "type_local": null, "surface_reelle_bati": null, "nombre_pieces_principales": null, "adresse_nom_voie": "VILLENAUXE LA PETITE", "price_per_sqm": null, "date_iso": "2025-02-04", "parcelle": "77507000AB0230", "addr_num": ""}}, {"type": "Feature", "geometry": {"type": "Point", "coordinates": [3.310746, 48.407329]}, "properties": {"year": 2025, "valeur_fonciere": 108000.0, "type_local": null, "surface_reelle_bati": null, "nombre_pieces_principales": null, "adresse_nom_voie": "VILLENAUXE LA PETITE", "price_per_sqm": null, "date_iso": "2025-02-04", "parcelle": "77507000AB0231", "addr_num": ""}}, {"type": "Feature", "geometry": {"type": "Point", "coordinates": [3.31057, 48.40738]}, "properties": {"year": 2025, "valeur_fonciere": 108000.0, "type_local": null, "surface_reelle_bati": null, "nombre_pieces_principales": null, "adresse_nom_voie": "VILLENAUXE LA PETITE", "price_per_sqm": null, "date_iso": "2025-02-04", "parcelle": "77507000AB0232", "addr_num": ""}}, {"type": "Feature", "geometry": {"type": "Point", "coordinates": [3.310419, 48.407289]}, "properties": {"year": 2025, "valeur_fonciere": 108000.0, "type_local": "Maison", "surface_reelle_bati": 100.0, "nombre_pieces_principales": 3.0, "adresse_nom_voie": "RUE GRANDE", "price_per_sqm": 1080.0, "date_iso": "2025-02-04", "parcelle": "77507000AB0233", "addr_num": "18"}}, {"type": "Feature", "geometry": {"type": "Point", "coordinates": [3.310744, 48.413004]}, "properties": {"year": 2025, "valeur_fonciere": 190000.0, "type_local": "Maison", "surface_reelle_bati": 101.0, "nombre_pieces_principales": 5.0, "adresse_nom_voie": "RUE GRANDE", "price_per_sqm": 1881.1881188118812, "date_iso": "2025-07-23", "parcelle": "77507000ZD0052", "addr_num": "65"}}, {"type": "Feature", "geometry": {"type": "Point", "coordinates": [3.310744, 48.413004]}, "properties": {"year": 2025, "valeur_fonciere": 190000.0, "type_local": "Maison", "surface_reelle_bati": 101.0, "nombre_pieces_principales": 5.0, "adresse_nom_voie": "RUE GRANDE", "price_per_sqm": 1881.1881188118812, "date_iso": "2025-07-23", "parcelle": "77507000ZD0052", "addr_num": "65"}}, {"type": "Feature", "geometry": {"type": "Point", "coordinates": [3.308611, 48.429862]}, "properties": {"year": 2025, "valeur_fonciere": 152800.0, "type_local": null, "surface_reelle_bati": null, "nombre_pieces_principales": null, "adresse_nom_voie": "TOUSSAC", "price_per_sqm": null, "date_iso": "2025-08-01", "parcelle": "77507000ZB0041", "addr_num": ""}}, {"type": "Feature", "geometry": {"type": "Point", "coordinates": [3.306816, 48.429806]}, "properties": {"year": 2025, "valeur_fonciere": 152800.0, "type_local": "Dépendance", "surface_reelle_bati": null, "nombre_pieces_principales": 0.0, "adresse_nom_voie": "CHE DU PORT DE TOUSSACQ", "price_per_sqm": null, "date_iso": "2025-08-01", "parcelle": "77507000ZB0123", "addr_num": "5003"}}, {"type": "Feature", "geometry": {"type": "Point", "coordinates": [3.306816, 48.429806]}, "properties": {"year": 2025, "valeur_fonciere": 152800.0, "type_local": "Maison", "surface_reelle_bati": 25.0, "nombre_pieces_principales": 3.0, "adresse_nom_voie": "CHE DU PORT DE TOUSSACQ", "price_per_sqm": 6112.0, "date_iso": "2025-08-01", "parcelle": "77507000ZB0123", "addr_num": "5003"}}, {"type": "Feature", "geometry": {"type": "Point", "coordinates": [3.306816, 48.429806]}, "properties": {"year": 2025, "valeur_fonciere": 152800.0, "type_local": "Maison", "surface_reelle_bati": 16.0, "nombre_pieces_principales": 1.0, "adresse_nom_voie": "CHE DU PORT DE TOUSSACQ", "price_per_sqm": 9550.0, "date_iso": "2025-08-01", "parcelle": "77507000ZB0123", "addr_num": "5003"}}, {"type": "Feature", "geometry": {"type": "Point", "coordinates": [3.306816, 48.429806]}, "properties": {"year": 2025, "valeur_fonciere": 152800.0, "type_local": "Maison", "surface_reelle_bati": 60.0, "nombre_pieces_principales": 2.0, "adresse_nom_voie": "CHE DU PORT DE TOUSSACQ", "price_per_sqm": 2546.6666666666665, "date_iso": "2025-08-01", "parcelle": "77507000ZB0123", "addr_num": "5003"}}, {"type": "Feature", "geometry": {"type": "Point", "coordinates": [3.306816, 48.429806]}, "properties": {"year": 2025, "valeur_fonciere": 152800.0, "type_local": "Maison", "surface_reelle_bati": 42.0, "nombre_pieces_principales": 2.0, "adresse_nom_voie": "CHE DU PORT DE TOUSSACQ", "price_per_sqm": 3638.095238095238, "date_iso": "2025-08-01", "parcelle": "77507000ZB0123", "addr_num": "5003"}}, {"type": "Feature", "geometry": {"type": "Point", "coordinates": [3.306816, 48.429806]}, "properties": {"year": 2025, "valeur_fonciere": 152800.0, "type_local": "Dépendance", "surface_reelle_bati": null, "nombre_pieces_principales": 0.0, "adresse_nom_voie": "CHE DU PORT DE TOUSSACQ", "price_per_sqm": null, "date_iso": "2025-08-01", "parcelle": "77507000ZB0123", "addr_num": "5003"}}, {"type": "Feature", "geometry": {"type": "Point", "coordinates": [3.306816, 48.429806]}, "properties": {"year": 2025, "valeur_fonciere": 152800.0, "type_local": "Dépendance", "surface_reelle_bati": null, "nombre_pieces_principales": 0.0, "adresse_nom_voie": "CHE DU PORT DE TOUSSACQ", "price_per_sqm": null, "date_iso": "2025-08-01", "parcelle": "77507000ZB0123", "addr_num": "5003"}}, {"type": "Feature", "geometry": {"type": "Point", "coordinates": [3.306816, 48.429806]}, "properties": {"year": 2025, "valeur_fonciere": 152800.0, "type_local": "Dépendance", "surface_reelle_bati": null, "nombre_pieces_principales": 0.0, "adresse_nom_voie": "CHE DU PORT DE TOUSSACQ", "price_per_sqm": null, "date_iso": "2025-08-01", "parcelle": "77507000ZB0123", "addr_num": "5003"}}, {"type": "Feature", "geometry": {"type": "Point", "coordinates": [3.306816, 48.429806]}, "properties": {"year": 2025, "valeur_fonciere": 152800.0, "type_local": "Dépendance", "surface_reelle_bati": null, "nombre_pieces_principales": 0.0, "adresse_nom_voie": "CHE DU PORT DE TOUSSACQ", "price_per_sqm": null, "date_iso": "2025-08-01", "parcelle": "77507000ZB0123", "addr_num": "5003"}}, {"type": "Feature", "geometry": {"type": "Point", "coordinates": [3.306025, 48.429858]}, "properties": {"year": 2025, "valeur_fonciere": 152800.0, "type_local": null, "surface_reelle_bati": null, "nombre_pieces_principales": null, "adresse_nom_voie": "TOUSSAC", "price_per_sqm": null, "date_iso": "2025-08-01", "parcelle": "77507000ZB0124", "addr_num": ""}}, {"type": "Feature", "geometry": {"type": "Point", "coordinates": [3.297976, 48.428848]}, "properties": {"year": 2025, "valeur_fonciere": 32000.0, "type_local": null, "surface_reelle_bati": null, "nombre_pieces_principales": null, "adresse_nom_voie": "CHAUMARD", "price_per_sqm": null, "date_iso": "2025-08-27", "parcelle": "77507000ZB0116", "addr_num": ""}}, {"type": "Feature", "geometry": {"type": "Point", "coordinates": [3.309923, 48.410659]}, "properties": {"year": 2025, "valeur_fonciere": 130000.0, "type_local": "Maison", "surface_reelle_bati": 74.0, "nombre_pieces_principales": 2.0, "adresse_nom_voie": "RUE COUVERTE", "price_per_sqm": 1756.7567567567567, "date_iso": "2025-08-28", "parcelle": "77507000AB0216", "addr_num": "4"}}, {"type": "Feature", "geometry": {"type": "Point", "coordinates": [3.30147, 48.379954]}, "properties": {"year": 2025, "valeur_fonciere": 50000.0, "type_local": null, "surface_reelle_bati": null, "nombre_pieces_principales": null, "adresse_nom_voie": "MOCQUEPANIER", "price_per_sqm": null, "date_iso": "2025-10-16", "parcelle": "77507000ZX0001", "addr_num": ""}}, {"type": "Feature", "geometry": {"type": "Point", "coordinates": [3.30818, 48.378982]}, "properties": {"year": 2025, "valeur_fonciere": 50000.0, "type_local": null, "surface_reelle_bati": null, "nombre_pieces_principales": null, "adresse_nom_voie": "POINTE DU BOIS GRAVIER", "price_per_sqm": null, "date_iso": "2025-10-16", "parcelle": "77507000ZX0060", "addr_num": ""}}, {"type": "Feature", "geometry": {"type": "Point", "coordinates": [3.308478, 48.407489]}, "properties": {"year": 2025, "valeur_fonciere": 228000.0, "type_local": "Maison", "surface_reelle_bati": 97.0, "nombre_pieces_principales": 4.0, "adresse_nom_voie": "RUE DES MARDELLES", "price_per_sqm": 2350.5154639175257, "date_iso": "2025-12-23", "parcelle": "77507000AB0392", "addr_num": "22"}}, {"type": "Feature", "geometry": {"type": "Point", "coordinates": [3.308478, 48.407489]}, "properties": {"year": 2025, "valeur_fonciere": 228000.0, "type_local": "Maison", "surface_reelle_bati": 97.0, "nombre_pieces_principales": 4.0, "adresse_nom_voie": "RUE DES MARDELLES", "price_per_sqm": 2350.5154639175257, "date_iso": "2025-12-23", "parcelle": "77507000AB0392", "addr_num": "22"}}]}