{"type": "FeatureCollection", "features": [{"type": "Feature", "geometry": {"type": "Point", "coordinates": [2.803264, 49.038047]}, "properties": {"street_name": "RUE DU GENERAL MAUNOURY", "sales": 93, "sales_appt": 21, "sales_maison": 19, "median_price": 230000.0, "median_price_per_sqm": 2995.2380952380954, "turnover_score": 100.0, "turnover_rank": 1, "first_year": 2021, "last_year": 2025, "years_active": 5}}, {"type": "Feature", "geometry": {"type": "Point", "coordinates": [2.804996, 49.037534]}, "properties": {"street_name": "RUE DU BOURGET", "sales": 32, "sales_appt": 8, "sales_maison": 9, "median_price": 310000.0, "median_price_per_sqm": 4626.865671641791, "turnover_score": 34.4, "turnover_rank": 2, "first_year": 2021, "last_year": 2025, "years_active": 5}}, {"type": "Feature", "geometry": {"type": "Point", "coordinates": [2.809879, 49.034733]}, "properties": {"street_name": "RUE SAINT SULPICE", "sales": 27, "sales_appt": 9, "sales_maison": 0, "median_price": 195000.0, "median_price_per_sqm": 3472.222222222222, "turnover_score": 29.0, "turnover_rank": 3, "first_year": 2022, "last_year": 2025, "years_active": 4}}, {"type": "Feature", "geometry": {"type": "Point", "coordinates": [2.8057845, 49.035921]}, "properties": {"street_name": "RUE DE CHAUMONT", "sales": 24, "sales_appt": 0, "sales_maison": 8, "median_price": 205000.0, "median_price_per_sqm": 2656.0, "turnover_score": 25.8, "turnover_rank": 4, "first_year": 2021, "last_year": 2025, "years_active": 5}}, {"type": "Feature", "geometry": {"type": "Point", "coordinates": [2.804637, 49.040727]}, "properties": {"street_name": "RUE DES PANOUFLES", "sales": 22, "sales_appt": 0, "sales_maison": 12, "median_price": 260000.0, "median_price_per_sqm": 2635.576923076923, "turnover_score": 23.7, "turnover_rank": 5, "first_year": 2021, "last_year": 2025, "years_active": 5}}, {"type": "Feature", "geometry": {"type": "Point", "coordinates": [2.804646, 49.036243]}, "properties": {"street_name": "SAINT SOUPPLETS", "sales": 21, "sales_appt": 0, "sales_maison": 0, "median_price": 240000.0, "median_price_per_sqm": null, "turnover_score": 22.6, "turnover_rank": 6, "first_year": 2021, "last_year": 2024, "years_active": 4}}, {"type": "Feature", "geometry": {"type": "Point", "coordinates": [2.8005665, 49.036805]}, "properties": {"street_name": "RUE DU MARECHAL GALLIENI", "sales": 20, "sales_appt": 1, "sales_maison": 5, "median_price": 335000.0, "median_price_per_sqm": 3463.541666666667, "turnover_score": 21.5, "turnover_rank": 7, "first_year": 2021, "last_year": 2022, "years_active": 2}}, {"type": "Feature", "geometry": {"type": "Point", "coordinates": [2.810923, 49.039751]}, "properties": {"street_name": "RUE DE LA CHEVEE", "sales": 17, "sales_appt": 0, "sales_maison": 11, "median_price": 311550.0, "median_price_per_sqm": 2981.4814814814813, "turnover_score": 18.3, "turnover_rank": 8, "first_year": 2021, "last_year": 2025, "years_active": 5}}, {"type": "Feature", "geometry": {"type": "Point", "coordinates": [2.805913, 49.03711]}, "properties": {"street_name": "RUE DU BUAT", "sales": 15, "sales_appt": 0, "sales_maison": 4, "median_price": 330000.0, "median_price_per_sqm": 3054.434250764526, "turnover_score": 16.1, "turnover_rank": 9, "first_year": 2022, "last_year": 2025, "years_active": 3}}, {"type": "Feature", "geometry": {"type": "Point", "coordinates": [2.801182, 49.034934]}, "properties": {"street_name": "RUE DU 5 SEPTEMBRE 1914", "sales": 15, "sales_appt": 3, "sales_maison": 0, "median_price": 167985.0, "median_price_per_sqm": 3948.660714285714, "turnover_score": 16.1, "turnover_rank": 9, "first_year": 2021, "last_year": 2025, "years_active": 5}}, {"type": "Feature", "geometry": {"type": "Point", "coordinates": [2.81394, 49.041187]}, "properties": {"street_name": "RUE DE L ORME AU LEU", "sales": 13, "sales_appt": 0, "sales_maison": 9, "median_price": 265000.0, "median_price_per_sqm": 2572.8155339805826, "turnover_score": 14.0, "turnover_rank": 10, "first_year": 2021, "last_year": 2024, "years_active": 3}}, {"type": "Feature", "geometry": {"type": "Point", "coordinates": [2.803702, 49.039688]}, "properties": {"street_name": "RUE DES DEMOISELLES", "sales": 13, "sales_appt": 2, "sales_maison": 2, "median_price": 172300.0, "median_price_per_sqm": 2369.7017268445843, "turnover_score": 14.0, "turnover_rank": 10, "first_year": 2023, "last_year": 2025, "years_active": 3}}, {"type": "Feature", "geometry": {"type": "Point", "coordinates": [2.809457, 49.03823]}, "properties": {"street_name": "RUE DU TOUARTE", "sales": 13, "sales_appt": 0, "sales_maison": 2, "median_price": 253000.0, "median_price_per_sqm": 2813.9044943820227, "turnover_score": 14.0, "turnover_rank": 10, "first_year": 2021, "last_year": 2025, "years_active": 5}}, {"type": "Feature", "geometry": {"type": "Point", "coordinates": [2.807032, 49.03449]}, "properties": {"street_name": "RUE DE LA MALADRERIE", "sales": 12, "sales_appt": 0, "sales_maison": 7, "median_price": 276250.0, "median_price_per_sqm": 3043.478260869565, "turnover_score": 12.9, "turnover_rank": 11, "first_year": 2022, "last_year": 2025, "years_active": 4}}, {"type": "Feature", "geometry": {"type": "Point", "coordinates": [2.804824, 49.0351955]}, "properties": {"street_name": "COUR DU COLOMBIER", "sales": 12, "sales_appt": 0, "sales_maison": 4, "median_price": 337000.0, "median_price_per_sqm": 2872.0, "turnover_score": 12.9, "turnover_rank": 11, "first_year": 2022, "last_year": 2025, "years_active": 3}}, {"type": "Feature", "geometry": {"type": "Point", "coordinates": [2.810014, 49.038947]}, "properties": {"street_name": "RUE DE L OME A RAGOUT", "sales": 11, "sales_appt": 0, "sales_maison": 8, "median_price": 292000.0, "median_price_per_sqm": 2645.8333333333335, "turnover_score": 11.8, "turnover_rank": 12, "first_year": 2021, "last_year": 2022, "years_active": 2}}, {"type": "Feature", "geometry": {"type": "Point", "coordinates": [2.804128, 49.03414]}, "properties": {"street_name": "RUE DU SAUVOY", "sales": 11, "sales_appt": 0, "sales_maison": 2, "median_price": 280000.0, "median_price_per_sqm": 666.6666666666666, "turnover_score": 11.8, "turnover_rank": 12, "first_year": 2021, "last_year": 2024, "years_active": 4}}, {"type": "Feature", "geometry": {"type": "Point", "coordinates": [2.8025775, 49.0315945]}, "properties": {"street_name": "AV DU MONTBOULON", "sales": 10, "sales_appt": 1, "sales_maison": 0, "median_price": 485000.0, "median_price_per_sqm": 940.0553031799328, "turnover_score": 10.8, "turnover_rank": 13, "first_year": 2021, "last_year": 2025, "years_active": 3}}, {"type": "Feature", "geometry": {"type": "Point", "coordinates": [2.805651, 49.040757]}, "properties": {"street_name": "RUE DU CARCAN", "sales": 8, "sales_appt": 0, "sales_maison": 6, "median_price": 300000.0, "median_price_per_sqm": 3422.6748860895204, "turnover_score": 8.6, "turnover_rank": 14, "first_year": 2021, "last_year": 2025, "years_active": 5}}, {"type": "Feature", "geometry": {"type": "Point", "coordinates": [2.8043484999999997, 49.0420455]}, "properties": {"street_name": "RUE DU POMMIER ROUGE", "sales": 8, "sales_appt": 0, "sales_maison": 6, "median_price": 310000.0, "median_price_per_sqm": 3088.9449440666813, "turnover_score": 8.6, "turnover_rank": 14, "first_year": 2022, "last_year": 2025, "years_active": 2}}, {"type": "Feature", "geometry": {"type": "Point", "coordinates": [2.803182, 49.038942]}, "properties": {"street_name": "COUR DE LA FOURELLE", "sales": 7, "sales_appt": 0, "sales_maison": 3, "median_price": 325000.0, "median_price_per_sqm": 3764.705882352941, "turnover_score": 7.5, "turnover_rank": 15, "first_year": 2021, "last_year": 2023, "years_active": 3}}, {"type": "Feature", "geometry": {"type": "Point", "coordinates": [2.803413, 49.034925]}, "properties": {"street_name": "CITE MARCEL SPIELER", "sales": 7, "sales_appt": 0, "sales_maison": 6, "median_price": 220000.0, "median_price_per_sqm": 3235.993943326844, "turnover_score": 7.5, "turnover_rank": 15, "first_year": 2022, "last_year": 2025, "years_active": 4}}, {"type": "Feature", "geometry": {"type": "Point", "coordinates": [2.800824, 49.037944]}, "properties": {"street_name": "CHE DE L ETRILLE", "sales": 7, "sales_appt": 0, "sales_maison": 0, "median_price": 364000.0, "median_price_per_sqm": null, "turnover_score": 7.5, "turnover_rank": 15, "first_year": 2023, "last_year": 2023, "years_active": 1}}, {"type": "Feature", "geometry": {"type": "Point", "coordinates": [2.799665, 49.040275]}, "properties": {"street_name": "RUE DE LA CROIX DES CHARMES", "sales": 7, "sales_appt": 0, "sales_maison": 7, "median_price": 284500.0, "median_price_per_sqm": 2994.7368421052633, "turnover_score": 7.5, "turnover_rank": 15, "first_year": 2021, "last_year": 2023, "years_active": 3}}, {"type": "Feature", "geometry": {"type": "Point", "coordinates": [2.80209, 49.017582]}, "properties": {"street_name": "LE TONNET", "sales": 7, "sales_appt": 0, "sales_maison": 0, "median_price": 1.0, "median_price_per_sqm": null, "turnover_score": 7.5, "turnover_rank": 15, "first_year": 2024, "last_year": 2024, "years_active": 1}}, {"type": "Feature", "geometry": {"type": "Point", "coordinates": [2.8033995000000003, 49.019284]}, "properties": {"street_name": "LE MONT BOULON", "sales": 6, "sales_appt": 0, "sales_maison": 0, "median_price": 1.0, "median_price_per_sqm": null, "turnover_score": 6.5, "turnover_rank": 16, "first_year": 2024, "last_year": 2024, "years_active": 1}}, {"type": "Feature", "geometry": {"type": "Point", "coordinates": [2.8092685, 49.0356955]}, "properties": {"street_name": "RUE DE LA CROIX DE FER", "sales": 6, "sales_appt": 0, "sales_maison": 5, "median_price": 296500.0, "median_price_per_sqm": 3400.0, "turnover_score": 6.5, "turnover_rank": 16, "first_year": 2021, "last_year": 2025, "years_active": 3}}, {"type": "Feature", "geometry": {"type": "Point", "coordinates": [2.804358, 49.03627]}, "properties": {"street_name": "RUE DE L ECHELETTE", "sales": 6, "sales_appt": 0, "sales_maison": 1, "median_price": 167500.0, "median_price_per_sqm": 3353.6585365853657, "turnover_score": 6.5, "turnover_rank": 16, "first_year": 2022, "last_year": 2025, "years_active": 2}}, {"type": "Feature", "geometry": {"type": "Point", "coordinates": [2.8119325, 49.041821]}, "properties": {"street_name": "RUE DES CROCHETS", "sales": 6, "sales_appt": 0, "sales_maison": 5, "median_price": 247500.0, "median_price_per_sqm": 2584.2696629213483, "turnover_score": 6.5, "turnover_rank": 16, "first_year": 2021, "last_year": 2025, "years_active": 3}}, {"type": "Feature", "geometry": {"type": "Point", "coordinates": [2.80046, 49.031518]}, "properties": {"street_name": "RUE DE L'INTE", "sales": 5, "sales_appt": 0, "sales_maison": 0, "median_price": 162000.0, "median_price_per_sqm": 1611.9402985074628, "turnover_score": 5.4, "turnover_rank": 17, "first_year": 2021, "last_year": 2025, "years_active": 2}}, {"type": "Feature", "geometry": {"type": "Point", "coordinates": [2.802423, 49.026091]}, "properties": {"street_name": "LE PRE GROGNARD", "sales": 5, "sales_appt": 0, "sales_maison": 0, "median_price": 1.0, "median_price_per_sqm": null, "turnover_score": 5.4, "turnover_rank": 17, "first_year": 2024, "last_year": 2024, "years_active": 1}}, {"type": "Feature", "geometry": {"type": "Point", "coordinates": [2.808391, 49.036642]}, "properties": {"street_name": "COUR DU TILLET", "sales": 5, "sales_appt": 0, "sales_maison": 5, "median_price": 199500.0, "median_price_per_sqm": 2699.1935483870966, "turnover_score": 5.4, "turnover_rank": 17, "first_year": 2022, "last_year": 2025, "years_active": 4}}, {"type": "Feature", "geometry": {"type": "Point", "coordinates": [2.833757, 49.04302]}, "properties": {"street_name": "COIGNY", "sales": 5, "sales_appt": 0, "sales_maison": 0, "median_price": 46300.8, "median_price_per_sqm": null, "turnover_score": 5.4, "turnover_rank": 17, "first_year": 2021, "last_year": 2021, "years_active": 1}}, {"type": "Feature", "geometry": {"type": "Point", "coordinates": [2.7889454999999996, 49.0380855]}, "properties": {"street_name": "LA CHARBONNIERE", "sales": 4, "sales_appt": 0, "sales_maison": 0, "median_price": 25725.0, "median_price_per_sqm": null, "turnover_score": 4.3, "turnover_rank": 18, "first_year": 2022, "last_year": 2024, "years_active": 2}}, {"type": "Feature", "geometry": {"type": "Point", "coordinates": [2.7963585, 49.032497500000005]}, "properties": {"street_name": "L INTE", "sales": 4, "sales_appt": 0, "sales_maison": 0, "median_price": 20370.0, "median_price_per_sqm": null, "turnover_score": 4.3, "turnover_rank": 18, "first_year": 2022, "last_year": 2022, "years_active": 1}}, {"type": "Feature", "geometry": {"type": "Point", "coordinates": [2.8086695, 49.0388615]}, "properties": {"street_name": "ALL DU CHATEAU FORT", "sales": 4, "sales_appt": 0, "sales_maison": 0, "median_price": 15000.0, "median_price_per_sqm": null, "turnover_score": 4.3, "turnover_rank": 18, "first_year": 2025, "last_year": 2025, "years_active": 1}}, {"type": "Feature", "geometry": {"type": "Point", "coordinates": [2.814829, 49.051331]}, "properties": {"street_name": "LA HAUTE BORNE", "sales": 4, "sales_appt": 0, "sales_maison": 0, "median_price": 3000000.0, "median_price_per_sqm": null, "turnover_score": 4.3, "turnover_rank": 18, "first_year": 2021, "last_year": 2021, "years_active": 1}}, {"type": "Feature", "geometry": {"type": "Point", "coordinates": [2.797304, 49.036051]}, "properties": {"street_name": "RTE DE MONTGE", "sales": 4, "sales_appt": 0, "sales_maison": 2, "median_price": 505000.0, "median_price_per_sqm": 3237.1794871794873, "turnover_score": 4.3, "turnover_rank": 18, "first_year": 2023, "last_year": 2023, "years_active": 1}}, {"type": "Feature", "geometry": {"type": "Point", "coordinates": [2.7960165000000003, 49.029048]}, "properties": {"street_name": "LES VIGNES DE CACOIN", "sales": 4, "sales_appt": 0, "sales_maison": 0, "median_price": 1.0, "median_price_per_sqm": null, "turnover_score": 4.3, "turnover_rank": 18, "first_year": 2024, "last_year": 2024, "years_active": 1}}, {"type": "Feature", "geometry": {"type": "Point", "coordinates": [2.807859, 49.033886]}, "properties": {"street_name": "RUE DU PRE D OULEVE", "sales": 4, "sales_appt": 0, "sales_maison": 3, "median_price": 256250.0, "median_price_per_sqm": 3034.4827586206898, "turnover_score": 4.3, "turnover_rank": 18, "first_year": 2021, "last_year": 2024, "years_active": 3}}, {"type": "Feature", "geometry": {"type": "Point", "coordinates": [2.8116130000000004, 49.035973999999996]}, "properties": {"street_name": "RUE DES JONCS", "sales": 4, "sales_appt": 0, "sales_maison": 4, "median_price": 286500.0, "median_price_per_sqm": 3221.527777777778, "turnover_score": 4.3, "turnover_rank": 18, "first_year": 2021, "last_year": 2024, "years_active": 3}}, {"type": "Feature", "geometry": {"type": "Point", "coordinates": [2.811826, 49.0347985]}, "properties": {"street_name": "RUE DU CHEMIN DE FESCHEUX", "sales": 4, "sales_appt": 0, "sales_maison": 4, "median_price": 308000.0, "median_price_per_sqm": 3625.0, "turnover_score": 4.3, "turnover_rank": 18, "first_year": 2022, "last_year": 2025, "years_active": 3}}, {"type": "Feature", "geometry": {"type": "Point", "coordinates": [2.8126605, 49.041078]}, "properties": {"street_name": "RUE DES GRANDES BRUYERES", "sales": 4, "sales_appt": 0, "sales_maison": 3, "median_price": 299000.0, "median_price_per_sqm": 2977.5280898876404, "turnover_score": 4.3, "turnover_rank": 18, "first_year": 2021, "last_year": 2023, "years_active": 3}}, {"type": "Feature", "geometry": {"type": "Point", "coordinates": [2.804797, 49.030348]}, "properties": {"street_name": "RUE DE LA BIZIERE", "sales": 3, "sales_appt": 0, "sales_maison": 0, "median_price": 420000.0, "median_price_per_sqm": 1220.1927955352612, "turnover_score": 3.2, "turnover_rank": 19, "first_year": 2021, "last_year": 2025, "years_active": 3}}, {"type": "Feature", "geometry": {"type": "Point", "coordinates": [2.80842, 49.030535]}, "properties": {"street_name": "RUE DE LA CLOCHETTE", "sales": 3, "sales_appt": 0, "sales_maison": 0, "median_price": 443475.0, "median_price_per_sqm": 80.49072411729503, "turnover_score": 3.2, "turnover_rank": 19, "first_year": 2023, "last_year": 2025, "years_active": 2}}, {"type": "Feature", "geometry": {"type": "Point", "coordinates": [2.815385, 49.042673]}, "properties": {"street_name": "RTE DE MARCILLY", "sales": 3, "sales_appt": 0, "sales_maison": 0, "median_price": 192050.0, "median_price_per_sqm": null, "turnover_score": 3.2, "turnover_rank": 19, "first_year": 2021, "last_year": 2025, "years_active": 2}}, {"type": "Feature", "geometry": {"type": "Point", "coordinates": [2.800718, 49.022284]}, "properties": {"street_name": "LES PRES DU SAULE MARSEILL", "sales": 3, "sales_appt": 0, "sales_maison": 0, "median_price": 1.0, "median_price_per_sqm": null, "turnover_score": 3.2, "turnover_rank": 19, "first_year": 2024, "last_year": 2024, "years_active": 1}}, {"type": "Feature", "geometry": {"type": "Point", "coordinates": [2.783966, 49.02687]}, "properties": {"street_name": "LA VENTE", "sales": 3, "sales_appt": 0, "sales_maison": 0, "median_price": 1.0, "median_price_per_sqm": null, "turnover_score": 3.2, "turnover_rank": 19, "first_year": 2024, "last_year": 2024, "years_active": 1}}, {"type": "Feature", "geometry": {"type": "Point", "coordinates": [2.80466, 49.031503]}, "properties": {"street_name": "RUE DE SAINT QUIRIN", "sales": 3, "sales_appt": 0, "sales_maison": 0, "median_price": 750000.0, "median_price_per_sqm": 127.11864406779661, "turnover_score": 3.2, "turnover_rank": 19, "first_year": 2024, "last_year": 2024, "years_active": 1}}, {"type": "Feature", "geometry": {"type": "Point", "coordinates": [2.809018, 49.03846]}, "properties": {"street_name": "RUE DU MARTINET", "sales": 3, "sales_appt": 0, "sales_maison": 1, "median_price": 319000.0, "median_price_per_sqm": 3255.1020408163267, "turnover_score": 3.2, "turnover_rank": 19, "first_year": 2021, "last_year": 2025, "years_active": 2}}, {"type": "Feature", "geometry": {"type": "Point", "coordinates": [2.814788, 49.04654]}, "properties": {"street_name": "LA TREILLE", "sales": 3, "sales_appt": 0, "sales_maison": 0, "median_price": 3000000.0, "median_price_per_sqm": null, "turnover_score": 3.2, "turnover_rank": 19, "first_year": 2021, "last_year": 2021, "years_active": 1}}, {"type": "Feature", "geometry": {"type": "Point", "coordinates": [2.8042525, 49.01908]}, "properties": {"street_name": "LE FOND DU MONT BOULON", "sales": 2, "sales_appt": 0, "sales_maison": 0, "median_price": 1.0, "median_price_per_sqm": null, "turnover_score": 2.2, "turnover_rank": 20, "first_year": 2024, "last_year": 2024, "years_active": 1}}, {"type": "Feature", "geometry": {"type": "Point", "coordinates": [2.802118, 49.037175500000004]}, "properties": {"street_name": "RUE DE L ETRILLE", "sales": 2, "sales_appt": 0, "sales_maison": 1, "median_price": 360000.0, "median_price_per_sqm": 4090.909090909091, "turnover_score": 2.2, "turnover_rank": 20, "first_year": 2025, "last_year": 2025, "years_active": 1}}, {"type": "Feature", "geometry": {"type": "Point", "coordinates": [2.809457, 49.03823]}, "properties": {"street_name": "ALL DE SAINT GOBERT", "sales": 2, "sales_appt": 0, "sales_maison": 2, "median_price": 272500.0, "median_price_per_sqm": 2678.9361081396482, "turnover_score": 2.2, "turnover_rank": 20, "first_year": 2021, "last_year": 2021, "years_active": 1}}, {"type": "Feature", "geometry": {"type": "Point", "coordinates": [2.808778, 49.043121]}, "properties": {"street_name": "ALL DE LA GAULOISE", "sales": 2, "sales_appt": 0, "sales_maison": 1, "median_price": 276790.0, "median_price_per_sqm": 3075.4444444444443, "turnover_score": 2.2, "turnover_rank": 20, "first_year": 2022, "last_year": 2022, "years_active": 1}}, {"type": "Feature", "geometry": {"type": "Point", "coordinates": [2.809457, 49.03823]}, "properties": {"street_name": "ALL DE LA CHAMPAGNE", "sales": 2, "sales_appt": 0, "sales_maison": 1, "median_price": 267500.0, "median_price_per_sqm": 2939.5604395604396, "turnover_score": 2.2, "turnover_rank": 20, "first_year": 2023, "last_year": 2023, "years_active": 1}}, {"type": "Feature", "geometry": {"type": "Point", "coordinates": [2.80355, 49.03607]}, "properties": {"street_name": "IMP SAINT LEU", "sales": 2, "sales_appt": 0, "sales_maison": 1, "median_price": 328000.0, "median_price_per_sqm": 2474.025974025974, "turnover_score": 2.2, "turnover_rank": 20, "first_year": 2021, "last_year": 2023, "years_active": 2}}, {"type": "Feature", "geometry": {"type": "Point", "coordinates": [2.78891, 49.029591]}, "properties": {"street_name": "LA COUTURE", "sales": 2, "sales_appt": 0, "sales_maison": 0, "median_price": 3000000.0, "median_price_per_sqm": null, "turnover_score": 2.2, "turnover_rank": 20, "first_year": 2021, "last_year": 2021, "years_active": 1}}, {"type": "Feature", "geometry": {"type": "Point", "coordinates": [2.8045925, 49.038427999999996]}, "properties": {"street_name": "RUE DE LA FONTAINE", "sales": 2, "sales_appt": 0, "sales_maison": 2, "median_price": 354950.0, "median_price_per_sqm": 4418.164794007491, "turnover_score": 2.2, "turnover_rank": 20, "first_year": 2022, "last_year": 2023, "years_active": 2}}, {"type": "Feature", "geometry": {"type": "Point", "coordinates": [2.805308, 49.042012]}, "properties": {"street_name": "RUE DU GUE DE LA FORGE", "sales": 2, "sales_appt": 0, "sales_maison": 1, "median_price": 310000.0, "median_price_per_sqm": 4133.333333333333, "turnover_score": 2.2, "turnover_rank": 20, "first_year": 2024, "last_year": 2024, "years_active": 1}}, {"type": "Feature", "geometry": {"type": "Point", "coordinates": [2.8121470000000004, 49.0413305]}, "properties": {"street_name": "RUE DU CHEMIN BLANC", "sales": 2, "sales_appt": 0, "sales_maison": 2, "median_price": 287500.0, "median_price_per_sqm": 2855.00637442385, "turnover_score": 2.2, "turnover_rank": 20, "first_year": 2022, "last_year": 2024, "years_active": 2}}, {"type": "Feature", "geometry": {"type": "Point", "coordinates": [2.797677, 49.036627]}, "properties": {"street_name": "RTE DE DAMMARTIN", "sales": 2, "sales_appt": 0, "sales_maison": 2, "median_price": 150000.0, "median_price_per_sqm": 1612.9032258064517, "turnover_score": 2.2, "turnover_rank": 20, "first_year": 2022, "last_year": 2022, "years_active": 1}}, {"type": "Feature", "geometry": {"type": "Point", "coordinates": [2.798794, 49.037577]}, "properties": {"street_name": "RUE DE L EPINETTE", "sales": 2, "sales_appt": 0, "sales_maison": 0, "median_price": 575000.0, "median_price_per_sqm": 1213.0801687763712, "turnover_score": 2.2, "turnover_rank": 20, "first_year": 2024, "last_year": 2024, "years_active": 1}}, {"type": "Feature", "geometry": {"type": "Point", "coordinates": [2.810525, 49.035984]}, "properties": {"street_name": "PL DES JONCS", "sales": 2, "sales_appt": 0, "sales_maison": 2, "median_price": 115667.0, "median_price_per_sqm": 844.2846715328467, "turnover_score": 2.2, "turnover_rank": 20, "first_year": 2025, "last_year": 2025, "years_active": 1}}, {"type": "Feature", "geometry": {"type": "Point", "coordinates": [2.771483, 49.032436000000004]}, "properties": {"street_name": "LE BOIS DE LA GRANGE", "sales": 2, "sales_appt": 0, "sales_maison": 0, "median_price": 1200.0, "median_price_per_sqm": null, "turnover_score": 2.2, "turnover_rank": 20, "first_year": 2023, "last_year": 2023, "years_active": 1}}, {"type": "Feature", "geometry": {"type": "Point", "coordinates": [2.8043855, 49.0206345]}, "properties": {"street_name": "LE DESSOUS DU GUET", "sales": 2, "sales_appt": 0, "sales_maison": 0, "median_price": 1.0, "median_price_per_sqm": null, "turnover_score": 2.2, "turnover_rank": 20, "first_year": 2024, "last_year": 2024, "years_active": 1}}, {"type": "Feature", "geometry": {"type": "Point", "coordinates": [2.788318, 49.025857]}, "properties": {"street_name": "LE BOIS DE LA MARE TONDUE", "sales": 2, "sales_appt": 0, "sales_maison": 0, "median_price": 1.0, "median_price_per_sqm": null, "turnover_score": 2.2, "turnover_rank": 20, "first_year": 2024, "last_year": 2024, "years_active": 1}}, {"type": "Feature", "geometry": {"type": "Point", "coordinates": [2.808432, 49.036077]}, "properties": {"street_name": "ALL DES PROCESSIONS", "sales": 1, "sales_appt": 0, "sales_maison": 1, "median_price": 450000.0, "median_price_per_sqm": 6081.081081081081, "turnover_score": 1.1, "turnover_rank": 21, "first_year": 2022, "last_year": 2022, "years_active": 1}}, {"type": "Feature", "geometry": {"type": "Point", "coordinates": [2.809457, 49.03823]}, "properties": {"street_name": "ALL DE LA BRIE", "sales": 1, "sales_appt": 0, "sales_maison": 1, "median_price": 245000.0, "median_price_per_sqm": 2784.090909090909, "turnover_score": 1.1, "turnover_rank": 21, "first_year": 2021, "last_year": 2021, "years_active": 1}}, {"type": "Feature", "geometry": {"type": "Point", "coordinates": [2.796945, 49.039437]}, "properties": {"street_name": "L EPINE RONDE", "sales": 1, "sales_appt": 0, "sales_maison": 0, "median_price": 3000000.0, "median_price_per_sqm": null, "turnover_score": 1.1, "turnover_rank": 21, "first_year": 2021, "last_year": 2021, "years_active": 1}}, {"type": "Feature", "geometry": {"type": "Point", "coordinates": [2.804729, 49.021888]}, "properties": {"street_name": "L ENTREE DE MONT-BOULON", "sales": 1, "sales_appt": 0, "sales_maison": 0, "median_price": 1.0, "median_price_per_sqm": null, "turnover_score": 1.1, "turnover_rank": 21, "first_year": 2024, "last_year": 2024, "years_active": 1}}, {"type": "Feature", "geometry": {"type": "Point", "coordinates": [2.809457, 49.03823]}, "properties": {"street_name": "IMP DU MULTIEN", "sales": 1, "sales_appt": 0, "sales_maison": 1, "median_price": 280000.0, "median_price_per_sqm": 3181.818181818182, "turnover_score": 1.1, "turnover_rank": 21, "first_year": 2024, "last_year": 2024, "years_active": 1}}, {"type": "Feature", "geometry": {"type": "Point", "coordinates": [2.809457, 49.03823]}, "properties": {"street_name": "ALL DE VALOIS", "sales": 1, "sales_appt": 0, "sales_maison": 1, "median_price": 259000.0, "median_price_per_sqm": 2176.470588235294, "turnover_score": 1.1, "turnover_rank": 21, "first_year": 2024, "last_year": 2024, "years_active": 1}}, {"type": "Feature", "geometry": {"type": "Point", "coordinates": [2.809457, 49.03823]}, "properties": {"street_name": "ALL DE LA GOELE", "sales": 1, "sales_appt": 0, "sales_maison": 1, "median_price": 250000.0, "median_price_per_sqm": 2840.909090909091, "turnover_score": 1.1, "turnover_rank": 21, "first_year": 2022, "last_year": 2022, "years_active": 1}}, {"type": "Feature", "geometry": {"type": "Point", "coordinates": [2.809457, 49.03823]}, "properties": {"street_name": "ALL DU MULTIEN", "sales": 1, "sales_appt": 0, "sales_maison": 1, "median_price": 247000.0, "median_price_per_sqm": 2806.818181818182, "turnover_score": 1.1, "turnover_rank": 21, "first_year": 2025, "last_year": 2025, "years_active": 1}}, {"type": "Feature", "geometry": {"type": "Point", "coordinates": [2.827551, 49.031813]}, "properties": {"street_name": "LA SENTE DES FESCHEUX", "sales": 1, "sales_appt": 0, "sales_maison": 0, "median_price": 11330.0, "median_price_per_sqm": null, "turnover_score": 1.1, "turnover_rank": 21, "first_year": 2022, "last_year": 2022, "years_active": 1}}, {"type": "Feature", "geometry": {"type": "Point", "coordinates": [2.795899, 49.026386]}, "properties": {"street_name": "LA SABLIERE", "sales": 1, "sales_appt": 0, "sales_maison": 0, "median_price": 1.0, "median_price_per_sqm": null, "turnover_score": 1.1, "turnover_rank": 21, "first_year": 2024, "last_year": 2024, "years_active": 1}}, {"type": "Feature", "geometry": {"type": "Point", "coordinates": [2.796564, 49.026951]}, "properties": {"street_name": "LA VIGNE DE L HOTEL DIEU", "sales": 1, "sales_appt": 0, "sales_maison": 0, "median_price": 1.0, "median_price_per_sqm": null, "turnover_score": 1.1, "turnover_rank": 21, "first_year": 2024, "last_year": 2024, "years_active": 1}}, {"type": "Feature", "geometry": {"type": "Point", "coordinates": [2.784274, 49.04736]}, "properties": {"street_name": "LE BOIS DE LA CONSUITE", "sales": 1, "sales_appt": 0, "sales_maison": 0, "median_price": 27500.0, "median_price_per_sqm": null, "turnover_score": 1.1, "turnover_rank": 21, "first_year": 2023, "last_year": 2023, "years_active": 1}}, {"type": "Feature", "geometry": {"type": "Point", "coordinates": [2.80671, 49.030009]}, "properties": {"street_name": "LE CHEMIN DE MONTBOULON", "sales": 1, "sales_appt": 0, "sales_maison": 0, "median_price": 420000.0, "median_price_per_sqm": null, "turnover_score": 1.1, "turnover_rank": 21, "first_year": 2025, "last_year": 2025, "years_active": 1}}, {"type": "Feature", "geometry": {"type": "Point", "coordinates": [2.799961, 49.022277]}, "properties": {"street_name": "LE GOUFFRE", "sales": 1, "sales_appt": 0, "sales_maison": 0, "median_price": 1.0, "median_price_per_sqm": null, "turnover_score": 1.1, "turnover_rank": 21, "first_year": 2024, "last_year": 2024, "years_active": 1}}, {"type": "Feature", "geometry": {"type": "Point", "coordinates": [2.804402, 49.022048]}, "properties": {"street_name": "LE GUET", "sales": 1, "sales_appt": 0, "sales_maison": 0, "median_price": 1.0, "median_price_per_sqm": null, "turnover_score": 1.1, "turnover_rank": 21, "first_year": 2024, "last_year": 2024, "years_active": 1}}, {"type": "Feature", "geometry": {"type": "Point", "coordinates": [2.794685, 49.027109]}, "properties": {"street_name": "LE TROU DE CACOIN", "sales": 1, "sales_appt": 0, "sales_maison": 0, "median_price": 1.0, "median_price_per_sqm": null, "turnover_score": 1.1, "turnover_rank": 21, "first_year": 2024, "last_year": 2024, "years_active": 1}}, {"type": "Feature", "geometry": {"type": "Point", "coordinates": [2.80397, 49.035894]}, "properties": {"street_name": "PL HENRI CAROLY", "sales": 1, "sales_appt": 0, "sales_maison": 1, "median_price": 197500.0, "median_price_per_sqm": 4702.380952380952, "turnover_score": 1.1, "turnover_rank": 21, "first_year": 2021, "last_year": 2021, "years_active": 1}}, {"type": "Feature", "geometry": {"type": "Point", "coordinates": [2.803634, 49.020611]}, "properties": {"street_name": "LE BOIS DES SABLES", "sales": 1, "sales_appt": 0, "sales_maison": 0, "median_price": 1.0, "median_price_per_sqm": null, "turnover_score": 1.1, "turnover_rank": 21, "first_year": 2024, "last_year": 2024, "years_active": 1}}, {"type": "Feature", "geometry": {"type": "Point", "coordinates": [2.808052, 49.041693]}, "properties": {"street_name": "RUE DE MAULNY", "sales": 1, "sales_appt": 0, "sales_maison": 1, "median_price": 337000.0, "median_price_per_sqm": 3063.6363636363635, "turnover_score": 1.1, "turnover_rank": 21, "first_year": 2025, "last_year": 2025, "years_active": 1}}, {"type": "Feature", "geometry": {"type": "Point", "coordinates": [2.806269, 49.036554]}, "properties": {"street_name": "RUE DE LA GAILLONNE", "sales": 1, "sales_appt": 0, "sales_maison": 0, "median_price": 140000.0, "median_price_per_sqm": null, "turnover_score": 1.1, "turnover_rank": 21, "first_year": 2022, "last_year": 2022, "years_active": 1}}, {"type": "Feature", "geometry": {"type": "Point", "coordinates": [2.80967, 49.036992]}, "properties": {"street_name": "RUE DE LA PINONE", "sales": 1, "sales_appt": 0, "sales_maison": 1, "median_price": 250000.0, "median_price_per_sqm": 3125.0, "turnover_score": 1.1, "turnover_rank": 21, "first_year": 2024, "last_year": 2024, "years_active": 1}}, {"type": "Feature", "geometry": {"type": "Point", "coordinates": [2.807938, 49.041816]}, "properties": {"street_name": "RUE DU POINT DU JOUR", "sales": 1, "sales_appt": 0, "sales_maison": 1, "median_price": 320000.0, "median_price_per_sqm": 3333.3333333333335, "turnover_score": 1.1, "turnover_rank": 21, "first_year": 2022, "last_year": 2022, "years_active": 1}}, {"type": "Feature", "geometry": {"type": "Point", "coordinates": [2.808161, 49.036929]}, "properties": {"street_name": "RUE NICOLAS TRONCHON", "sales": 1, "sales_appt": 0, "sales_maison": 1, "median_price": 135000.0, "median_price_per_sqm": 2177.4193548387098, "turnover_score": 1.1, "turnover_rank": 21, "first_year": 2022, "last_year": 2022, "years_active": 1}}, {"type": "Feature", "geometry": {"type": "Point", "coordinates": [2.810869, 49.040401]}, "properties": {"street_name": "RUE DU VERT-BUISSON", "sales": 1, "sales_appt": 0, "sales_maison": 1, "median_price": 257000.0, "median_price_per_sqm": 2379.6296296296296, "turnover_score": 1.1, "turnover_rank": 21, "first_year": 2022, "last_year": 2022, "years_active": 1}}]}