{"type": "FeatureCollection", "features": [{"type": "Feature", "geometry": {"type": "Point", "coordinates": [2.775544, 48.765936]}, "properties": {"street_name": "RUE DU MARRONNIER", "sales": 50, "sales_appt": 6, "sales_maison": 17, "median_price": 312000.0, "median_price_per_sqm": 3337.6623376623374, "turnover_score": 100.0, "turnover_rank": 1, "first_year": 2021, "last_year": 2025, "years_active": 5}}, {"type": "Feature", "geometry": {"type": "Point", "coordinates": [2.781597, 48.800036500000004]}, "properties": {"street_name": "RUE LOUIS VICTOR DORTEE", "sales": 38, "sales_appt": 2, "sales_maison": 18, "median_price": 340000.0, "median_price_per_sqm": 2794.4719944052385, "turnover_score": 76.0, "turnover_rank": 2, "first_year": 2021, "last_year": 2025, "years_active": 5}}, {"type": "Feature", "geometry": {"type": "Point", "coordinates": [2.774038, 48.762826]}, "properties": {"street_name": "RUE DE LA BRIE", "sales": 13, "sales_appt": 1, "sales_maison": 6, "median_price": 329000.0, "median_price_per_sqm": 3333.3333333333335, "turnover_score": 26.0, "turnover_rank": 3, "first_year": 2022, "last_year": 2025, "years_active": 4}}, {"type": "Feature", "geometry": {"type": "Point", "coordinates": [2.77156, 48.762781]}, "properties": {"street_name": "RUE DE BELLEVUE", "sales": 13, "sales_appt": 0, "sales_maison": 6, "median_price": 378000.0, "median_price_per_sqm": 4098.08188265635, "turnover_score": 26.0, "turnover_rank": 3, "first_year": 2021, "last_year": 2025, "years_active": 3}}, {"type": "Feature", "geometry": {"type": "Point", "coordinates": [2.781223, 48.800296]}, "properties": {"street_name": "LA ROUTE", "sales": 13, "sales_appt": 1, "sales_maison": 0, "median_price": 280000.0, "median_price_per_sqm": 4696.969696969697, "turnover_score": 26.0, "turnover_rank": 3, "first_year": 2021, "last_year": 2025, "years_active": 5}}, {"type": "Feature", "geometry": {"type": "Point", "coordinates": [2.771321, 48.763027]}, "properties": {"street_name": "IMP DU CHATEAU D EAU", "sales": 13, "sales_appt": 0, "sales_maison": 0, "median_price": 580000.0, "median_price_per_sqm": null, "turnover_score": 26.0, "turnover_rank": 3, "first_year": 2023, "last_year": 2025, "years_active": 3}}, {"type": "Feature", "geometry": {"type": "Point", "coordinates": [2.7736225, 48.7658415]}, "properties": {"street_name": "RUE DES FARINATS", "sales": 12, "sales_appt": 0, "sales_maison": 9, "median_price": 373600.0, "median_price_per_sqm": 3187.6288659793813, "turnover_score": 24.0, "turnover_rank": 4, "first_year": 2021, "last_year": 2024, "years_active": 4}}, {"type": "Feature", "geometry": {"type": "Point", "coordinates": [2.775487, 48.7641645]}, "properties": {"street_name": "FAVIERES", "sales": 10, "sales_appt": 0, "sales_maison": 0, "median_price": 286100.0, "median_price_per_sqm": null, "turnover_score": 20.0, "turnover_rank": 5, "first_year": 2021, "last_year": 2025, "years_active": 5}}, {"type": "Feature", "geometry": {"type": "Point", "coordinates": [2.773991, 48.759329]}, "properties": {"street_name": "RUE DU MOULIN MARCHAND", "sales": 10, "sales_appt": 0, "sales_maison": 4, "median_price": 399040.0, "median_price_per_sqm": 5872.1605351170565, "turnover_score": 20.0, "turnover_rank": 5, "first_year": 2022, "last_year": 2024, "years_active": 2}}, {"type": "Feature", "geometry": {"type": "Point", "coordinates": [2.7735305, 48.7689875]}, "properties": {"street_name": "RUE DU TILLEUL ARGENTE", "sales": 8, "sales_appt": 0, "sales_maison": 8, "median_price": 452575.0, "median_price_per_sqm": 3239.444055944056, "turnover_score": 16.0, "turnover_rank": 6, "first_year": 2021, "last_year": 2025, "years_active": 4}}, {"type": "Feature", "geometry": {"type": "Point", "coordinates": [2.774674, 48.768769]}, "properties": {"street_name": "RUE DU CHEMIN VERT", "sales": 6, "sales_appt": 0, "sales_maison": 2, "median_price": 584500.0, "median_price_per_sqm": 2823.671497584541, "turnover_score": 12.0, "turnover_rank": 7, "first_year": 2025, "last_year": 2025, "years_active": 1}}, {"type": "Feature", "geometry": {"type": "Point", "coordinates": [2.77661, 48.760243]}, "properties": {"street_name": "RUE DU MONCET", "sales": 6, "sales_appt": 0, "sales_maison": 4, "median_price": 230000.0, "median_price_per_sqm": 3198.9334195216547, "turnover_score": 12.0, "turnover_rank": 7, "first_year": 2022, "last_year": 2023, "years_active": 2}}, {"type": "Feature", "geometry": {"type": "Point", "coordinates": [2.771855, 48.76687]}, "properties": {"street_name": "FOSSE AU PRIEUR", "sales": 5, "sales_appt": 0, "sales_maison": 0, "median_price": 135000.0, "median_price_per_sqm": null, "turnover_score": 10.0, "turnover_rank": 8, "first_year": 2023, "last_year": 2025, "years_active": 2}}, {"type": "Feature", "geometry": {"type": "Point", "coordinates": [2.768639, 48.788472]}, "properties": {"street_name": "HERMIERES", "sales": 5, "sales_appt": 0, "sales_maison": 2, "median_price": 200000.0, "median_price_per_sqm": 2967.0329670329675, "turnover_score": 10.0, "turnover_rank": 8, "first_year": 2023, "last_year": 2023, "years_active": 1}}, {"type": "Feature", "geometry": {"type": "Point", "coordinates": [2.771837, 48.765701]}, "properties": {"street_name": "RUE D HERMIERES", "sales": 5, "sales_appt": 0, "sales_maison": 5, "median_price": 433000.0, "median_price_per_sqm": 3831.5789473684213, "turnover_score": 10.0, "turnover_rank": 8, "first_year": 2021, "last_year": 2025, "years_active": 2}}, {"type": "Feature", "geometry": {"type": "Point", "coordinates": [2.7763285, 48.762578]}, "properties": {"street_name": "RUE DU MARAIS", "sales": 4, "sales_appt": 0, "sales_maison": 3, "median_price": 338500.0, "median_price_per_sqm": 3096.0, "turnover_score": 8.0, "turnover_rank": 9, "first_year": 2021, "last_year": 2025, "years_active": 2}}, {"type": "Feature", "geometry": {"type": "Point", "coordinates": [2.774598, 48.760325]}, "properties": {"street_name": "BEAU SOLEIL", "sales": 3, "sales_appt": 0, "sales_maison": 0, "median_price": 12000.0, "median_price_per_sqm": null, "turnover_score": 6.0, "turnover_rank": 10, "first_year": 2024, "last_year": 2025, "years_active": 2}}, {"type": "Feature", "geometry": {"type": "Point", "coordinates": [2.775508, 48.764946]}, "properties": {"street_name": "RUE DU CLOS DU MARRONNIER", "sales": 3, "sales_appt": 0, "sales_maison": 3, "median_price": 280000.0, "median_price_per_sqm": 3332.5, "turnover_score": 6.0, "turnover_rank": 10, "first_year": 2023, "last_year": 2025, "years_active": 2}}, {"type": "Feature", "geometry": {"type": "Point", "coordinates": [2.773821, 48.769235]}, "properties": {"street_name": "LA MAISON BRULEE", "sales": 3, "sales_appt": 0, "sales_maison": 0, "median_price": 460150.0, "median_price_per_sqm": null, "turnover_score": 6.0, "turnover_rank": 10, "first_year": 2022, "last_year": 2025, "years_active": 3}}, {"type": "Feature", "geometry": {"type": "Point", "coordinates": [2.784446, 48.801187]}, "properties": {"street_name": "LES SERRES DE MARTINE", "sales": 3, "sales_appt": 0, "sales_maison": 2, "median_price": 457000.0, "median_price_per_sqm": 4333.724722765819, "turnover_score": 6.0, "turnover_rank": 10, "first_year": 2023, "last_year": 2024, "years_active": 2}}, {"type": "Feature", "geometry": {"type": "Point", "coordinates": [2.7701475, 48.7690645]}, "properties": {"street_name": "BELLE EPINE", "sales": 2, "sales_appt": 0, "sales_maison": 1, "median_price": 146500.0, "median_price_per_sqm": 4185.714285714285, "turnover_score": 4.0, "turnover_rank": 11, "first_year": 2021, "last_year": 2021, "years_active": 1}}, {"type": "Feature", "geometry": {"type": "Point", "coordinates": [2.781039, 48.800475]}, "properties": {"street_name": "ALL DES POMMIERS", "sales": 2, "sales_appt": 1, "sales_maison": 0, "median_price": 155000.0, "median_price_per_sqm": 4696.969696969697, "turnover_score": 4.0, "turnover_rank": 11, "first_year": 2024, "last_year": 2024, "years_active": 1}}, {"type": "Feature", "geometry": {"type": "Point", "coordinates": [2.7837984999999996, 48.801895]}, "properties": {"street_name": "RUE DU GROS HETRE", "sales": 2, "sales_appt": 0, "sales_maison": 2, "median_price": 209000.0, "median_price_per_sqm": 2855.61011092926, "turnover_score": 4.0, "turnover_rank": 11, "first_year": 2023, "last_year": 2023, "years_active": 1}}, {"type": "Feature", "geometry": {"type": "Point", "coordinates": [2.771733, 48.764819]}, "properties": {"street_name": "RUE DU CLOS DE LA SAUTRELLE", "sales": 2, "sales_appt": 0, "sales_maison": 2, "median_price": 350000.0, "median_price_per_sqm": 3153.153153153153, "turnover_score": 4.0, "turnover_rank": 11, "first_year": 2022, "last_year": 2022, "years_active": 1}}, {"type": "Feature", "geometry": {"type": "Point", "coordinates": [2.784592, 48.801007]}, "properties": {"street_name": "HAM DE LA ROUTE DE GRES", "sales": 2, "sales_appt": 0, "sales_maison": 2, "median_price": 569450.0, "median_price_per_sqm": 3349.705882352941, "turnover_score": 4.0, "turnover_rank": 11, "first_year": 2022, "last_year": 2022, "years_active": 1}}, {"type": "Feature", "geometry": {"type": "Point", "coordinates": [2.781313, 48.799919]}, "properties": {"street_name": "ALL DES PEUPLIERS", "sales": 1, "sales_appt": 0, "sales_maison": 1, "median_price": 326900.0, "median_price_per_sqm": 4137.974683544304, "turnover_score": 2.0, "turnover_rank": 12, "first_year": 2023, "last_year": 2023, "years_active": 1}}, {"type": "Feature", "geometry": {"type": "Point", "coordinates": [2.774423, 48.763645]}, "properties": {"street_name": "PL ADOLPHE BESOUL", "sales": 1, "sales_appt": 0, "sales_maison": 1, "median_price": 239000.0, "median_price_per_sqm": 2779.0697674418607, "turnover_score": 2.0, "turnover_rank": 12, "first_year": 2023, "last_year": 2023, "years_active": 1}}, {"type": "Feature", "geometry": {"type": "Point", "coordinates": [2.776178, 48.76739]}, "properties": {"street_name": "LA SABLIERE", "sales": 1, "sales_appt": 0, "sales_maison": 0, "median_price": 312000.0, "median_price_per_sqm": null, "turnover_score": 2.0, "turnover_rank": 12, "first_year": 2021, "last_year": 2021, "years_active": 1}}, {"type": "Feature", "geometry": {"type": "Point", "coordinates": [2.777673, 48.799843]}, "properties": {"street_name": "RUE HENRI JAMBOIS", "sales": 1, "sales_appt": 0, "sales_maison": 1, "median_price": 406400.0, "median_price_per_sqm": 3596.4601769911505, "turnover_score": 2.0, "turnover_rank": 12, "first_year": 2025, "last_year": 2025, "years_active": 1}}, {"type": "Feature", "geometry": {"type": "Point", "coordinates": [2.775381, 48.76203]}, "properties": {"street_name": "RUE LUCIEN COTEL", "sales": 1, "sales_appt": 0, "sales_maison": 0, "median_price": 387000.0, "median_price_per_sqm": null, "turnover_score": 2.0, "turnover_rank": 12, "first_year": 2025, "last_year": 2025, "years_active": 1}}]}