{"type": "FeatureCollection", "features": [{"type": "Feature", "geometry": {"type": "Polygon", "coordinates": [[[3.210269, 48.971519], [3.209978, 48.971404], [3.209702, 48.971169], [3.209451, 48.970915], [3.208651, 48.970197], [3.208254, 48.969723], [3.207816, 48.96915], [3.207644, 48.968784], [3.206921, 48.968201], [3.206695, 48.967903], [3.206507, 48.967594], [3.206242, 48.967308], [3.205895, 48.966981], [3.20562, 48.966688], [3.205377, 48.96637], [3.205009, 48.965804], [3.20469, 48.964966], [3.204485, 48.964758], [3.203708, 48.964066], [3.203433, 48.963858], [3.202792, 48.963459], [3.202481, 48.963092], [3.202291, 48.962693], [3.202198, 48.962243], [3.202006, 48.961816], [3.201683, 48.961251], [3.201379, 48.9608], [3.201174, 48.96023], [3.201098, 48.959936], [3.201, 48.959121], [3.200878, 48.958684], [3.200639, 48.958214], [3.200453, 48.957772], [3.200173, 48.9572], [3.199889, 48.956754], [3.199666, 48.956573], [3.199089, 48.956049], [3.198344, 48.955457], [3.197432, 48.954882], [3.196837, 48.954566], [3.194612, 48.953755], [3.193528, 48.953364], [3.192642, 48.953096], [3.192053, 48.952959], [3.191279, 48.952909], [3.190693, 48.952899], [3.190144, 48.952911], [3.189264, 48.953063], [3.188525, 48.95335], [3.187514, 48.953938], [3.186324, 48.954808], [3.185824, 48.955185], [3.185515, 48.955548], [3.185404, 48.955708], [3.185262, 48.956003], [3.185194, 48.956478], [3.185188, 48.956796], [3.185035, 48.957463], [3.185052, 48.958037], [3.185209, 48.958956], [3.18528, 48.959935], [3.185311, 48.960175], [3.185553, 48.960772], [3.185939, 48.961648], [3.186708, 48.96325], [3.187029, 48.964369], [3.187183, 48.964811], [3.187565, 48.965511], [3.188129, 48.966191], [3.18871, 48.966958], [3.189038, 48.967495], [3.189294, 48.968128], [3.189679, 48.968835], [3.189939, 48.969239], [3.190285, 48.969617], [3.191177, 48.970478], [3.19174, 48.971167], [3.192096, 48.971485], [3.192691, 48.97179], [3.193552, 48.972175], [3.194333, 48.972616], [3.194902, 48.973064], [3.195245, 48.973473], [3.195703, 48.973974], [3.196127, 48.974541], [3.196232, 48.974801], [3.196272, 48.974995], [3.196278, 48.975286], [3.196233, 48.975745], [3.196132, 48.976131], [3.196096, 48.976391], [3.196088, 48.97684], [3.196149, 48.977126], [3.196339, 48.977486], [3.196478, 48.977684], [3.196752, 48.978204], [3.196946, 48.978529], [3.19717, 48.979249], [3.197326, 48.980764], [3.197351, 48.981692], [3.197426, 48.982399], [3.197465, 48.982901], [3.197425, 48.984179], [3.1974, 48.984617], [3.19725, 48.985371], [3.197055, 48.985865], [3.196849, 48.986341], [3.196617, 48.98701], [3.196484, 48.987298], [3.196199, 48.987814], [3.195767, 48.988419], [3.19526, 48.989038], [3.195109, 48.989197], [3.196085, 48.989516], [3.197052, 48.989793], [3.197627, 48.989977], [3.197643, 48.98995], [3.198353, 48.990139], [3.19836, 48.990023], [3.199632, 48.990336], [3.200474, 48.990642], [3.201286, 48.990867], [3.20132, 48.990823], [3.201949, 48.990975], [3.202685, 48.991249], [3.203079, 48.99103], [3.204763, 48.992149], [3.205748, 48.991612], [3.206154, 48.991987], [3.206913, 48.992648], [3.207203, 48.992479], [3.207676, 48.992141], [3.20835, 48.992662], [3.20929, 48.993246], [3.209437, 48.993828], [3.209439, 48.993971], [3.209972, 48.99384], [3.211577, 48.993416], [3.212695, 48.993239], [3.21355, 48.993092], [3.213677, 48.993096], [3.21514, 48.992876], [3.219418, 48.99222], [3.221307, 48.991918], [3.224791, 48.991378], [3.225146, 48.99132], [3.224786, 48.990761], [3.224595, 48.990604], [3.223761, 48.990077], [3.223726, 48.989971], [3.223765, 48.989781], [3.223979, 48.989036], [3.224258, 48.988148], [3.224384, 48.988077], [3.224709, 48.987524], [3.224822, 48.987328], [3.224856, 48.987115], [3.224784, 48.987102], [3.223078, 48.986649], [3.222535, 48.986381], [3.221894, 48.986149], [3.221524, 48.985952], [3.220128, 48.985529], [3.218892, 48.984998], [3.216363, 48.983827], [3.214666, 48.982378], [3.213716, 48.981575], [3.213863, 48.981463], [3.215357, 48.980973], [3.215666, 48.980753], [3.215928, 48.980428], [3.21597, 48.980221], [3.215633, 48.980113], [3.215156, 48.979882], [3.214603, 48.979645], [3.214232, 48.979532], [3.213771, 48.979293], [3.213271, 48.978952], [3.212745, 48.978568], [3.21214, 48.978078], [3.211684, 48.977784], [3.211402, 48.977641], [3.210975, 48.977371], [3.211528, 48.976971], [3.21203, 48.97663], [3.212507, 48.976219], [3.212504, 48.976192], [3.212836, 48.975921], [3.213356, 48.975527], [3.213196, 48.975433], [3.213783, 48.974984], [3.213564, 48.974882], [3.213678, 48.9748], [3.212051, 48.973871], [3.212262, 48.973754], [3.211779, 48.973401], [3.211373, 48.973211], [3.211261, 48.973083], [3.210918, 48.972817], [3.209637, 48.971778], [3.210269, 48.971519]]]}, "properties": {"code_iris": "772900000", "nom_iris": "Méry-sur-Marne (commune entière)", "type_iris": "Z", "lat": 48.9734, "lng": 3.2051, "dvf_sales_total": 368, "dvf_sales_appt": 0, "dvf_sales_maison": 0, "dvf_median_price": 155000.0, "dvf_median_ppsqm": 2277.777777777778, "dvf_by_year": "[{\"year\": 2021, \"sales\": 104, \"median_price\": 264500.0}, {\"year\": 2022, \"sales\": 77, \"median_price\": 210500.0}, {\"year\": 2023, \"sales\": 68, \"median_price\": 65000.0}, {\"year\": 2024, \"sales\": 58, \"median_price\": 88000.0}, {\"year\": 2025, \"sales\": 61, \"median_price\": 195000.0}]", "population": 679, "n_log": null, "n_rp": null, "pct_proprio": null, "pct_hlm": null, "pct_appart": null, "pct_cadres": null, "pct_bac5p": null, "pct_etrangers": null, "pct_0_14": null, "pct_65p": null, "bpe_total": null, "bpe_commerces": null, "bpe_enseignement": null, "bpe_sante": null, "dpe": null, "attractivity_score": null, "rank_attractivity_score": null, "rank_total_attractivity_score": 1, "commune_avg": null, "is_stub": true}}]}