{"type": "FeatureCollection", "features": [{"type": "Feature", "geometry": {"type": "Polygon", "coordinates": [[[2.871019, 48.156631], [2.870322, 48.156508], [2.870106, 48.156497], [2.868825, 48.156527], [2.867781, 48.156659], [2.867626, 48.156615], [2.867063, 48.156339], [2.866844, 48.156287], [2.866786, 48.15616], [2.866595, 48.156156], [2.866264, 48.156079], [2.86447, 48.155873], [2.863708, 48.155796], [2.862321, 48.155641], [2.859683, 48.155359], [2.85957, 48.15601], [2.859205, 48.15794], [2.859138, 48.158195], [2.857261, 48.157782], [2.856297, 48.157575], [2.855155, 48.160115], [2.854874, 48.160729], [2.854793, 48.160953], [2.855005, 48.161041], [2.854951, 48.161151], [2.854216, 48.163612], [2.851896, 48.163167], [2.851774, 48.164164], [2.849895, 48.163983], [2.850035, 48.164991], [2.848052, 48.165643], [2.848635, 48.16647], [2.846983, 48.166381], [2.846322, 48.166163], [2.845631, 48.165969], [2.844729, 48.165836], [2.843102, 48.165818], [2.842118, 48.165814], [2.841469, 48.166052], [2.840899, 48.16608], [2.84068, 48.166007], [2.840284, 48.1663], [2.840079, 48.166308], [2.839321, 48.166139], [2.838915, 48.166067], [2.837721, 48.165876], [2.837383, 48.165956], [2.837566, 48.166002], [2.83779, 48.166151], [2.838241, 48.166573], [2.838427, 48.166794], [2.838714, 48.16724], [2.838955, 48.167823], [2.838869, 48.168009], [2.83837, 48.168198], [2.838086, 48.168438], [2.838372, 48.169312], [2.838455, 48.169656], [2.838453, 48.169841], [2.838165, 48.171567], [2.838909, 48.171567], [2.839128, 48.172115], [2.839677, 48.172085], [2.840195, 48.173236], [2.84052, 48.17393], [2.840726, 48.174398], [2.840821, 48.174573], [2.840273, 48.174782], [2.840859, 48.17514], [2.841407, 48.175622], [2.841788, 48.175982], [2.841955, 48.176296], [2.842043, 48.176635], [2.842275, 48.177672], [2.84233, 48.177962], [2.841791, 48.178138], [2.842212, 48.178898], [2.842907, 48.180188], [2.842868, 48.180201], [2.843481, 48.181095], [2.843157, 48.18118], [2.842664, 48.18126], [2.842703, 48.181387], [2.843021, 48.181752], [2.84331, 48.182172], [2.843559, 48.182593], [2.843812, 48.183103], [2.844321, 48.184356], [2.844761, 48.185158], [2.845321, 48.186119], [2.845629, 48.186602], [2.84582, 48.186946], [2.845923, 48.187184], [2.846346, 48.188447], [2.846543, 48.18913], [2.846919, 48.190244], [2.847621, 48.192418], [2.84766, 48.193171], [2.847742, 48.194438], [2.84764, 48.194504], [2.846823, 48.194377], [2.846556, 48.196094], [2.846515, 48.197718], [2.847097, 48.197742], [2.847782, 48.197805], [2.84894, 48.198007], [2.849974, 48.197975], [2.852002, 48.197923], [2.852729, 48.197909], [2.852729, 48.197956], [2.853359, 48.197903], [2.853465, 48.198355], [2.852795, 48.19926], [2.852313, 48.199937], [2.852403, 48.199995], [2.854054, 48.200064], [2.854431, 48.200087], [2.854125, 48.202427], [2.855042, 48.202419], [2.855063, 48.204643], [2.855038, 48.206445], [2.854838, 48.206491], [2.855182, 48.207263], [2.856008, 48.209089], [2.85652, 48.20995], [2.857044, 48.2108], [2.857224, 48.210999], [2.857537, 48.211242], [2.858108, 48.21162], [2.858384, 48.211871], [2.858761, 48.212144], [2.859152, 48.212396], [2.859514, 48.212772], [2.859884, 48.213041], [2.860269, 48.213289], [2.860676, 48.213652], [2.861613, 48.214202], [2.861846, 48.214305], [2.862395, 48.214426], [2.862797, 48.214557], [2.863159, 48.214701], [2.863388, 48.214788], [2.864477, 48.215052], [2.864741, 48.215138], [2.866003, 48.215652], [2.866512, 48.215816], [2.866979, 48.215939], [2.86748, 48.216045], [2.867273, 48.215684], [2.867203, 48.215266], [2.867218, 48.215071], [2.867327, 48.21472], [2.867487, 48.214104], [2.867662, 48.213899], [2.867966, 48.21379], [2.869966, 48.213486], [2.871575, 48.213323], [2.872225, 48.21311], [2.872512, 48.212933], [2.872708, 48.212647], [2.873014, 48.211993], [2.873257, 48.21165], [2.873691, 48.211168], [2.874769, 48.210231], [2.874919, 48.210287], [2.87563, 48.210416], [2.876475, 48.210595], [2.877838, 48.210968], [2.878257, 48.211056], [2.879562, 48.211152], [2.883031, 48.211372], [2.883035, 48.211531], [2.883439, 48.211523], [2.883543, 48.211732], [2.885632, 48.21173], [2.886855, 48.211713], [2.887112, 48.211717], [2.887317, 48.211987], [2.887512, 48.212146], [2.888062, 48.21255], [2.888687, 48.213026], [2.889085, 48.213367], [2.889541, 48.213679], [2.889761, 48.213855], [2.890856, 48.215015], [2.890896, 48.214998], [2.89142, 48.21488], [2.891855, 48.214703], [2.891816, 48.213995], [2.890638, 48.213704], [2.890012, 48.213581], [2.890197, 48.213377], [2.89051, 48.212978], [2.891967, 48.211478], [2.892598, 48.21082], [2.893227, 48.210148], [2.893582, 48.209819], [2.894104, 48.209414], [2.894252, 48.209259], [2.894518, 48.208878], [2.89464, 48.208623], [2.894918, 48.207615], [2.895063, 48.207354], [2.895321, 48.207109], [2.896373, 48.206207], [2.897194, 48.205317], [2.897724, 48.204837], [2.898111, 48.204563], [2.899692, 48.20355], [2.900572, 48.202979], [2.900839, 48.202757], [2.901891, 48.201657], [2.902129, 48.201437], [2.902267, 48.201364], [2.901996, 48.201033], [2.902027, 48.200922], [2.902264, 48.200682], [2.902735, 48.200693], [2.902958, 48.200741], [2.903431, 48.200945], [2.904424, 48.201061], [2.904916, 48.20117], [2.905512, 48.201368], [2.905715, 48.201485], [2.906133, 48.201918], [2.906478, 48.202163], [2.906747, 48.202281], [2.907423, 48.202451], [2.908446, 48.202753], [2.908873, 48.202847], [2.909421, 48.202911], [2.909618, 48.202949], [2.909833, 48.20284], [2.910081, 48.202619], [2.91083, 48.201835], [2.910894, 48.20174], [2.911037, 48.201368], [2.911197, 48.20069], [2.911274, 48.200554], [2.911365, 48.200229], [2.911383, 48.200015], [2.911367, 48.199651], [2.91131, 48.199176], [2.911149, 48.198619], [2.911045, 48.198204], [2.910898, 48.197927], [2.91072, 48.197805], [2.910661, 48.197659], [2.910662, 48.197105], [2.91072, 48.196803], [2.910814, 48.196504], [2.911094, 48.195837], [2.911113, 48.195754], [2.910978, 48.195542], [2.910601, 48.195064], [2.910267, 48.194535], [2.910268, 48.194428], [2.910508, 48.194065], [2.910758, 48.193733], [2.910787, 48.19351], [2.910725, 48.193122], [2.910771, 48.192906], [2.911067, 48.192683], [2.911782, 48.193048], [2.912616, 48.193425], [2.91298, 48.19306], [2.913392, 48.192763], [2.914, 48.192044], [2.91424, 48.19188], [2.915436, 48.191356], [2.915607, 48.191234], [2.915839, 48.190938], [2.916065, 48.190536], [2.916249, 48.190436], [2.916643, 48.190308], [2.917308, 48.189983], [2.917493, 48.189842], [2.917667, 48.189585], [2.917808, 48.188999], [2.917808, 48.188682], [2.917697, 48.188117], [2.917871, 48.187831], [2.918135, 48.1877], [2.918753, 48.187602], [2.919292, 48.187484], [2.919865, 48.187282], [2.920332, 48.187024], [2.920649, 48.186812], [2.921065, 48.186494], [2.921803, 48.186157], [2.92223, 48.185978], [2.922537, 48.185699], [2.922907, 48.185215], [2.923369, 48.184545], [2.923519, 48.184273], [2.924146, 48.183395], [2.924429, 48.18311], [2.924798, 48.182874], [2.92567, 48.182697], [2.926126, 48.182628], [2.926749, 48.182639], [2.927212, 48.182559], [2.927492, 48.182459], [2.928206, 48.182007], [2.929135, 48.181307], [2.930604, 48.180183], [2.93157, 48.179396], [2.932289, 48.179055], [2.933463, 48.178563], [2.934669, 48.179125], [2.93528, 48.177604], [2.935349, 48.177225], [2.934662, 48.175976], [2.934037, 48.175889], [2.934475, 48.174871], [2.934546, 48.174853], [2.934394, 48.173669], [2.93452, 48.173105], [2.934441, 48.173089], [2.934507, 48.172638], [2.93478, 48.171615], [2.934836, 48.170883], [2.934753, 48.170871], [2.934761, 48.170202], [2.934822, 48.169367], [2.934848, 48.168817], [2.93483, 48.168768], [2.934794, 48.167405], [2.934745, 48.167394], [2.93496, 48.166804], [2.935175, 48.166109], [2.935572, 48.16594], [2.935565, 48.165894], [2.936624, 48.163456], [2.934574, 48.163254], [2.933695, 48.163155], [2.932365, 48.16302], [2.929352, 48.162699], [2.92682, 48.162421], [2.925138, 48.162253], [2.92411, 48.162163], [2.923599, 48.1621], [2.922569, 48.161993], [2.921637, 48.16188], [2.920423, 48.161766], [2.919835, 48.16172], [2.918028, 48.161514], [2.916802, 48.161382], [2.914861, 48.16119], [2.913539, 48.161052], [2.912528, 48.160954], [2.911244, 48.160809], [2.910245, 48.160688], [2.909188, 48.160591], [2.907356, 48.160407], [2.906313, 48.16029], [2.902719, 48.159925], [2.902022, 48.159858], [2.900008, 48.159649], [2.898221, 48.159473], [2.895684, 48.159186], [2.893465, 48.158959], [2.891388, 48.158736], [2.889098, 48.158505], [2.888279, 48.158409], [2.887389, 48.158319], [2.887121, 48.158302], [2.885843, 48.158155], [2.884608, 48.158028], [2.884525, 48.158036], [2.883939, 48.15798], [2.883837, 48.157923], [2.882097, 48.157756], [2.881504, 48.157671], [2.880638, 48.157594], [2.878188, 48.157324], [2.876489, 48.157167], [2.87523, 48.157023], [2.874702, 48.156978], [2.873978, 48.156958], [2.873017, 48.156866], [2.872442, 48.156797], [2.871919, 48.156716], [2.871019, 48.156631]]]}, "properties": {"code_iris": "771680000", "nom_iris": "Égreville (commune entière)", "type_iris": "Z", "lat": 48.1857, "lng": 2.887, "dvf_sales_total": 725, "dvf_sales_appt": 0, "dvf_sales_maison": 0, "dvf_median_price": 170000.0, "dvf_median_ppsqm": 1826.3157894736842, "dvf_by_year": "[{\"year\": 2021, \"sales\": 142, \"median_price\": 177000.0}, {\"year\": 2022, \"sales\": 172, \"median_price\": 185000.0}, {\"year\": 2023, \"sales\": 169, \"median_price\": 184000.0}, {\"year\": 2024, \"sales\": 138, \"median_price\": 137000.0}, {\"year\": 2025, \"sales\": 104, \"median_price\": 156780.9}]", "population": 2186, "n_log": null, "n_rp": null, "pct_proprio": null, "pct_hlm": null, "pct_appart": null, "pct_cadres": null, "pct_bac5p": null, "pct_etrangers": null, "pct_0_14": null, "pct_65p": null, "bpe_total": null, "bpe_commerces": null, "bpe_enseignement": null, "bpe_sante": null, "dpe": null, "attractivity_score": null, "rank_attractivity_score": null, "rank_total_attractivity_score": 1, "commune_avg": null, "is_stub": true}}]}