{"type": "FeatureCollection", "features": [{"type": "Feature", "geometry": {"type": "Polygon", "coordinates": [[[2.912774, 48.491491], [2.913057, 48.491454], [2.913356, 48.49121], [2.91363, 48.490878], [2.913675, 48.490638], [2.913573, 48.490108], [2.913516, 48.489913], [2.913563, 48.489624], [2.913363, 48.488907], [2.913348, 48.488714], [2.913444, 48.488334], [2.913542, 48.488104], [2.913692, 48.487424], [2.913777, 48.487301], [2.91438, 48.486567], [2.91437, 48.486411], [2.914278, 48.486303], [2.913907, 48.485771], [2.913715, 48.485629], [2.913234, 48.485591], [2.913029, 48.485604], [2.912866, 48.485538], [2.912655, 48.485376], [2.912333, 48.484897], [2.912316, 48.484572], [2.912287, 48.484515], [2.911962, 48.484322], [2.911647, 48.484172], [2.911728, 48.483841], [2.911647, 48.483753], [2.911346, 48.483732], [2.91123, 48.4836], [2.911136, 48.48341], [2.91102, 48.483059], [2.910858, 48.482849], [2.910592, 48.482674], [2.910431, 48.482452], [2.910299, 48.482191], [2.910206, 48.481789], [2.910031, 48.48141], [2.909846, 48.481103], [2.909806, 48.48092], [2.909794, 48.480628], [2.909579, 48.480323], [2.909566, 48.480135], [2.909646, 48.48], [2.91023, 48.479452], [2.910182, 48.479175], [2.909874, 48.478989], [2.909795, 48.478987], [2.909481, 48.47876], [2.909404, 48.478665], [2.909353, 48.478367], [2.909216, 48.478146], [2.909216, 48.477893], [2.909032, 48.477753], [2.908445, 48.477587], [2.908241, 48.477383], [2.908027, 48.477323], [2.907849, 48.47719], [2.907459, 48.477053], [2.907335, 48.476932], [2.907131, 48.4766], [2.906812, 48.476453], [2.906507, 48.476027], [2.905802, 48.47555], [2.905673, 48.475286], [2.905466, 48.475155], [2.905214, 48.475138], [2.905082, 48.475091], [2.904956, 48.474945], [2.904937, 48.474781], [2.905004, 48.474597], [2.904563, 48.474657], [2.904635, 48.474581], [2.902624, 48.474894], [2.901379, 48.475072], [2.899786, 48.475327], [2.898036, 48.475614], [2.896361, 48.475873], [2.89518, 48.476064], [2.894805, 48.475331], [2.8944, 48.474574], [2.893251, 48.474628], [2.892026, 48.474661], [2.888753, 48.474758], [2.888628, 48.475085], [2.88831, 48.475844], [2.888061, 48.476385], [2.88776, 48.476926], [2.887447, 48.477777], [2.887109, 48.478463], [2.887108, 48.47875], [2.886856, 48.479398], [2.88685, 48.479501], [2.88667, 48.479638], [2.88657, 48.479613], [2.884718, 48.480069], [2.880927, 48.480263], [2.880245, 48.480355], [2.877875, 48.48063], [2.876547, 48.480791], [2.874987, 48.480973], [2.874744, 48.481007], [2.871908, 48.48133], [2.871792, 48.480899], [2.87024, 48.481002], [2.869149, 48.481138], [2.868431, 48.481265], [2.867594, 48.481396], [2.867277, 48.481423], [2.866122, 48.481483], [2.865944, 48.481483], [2.864448, 48.481218], [2.86395, 48.481189], [2.863313, 48.48118], [2.863278, 48.481371], [2.862698, 48.481295], [2.861699, 48.481148], [2.861151, 48.481093], [2.860352, 48.481099], [2.85947, 48.481168], [2.85911, 48.48125], [2.857849, 48.481731], [2.857302, 48.481849], [2.857076, 48.481872], [2.856469, 48.481973], [2.85605, 48.482017], [2.855593, 48.482097], [2.855155, 48.482137], [2.854727, 48.482228], [2.853667, 48.482527], [2.852753, 48.482688], [2.851552, 48.48282], [2.850837, 48.482941], [2.850366, 48.48309], [2.850091, 48.483218], [2.849074, 48.483943], [2.847915, 48.484117], [2.848268, 48.484658], [2.846166, 48.48466], [2.845414, 48.48464], [2.845077, 48.484649], [2.8441, 48.484977], [2.843618, 48.485127], [2.843622, 48.485133], [2.843342, 48.486985], [2.843181, 48.48747], [2.843259, 48.487569], [2.843855, 48.487557], [2.843909, 48.487587], [2.84406, 48.488235], [2.844012, 48.488324], [2.843779, 48.488549], [2.842755, 48.488545], [2.842758, 48.488064], [2.842694, 48.487971], [2.842157, 48.488077], [2.840797, 48.488308], [2.840916, 48.490129], [2.841073, 48.492623], [2.8411, 48.49276], [2.841136, 48.49331], [2.839682, 48.493482], [2.838842, 48.493558], [2.83765, 48.493637], [2.835658, 48.493795], [2.835285, 48.493836], [2.834338, 48.494034], [2.834592, 48.494723], [2.834766, 48.495338], [2.834745, 48.495461], [2.834436, 48.495852], [2.834206, 48.496314], [2.834065, 48.496552], [2.83389, 48.496617], [2.833345, 48.496991], [2.832859, 48.497381], [2.83199, 48.498164], [2.831447, 48.498669], [2.831231, 48.49879], [2.830759, 48.4992], [2.830639, 48.499357], [2.830511, 48.499444], [2.829807, 48.49964], [2.829474, 48.499815], [2.829088, 48.500084], [2.828727, 48.500447], [2.828636, 48.500579], [2.829324, 48.501224], [2.830671, 48.502426], [2.831073, 48.502654], [2.831813, 48.502763], [2.831989, 48.502806], [2.832605, 48.502841], [2.833686, 48.502935], [2.833721, 48.503029], [2.834036, 48.503141], [2.83357, 48.504012], [2.832918, 48.504851], [2.832996, 48.504977], [2.833317, 48.505358], [2.833619, 48.505664], [2.833498, 48.505751], [2.834461, 48.506087], [2.834973, 48.50635], [2.835204, 48.506528], [2.835343, 48.506715], [2.835549, 48.507155], [2.835613, 48.507137], [2.835689, 48.507381], [2.836099, 48.507274], [2.836403, 48.506815], [2.837151, 48.506863], [2.838079, 48.50705], [2.83863, 48.507172], [2.838749, 48.507294], [2.839013, 48.507691], [2.839108, 48.507914], [2.839354, 48.508104], [2.839612, 48.508255], [2.83971, 48.508515], [2.839964, 48.508879], [2.840022, 48.50923], [2.840001, 48.510054], [2.839917, 48.51032], [2.839804, 48.510529], [2.840022, 48.510958], [2.840343, 48.511509], [2.840486, 48.511816], [2.838405, 48.513983], [2.838911, 48.51406], [2.838695, 48.514595], [2.83916, 48.514629], [2.838624, 48.515707], [2.838519, 48.515956], [2.839104, 48.515949], [2.841652, 48.51595], [2.842891, 48.515958], [2.843478, 48.515924], [2.843983, 48.515933], [2.845093, 48.515883], [2.845081, 48.515803], [2.844689, 48.515608], [2.84432, 48.515449], [2.843687, 48.515292], [2.843455, 48.515276], [2.843309, 48.515305], [2.843474, 48.514992], [2.843921, 48.514004], [2.844181, 48.513531], [2.844236, 48.513186], [2.844102, 48.512582], [2.843719, 48.511269], [2.84369, 48.511012], [2.843715, 48.510363], [2.844724, 48.510379], [2.84678, 48.510424], [2.847032, 48.51047], [2.847741, 48.510486], [2.84977, 48.510631], [2.85088, 48.51067], [2.851691, 48.510644], [2.853247, 48.51065], [2.854047, 48.510685], [2.854973, 48.510797], [2.85611, 48.510954], [2.857528, 48.511073], [2.857852, 48.511082], [2.858667, 48.511177], [2.859928, 48.511428], [2.862346, 48.511803], [2.863237, 48.511914], [2.86393, 48.511907], [2.865162, 48.511834], [2.866481, 48.511854], [2.867029, 48.511893], [2.867554, 48.511977], [2.868937, 48.512331], [2.869623, 48.512552], [2.870484, 48.51279], [2.870918, 48.512931], [2.871976, 48.513226], [2.872364, 48.51332], [2.872674, 48.513324], [2.873525, 48.513216], [2.874234, 48.51315], [2.87112, 48.510179], [2.870539, 48.50964], [2.868473, 48.507837], [2.868341, 48.507582], [2.868295, 48.507416], [2.868293, 48.507152], [2.868405, 48.506782], [2.868579, 48.506542], [2.868921, 48.506153], [2.868979, 48.50603], [2.869836, 48.506299], [2.870905, 48.506558], [2.871456, 48.506629], [2.873251, 48.506748], [2.873557, 48.506801], [2.876082, 48.507761], [2.876549, 48.507928], [2.87765, 48.508171], [2.878778, 48.508433], [2.879742, 48.508715], [2.88003, 48.508815], [2.880615, 48.508755], [2.88206, 48.50846], [2.885033, 48.50783], [2.885377, 48.507863], [2.885999, 48.508212], [2.886415, 48.508588], [2.886904, 48.509105], [2.887362, 48.509542], [2.888646, 48.51053], [2.889361, 48.51116], [2.89013, 48.51172], [2.890579, 48.511927], [2.891023, 48.512076], [2.891271, 48.51211], [2.894153, 48.513009], [2.894244, 48.513073], [2.894801, 48.513031], [2.895332, 48.51303], [2.895936, 48.513045], [2.896086, 48.513031], [2.89691, 48.512823], [2.897582, 48.512692], [2.899146, 48.512514], [2.899711, 48.512479], [2.900354, 48.512478], [2.900853, 48.512431], [2.901662, 48.512323], [2.90248, 48.512333], [2.903172, 48.512305], [2.903774, 48.512266], [2.904556, 48.512418], [2.905623, 48.512597], [2.906495, 48.512849], [2.90738, 48.513045], [2.908077, 48.513141], [2.90871, 48.513211], [2.909244, 48.513309], [2.909945, 48.513536], [2.910198, 48.513575], [2.91159, 48.513543], [2.911919, 48.513596], [2.912471, 48.513583], [2.912539, 48.513644], [2.913433, 48.514206], [2.91415, 48.514226], [2.915066, 48.514228], [2.915794, 48.514131], [2.916196, 48.514151], [2.917833, 48.513983], [2.917848, 48.513434], [2.91788, 48.512946], [2.917558, 48.512628], [2.917242, 48.512422], [2.916706, 48.512166], [2.916069, 48.511789], [2.91564, 48.511631], [2.916021, 48.511238], [2.91511, 48.510889], [2.914711, 48.510777], [2.914436, 48.510729], [2.913841, 48.510685], [2.913735, 48.510435], [2.913844, 48.510404], [2.913402, 48.509224], [2.91303, 48.508949], [2.912948, 48.508708], [2.912952, 48.508552], [2.91305, 48.508248], [2.913282, 48.507865], [2.913314, 48.507437], [2.913392, 48.507159], [2.913636, 48.506647], [2.913219, 48.506503], [2.913131, 48.506432], [2.912935, 48.506387], [2.912475, 48.506219], [2.912151, 48.505965], [2.911572, 48.505765], [2.911151, 48.50559], [2.910751, 48.505381], [2.910429, 48.505172], [2.90993, 48.504899], [2.909326, 48.504926], [2.908806, 48.505031], [2.90823, 48.505086], [2.907265, 48.505095], [2.905588, 48.505559], [2.904763, 48.505804], [2.904371, 48.50582], [2.903923, 48.505873], [2.903669, 48.506258], [2.903308, 48.506382], [2.902629, 48.506772], [2.901569, 48.507161], [2.901469, 48.506975], [2.901053, 48.505817], [2.900933, 48.50561], [2.900718, 48.505151], [2.900377, 48.504308], [2.900253, 48.504099], [2.899727, 48.503372], [2.899068, 48.50257], [2.898765, 48.502261], [2.898423, 48.502068], [2.897864, 48.501855], [2.897745, 48.501709], [2.898487, 48.501199], [2.898888, 48.500838], [2.89909, 48.500702], [2.899498, 48.500536], [2.899892, 48.500434], [2.901344, 48.500143], [2.901704, 48.49996], [2.902402, 48.499417], [2.902814, 48.499157], [2.903427, 48.498824], [2.903763, 48.49847], [2.904073, 48.498215], [2.904527, 48.497899], [2.905075, 48.497472], [2.90527, 48.497268], [2.906496, 48.496342], [2.907065, 48.49589], [2.907668, 48.495389], [2.908426, 48.494809], [2.908836, 48.494539], [2.909083, 48.494424], [2.909749, 48.493975], [2.910456, 48.493376], [2.911166, 48.492842], [2.912433, 48.491806], [2.912774, 48.491553], [2.912774, 48.491491]]]}, "properties": {"code_iris": "771650000", "nom_iris": "Les Écrennes (commune entière)", "type_iris": "Z", "lat": 48.4953, "lng": 2.8733, "dvf_sales_total": 161, "dvf_sales_appt": 0, "dvf_sales_maison": 0, "dvf_median_price": 342575.0, "dvf_median_ppsqm": 2840.7382847038016, "dvf_by_year": "[{\"year\": 2021, \"sales\": 30, \"median_price\": 260000.0}, {\"year\": 2022, \"sales\": 20, \"median_price\": 263500.0}, {\"year\": 2023, \"sales\": 39, \"median_price\": 1000000.0}, {\"year\": 2024, \"sales\": 44, \"median_price\": 750000.0}, {\"year\": 2025, \"sales\": 28, \"median_price\": 269000.0}]", "population": 628, "n_log": null, "n_rp": null, "pct_proprio": null, "pct_hlm": null, "pct_appart": null, "pct_cadres": null, "pct_bac5p": null, "pct_etrangers": null, "pct_0_14": null, "pct_65p": null, "bpe_total": null, "bpe_commerces": null, "bpe_enseignement": null, "bpe_sante": null, "dpe": null, "attractivity_score": null, "rank_attractivity_score": null, "rank_total_attractivity_score": 1, "commune_avg": null, "is_stub": true}}]}