{"type": "FeatureCollection", "features": [{"type": "Feature", "geometry": {"type": "Point", "coordinates": [2.623521, 48.451472]}, "properties": {"id_parcelle": "77022000AD0390", "address": "63 RUE GABRIEL SEAILLES", "sales": 18, "median_price": 126770.0, "median_price_per_sqm": 3352.159468438538, "median_rooms": 0.0, "first_sale": "2021-03-24", "last_sale": "2024-10-14"}}, {"type": "Feature", "geometry": {"type": "Point", "coordinates": [2.599454, 48.444799]}, "properties": {"id_parcelle": "77022000AR0197", "address": "6 RUE DE LA BARBIZONNIERE", "sales": 14, "median_price": 240000.0, "median_price_per_sqm": 2086.9565217391305, "median_rooms": 0.0, "first_sale": "2022-06-23", "last_sale": "2022-06-23"}}, {"type": "Feature", "geometry": {"type": "Point", "coordinates": [2.602961, 48.447253]}, "properties": {"id_parcelle": "77022000AI0690", "address": "24 RUE CHARLES JACQUES", "sales": 14, "median_price": 129500.0, "median_price_per_sqm": 4404.761904761905, "median_rooms": 0.5, "first_sale": "2023-11-16", "last_sale": "2025-12-12"}}, {"type": "Feature", "geometry": {"type": "Point", "coordinates": [2.604701, 48.445913]}, "properties": {"id_parcelle": "77022000AI0575", "address": "72 GR GDE RUE", "sales": 12, "median_price": 910000.0, "median_price_per_sqm": 8852.941176470587, "median_rooms": 0.0, "first_sale": "2021-06-11", "last_sale": "2021-06-11"}}, {"type": "Feature", "geometry": {"type": "Point", "coordinates": [2.607517, 48.445347]}, "properties": {"id_parcelle": "77022000AK0325", "address": "40 RUE GRANDE", "sales": 12, "median_price": 281000.0, "median_price_per_sqm": 4323.076923076923, "median_rooms": 0.0, "first_sale": "2021-03-19", "last_sale": "2025-01-29"}}, {"type": "Feature", "geometry": {"type": "Point", "coordinates": [2.612434, 48.447214]}, "properties": {"id_parcelle": "77022000AI0188", "address": "25 RUE DU PUITS DU CORMIER", "sales": 12, "median_price": 279000.0, "median_price_per_sqm": 3304.0761175543294, "median_rooms": 0.0, "first_sale": "2022-09-26", "last_sale": "2025-11-21"}}, {"type": "Feature", "geometry": {"type": "Point", "coordinates": [2.604433, 48.445354]}, "properties": {"id_parcelle": "77022000AK0363", "address": "61 GR GDE RUE", "sales": 10, "median_price": 675000.0, "median_price_per_sqm": 4787.234042553191, "median_rooms": 0.0, "first_sale": "2022-12-22", "last_sale": "2022-12-22"}}, {"type": "Feature", "geometry": {"type": "Point", "coordinates": [2.604544, 48.447222]}, "properties": {"id_parcelle": "77022000AI0577", "address": "10 RUE CHARLES JACQUES", "sales": 10, "median_price": 800000.0, "median_price_per_sqm": 12500.0, "median_rooms": 0.0, "first_sale": "2022-05-11", "last_sale": "2022-05-11"}}, {"type": "Feature", "geometry": {"type": "Point", "coordinates": [2.600259, 48.446922]}, "properties": {"id_parcelle": "77022000AB0084", "address": "12 RUE DE FLEURY", "sales": 10, "median_price": 2226300.0, "median_price_per_sqm": 6571.176470588235, "median_rooms": 0.0, "first_sale": "2021-01-26", "last_sale": "2024-10-28"}}, {"type": "Feature", "geometry": {"type": "Point", "coordinates": [2.605898, 48.453595]}, "properties": {"id_parcelle": "77022000AC0264", "address": "54 RUE DU 23 AOUT", "sales": 9, "median_price": 1275290.0, "median_price_per_sqm": 4637.418181818181, "median_rooms": 0.0, "first_sale": "2022-12-02", "last_sale": "2022-12-02"}}, {"type": "Feature", "geometry": {"type": "Point", "coordinates": [2.598545, 48.445479]}, "properties": {"id_parcelle": "77022000AR0163", "address": "10 CHE DES GRANDS ORMES", "sales": 9, "median_price": 3000000.0, "median_price_per_sqm": 9375.0, "median_rooms": 0.0, "first_sale": "2024-12-03", "last_sale": "2024-12-03"}}, {"type": "Feature", "geometry": {"type": "Point", "coordinates": [2.60102, 48.444641]}, "properties": {"id_parcelle": "77022000AL0102", "address": "11 AV DU GEN DE GAULLE", "sales": 8, "median_price": 786900.0, "median_price_per_sqm": 4141.578947368421, "median_rooms": 0.0, "first_sale": "2022-09-14", "last_sale": "2022-09-14"}}, {"type": "Feature", "geometry": {"type": "Point", "coordinates": [2.613672, 48.447199]}, "properties": {"id_parcelle": "77022000AH0294", "address": "16 RUE DU PUITS DU CORMIER", "sales": 8, "median_price": 365000.0, "median_price_per_sqm": 9125.0, "median_rooms": 0.0, "first_sale": "2022-03-29", "last_sale": "2022-03-29"}}, {"type": "Feature", "geometry": {"type": "Point", "coordinates": [2.599491, 48.446954]}, "properties": {"id_parcelle": "77022000AB0135", "address": "20 RUE DE FLEURY", "sales": 8, "median_price": 1618477.4, "median_price_per_sqm": 16216.886646825396, "median_rooms": 0.0, "first_sale": "2022-07-13", "last_sale": "2022-07-13"}}, {"type": "Feature", "geometry": {"type": "Point", "coordinates": [2.599818, 48.44675]}, "properties": {"id_parcelle": "77022000AB0136", "address": "16 RUE DE FLEURY", "sales": 8, "median_price": 100000.0, "median_price_per_sqm": 1547.6190476190477, "median_rooms": 3.0, "first_sale": "2024-08-23", "last_sale": "2024-08-23"}}, {"type": "Feature", "geometry": {"type": "Point", "coordinates": [2.601412, 48.439213]}, "properties": {"id_parcelle": "77022000AM0229", "address": "31 RUE DE LA BELLE MARIE", "sales": 8, "median_price": 1007560.0, "median_price_per_sqm": 5037.8, "median_rooms": 3.5, "first_sale": "2021-07-01", "last_sale": "2023-11-24"}}, {"type": "Feature", "geometry": {"type": "Point", "coordinates": [2.60685, 48.446289]}, "properties": {"id_parcelle": "77022000AI0623", "address": "4 PL DE L ANGELUS", "sales": 8, "median_price": 840000.0, "median_price_per_sqm": 3766.816143497758, "median_rooms": 0.0, "first_sale": "2025-10-09", "last_sale": "2025-10-09"}}, {"type": "Feature", "geometry": {"type": "Point", "coordinates": [2.593778, 48.43914]}, "properties": {"id_parcelle": "77022000AN0170", "address": "4 CHE DU MONTOIR", "sales": 6, "median_price": 723500.0, "median_price_per_sqm": 12153.553481694185, "median_rooms": 0.0, "first_sale": "2024-06-21", "last_sale": "2024-06-21"}}, {"type": "Feature", "geometry": {"type": "Point", "coordinates": [2.600943, 48.443331]}, "properties": {"id_parcelle": "77022000AL0084", "address": "10 RUE DE LA PLANTE RABOT", "sales": 6, "median_price": 330000.0, "median_price_per_sqm": 8250.0, "median_rooms": 0.0, "first_sale": "2024-08-05", "last_sale": "2024-08-05"}}, {"type": "Feature", "geometry": {"type": "Point", "coordinates": [2.621543, 48.450697]}, "properties": {"id_parcelle": "77022000AD0423", "address": "2 RUE DES ACACIAS", "sales": 6, "median_price": 605000.0, "median_price_per_sqm": 3711.6564417177915, "median_rooms": 2.5, "first_sale": "2022-10-21", "last_sale": "2022-10-21"}}, {"type": "Feature", "geometry": {"type": "Point", "coordinates": [2.605764, 48.446501]}, "properties": {"id_parcelle": "77022000AI0646", "address": "3 RUE DU CHEMIN DE LA MESSE", "sales": 6, "median_price": 1900000.0, "median_price_per_sqm": 20583.333333333336, "median_rooms": 3.0, "first_sale": "2024-10-31", "last_sale": "2024-10-31"}}, {"type": "Feature", "geometry": {"type": "Point", "coordinates": [2.613456, 48.444944]}, "properties": {"id_parcelle": "77022000AK0404", "address": "16 RUE DIAZ", "sales": 6, "median_price": 1776000.0, "median_price_per_sqm": 5103.448275862069, "median_rooms": 0.0, "first_sale": "2025-10-09", "last_sale": "2025-10-09"}}, {"type": "Feature", "geometry": {"type": "Point", "coordinates": [2.606033, 48.442968]}, "properties": {"id_parcelle": "77022000AL0180", "address": "1 RUE JEAN BAPTISTE COMBLE", "sales": 6, "median_price": 1680000.0, "median_price_per_sqm": 5090.909090909091, "median_rooms": 0.0, "first_sale": "2021-08-27", "last_sale": "2021-08-27"}}, {"type": "Feature", "geometry": {"type": "Point", "coordinates": [2.595683, 48.447756]}, "properties": {"id_parcelle": "770220000V0040", "address": "36 RUE DE FLEURY", "sales": 6, "median_price": 160000.0, "median_price_per_sqm": 2285.714285714286, "median_rooms": 0.0, "first_sale": "2025-07-09", "last_sale": "2025-07-09"}}, {"type": "Feature", "geometry": {"type": "Point", "coordinates": [2.622069, 48.450565]}, "properties": {"id_parcelle": "77022000AD0344", "address": "61 RUE GABRIEL SEAILLES", "sales": 6, "median_price": 362000.0, "median_price_per_sqm": 4525.0, "median_rooms": 0.0, "first_sale": "2024-04-29", "last_sale": "2024-04-29"}}, {"type": "Feature", "geometry": {"type": "Point", "coordinates": [2.603903, 48.448807]}, "properties": {"id_parcelle": "77022000AI0445", "address": "11 RUE JULES BOURDOIS", "sales": 6, "median_price": 702500.0, "median_price_per_sqm": 4811.643835616438, "median_rooms": 0.0, "first_sale": "2025-09-12", "last_sale": "2025-09-12"}}, {"type": "Feature", "geometry": {"type": "Point", "coordinates": [2.618772, 48.446948]}, "properties": {"id_parcelle": "77022000AH0344", "address": "13 ALL ODETTE DULAC", "sales": 6, "median_price": 1401450.0, "median_price_per_sqm": 6869.85294117647, "median_rooms": 0.0, "first_sale": "2024-01-12", "last_sale": "2024-01-12"}}, {"type": "Feature", "geometry": {"type": "Point", "coordinates": [2.599542, 48.446392]}, "properties": {"id_parcelle": "77022000AR0165", "address": "15 RUE DE FLEURY", "sales": 5, "median_price": 785000.0, "median_price_per_sqm": 1972.3618090452262, "median_rooms": 0.0, "first_sale": "2021-12-15", "last_sale": "2021-12-15"}}, {"type": "Feature", "geometry": {"type": "Point", "coordinates": [2.619339, 48.447261]}, "properties": {"id_parcelle": "77022000AH0396", "address": "LE REPOSOIR", "sales": 5, "median_price": 1086243.5, "median_price_per_sqm": 8229.117424242424, "median_rooms": 0.0, "first_sale": "2022-12-22", "last_sale": "2023-08-08"}}, {"type": "Feature", "geometry": {"type": "Point", "coordinates": [2.611381, 48.44596]}, "properties": {"id_parcelle": "77022000AI0455", "address": "4 RUE ANTOINE BARYE", "sales": 4, "median_price": 1523684.2, "median_price_per_sqm": 2165.4588803421366, "median_rooms": 0.0, "first_sale": "2023-01-04", "last_sale": "2023-01-04"}}, {"type": "Feature", "geometry": {"type": "Point", "coordinates": [2.608053, 48.449619]}, "properties": {"id_parcelle": "77022000AC0312", "address": "15 RUE DU CHAMP GAUTHIER", "sales": 4, "median_price": 900000.0, "median_price_per_sqm": 2670.6231454005933, "median_rooms": 3.0, "first_sale": "2022-07-29", "last_sale": "2022-07-29"}}, {"type": "Feature", "geometry": {"type": "Point", "coordinates": [2.605622, 48.450066]}, "properties": {"id_parcelle": "77022000AC0294", "address": "20 RUE DU CHEMIN DE LA MESSE", "sales": 4, "median_price": 708000.0, "median_price_per_sqm": 4059.512558535547, "median_rooms": 6.0, "first_sale": "2021-12-07", "last_sale": "2024-07-05"}}, {"type": "Feature", "geometry": {"type": "Point", "coordinates": [2.601434, 48.448742]}, "properties": {"id_parcelle": "77022000AB0174", "address": "8 RUE ERNEST REVILLON", "sales": 4, "median_price": 256000.0, "median_price_per_sqm": 3426.2182566918327, "median_rooms": 1.0, "first_sale": "2021-09-02", "last_sale": "2021-09-02"}}, {"type": "Feature", "geometry": {"type": "Point", "coordinates": [2.610948, 48.450008]}, "properties": {"id_parcelle": "77022000AC0122", "address": "5000 CR N 18 DIT DU CORMIER", "sales": 4, "median_price": 718000.0, "median_price_per_sqm": 4056.497175141243, "median_rooms": 2.5, "first_sale": "2025-11-07", "last_sale": "2025-11-07"}}, {"type": "Feature", "geometry": {"type": "Point", "coordinates": [2.619838, 48.450323]}, "properties": {"id_parcelle": "77022000AD0073", "address": "6 RES LA CHARBONNIERE", "sales": 4, "median_price": 852500.0, "median_price_per_sqm": 4230.7692307692305, "median_rooms": 5.0, "first_sale": "2022-03-15", "last_sale": "2023-08-09"}}, {"type": "Feature", "geometry": {"type": "Point", "coordinates": [2.619659, 48.44712]}, "properties": {"id_parcelle": "77022000AH0451", "address": "40 RUE GABRIEL SEAILLES", "sales": 4, "median_price": 2600000.0, "median_price_per_sqm": 8333.333333333334, "median_rooms": 6.0, "first_sale": "2022-12-22", "last_sale": "2022-12-22"}}, {"type": "Feature", "geometry": {"type": "Point", "coordinates": [2.599634, 48.448266]}, "properties": {"id_parcelle": "77022000AB0179", "address": "17 RUE ERNEST REVILLON", "sales": 4, "median_price": 592700.5, "median_price_per_sqm": 4456.394736842105, "median_rooms": 5.0, "first_sale": "2022-06-20", "last_sale": "2024-04-26"}}, {"type": "Feature", "geometry": {"type": "Point", "coordinates": [2.595875, 48.443214]}, "properties": {"id_parcelle": "77022000AN0066", "address": "13 RUE DE LA BARBIZONNIERE", "sales": 4, "median_price": 420480.0, "median_price_per_sqm": 4889.302325581395, "median_rooms": 2.5, "first_sale": "2024-04-19", "last_sale": "2024-04-19"}}, {"type": "Feature", "geometry": {"type": "Point", "coordinates": [2.597671, 48.442644]}, "properties": {"id_parcelle": "77022000AN0094", "address": "32 AV DU GEN DE GAULLE", "sales": 4, "median_price": 6237500.0, "median_price_per_sqm": 8196.452036793693, "median_rooms": 0.0, "first_sale": "2024-07-18", "last_sale": "2024-07-18"}}, {"type": "Feature", "geometry": {"type": "Point", "coordinates": [2.599847, 48.442508]}, "properties": {"id_parcelle": "77022000AM0199", "address": "9 RUE DE LA PLANTE RABOT", "sales": 4, "median_price": 1200290.0, "median_price_per_sqm": 4616.5, "median_rooms": 4.0, "first_sale": "2024-10-23", "last_sale": "2024-10-23"}}, {"type": "Feature", "geometry": {"type": "Point", "coordinates": [2.61351, 48.445347]}, "properties": {"id_parcelle": "77022000AK0376", "address": "4 CHE DES MAZETTES", "sales": 4, "median_price": 1335000.0, "median_price_per_sqm": 5705.128205128205, "median_rooms": 2.5, "first_sale": "2023-05-31", "last_sale": "2023-05-31"}}, {"type": "Feature", "geometry": {"type": "Point", "coordinates": [2.602273, 48.4453]}, "properties": {"id_parcelle": "77022000AL0186", "address": "73 GR GDE RUE", "sales": 4, "median_price": 1270000.0, "median_price_per_sqm": 2545.3199479994223, "median_rooms": 0.0, "first_sale": "2021-05-26", "last_sale": "2021-05-26"}}, {"type": "Feature", "geometry": {"type": "Point", "coordinates": [2.609805, 48.442937]}, "properties": {"id_parcelle": "77022000AK0324", "address": "3 RUE DE LA BELLE MARIE", "sales": 4, "median_price": 238175.0, "median_price_per_sqm": 5956.578947368421, "median_rooms": 2.0, "first_sale": "2021-11-16", "last_sale": "2022-11-09"}}, {"type": "Feature", "geometry": {"type": "Point", "coordinates": [2.60594, 48.442047]}, "properties": {"id_parcelle": "77022000AL0126", "address": "10 RUE DE LA BELLE MARIE", "sales": 4, "median_price": 1605280.0, "median_price_per_sqm": 8274.639175257733, "median_rooms": 3.0, "first_sale": "2022-04-26", "last_sale": "2022-04-26"}}, {"type": "Feature", "geometry": {"type": "Point", "coordinates": [2.606667, 48.446395]}, "properties": {"id_parcelle": "77022000AI0580", "address": "6 PL DE L ANGELUS", "sales": 4, "median_price": 1306500.0, "median_price_per_sqm": 13065.0, "median_rooms": 2.5, "first_sale": "2025-07-17", "last_sale": "2025-07-17"}}, {"type": "Feature", "geometry": {"type": "Point", "coordinates": [2.60598, 48.445133]}, "properties": {"id_parcelle": "77022000AK0294", "address": "45 RUE GRANDE", "sales": 4, "median_price": 980000.0, "median_price_per_sqm": 15564.70588235294, "median_rooms": 1.0, "first_sale": "2021-07-16", "last_sale": "2021-07-16"}}, {"type": "Feature", "geometry": {"type": "Point", "coordinates": [2.612329, 48.445717]}, "properties": {"id_parcelle": "77022000AK0375", "address": "18 RUE DIAZ", "sales": 4, "median_price": 1716050.0, "median_price_per_sqm": 6600.192307692308, "median_rooms": 4.0, "first_sale": "2021-10-08", "last_sale": "2021-10-08"}}, {"type": "Feature", "geometry": {"type": "Point", "coordinates": [2.61707, 48.444661]}, "properties": {"id_parcelle": "77022000AK0292", "address": "14 CHE DES MAZETTES", "sales": 4, "median_price": 1800000.0, "median_price_per_sqm": 33962.264150943396, "median_rooms": 0.5, "first_sale": "2025-12-12", "last_sale": "2025-12-12"}}, {"type": "Feature", "geometry": {"type": "Point", "coordinates": [2.603173, 48.449093]}, "properties": {"id_parcelle": "77022000AI0571", "address": "26 RUE DU 23 AOUT", "sales": 4, "median_price": 450000.0, "median_price_per_sqm": 6428.571428571428, "median_rooms": 2.5, "first_sale": "2025-11-28", "last_sale": "2025-11-28"}}, {"type": "Feature", "geometry": {"type": "Point", "coordinates": [2.595183, 48.439163]}, "properties": {"id_parcelle": "77022000AM0384", "address": "39 AV DU GEN DE GAULLE", "sales": 4, "median_price": 475000.0, "median_price_per_sqm": 3625.9541984732823, "median_rooms": 2.5, "first_sale": "2022-02-22", "last_sale": "2022-02-22"}}, {"type": "Feature", "geometry": {"type": "Point", "coordinates": [2.60465, 48.440447]}, "properties": {"id_parcelle": "77022000AM0277", "address": "19 RUE DE LA BELLE MARIE", "sales": 4, "median_price": 720000.0, "median_price_per_sqm": 3600.0, "median_rooms": 2.0, "first_sale": "2021-10-09", "last_sale": "2021-10-09"}}, {"type": "Feature", "geometry": {"type": "Point", "coordinates": [2.610668, 48.445422]}, "properties": {"id_parcelle": "77022000AK0243", "address": "5 RUE ANTOINE BARYE", "sales": 3, "median_price": 600000.0, "median_price_per_sqm": 7032.797710763813, "median_rooms": 1.0, "first_sale": "2021-12-17", "last_sale": "2021-12-17"}}, {"type": "Feature", "geometry": {"type": "Point", "coordinates": [2.602451, 48.43973]}, "properties": {"id_parcelle": "77022000AM0214", "address": "ROCHERS MUETS", "sales": 3, "median_price": 1130000.0, "median_price_per_sqm": null, "median_rooms": null, "first_sale": "2021-07-01", "last_sale": "2023-11-24"}}, {"type": "Feature", "geometry": {"type": "Point", "coordinates": [2.591052, 48.442144]}, "properties": {"id_parcelle": "77022000AN0034", "address": "24 RUE DE LA BARBIZONNIERE", "sales": 3, "median_price": 860000.0, "median_price_per_sqm": 3440.0, "median_rooms": 0.0, "first_sale": "2025-01-16", "last_sale": "2025-01-16"}}, {"type": "Feature", "geometry": {"type": "Point", "coordinates": [2.602903, 48.448578]}, "properties": {"id_parcelle": "77022000AI0722", "address": "22 RUE DU 23 AOUT", "sales": 3, "median_price": 100000.0, "median_price_per_sqm": 2500.0, "median_rooms": 1.0, "first_sale": "2023-06-15", "last_sale": "2023-06-15"}}, {"type": "Feature", "geometry": {"type": "Point", "coordinates": [2.605011, 48.452921]}, "properties": {"id_parcelle": "77022000AC0302", "address": "50 RUE DU 23 AOUT", "sales": 3, "median_price": 584220.0, "median_price_per_sqm": 5263.243243243243, "median_rooms": 0.0, "first_sale": "2024-01-16", "last_sale": "2024-01-16"}}, {"type": "Feature", "geometry": {"type": "Point", "coordinates": [2.61323, 48.446587]}, "properties": {"id_parcelle": "77022000AH0360", "address": "6 RUE DU PUITS DU CORMIER", "sales": 3, "median_price": 267000.0, "median_price_per_sqm": 11125.0, "median_rooms": 0.0, "first_sale": "2024-11-08", "last_sale": "2024-11-08"}}, {"type": "Feature", "geometry": {"type": "Point", "coordinates": [2.607286, 48.444514]}, "properties": {"id_parcelle": "77022000AK0158", "address": "33 GR GDE RUE", "sales": 3, "median_price": 810000.0, "median_price_per_sqm": 8840.62813230872, "median_rooms": 0.0, "first_sale": "2022-06-21", "last_sale": "2022-06-21"}}, {"type": "Feature", "geometry": {"type": "Point", "coordinates": [2.606804, 48.442264]}, "properties": {"id_parcelle": "77022000AL0124", "address": "10 RUE DE LA BELLE MARIE", "sales": 3, "median_price": 1420000.0, "median_price_per_sqm": 6255.506607929516, "median_rooms": 0.0, "first_sale": "2022-04-12", "last_sale": "2022-04-12"}}, {"type": "Feature", "geometry": {"type": "Point", "coordinates": [2.60044, 48.446835]}, "properties": {"id_parcelle": "77022000AB0088", "address": "10 RUE DE FLEURY", "sales": 3, "median_price": 1150000.0, "median_price_per_sqm": 4600.0, "median_rooms": 0.0, "first_sale": "2024-11-07", "last_sale": "2024-11-07"}}, {"type": "Feature", "geometry": {"type": "Point", "coordinates": [2.601646, 48.447169]}, "properties": {"id_parcelle": "77022000AB0032", "address": "9 RUE DU 23 AOUT", "sales": 3, "median_price": 92000.0, "median_price_per_sqm": 381.7427385892116, "median_rooms": 0.0, "first_sale": "2024-02-28", "last_sale": "2024-02-28"}}, {"type": "Feature", "geometry": {"type": "Point", "coordinates": [2.600215, 48.447905]}, "properties": {"id_parcelle": "77022000AB0081", "address": "13 RUE ERNEST REVILLON", "sales": 2, "median_price": 600000.0, "median_price_per_sqm": 7692.307692307692, "median_rooms": 3.0, "first_sale": "2025-09-03", "last_sale": "2025-09-03"}}, {"type": "Feature", "geometry": {"type": "Point", "coordinates": [2.593068, 48.454553]}, "properties": {"id_parcelle": "770220000V0029", "address": "LA MARNIERE", "sales": 2, "median_price": 2900.0, "median_price_per_sqm": null, "median_rooms": null, "first_sale": "2024-06-06", "last_sale": "2024-06-06"}}, {"type": "Feature", "geometry": {"type": "Point", "coordinates": [2.62138, 48.446959]}, "properties": {"id_parcelle": "77022000AH0218", "address": "29 CHE DU BORNAGE", "sales": 2, "median_price": 846000.0, "median_price_per_sqm": 6507.692307692308, "median_rooms": 5.0, "first_sale": "2025-01-20", "last_sale": "2025-01-20"}}, {"type": "Feature", "geometry": {"type": "Point", "coordinates": [2.612699, 48.446226]}, "properties": {"id_parcelle": "77022000AH0037", "address": "1 RUE GABRIEL SEAILLES", "sales": 2, "median_price": 390000.0, "median_price_per_sqm": 3095.2380952380954, "median_rooms": 6.0, "first_sale": "2021-03-08", "last_sale": "2022-03-30"}}, {"type": "Feature", "geometry": {"type": "Point", "coordinates": [2.621767, 48.453296]}, "properties": {"id_parcelle": "77022000AE0075", "address": "5327 RTE NATIONALE 7", "sales": 2, "median_price": 280000.0, "median_price_per_sqm": 2000.0, "median_rooms": 0.0, "first_sale": "2025-05-20", "last_sale": "2025-05-20"}}, {"type": "Feature", "geometry": {"type": "Point", "coordinates": [2.618256, 48.446624]}, "properties": {"id_parcelle": "77022000AH0342", "address": "11 ALL ODETTE DULAC", "sales": 2, "median_price": 1736450.0, "median_price_per_sqm": 5092.228739002932, "median_rooms": 6.0, "first_sale": "2021-12-29", "last_sale": "2021-12-29"}}, {"type": "Feature", "geometry": {"type": "Point", "coordinates": [2.605627, 48.450176]}, "properties": {"id_parcelle": "77022000AC0295", "address": "20 RUE DU CHEMIN DE LA MESSE", "sales": 2, "median_price": 950000.0, "median_price_per_sqm": 4523.809523809524, "median_rooms": 5.0, "first_sale": "2025-03-19", "last_sale": "2025-03-19"}}, {"type": "Feature", "geometry": {"type": "Point", "coordinates": [2.604618, 48.450901]}, "properties": {"id_parcelle": "77022000AC0262", "address": "24 RUE DU CHEMIN DE LA MESSE", "sales": 2, "median_price": 866700.0, "median_price_per_sqm": 6616.030534351145, "median_rooms": 5.0, "first_sale": "2024-05-07", "last_sale": "2024-05-07"}}, {"type": "Feature", "geometry": {"type": "Point", "coordinates": [2.605583, 48.45297]}, "properties": {"id_parcelle": "77022000AC0298", "address": "48 RUE DU 23 AOUT", "sales": 2, "median_price": 928000.0, "median_price_per_sqm": 4419.047619047619, "median_rooms": 5.0, "first_sale": "2022-07-13", "last_sale": "2022-07-13"}}, {"type": "Feature", "geometry": {"type": "Point", "coordinates": [2.605095, 48.45418]}, "properties": {"id_parcelle": "77022000AC0157", "address": "60 LES ROCHES", "sales": 2, "median_price": 285000.0, "median_price_per_sqm": 3166.6666666666665, "median_rooms": 5.0, "first_sale": "2024-06-06", "last_sale": "2024-06-06"}}, {"type": "Feature", "geometry": {"type": "Point", "coordinates": [2.615665, 48.448004]}, "properties": {"id_parcelle": "77022000AD0336", "address": "31 RUE GABRIEL SEAILLES", "sales": 2, "median_price": 600000.0, "median_price_per_sqm": 7228.915662650603, "median_rooms": 2.0, "first_sale": "2024-06-14", "last_sale": "2024-06-14"}}, {"type": "Feature", "geometry": {"type": "Point", "coordinates": [2.600108, 48.447324]}, "properties": {"id_parcelle": "77022000AB0083", "address": "12 LES QUATRE CROIX", "sales": 2, "median_price": 1488150.0, "median_price_per_sqm": 13095.882352941177, "median_rooms": 5.0, "first_sale": "2021-01-26", "last_sale": "2024-10-28"}}, {"type": "Feature", "geometry": {"type": "Point", "coordinates": [2.601789, 48.447285]}, "properties": {"id_parcelle": "77022000AB0110", "address": "11 RUE DU 23 AOUT", "sales": 2, "median_price": 245000.0, "median_price_per_sqm": 6555.405405405405, "median_rooms": 0.5, "first_sale": "2023-10-11", "last_sale": "2023-10-11"}}, {"type": "Feature", "geometry": {"type": "Point", "coordinates": [2.599982, 48.447511]}, "properties": {"id_parcelle": "77022000AB0151", "address": "RUE DE FLEURY", "sales": 2, "median_price": 1488150.0, "median_price_per_sqm": null, "median_rooms": null, "first_sale": "2021-01-26", "last_sale": "2024-10-28"}}, {"type": "Feature", "geometry": {"type": "Point", "coordinates": [2.605733, 48.445572]}, "properties": {"id_parcelle": "77022000AI0283", "address": "58 GR GDE RUE", "sales": 2, "median_price": 1025000.0, "median_price_per_sqm": 9070.79646017699, "median_rooms": 3.0, "first_sale": "2021-11-23", "last_sale": "2021-11-23"}}, {"type": "Feature", "geometry": {"type": "Point", "coordinates": [2.605151, 48.448992]}, "properties": {"id_parcelle": "77022000AI0363", "address": "8 RUE JULES BOURDOIS", "sales": 2, "median_price": 838000.0, "median_price_per_sqm": 3809.090909090909, "median_rooms": 6.0, "first_sale": "2021-04-23", "last_sale": "2021-04-23"}}, {"type": "Feature", "geometry": {"type": "Point", "coordinates": [2.60309, 48.447176]}, "properties": {"id_parcelle": "77022000AI0033", "address": "20 RUE CHARLES JACQUES", "sales": 2, "median_price": 305000.0, "median_price_per_sqm": 5258.620689655172, "median_rooms": 1.5, "first_sale": "2022-07-11", "last_sale": "2022-07-11"}}, {"type": "Feature", "geometry": {"type": "Point", "coordinates": [2.603223, 48.447351]}, "properties": {"id_parcelle": "77022000AI0034", "address": "CHAMP GAUTHIER", "sales": 2, "median_price": 305000.0, "median_price_per_sqm": null, "median_rooms": null, "first_sale": "2022-07-11", "last_sale": "2022-07-11"}}, {"type": "Feature", "geometry": {"type": "Point", "coordinates": [2.606254, 48.44243]}, "properties": {"id_parcelle": "77022000AL0125", "address": "RUE JEAN FRANCOIS MILLET", "sales": 2, "median_price": 1420000.0, "median_price_per_sqm": null, "median_rooms": null, "first_sale": "2022-04-12", "last_sale": "2022-04-12"}}, {"type": "Feature", "geometry": {"type": "Point", "coordinates": [2.606682, 48.443094]}, "properties": {"id_parcelle": "77022000AL0122", "address": "3 RUE JEAN FRANCOIS MILLET", "sales": 2, "median_price": 1680000.0, "median_price_per_sqm": 5490.196078431372, "median_rooms": 9.0, "first_sale": "2021-05-05", "last_sale": "2021-05-05"}}, {"type": "Feature", "geometry": {"type": "Point", "coordinates": [2.611074, 48.445266]}, "properties": {"id_parcelle": "77022000AK0382", "address": "13 RUE DIAZ", "sales": 2, "median_price": 1144000.0, "median_price_per_sqm": 4468.75, "median_rooms": 8.0, "first_sale": "2022-05-20", "last_sale": "2022-05-20"}}, {"type": "Feature", "geometry": {"type": "Point", "coordinates": [2.61069, 48.443795]}, "properties": {"id_parcelle": "77022000AK0229", "address": "10 GR GDE RUE", "sales": 2, "median_price": 300000.0, "median_price_per_sqm": 4285.714285714285, "median_rooms": 3.0, "first_sale": "2023-07-18", "last_sale": "2023-07-18"}}, {"type": "Feature", "geometry": {"type": "Point", "coordinates": [2.603745, 48.445948]}, "properties": {"id_parcelle": "77022000AI0657", "address": "78 GR GDE RUE", "sales": 2, "median_price": 810000.0, "median_price_per_sqm": 6750.0, "median_rooms": 2.0, "first_sale": "2024-01-26", "last_sale": "2024-01-26"}}, {"type": "Feature", "geometry": {"type": "Point", "coordinates": [2.605945, 48.446459]}, "properties": {"id_parcelle": "77022000AI0645", "address": "4 RUE CHARLES JACQUES", "sales": 2, "median_price": 1900000.0, "median_price_per_sqm": null, "median_rooms": null, "first_sale": "2024-10-31", "last_sale": "2024-10-31"}}, {"type": "Feature", "geometry": {"type": "Point", "coordinates": [2.604803, 48.445783]}, "properties": {"id_parcelle": "77022000AI0672", "address": "70 GR GDE RUE", "sales": 2, "median_price": 320000.0, "median_price_per_sqm": 3111.1111111111113, "median_rooms": 2.0, "first_sale": "2023-03-31", "last_sale": "2023-03-31"}}, {"type": "Feature", "geometry": {"type": "Point", "coordinates": [2.614473, 48.444938]}, "properties": {"id_parcelle": "77022000AK0378", "address": "6 CHE DES MAZETTES", "sales": 2, "median_price": 955000.0, "median_price_per_sqm": 3523.9852398523985, "median_rooms": 9.0, "first_sale": "2022-08-31", "last_sale": "2022-08-31"}}, {"type": "Feature", "geometry": {"type": "Point", "coordinates": [2.603796, 48.4453]}, "properties": {"id_parcelle": "77022000AK0362", "address": "65 GR GDE RUE", "sales": 2, "median_price": 191000.0, "median_price_per_sqm": 2122.222222222222, "median_rooms": 5.0, "first_sale": "2021-04-19", "last_sale": "2021-04-19"}}, {"type": "Feature", "geometry": {"type": "Point", "coordinates": [2.60843, 48.443556]}, "properties": {"id_parcelle": "77022000AK0329", "address": "21 GR GDE RUE", "sales": 2, "median_price": 2450000.0, "median_price_per_sqm": 7361.510217113666, "median_rooms": 0.0, "first_sale": "2023-11-23", "last_sale": "2023-11-23"}}, {"type": "Feature", "geometry": {"type": "Point", "coordinates": [2.60618, 48.44433]}, "properties": {"id_parcelle": "77022000AK0365", "address": "4 RUE THEODORE ROUSSEAU", "sales": 2, "median_price": 735000.0, "median_price_per_sqm": 4323.529411764706, "median_rooms": 6.0, "first_sale": "2021-05-10", "last_sale": "2021-05-10"}}, {"type": "Feature", "geometry": {"type": "Point", "coordinates": [2.598732, 48.441622]}, "properties": {"id_parcelle": "77022000AM0195", "address": "23 AV DU GEN DE GAULLE", "sales": 2, "median_price": 700000.0, "median_price_per_sqm": 3365.3846153846152, "median_rooms": 7.0, "first_sale": "2021-06-25", "last_sale": "2021-06-25"}}, {"type": "Feature", "geometry": {"type": "Point", "coordinates": [2.604323, 48.440297]}, "properties": {"id_parcelle": "77022000AM0338", "address": "21 RUE DE LA BELLE MARIE", "sales": 2, "median_price": 50000.0, "median_price_per_sqm": 143.26647564469914, "median_rooms": 5.0, "first_sale": "2021-05-05", "last_sale": "2021-05-05"}}, {"type": "Feature", "geometry": {"type": "Point", "coordinates": [2.597728, 48.441038]}, "properties": {"id_parcelle": "77022000AM0378", "address": "29 AV DU GEN DE GAULLE", "sales": 2, "median_price": 619600.0, "median_price_per_sqm": 3644.705882352941, "median_rooms": 5.0, "first_sale": "2021-04-02", "last_sale": "2021-04-02"}}, {"type": "Feature", "geometry": {"type": "Point", "coordinates": [2.596003, 48.437322]}, "properties": {"id_parcelle": "77022000AM0253", "address": "8 RUE DES BRULYS", "sales": 2, "median_price": 1658000.0, "median_price_per_sqm": 3014.5454545454545, "median_rooms": 5.0, "first_sale": "2023-09-20", "last_sale": "2023-09-20"}}, {"type": "Feature", "geometry": {"type": "Point", "coordinates": [2.599271, 48.442103]}, "properties": {"id_parcelle": "77022000AM0197", "address": "19 AV DU GEN DE GAULLE", "sales": 2, "median_price": 907250.0, "median_price_per_sqm": 3311.131386861314, "median_rooms": 8.0, "first_sale": "2024-12-12", "last_sale": "2024-12-12"}}, {"type": "Feature", "geometry": {"type": "Point", "coordinates": [2.604231, 48.441094]}, "properties": {"id_parcelle": "77022000AL0228", "address": "18 RUE DE LA BELLE MARIE", "sales": 2, "median_price": 640000.0, "median_price_per_sqm": null, "median_rooms": null, "first_sale": "2022-10-05", "last_sale": "2022-10-05"}}, {"type": "Feature", "geometry": {"type": "Point", "coordinates": [2.604624, 48.439975]}, "properties": {"id_parcelle": "77022000AM0137", "address": "22 CHE DU BORNAGE", "sales": 2, "median_price": 369000.0, "median_price_per_sqm": 4986.486486486487, "median_rooms": 2.0, "first_sale": "2022-12-30", "last_sale": "2022-12-30"}}, {"type": "Feature", "geometry": {"type": "Point", "coordinates": [2.597008, 48.442905]}, "properties": {"id_parcelle": "77022000AN0095", "address": "LE MONTOIR", "sales": 2, "median_price": 6237500.0, "median_price_per_sqm": null, "median_rooms": null, "first_sale": "2024-07-18", "last_sale": "2024-07-18"}}, {"type": "Feature", "geometry": {"type": "Point", "coordinates": [2.595978, 48.443172]}, "properties": {"id_parcelle": "77022000AN0067", "address": "RUE DE LA BARBIZONNIERE", "sales": 2, "median_price": 420480.0, "median_price_per_sqm": null, "median_rooms": null, "first_sale": "2024-04-19", "last_sale": "2024-04-19"}}, {"type": "Feature", "geometry": {"type": "Point", "coordinates": [2.593203, 48.438616]}, "properties": {"id_parcelle": "77022000AN0273", "address": "1 CHE DU MONTOIR", "sales": 2, "median_price": 890000.0, "median_price_per_sqm": 2746.9135802469136, "median_rooms": 8.0, "first_sale": "2021-12-17", "last_sale": "2021-12-17"}}, {"type": "Feature", "geometry": {"type": "Point", "coordinates": [2.594514, 48.44157]}, "properties": {"id_parcelle": "77022000AN0237", "address": "19 RUE DE LA BARBIZONNIERE", "sales": 2, "median_price": 1090000.0, "median_price_per_sqm": 5647.668393782384, "median_rooms": 5.0, "first_sale": "2021-05-25", "last_sale": "2021-05-25"}}, {"type": "Feature", "geometry": {"type": "Point", "coordinates": [2.596484, 48.441153]}, "properties": {"id_parcelle": "77022000AN0217", "address": "46 AV DU GEN DE GAULLE", "sales": 2, "median_price": 605000.0, "median_price_per_sqm": 3055.5555555555557, "median_rooms": 6.0, "first_sale": "2021-09-23", "last_sale": "2021-09-23"}}, {"type": "Feature", "geometry": {"type": "Point", "coordinates": [2.600714, 48.445642]}, "properties": {"id_parcelle": "77022000AR0189", "address": "LA RUELLE DES VIGNES", "sales": 2, "median_price": 535500.0, "median_price_per_sqm": null, "median_rooms": null, "first_sale": "2022-08-10", "last_sale": "2022-08-10"}}, {"type": "Feature", "geometry": {"type": "Point", "coordinates": [2.600069, 48.446276]}, "properties": {"id_parcelle": "77022000AR0196", "address": "11 RUE DE FLEURY", "sales": 2, "median_price": 407400.0, "median_price_per_sqm": 5360.526315789473, "median_rooms": 2.5, "first_sale": "2021-07-28", "last_sale": "2021-07-28"}}, {"type": "Feature", "geometry": {"type": "Point", "coordinates": [2.598792, 48.444906]}, "properties": {"id_parcelle": "77022000AR0204", "address": "RUE DE LA BARBIZONNIERE", "sales": 2, "median_price": 300000.0, "median_price_per_sqm": null, "median_rooms": null, "first_sale": "2021-06-23", "last_sale": "2021-06-23"}}, {"type": "Feature", "geometry": {"type": "Point", "coordinates": [2.596675, 48.446066]}, "properties": {"id_parcelle": "77022000ZA0058", "address": "4 RLE DES VIGNES", "sales": 2, "median_price": 500000.0, "median_price_per_sqm": 3030.3030303030305, "median_rooms": 5.0, "first_sale": "2022-12-09", "last_sale": "2022-12-09"}}, {"type": "Feature", "geometry": {"type": "Point", "coordinates": [2.597045, 48.44602]}, "properties": {"id_parcelle": "77022000ZA0062", "address": "5 RLE DES VIGNES", "sales": 2, "median_price": 480000.0, "median_price_per_sqm": 4444.444444444444, "median_rooms": 4.0, "first_sale": "2021-01-20", "last_sale": "2021-01-20"}}]}