{"type": "FeatureCollection", "features": [{"type": "Feature", "geometry": {"type": "Point", "coordinates": [2.79327, 48.812256]}, "properties": {"street_name": "RUE DU PRE BOYAU", "sales": 48, "sales_appt": 24, "sales_maison": 0, "median_price": 235950.0, "median_price_per_sqm": 4440.8914728682175, "turnover_score": 100.0, "turnover_rank": 1, "first_year": 2021, "last_year": 2025, "years_active": 5}}, {"type": "Feature", "geometry": {"type": "Point", "coordinates": [2.796656, 48.816734]}, "properties": {"street_name": "RUE DU BOIS CIREY", "sales": 41, "sales_appt": 13, "sales_maison": 4, "median_price": 243000.0, "median_price_per_sqm": 4122.222222222223, "turnover_score": 85.4, "turnover_rank": 2, "first_year": 2021, "last_year": 2025, "years_active": 5}}, {"type": "Feature", "geometry": {"type": "Point", "coordinates": [2.797143, 48.816199]}, "properties": {"street_name": "RUE SAINTE CHRISTINE", "sales": 25, "sales_appt": 1, "sales_maison": 9, "median_price": 536000.0, "median_price_per_sqm": 4210.7843137254895, "turnover_score": 52.1, "turnover_rank": 3, "first_year": 2021, "last_year": 2025, "years_active": 4}}, {"type": "Feature", "geometry": {"type": "Point", "coordinates": [2.7939420000000004, 48.813868]}, "properties": {"street_name": "RUE DU BOUT DU MONDE", "sales": 24, "sales_appt": 0, "sales_maison": 10, "median_price": 416000.0, "median_price_per_sqm": 3735.396825396825, "turnover_score": 50.0, "turnover_rank": 4, "first_year": 2021, "last_year": 2025, "years_active": 3}}, {"type": "Feature", "geometry": {"type": "Point", "coordinates": [2.787262, 48.804199]}, "properties": {"street_name": "RUE SAINT ERNEST", "sales": 23, "sales_appt": 0, "sales_maison": 12, "median_price": 316000.0, "median_price_per_sqm": 3891.964285714286, "turnover_score": 47.9, "turnover_rank": 5, "first_year": 2021, "last_year": 2025, "years_active": 3}}, {"type": "Feature", "geometry": {"type": "Point", "coordinates": [2.7868515, 48.826924000000005]}, "properties": {"street_name": "RUE PIERRE DEMAY", "sales": 18, "sales_appt": 0, "sales_maison": 8, "median_price": 309900.0, "median_price_per_sqm": 3852.4590163934427, "turnover_score": 37.5, "turnover_rank": 6, "first_year": 2021, "last_year": 2024, "years_active": 4}}, {"type": "Feature", "geometry": {"type": "Point", "coordinates": [2.794137, 48.816269]}, "properties": {"street_name": "VILLENEUVE-SAINT-DENIS", "sales": 18, "sales_appt": 0, "sales_maison": 0, "median_price": 300600.0, "median_price_per_sqm": null, "turnover_score": 37.5, "turnover_rank": 6, "first_year": 2021, "last_year": 2025, "years_active": 3}}, {"type": "Feature", "geometry": {"type": "Point", "coordinates": [2.793124, 48.815288]}, "properties": {"street_name": "PL DE L EGLISE", "sales": 17, "sales_appt": 6, "sales_maison": 0, "median_price": 210300.0, "median_price_per_sqm": 3640.577507598784, "turnover_score": 35.4, "turnover_rank": 7, "first_year": 2021, "last_year": 2025, "years_active": 5}}, {"type": "Feature", "geometry": {"type": "Point", "coordinates": [2.7868015, 48.803937]}, "properties": {"street_name": "LA DENICHERIE", "sales": 12, "sales_appt": 0, "sales_maison": 0, "median_price": 318462.5, "median_price_per_sqm": null, "turnover_score": 25.0, "turnover_rank": 8, "first_year": 2021, "last_year": 2025, "years_active": 2}}, {"type": "Feature", "geometry": {"type": "Point", "coordinates": [2.791887, 48.815773]}, "properties": {"street_name": "RUE SAINT DENIS", "sales": 11, "sales_appt": 4, "sales_maison": 1, "median_price": 230000.0, "median_price_per_sqm": 2870.731707317073, "turnover_score": 22.9, "turnover_rank": 9, "first_year": 2021, "last_year": 2025, "years_active": 4}}, {"type": "Feature", "geometry": {"type": "Point", "coordinates": [2.7919, 48.813673]}, "properties": {"street_name": "ALL VERTE", "sales": 7, "sales_appt": 0, "sales_maison": 4, "median_price": 595000.0, "median_price_per_sqm": 3302.8627316198445, "turnover_score": 14.6, "turnover_rank": 10, "first_year": 2021, "last_year": 2023, "years_active": 2}}, {"type": "Feature", "geometry": {"type": "Point", "coordinates": [2.790838, 48.828065]}, "properties": {"street_name": "RTE DE SERRIS", "sales": 6, "sales_appt": 0, "sales_maison": 2, "median_price": 450000.0, "median_price_per_sqm": 3750.0, "turnover_score": 12.5, "turnover_rank": 11, "first_year": 2022, "last_year": 2022, "years_active": 1}}, {"type": "Feature", "geometry": {"type": "Point", "coordinates": [2.797216, 48.816628]}, "properties": {"street_name": "GRAND CLOS", "sales": 4, "sales_appt": 1, "sales_maison": 0, "median_price": 245000.0, "median_price_per_sqm": 4152.542372881356, "turnover_score": 8.3, "turnover_rank": 12, "first_year": 2021, "last_year": 2021, "years_active": 1}}, {"type": "Feature", "geometry": {"type": "Point", "coordinates": [2.785495, 48.826959]}, "properties": {"street_name": "SEN DU GIBET", "sales": 3, "sales_appt": 0, "sales_maison": 1, "median_price": 379500.0, "median_price_per_sqm": 2710.714285714286, "turnover_score": 6.2, "turnover_rank": 13, "first_year": 2025, "last_year": 2025, "years_active": 1}}, {"type": "Feature", "geometry": {"type": "Point", "coordinates": [2.795874, 48.815678]}, "properties": {"street_name": "RUE BELLE JOSEPHINE", "sales": 3, "sales_appt": 0, "sales_maison": 3, "median_price": 431845.0, "median_price_per_sqm": 3925.8636363636365, "turnover_score": 6.2, "turnover_rank": 13, "first_year": 2021, "last_year": 2025, "years_active": 2}}, {"type": "Feature", "geometry": {"type": "Point", "coordinates": [2.788736, 48.827791]}, "properties": {"street_name": "ALL DE L OSERAIE", "sales": 3, "sales_appt": 0, "sales_maison": 2, "median_price": 772740.0, "median_price_per_sqm": 4222.622950819672, "turnover_score": 6.2, "turnover_rank": 13, "first_year": 2022, "last_year": 2023, "years_active": 2}}, {"type": "Feature", "geometry": {"type": "Point", "coordinates": [2.794753, 48.815054]}, "properties": {"street_name": "IMP FARO", "sales": 2, "sales_appt": 0, "sales_maison": 2, "median_price": 402000.0, "median_price_per_sqm": 4046.4646464646466, "turnover_score": 4.2, "turnover_rank": 14, "first_year": 2022, "last_year": 2023, "years_active": 2}}, {"type": "Feature", "geometry": {"type": "Point", "coordinates": [2.793146, 48.8135635]}, "properties": {"street_name": "RUE DES TOURNELLES", "sales": 2, "sales_appt": 0, "sales_maison": 2, "median_price": 396250.0, "median_price_per_sqm": 2861.1458659159625, "turnover_score": 4.2, "turnover_rank": 14, "first_year": 2021, "last_year": 2025, "years_active": 2}}, {"type": "Feature", "geometry": {"type": "Point", "coordinates": [2.785151, 48.802206]}, "properties": {"street_name": "ALL DU MOULIN", "sales": 1, "sales_appt": 0, "sales_maison": 1, "median_price": 418000.0, "median_price_per_sqm": 3051.094890510949, "turnover_score": 2.1, "turnover_rank": 15, "first_year": 2025, "last_year": 2025, "years_active": 1}}, {"type": "Feature", "geometry": {"type": "Point", "coordinates": [2.793887, 48.811995]}, "properties": {"street_name": "PRE BOYAU", "sales": 1, "sales_appt": 0, "sales_maison": 1, "median_price": 381770.0, "median_price_per_sqm": 3779.90099009901, "turnover_score": 2.1, "turnover_rank": 15, "first_year": 2025, "last_year": 2025, "years_active": 1}}, {"type": "Feature", "geometry": {"type": "Point", "coordinates": [2.785343, 48.827046]}, "properties": {"street_name": "LE GIBET", "sales": 1, "sales_appt": 0, "sales_maison": 0, "median_price": 379500.0, "median_price_per_sqm": null, "turnover_score": 2.1, "turnover_rank": 15, "first_year": 2025, "last_year": 2025, "years_active": 1}}, {"type": "Feature", "geometry": {"type": "Point", "coordinates": [2.790703, 48.815396]}, "properties": {"street_name": "LA LONGUYOTTE", "sales": 1, "sales_appt": 0, "sales_maison": 0, "median_price": 348500.0, "median_price_per_sqm": null, "turnover_score": 2.1, "turnover_rank": 15, "first_year": 2025, "last_year": 2025, "years_active": 1}}, {"type": "Feature", "geometry": {"type": "Point", "coordinates": [2.801005, 48.815197]}, "properties": {"street_name": "BEL AIR", "sales": 1, "sales_appt": 0, "sales_maison": 0, "median_price": 75000.0, "median_price_per_sqm": null, "turnover_score": 2.1, "turnover_rank": 15, "first_year": 2024, "last_year": 2024, "years_active": 1}}, {"type": "Feature", "geometry": {"type": "Point", "coordinates": [2.790525, 48.815455]}, "properties": {"street_name": "RUE DE LA SOURCE", "sales": 1, "sales_appt": 0, "sales_maison": 1, "median_price": 348500.0, "median_price_per_sqm": 3668.4210526315787, "turnover_score": 2.1, "turnover_rank": 15, "first_year": 2025, "last_year": 2025, "years_active": 1}}, {"type": "Feature", "geometry": {"type": "Point", "coordinates": [2.797414, 48.815659]}, "properties": {"street_name": "RUE DE LA GUERINIERE", "sales": 1, "sales_appt": 0, "sales_maison": 0, "median_price": 1000.0, "median_price_per_sqm": null, "turnover_score": 2.1, "turnover_rank": 15, "first_year": 2024, "last_year": 2024, "years_active": 1}}, {"type": "Feature", "geometry": {"type": "Point", "coordinates": [2.787285, 48.803869]}, "properties": {"street_name": "RUE DE LA GRANDE COUR", "sales": 1, "sales_appt": 0, "sales_maison": 1, "median_price": 238000.0, "median_price_per_sqm": 2428.5714285714284, "turnover_score": 2.1, "turnover_rank": 15, "first_year": 2025, "last_year": 2025, "years_active": 1}}, {"type": "Feature", "geometry": {"type": "Point", "coordinates": [2.794623, 48.816055]}, "properties": {"street_name": "RUE REINE DES REINETTES", "sales": 1, "sales_appt": 0, "sales_maison": 1, "median_price": 375000.0, "median_price_per_sqm": 3787.878787878788, "turnover_score": 2.1, "turnover_rank": 15, "first_year": 2022, "last_year": 2022, "years_active": 1}}]}