{"type": "FeatureCollection", "features": [{"type": "Feature", "geometry": {"type": "Point", "coordinates": [3.093525, 48.468172]}, "properties": {"id_parcelle": "772230000B0629", "address": "62 RUE AMPERE", "sales": 8, "median_price": 120000.0, "median_price_per_sqm": 1846.1538461538462, "median_rooms": 0.0, "first_sale": "2021-10-26", "last_sale": "2021-10-26"}}, {"type": "Feature", "geometry": {"type": "Point", "coordinates": [3.085171, 48.472709]}, "properties": {"id_parcelle": "772230000A0444", "address": "2 RUE CURIE", "sales": 6, "median_price": 332000.0, "median_price_per_sqm": 2766.6666666666665, "median_rooms": 0.5, "first_sale": "2021-07-26", "last_sale": "2025-10-23"}}, {"type": "Feature", "geometry": {"type": "Point", "coordinates": [3.094028, 48.481486]}, "properties": {"id_parcelle": "772230000D0337", "address": "9 RUE BERLIOZ", "sales": 6, "median_price": 605000.0, "median_price_per_sqm": 2420.0, "median_rooms": 0.0, "first_sale": "2022-11-23", "last_sale": "2022-11-23"}}, {"type": "Feature", "geometry": {"type": "Point", "coordinates": [3.092077, 48.479614]}, "properties": {"id_parcelle": "772230000C0067", "address": "38 RUE LAMARTINE", "sales": 4, "median_price": 274000.0, "median_price_per_sqm": 3017.738791423002, "median_rooms": 1.0, "first_sale": "2024-05-16", "last_sale": "2024-05-16"}}, {"type": "Feature", "geometry": {"type": "Point", "coordinates": [3.085261, 48.472678]}, "properties": {"id_parcelle": "772230000A0442", "address": "GURCY", "sales": 2, "median_price": 287525.0, "median_price_per_sqm": null, "median_rooms": null, "first_sale": "2021-07-26", "last_sale": "2025-10-23"}}, {"type": "Feature", "geometry": {"type": "Point", "coordinates": [3.091755, 48.469087]}, "properties": {"id_parcelle": "772230000B0149", "address": "52 RUE AMPERE", "sales": 2, "median_price": 160000.0, "median_price_per_sqm": 2133.3333333333335, "median_rooms": 1.5, "first_sale": "2024-06-11", "last_sale": "2024-06-11"}}, {"type": "Feature", "geometry": {"type": "Point", "coordinates": [3.092312, 48.469752]}, "properties": {"id_parcelle": "772230000A0062", "address": "LE CHARDONNERET", "sales": 2, "median_price": 267000.0, "median_price_per_sqm": null, "median_rooms": null, "first_sale": "2022-10-03", "last_sale": "2022-10-03"}}, {"type": "Feature", "geometry": {"type": "Point", "coordinates": [3.085629, 48.472507]}, "properties": {"id_parcelle": "772230000A0447", "address": "GURCY", "sales": 2, "median_price": 287525.0, "median_price_per_sqm": null, "median_rooms": null, "first_sale": "2021-07-26", "last_sale": "2025-10-23"}}, {"type": "Feature", "geometry": {"type": "Point", "coordinates": [3.091239, 48.480088]}, "properties": {"id_parcelle": "772230000C0090", "address": "4 RUE DES ELOYS", "sales": 2, "median_price": 232000.0, "median_price_per_sqm": 1681.159420289855, "median_rooms": 3.0, "first_sale": "2021-08-20", "last_sale": "2021-08-20"}}, {"type": "Feature", "geometry": {"type": "Point", "coordinates": [3.091893, 48.483808]}, "properties": {"id_parcelle": "772230000C0219", "address": "5101 LES MARNES", "sales": 2, "median_price": 150000.0, "median_price_per_sqm": 2343.75, "median_rooms": 2.0, "first_sale": "2025-06-23", "last_sale": "2025-06-23"}}, {"type": "Feature", "geometry": {"type": "Point", "coordinates": [3.087611, 48.484401]}, "properties": {"id_parcelle": "772230000C0261", "address": "LES GUERENNERIES", "sales": 2, "median_price": 7000.0, "median_price_per_sqm": null, "median_rooms": null, "first_sale": "2025-11-29", "last_sale": "2025-11-29"}}, {"type": "Feature", "geometry": {"type": "Point", "coordinates": [3.093793, 48.479916]}, "properties": {"id_parcelle": "772230000D0456", "address": "3 RUE J J ROUSSEAU", "sales": 2, "median_price": 221720.0, "median_price_per_sqm": 2111.6190476190477, "median_rooms": 4.0, "first_sale": "2021-07-15", "last_sale": "2021-07-15"}}, {"type": "Feature", "geometry": {"type": "Point", "coordinates": [3.085933, 48.46843]}, "properties": {"id_parcelle": "772230000Y0161", "address": "3 RUE DU MONTOIS", "sales": 2, "median_price": 180000.0, "median_price_per_sqm": 1525.4237288135594, "median_rooms": 6.0, "first_sale": "2021-02-18", "last_sale": "2021-02-18"}}, {"type": "Feature", "geometry": {"type": "Point", "coordinates": [3.085296, 48.474931]}, "properties": {"id_parcelle": "772230000Z0008", "address": "19 RUE BRANLY", "sales": 2, "median_price": 163000.0, "median_price_per_sqm": 3075.4716981132074, "median_rooms": 2.0, "first_sale": "2022-01-06", "last_sale": "2022-01-06"}}, {"type": "Feature", "geometry": {"type": "Point", "coordinates": [3.085916, 48.47506]}, "properties": {"id_parcelle": "772230000Z0010", "address": "23 RUE BRANLY", "sales": 2, "median_price": 206000.0, "median_price_per_sqm": 2263.736263736264, "median_rooms": 4.0, "first_sale": "2023-08-29", "last_sale": "2023-08-29"}}]}