{"type": "FeatureCollection", "features": [{"type": "Feature", "geometry": {"type": "Point", "coordinates": [3.222065, 48.977765]}, "properties": {"year": 2021, "valeur_fonciere": 290000.0, "type_local": null, "surface_reelle_bati": null, "nombre_pieces_principales": null, "adresse_nom_voie": "RTE DE CROUTTES", "price_per_sqm": null, "date_iso": "2021-01-21", "parcelle": "773310000B0793", "addr_num": "5"}}, {"type": "Feature", "geometry": {"type": "Point", "coordinates": [3.222446, 48.977631]}, "properties": {"year": 2021, "valeur_fonciere": 290000.0, "type_local": null, "surface_reelle_bati": null, "nombre_pieces_principales": null, "adresse_nom_voie": "RTE DE CROUTTES", "price_per_sqm": null, "date_iso": "2021-01-21", "parcelle": "773310000B1260", "addr_num": ""}}, {"type": "Feature", "geometry": {"type": "Point", "coordinates": [3.222306, 48.977919]}, "properties": {"year": 2021, "valeur_fonciere": 290000.0, "type_local": null, "surface_reelle_bati": null, "nombre_pieces_principales": null, "adresse_nom_voie": "RTE DE CROUTTES", "price_per_sqm": null, "date_iso": "2021-01-21", "parcelle": "773310000B1262", "addr_num": ""}}, {"type": "Feature", "geometry": {"type": "Point", "coordinates": [3.222249, 48.97772]}, "properties": {"year": 2021, "valeur_fonciere": 290000.0, "type_local": "Maison", "surface_reelle_bati": 111.0, "nombre_pieces_principales": 6.0, "adresse_nom_voie": "RTE DE CROUTTES", "price_per_sqm": 2612.612612612613, "date_iso": "2021-01-21", "parcelle": "773310000B1263", "addr_num": "5"}}, {"type": "Feature", "geometry": {"type": "Point", "coordinates": [3.222249, 48.97772]}, "properties": {"year": 2021, "valeur_fonciere": 290000.0, "type_local": "Maison", "surface_reelle_bati": 111.0, "nombre_pieces_principales": 6.0, "adresse_nom_voie": "RTE DE CROUTTES", "price_per_sqm": 2612.612612612613, "date_iso": "2021-01-21", "parcelle": "773310000B1263", "addr_num": "5"}}, {"type": "Feature", "geometry": {"type": "Point", "coordinates": [3.220487, 48.977913]}, "properties": {"year": 2021, "valeur_fonciere": 110000.0, "type_local": "Maison", "surface_reelle_bati": 70.0, "nombre_pieces_principales": 3.0, "adresse_nom_voie": "RUE DES BONS ENFANTS", "price_per_sqm": 1571.4285714285713, "date_iso": "2021-02-09", "parcelle": "773310000B1222", "addr_num": "2"}}, {"type": "Feature", "geometry": {"type": "Point", "coordinates": [3.221112, 48.978455]}, "properties": {"year": 2021, "valeur_fonciere": 97000.0, "type_local": "Appartement", "surface_reelle_bati": 51.0, "nombre_pieces_principales": 3.0, "adresse_nom_voie": "PL LAFAYETTE", "price_per_sqm": 1901.9607843137255, "date_iso": "2021-03-24", "parcelle": "773310000B0762", "addr_num": "10"}}, {"type": "Feature", "geometry": {"type": "Point", "coordinates": [3.22165, 48.981635]}, "properties": {"year": 2021, "valeur_fonciere": 148000.0, "type_local": null, "surface_reelle_bati": null, "nombre_pieces_principales": null, "adresse_nom_voie": "LA CHARRIERE", "price_per_sqm": null, "date_iso": "2021-05-05", "parcelle": "77331000ZB0130", "addr_num": ""}}, {"type": "Feature", "geometry": {"type": "Point", "coordinates": [3.22159, 48.981616]}, "properties": {"year": 2021, "valeur_fonciere": 148000.0, "type_local": null, "surface_reelle_bati": null, "nombre_pieces_principales": null, "adresse_nom_voie": "LA CHARRIERE", "price_per_sqm": null, "date_iso": "2021-05-05", "parcelle": "77331000ZB0131", "addr_num": ""}}, {"type": "Feature", "geometry": {"type": "Point", "coordinates": [3.221049, 48.981387]}, "properties": {"year": 2021, "valeur_fonciere": 148000.0, "type_local": "Maison", "surface_reelle_bati": 115.0, "nombre_pieces_principales": 4.0, "adresse_nom_voie": "RUE DE LA CHARRIERE", "price_per_sqm": 1286.9565217391305, "date_iso": "2021-05-05", "parcelle": "77331000ZB0132", "addr_num": "37"}}, {"type": "Feature", "geometry": {"type": "Point", "coordinates": [3.221049, 48.981387]}, "properties": {"year": 2021, "valeur_fonciere": 148000.0, "type_local": "Maison", "surface_reelle_bati": 115.0, "nombre_pieces_principales": 4.0, "adresse_nom_voie": "RUE DE LA CHARRIERE", "price_per_sqm": 1286.9565217391305, "date_iso": "2021-05-05", "parcelle": "77331000ZB0132", "addr_num": "37"}}, {"type": "Feature", "geometry": {"type": "Point", "coordinates": [3.228647, 48.97697]}, "properties": {"year": 2021, "valeur_fonciere": 1000.0, "type_local": null, "surface_reelle_bati": null, "nombre_pieces_principales": null, "adresse_nom_voie": "L ILE DU MOULIN DE NANTEUI", "price_per_sqm": null, "date_iso": "2021-06-30", "parcelle": "77331000ZD0199", "addr_num": ""}}, {"type": "Feature", "geometry": {"type": "Point", "coordinates": [3.221107, 48.977421]}, "properties": {"year": 2021, "valeur_fonciere": 255000.0, "type_local": "Local industriel. commercial ou assimilé", "surface_reelle_bati": 260.0, "nombre_pieces_principales": 0.0, "adresse_nom_voie": "RUE DU BAC", "price_per_sqm": 980.7692307692307, "date_iso": "2021-07-12", "parcelle": "773310000B0804", "addr_num": "2"}}, {"type": "Feature", "geometry": {"type": "Point", "coordinates": [3.221107, 48.977421]}, "properties": {"year": 2021, "valeur_fonciere": 255000.0, "type_local": "Maison", "surface_reelle_bati": 70.0, "nombre_pieces_principales": 4.0, "adresse_nom_voie": "RUE DU BAC", "price_per_sqm": 3642.8571428571427, "date_iso": "2021-07-12", "parcelle": "773310000B0804", "addr_num": "2"}}, {"type": "Feature", "geometry": {"type": "Point", "coordinates": [3.221258, 48.977458]}, "properties": {"year": 2021, "valeur_fonciere": 255000.0, "type_local": null, "surface_reelle_bati": null, "nombre_pieces_principales": null, "adresse_nom_voie": "RUE DU BAC", "price_per_sqm": null, "date_iso": "2021-07-12", "parcelle": "773310000B1204", "addr_num": "2"}}, {"type": "Feature", "geometry": {"type": "Point", "coordinates": [3.217554, 48.977559]}, "properties": {"year": 2021, "valeur_fonciere": 291000.0, "type_local": "Maison", "surface_reelle_bati": 154.0, "nombre_pieces_principales": 7.0, "adresse_nom_voie": "RUE DE PASSY", "price_per_sqm": 1889.6103896103896, "date_iso": "2021-08-06", "parcelle": "773310000B1112", "addr_num": "11"}}, {"type": "Feature", "geometry": {"type": "Point", "coordinates": [3.217554, 48.977559]}, "properties": {"year": 2021, "valeur_fonciere": 291000.0, "type_local": "Dépendance", "surface_reelle_bati": null, "nombre_pieces_principales": 0.0, "adresse_nom_voie": "RUE DE PASSY", "price_per_sqm": null, "date_iso": "2021-08-06", "parcelle": "773310000B1112", "addr_num": "11"}}, {"type": "Feature", "geometry": {"type": "Point", "coordinates": [3.217554, 48.977559]}, "properties": {"year": 2021, "valeur_fonciere": 291000.0, "type_local": "Maison", "surface_reelle_bati": 154.0, "nombre_pieces_principales": 7.0, "adresse_nom_voie": "RUE DE PASSY", "price_per_sqm": 1889.6103896103896, "date_iso": "2021-08-06", "parcelle": "773310000B1112", "addr_num": "11"}}, {"type": "Feature", "geometry": {"type": "Point", "coordinates": [3.217554, 48.977559]}, "properties": {"year": 2021, "valeur_fonciere": 291000.0, "type_local": "Dépendance", "surface_reelle_bati": null, "nombre_pieces_principales": 0.0, "adresse_nom_voie": "RUE DE PASSY", "price_per_sqm": null, "date_iso": "2021-08-06", "parcelle": "773310000B1112", "addr_num": "11"}}, {"type": "Feature", "geometry": {"type": "Point", "coordinates": [3.220051, 48.979361]}, "properties": {"year": 2021, "valeur_fonciere": 200000.0, "type_local": "Maison", "surface_reelle_bati": 70.0, "nombre_pieces_principales": 3.0, "adresse_nom_voie": "RUE NEUVE DE LA LIBERTE", "price_per_sqm": 2857.1428571428573, "date_iso": "2021-08-23", "parcelle": "773310000B0895", "addr_num": "11"}}, {"type": "Feature", "geometry": {"type": "Point", "coordinates": [3.214753, 48.975878]}, "properties": {"year": 2021, "valeur_fonciere": 258000.0, "type_local": "Maison", "surface_reelle_bati": 110.0, "nombre_pieces_principales": 4.0, "adresse_nom_voie": "QUAI DE MARNE", "price_per_sqm": 2345.4545454545455, "date_iso": "2021-08-20", "parcelle": "773310000B1172", "addr_num": "15"}}, {"type": "Feature", "geometry": {"type": "Point", "coordinates": [3.214749, 48.975709]}, "properties": {"year": 2021, "valeur_fonciere": 258000.0, "type_local": null, "surface_reelle_bati": null, "nombre_pieces_principales": null, "adresse_nom_voie": "PAROUSIN", "price_per_sqm": null, "date_iso": "2021-08-20", "parcelle": "773310000B1173", "addr_num": ""}}, {"type": "Feature", "geometry": {"type": "Point", "coordinates": [3.214824, 48.975844]}, "properties": {"year": 2021, "valeur_fonciere": 258000.0, "type_local": "Dépendance", "surface_reelle_bati": null, "nombre_pieces_principales": 0.0, "adresse_nom_voie": "QUAI DE MARNE", "price_per_sqm": null, "date_iso": "2021-08-20", "parcelle": "773310000B1234", "addr_num": "15"}}, {"type": "Feature", "geometry": {"type": "Point", "coordinates": [3.214824, 48.975844]}, "properties": {"year": 2021, "valeur_fonciere": 258000.0, "type_local": "Dépendance", "surface_reelle_bati": null, "nombre_pieces_principales": 0.0, "adresse_nom_voie": "QUAI DE MARNE", "price_per_sqm": null, "date_iso": "2021-08-20", "parcelle": "773310000B1234", "addr_num": "15"}}, {"type": "Feature", "geometry": {"type": "Point", "coordinates": [3.215025, 48.97591]}, "properties": {"year": 2021, "valeur_fonciere": 258000.0, "type_local": null, "surface_reelle_bati": null, "nombre_pieces_principales": null, "adresse_nom_voie": "QUAI DE MARNE", "price_per_sqm": null, "date_iso": "2021-08-20", "parcelle": "773310000B1236", "addr_num": "15"}}, {"type": "Feature", "geometry": {"type": "Point", "coordinates": [3.21721, 48.976996]}, "properties": {"year": 2021, "valeur_fonciere": 239000.0, "type_local": "Maison", "surface_reelle_bati": 120.0, "nombre_pieces_principales": 6.0, "adresse_nom_voie": "RUE DE PASSY", "price_per_sqm": 1991.6666666666667, "date_iso": "2021-08-23", "parcelle": "773310000B1128", "addr_num": "32"}}, {"type": "Feature", "geometry": {"type": "Point", "coordinates": [3.219915, 48.978775]}, "properties": {"year": 2021, "valeur_fonciere": 128500.0, "type_local": "Maison", "surface_reelle_bati": 99.0, "nombre_pieces_principales": 4.0, "adresse_nom_voie": "PL DE VIOLAINE", "price_per_sqm": 1297.979797979798, "date_iso": "2021-09-07", "parcelle": "773310000B0883", "addr_num": "3"}}, {"type": "Feature", "geometry": {"type": "Point", "coordinates": [3.219915, 48.978775]}, "properties": {"year": 2021, "valeur_fonciere": 128500.0, "type_local": "Dépendance", "surface_reelle_bati": null, "nombre_pieces_principales": 0.0, "adresse_nom_voie": "PL DE VIOLAINE", "price_per_sqm": null, "date_iso": "2021-09-07", "parcelle": "773310000B0883", "addr_num": "3"}}, {"type": "Feature", "geometry": {"type": "Point", "coordinates": [3.221112, 48.978455]}, "properties": {"year": 2021, "valeur_fonciere": 67000.0, "type_local": "Appartement", "surface_reelle_bati": 50.0, "nombre_pieces_principales": 2.0, "adresse_nom_voie": "PL LAFAYETTE", "price_per_sqm": 1340.0, "date_iso": "2021-09-22", "parcelle": "773310000B0762", "addr_num": "10"}}, {"type": "Feature", "geometry": {"type": "Point", "coordinates": [3.219215, 48.978402]}, "properties": {"year": 2021, "valeur_fonciere": 116000.0, "type_local": "Maison", "surface_reelle_bati": 110.0, "nombre_pieces_principales": 5.0, "adresse_nom_voie": "RUE DE PASSY", "price_per_sqm": 1054.5454545454545, "date_iso": "2021-10-07", "parcelle": "773310000B0865", "addr_num": "1"}}, {"type": "Feature", "geometry": {"type": "Point", "coordinates": [3.213791, 48.97542]}, "properties": {"year": 2021, "valeur_fonciere": 285000.0, "type_local": "Dépendance", "surface_reelle_bati": null, "nombre_pieces_principales": 0.0, "adresse_nom_voie": "QUAI DE MARNE", "price_per_sqm": null, "date_iso": "2021-11-02", "parcelle": "773310000B1180", "addr_num": "19"}}, {"type": "Feature", "geometry": {"type": "Point", "coordinates": [3.213791, 48.97542]}, "properties": {"year": 2021, "valeur_fonciere": 285000.0, "type_local": "Maison", "surface_reelle_bati": 138.0, "nombre_pieces_principales": 6.0, "adresse_nom_voie": "QUAI DE MARNE", "price_per_sqm": 2065.217391304348, "date_iso": "2021-11-02", "parcelle": "773310000B1180", "addr_num": "19"}}, {"type": "Feature", "geometry": {"type": "Point", "coordinates": [3.213791, 48.97542]}, "properties": {"year": 2021, "valeur_fonciere": 285000.0, "type_local": "Dépendance", "surface_reelle_bati": null, "nombre_pieces_principales": 0.0, "adresse_nom_voie": "QUAI DE MARNE", "price_per_sqm": null, "date_iso": "2021-11-02", "parcelle": "773310000B1180", "addr_num": "19"}}, {"type": "Feature", "geometry": {"type": "Point", "coordinates": [3.213791, 48.97542]}, "properties": {"year": 2021, "valeur_fonciere": 285000.0, "type_local": "Maison", "surface_reelle_bati": 138.0, "nombre_pieces_principales": 6.0, "adresse_nom_voie": "QUAI DE MARNE", "price_per_sqm": 2065.217391304348, "date_iso": "2021-11-02", "parcelle": "773310000B1180", "addr_num": "19"}}, {"type": "Feature", "geometry": {"type": "Point", "coordinates": [3.21906, 48.97856]}, "properties": {"year": 2021, "valeur_fonciere": 50000.0, "type_local": null, "surface_reelle_bati": null, "nombre_pieces_principales": null, "adresse_nom_voie": "RUE DE PASSY", "price_per_sqm": null, "date_iso": "2021-11-25", "parcelle": "773310000B1294", "addr_num": ""}}, {"type": "Feature", "geometry": {"type": "Point", "coordinates": [3.220034, 48.978357]}, "properties": {"year": 2022, "valeur_fonciere": 163000.0, "type_local": "Dépendance", "surface_reelle_bati": null, "nombre_pieces_principales": 0.0, "adresse_nom_voie": "RUE DES BONS ENFANTS", "price_per_sqm": null, "date_iso": "2022-01-11", "parcelle": "773310000B0848", "addr_num": "7"}}, {"type": "Feature", "geometry": {"type": "Point", "coordinates": [3.220034, 48.978357]}, "properties": {"year": 2022, "valeur_fonciere": 163000.0, "type_local": "Maison", "surface_reelle_bati": 86.0, "nombre_pieces_principales": 4.0, "adresse_nom_voie": "RUE DES BONS ENFANTS", "price_per_sqm": 1895.3488372093022, "date_iso": "2022-01-11", "parcelle": "773310000B0848", "addr_num": "7"}}, {"type": "Feature", "geometry": {"type": "Point", "coordinates": [3.21824, 48.977167]}, "properties": {"year": 2022, "valeur_fonciere": 155000.0, "type_local": "Maison", "surface_reelle_bati": 115.0, "nombre_pieces_principales": 5.0, "adresse_nom_voie": "QUAI DE MARNE", "price_per_sqm": 1347.8260869565217, "date_iso": "2022-01-22", "parcelle": "773310000B1107", "addr_num": "6"}}, {"type": "Feature", "geometry": {"type": "Point", "coordinates": [3.21824, 48.977167]}, "properties": {"year": 2022, "valeur_fonciere": 155000.0, "type_local": "Maison", "surface_reelle_bati": 115.0, "nombre_pieces_principales": 5.0, "adresse_nom_voie": "QUAI DE MARNE", "price_per_sqm": 1347.8260869565217, "date_iso": "2022-01-22", "parcelle": "773310000B1107", "addr_num": "6"}}, {"type": "Feature", "geometry": {"type": "Point", "coordinates": [3.219453, 48.978849]}, "properties": {"year": 2022, "valeur_fonciere": 135000.0, "type_local": "Maison", "surface_reelle_bati": 100.0, "nombre_pieces_principales": 3.0, "adresse_nom_voie": "RUE DE LA CHARRIERE", "price_per_sqm": 1350.0, "date_iso": "2022-03-21", "parcelle": "773310000B0908", "addr_num": "12"}}, {"type": "Feature", "geometry": {"type": "Point", "coordinates": [3.221176, 48.977717]}, "properties": {"year": 2022, "valeur_fonciere": 15000.0, "type_local": null, "surface_reelle_bati": null, "nombre_pieces_principales": null, "adresse_nom_voie": "RUE DU BAC", "price_per_sqm": null, "date_iso": "2022-05-21", "parcelle": "773310000B1283", "addr_num": ""}}, {"type": "Feature", "geometry": {"type": "Point", "coordinates": [3.220447, 48.977681]}, "properties": {"year": 2022, "valeur_fonciere": 228190.0, "type_local": "Maison", "surface_reelle_bati": 120.0, "nombre_pieces_principales": 4.0, "adresse_nom_voie": "RUE ALEXANDRE MORLOT", "price_per_sqm": 1901.5833333333333, "date_iso": "2022-06-02", "parcelle": "773310000B0810", "addr_num": "1"}}, {"type": "Feature", "geometry": {"type": "Point", "coordinates": [3.220342, 48.97775]}, "properties": {"year": 2022, "valeur_fonciere": 228190.0, "type_local": null, "surface_reelle_bati": null, "nombre_pieces_principales": null, "adresse_nom_voie": "NANTEUIL", "price_per_sqm": null, "date_iso": "2022-06-02", "parcelle": "773310000B0811", "addr_num": ""}}, {"type": "Feature", "geometry": {"type": "Point", "coordinates": [3.221112, 48.978455]}, "properties": {"year": 2022, "valeur_fonciere": 50000.0, "type_local": "Appartement", "surface_reelle_bati": 24.0, "nombre_pieces_principales": 1.0, "adresse_nom_voie": "PL LAFAYETTE", "price_per_sqm": 2083.3333333333335, "date_iso": "2022-06-14", "parcelle": "773310000B0762", "addr_num": "10"}}, {"type": "Feature", "geometry": {"type": "Point", "coordinates": [3.220147, 48.978973]}, "properties": {"year": 2022, "valeur_fonciere": 55000.0, "type_local": "Maison", "surface_reelle_bati": 180.0, "nombre_pieces_principales": 6.0, "adresse_nom_voie": "RUE NEUVE DE LA LIBERTE", "price_per_sqm": 305.55555555555554, "date_iso": "2022-08-05", "parcelle": "773310000B0890", "addr_num": "5"}}, {"type": "Feature", "geometry": {"type": "Point", "coordinates": [3.217013, 48.977368]}, "properties": {"year": 2022, "valeur_fonciere": 210000.0, "type_local": null, "surface_reelle_bati": null, "nombre_pieces_principales": null, "adresse_nom_voie": "PASSY", "price_per_sqm": null, "date_iso": "2022-09-13", "parcelle": "773310000B1124", "addr_num": ""}}, {"type": "Feature", "geometry": {"type": "Point", "coordinates": [3.216776, 48.977415]}, "properties": {"year": 2022, "valeur_fonciere": 210000.0, "type_local": null, "surface_reelle_bati": null, "nombre_pieces_principales": null, "adresse_nom_voie": "PASSY", "price_per_sqm": null, "date_iso": "2022-09-13", "parcelle": "773310000B1133", "addr_num": ""}}, {"type": "Feature", "geometry": {"type": "Point", "coordinates": [3.216891, 48.977515]}, "properties": {"year": 2022, "valeur_fonciere": 210000.0, "type_local": "Maison", "surface_reelle_bati": 115.0, "nombre_pieces_principales": 5.0, "adresse_nom_voie": "RUE DE PASSY", "price_per_sqm": 1826.0869565217392, "date_iso": "2022-09-13", "parcelle": "773310000B1134", "addr_num": "22"}}, {"type": "Feature", "geometry": {"type": "Point", "coordinates": [3.221293, 48.978242]}, "properties": {"year": 2022, "valeur_fonciere": 50000.0, "type_local": "Appartement", "surface_reelle_bati": 57.0, "nombre_pieces_principales": 4.0, "adresse_nom_voie": "PL LAFAYETTE", "price_per_sqm": 877.1929824561404, "date_iso": "2022-09-27", "parcelle": "773310000B0782", "addr_num": "6"}}, {"type": "Feature", "geometry": {"type": "Point", "coordinates": [3.221293, 48.978242]}, "properties": {"year": 2022, "valeur_fonciere": 50000.0, "type_local": "Appartement", "surface_reelle_bati": 55.0, "nombre_pieces_principales": 2.0, "adresse_nom_voie": "PL LAFAYETTE", "price_per_sqm": 909.0909090909091, "date_iso": "2022-10-10", "parcelle": "773310000B0782", "addr_num": "6"}}, {"type": "Feature", "geometry": {"type": "Point", "coordinates": [3.220833, 48.978595]}, "properties": {"year": 2022, "valeur_fonciere": 90000.0, "type_local": null, "surface_reelle_bati": null, "nombre_pieces_principales": null, "adresse_nom_voie": "NANTEUIL", "price_per_sqm": null, "date_iso": "2022-10-10", "parcelle": "773310000B0955", "addr_num": ""}}, {"type": "Feature", "geometry": {"type": "Point", "coordinates": [3.220787, 48.978558]}, "properties": {"year": 2022, "valeur_fonciere": 90000.0, "type_local": "Dépendance", "surface_reelle_bati": null, "nombre_pieces_principales": 0.0, "adresse_nom_voie": "RUE NEUVE DE LA LIBERTE", "price_per_sqm": null, "date_iso": "2022-10-10", "parcelle": "773310000B0956", "addr_num": "2"}}, {"type": "Feature", "geometry": {"type": "Point", "coordinates": [3.220787, 48.978558]}, "properties": {"year": 2022, "valeur_fonciere": 90000.0, "type_local": "Appartement", "surface_reelle_bati": 43.0, "nombre_pieces_principales": 3.0, "adresse_nom_voie": "RUE NEUVE DE LA LIBERTE", "price_per_sqm": 2093.0232558139537, "date_iso": "2022-10-10", "parcelle": "773310000B0956", "addr_num": "2"}}, {"type": "Feature", "geometry": {"type": "Point", "coordinates": [3.220787, 48.978558]}, "properties": {"year": 2022, "valeur_fonciere": 90000.0, "type_local": "Dépendance", "surface_reelle_bati": null, "nombre_pieces_principales": 0.0, "adresse_nom_voie": "RUE NEUVE DE LA LIBERTE", "price_per_sqm": null, "date_iso": "2022-10-10", "parcelle": "773310000B0956", "addr_num": "2"}}, {"type": "Feature", "geometry": {"type": "Point", "coordinates": [3.219896, 48.979489]}, "properties": {"year": 2022, "valeur_fonciere": 194000.0, "type_local": null, "surface_reelle_bati": null, "nombre_pieces_principales": null, "adresse_nom_voie": "NANTEUIL", "price_per_sqm": null, "date_iso": "2022-10-28", "parcelle": "773310000B0897", "addr_num": ""}}, {"type": "Feature", "geometry": {"type": "Point", "coordinates": [3.219813, 48.979571]}, "properties": {"year": 2022, "valeur_fonciere": 194000.0, "type_local": "Dépendance", "surface_reelle_bati": null, "nombre_pieces_principales": 0.0, "adresse_nom_voie": "RUE DE LA CHARRIERE", "price_per_sqm": null, "date_iso": "2022-10-28", "parcelle": "773310000B0898", "addr_num": "18"}}, {"type": "Feature", "geometry": {"type": "Point", "coordinates": [3.219813, 48.979571]}, "properties": {"year": 2022, "valeur_fonciere": 194000.0, "type_local": "Maison", "surface_reelle_bati": 70.0, "nombre_pieces_principales": 3.0, "adresse_nom_voie": "RUE DE LA CHARRIERE", "price_per_sqm": 2771.4285714285716, "date_iso": "2022-10-28", "parcelle": "773310000B0898", "addr_num": "18"}}, {"type": "Feature", "geometry": {"type": "Point", "coordinates": [3.214587, 48.975741]}, "properties": {"year": 2022, "valeur_fonciere": 235000.0, "type_local": "Dépendance", "surface_reelle_bati": null, "nombre_pieces_principales": 0.0, "adresse_nom_voie": "QUAI DE MARNE", "price_per_sqm": null, "date_iso": "2022-11-07", "parcelle": "773310000B1284", "addr_num": "16"}}, {"type": "Feature", "geometry": {"type": "Point", "coordinates": [3.214587, 48.975741]}, "properties": {"year": 2022, "valeur_fonciere": 235000.0, "type_local": "Maison", "surface_reelle_bati": 112.0, "nombre_pieces_principales": 3.0, "adresse_nom_voie": "QUAI DE MARNE", "price_per_sqm": 2098.214285714286, "date_iso": "2022-11-07", "parcelle": "773310000B1284", "addr_num": "16"}}, {"type": "Feature", "geometry": {"type": "Point", "coordinates": [3.214587, 48.975741]}, "properties": {"year": 2022, "valeur_fonciere": 235000.0, "type_local": "Dépendance", "surface_reelle_bati": null, "nombre_pieces_principales": 0.0, "adresse_nom_voie": "QUAI DE MARNE", "price_per_sqm": null, "date_iso": "2022-11-07", "parcelle": "773310000B1284", "addr_num": "16"}}, {"type": "Feature", "geometry": {"type": "Point", "coordinates": [3.214587, 48.975741]}, "properties": {"year": 2022, "valeur_fonciere": 235000.0, "type_local": "Maison", "surface_reelle_bati": 112.0, "nombre_pieces_principales": 3.0, "adresse_nom_voie": "QUAI DE MARNE", "price_per_sqm": 2098.214285714286, "date_iso": "2022-11-07", "parcelle": "773310000B1284", "addr_num": "16"}}, {"type": "Feature", "geometry": {"type": "Point", "coordinates": [3.221533, 48.978806]}, "properties": {"year": 2022, "valeur_fonciere": 39000.0, "type_local": "Dépendance", "surface_reelle_bati": null, "nombre_pieces_principales": 0.0, "adresse_nom_voie": "RUE LECOMPTE", "price_per_sqm": null, "date_iso": "2022-11-28", "parcelle": "773310000B0767", "addr_num": "20"}}, {"type": "Feature", "geometry": {"type": "Point", "coordinates": [3.221533, 48.978806]}, "properties": {"year": 2022, "valeur_fonciere": 39000.0, "type_local": "Appartement", "surface_reelle_bati": 27.0, "nombre_pieces_principales": 1.0, "adresse_nom_voie": "RUE LECOMPTE", "price_per_sqm": 1444.4444444444443, "date_iso": "2022-11-28", "parcelle": "773310000B0767", "addr_num": "20"}}, {"type": "Feature", "geometry": {"type": "Point", "coordinates": [3.230109, 48.980206]}, "properties": {"year": 2022, "valeur_fonciere": 8450.0, "type_local": null, "surface_reelle_bati": null, "nombre_pieces_principales": null, "adresse_nom_voie": "LES LUXEMBOURG", "price_per_sqm": null, "date_iso": "2022-12-03", "parcelle": "77331000ZD0236", "addr_num": ""}}, {"type": "Feature", "geometry": {"type": "Point", "coordinates": [3.220625, 48.977732]}, "properties": {"year": 2023, "valeur_fonciere": 195000.0, "type_local": "Maison", "surface_reelle_bati": 120.0, "nombre_pieces_principales": 3.0, "adresse_nom_voie": "RUE DU BAC", "price_per_sqm": 1625.0, "date_iso": "2023-02-25", "parcelle": "773310000B0808", "addr_num": "7"}}, {"type": "Feature", "geometry": {"type": "Point", "coordinates": [3.217154, 48.977083]}, "properties": {"year": 2023, "valeur_fonciere": 10000.0, "type_local": null, "surface_reelle_bati": null, "nombre_pieces_principales": null, "adresse_nom_voie": "PASSY", "price_per_sqm": null, "date_iso": "2023-03-23", "parcelle": "773310000B1127", "addr_num": ""}}, {"type": "Feature", "geometry": {"type": "Point", "coordinates": [3.220487, 48.977913]}, "properties": {"year": 2023, "valeur_fonciere": 119000.0, "type_local": "Maison", "surface_reelle_bati": 70.0, "nombre_pieces_principales": 3.0, "adresse_nom_voie": "RUE DES BONS ENFANTS", "price_per_sqm": 1700.0, "date_iso": "2023-03-16", "parcelle": "773310000B1222", "addr_num": "2"}}, {"type": "Feature", "geometry": {"type": "Point", "coordinates": [3.221457, 48.984745]}, "properties": {"year": 2023, "valeur_fonciere": 12420.0, "type_local": null, "surface_reelle_bati": null, "nombre_pieces_principales": null, "adresse_nom_voie": "LES PLATRIERES", "price_per_sqm": null, "date_iso": "2023-04-28", "parcelle": "77331000ZC0005", "addr_num": ""}}, {"type": "Feature", "geometry": {"type": "Point", "coordinates": [3.221112, 48.978455]}, "properties": {"year": 2023, "valeur_fonciere": 105900.0, "type_local": "Appartement", "surface_reelle_bati": 60.0, "nombre_pieces_principales": 3.0, "adresse_nom_voie": "PL LAFAYETTE", "price_per_sqm": 1765.0, "date_iso": "2023-04-21", "parcelle": "773310000B0762", "addr_num": "10"}}, {"type": "Feature", "geometry": {"type": "Point", "coordinates": [3.221184, 48.978577]}, "properties": {"year": 2023, "valeur_fonciere": 105900.0, "type_local": null, "surface_reelle_bati": null, "nombre_pieces_principales": null, "adresse_nom_voie": "NANTEUIL", "price_per_sqm": null, "date_iso": "2023-04-21", "parcelle": "773310000B0763", "addr_num": ""}}, {"type": "Feature", "geometry": {"type": "Point", "coordinates": [3.220626, 48.978335]}, "properties": {"year": 2023, "valeur_fonciere": 105900.0, "type_local": null, "surface_reelle_bati": null, "nombre_pieces_principales": null, "adresse_nom_voie": "NANTEUIL", "price_per_sqm": null, "date_iso": "2023-04-21", "parcelle": "773310000B0840", "addr_num": ""}}, {"type": "Feature", "geometry": {"type": "Point", "coordinates": [3.221995, 48.978924]}, "properties": {"year": 2023, "valeur_fonciere": 118000.0, "type_local": "Maison", "surface_reelle_bati": 90.0, "nombre_pieces_principales": 5.0, "adresse_nom_voie": "RUE LECOMPTE", "price_per_sqm": 1311.111111111111, "date_iso": "2023-06-29", "parcelle": "773310000B0772", "addr_num": "24"}}, {"type": "Feature", "geometry": {"type": "Point", "coordinates": [3.221995, 48.978924]}, "properties": {"year": 2023, "valeur_fonciere": 118000.0, "type_local": "Dépendance", "surface_reelle_bati": null, "nombre_pieces_principales": 0.0, "adresse_nom_voie": "RUE LECOMPTE", "price_per_sqm": null, "date_iso": "2023-06-29", "parcelle": "773310000B0772", "addr_num": "24"}}, {"type": "Feature", "geometry": {"type": "Point", "coordinates": [3.221997, 48.978796]}, "properties": {"year": 2023, "valeur_fonciere": 118000.0, "type_local": null, "surface_reelle_bati": null, "nombre_pieces_principales": null, "adresse_nom_voie": "NANTEUIL", "price_per_sqm": null, "date_iso": "2023-06-29", "parcelle": "773310000B0775", "addr_num": ""}}, {"type": "Feature", "geometry": {"type": "Point", "coordinates": [3.22371, 48.977906]}, "properties": {"year": 2023, "valeur_fonciere": 190000.0, "type_local": "Maison", "surface_reelle_bati": 74.0, "nombre_pieces_principales": 3.0, "adresse_nom_voie": "RTE DE CROUTTES", "price_per_sqm": 2567.5675675675675, "date_iso": "2023-07-12", "parcelle": "773310000B0735", "addr_num": "19"}}, {"type": "Feature", "geometry": {"type": "Point", "coordinates": [3.22371, 48.977906]}, "properties": {"year": 2023, "valeur_fonciere": 190000.0, "type_local": "Dépendance", "surface_reelle_bati": null, "nombre_pieces_principales": 0.0, "adresse_nom_voie": "RTE DE CROUTTES", "price_per_sqm": null, "date_iso": "2023-07-12", "parcelle": "773310000B0735", "addr_num": "19"}}, {"type": "Feature", "geometry": {"type": "Point", "coordinates": [3.220231, 48.978557]}, "properties": {"year": 2023, "valeur_fonciere": 65100.0, "type_local": "Maison", "surface_reelle_bati": 45.0, "nombre_pieces_principales": 3.0, "adresse_nom_voie": "PL DE VIOLAINE", "price_per_sqm": 1446.6666666666667, "date_iso": "2023-07-11", "parcelle": "773310000B0875", "addr_num": "4"}}, {"type": "Feature", "geometry": {"type": "Point", "coordinates": [3.220639, 48.978929]}, "properties": {"year": 2023, "valeur_fonciere": 6000.0, "type_local": null, "surface_reelle_bati": null, "nombre_pieces_principales": null, "adresse_nom_voie": "RUE NEUVE DE LA LIBERTE", "price_per_sqm": null, "date_iso": "2023-09-22", "parcelle": "773310000B0753", "addr_num": ""}}, {"type": "Feature", "geometry": {"type": "Point", "coordinates": [3.222681, 48.977727]}, "properties": {"year": 2023, "valeur_fonciere": 243000.0, "type_local": "Maison", "surface_reelle_bati": 97.0, "nombre_pieces_principales": 4.0, "adresse_nom_voie": "RTE DE CROUTTES", "price_per_sqm": 2505.1546391752577, "date_iso": "2023-10-16", "parcelle": "773310000B0789", "addr_num": "7"}}, {"type": "Feature", "geometry": {"type": "Point", "coordinates": [3.222681, 48.977727]}, "properties": {"year": 2023, "valeur_fonciere": 243000.0, "type_local": "Maison", "surface_reelle_bati": 97.0, "nombre_pieces_principales": 4.0, "adresse_nom_voie": "RTE DE CROUTTES", "price_per_sqm": 2505.1546391752577, "date_iso": "2023-10-16", "parcelle": "773310000B0789", "addr_num": "7"}}, {"type": "Feature", "geometry": {"type": "Point", "coordinates": [3.222524, 48.977737]}, "properties": {"year": 2023, "valeur_fonciere": 243000.0, "type_local": null, "surface_reelle_bati": null, "nombre_pieces_principales": null, "adresse_nom_voie": "RTE DE CROUTTES", "price_per_sqm": null, "date_iso": "2023-10-16", "parcelle": "773310000B1259", "addr_num": ""}}, {"type": "Feature", "geometry": {"type": "Point", "coordinates": [3.222407, 48.977873]}, "properties": {"year": 2023, "valeur_fonciere": 243000.0, "type_local": null, "surface_reelle_bati": null, "nombre_pieces_principales": null, "adresse_nom_voie": "RTE DE CROUTTES", "price_per_sqm": null, "date_iso": "2023-10-16", "parcelle": "773310000B1261", "addr_num": ""}}, {"type": "Feature", "geometry": {"type": "Point", "coordinates": [3.222564, 48.97752]}, "properties": {"year": 2023, "valeur_fonciere": 243000.0, "type_local": null, "surface_reelle_bati": null, "nombre_pieces_principales": null, "adresse_nom_voie": "RTE DE CROUTTES", "price_per_sqm": null, "date_iso": "2023-10-16", "parcelle": "773310000B1264", "addr_num": "9"}}, {"type": "Feature", "geometry": {"type": "Point", "coordinates": [3.21356, 48.975571]}, "properties": {"year": 2023, "valeur_fonciere": 1860.0, "type_local": null, "surface_reelle_bati": null, "nombre_pieces_principales": null, "adresse_nom_voie": "QUAI DE MARNE", "price_per_sqm": null, "date_iso": "2023-10-27", "parcelle": "773310000B1301", "addr_num": "19"}}, {"type": "Feature", "geometry": {"type": "Point", "coordinates": [3.221709, 48.983857]}, "properties": {"year": 2023, "valeur_fonciere": 2000.0, "type_local": null, "surface_reelle_bati": null, "nombre_pieces_principales": null, "adresse_nom_voie": "LES FOLIES", "price_per_sqm": null, "date_iso": "2023-11-10", "parcelle": "77331000ZC0079", "addr_num": ""}}, {"type": "Feature", "geometry": {"type": "Point", "coordinates": [3.221709, 48.983857]}, "properties": {"year": 2023, "valeur_fonciere": 2000.0, "type_local": null, "surface_reelle_bati": null, "nombre_pieces_principales": null, "adresse_nom_voie": "LES FOLIES", "price_per_sqm": null, "date_iso": "2023-11-10", "parcelle": "77331000ZC0079", "addr_num": ""}}, {"type": "Feature", "geometry": {"type": "Point", "coordinates": [3.224221, 48.979746]}, "properties": {"year": 2024, "valeur_fonciere": 190000.0, "type_local": "Maison", "surface_reelle_bati": 82.0, "nombre_pieces_principales": 4.0, "adresse_nom_voie": "RUE LECOMPTE", "price_per_sqm": 2317.0731707317073, "date_iso": "2024-01-05", "parcelle": "77331000ZD0226", "addr_num": "9002"}}, {"type": "Feature", "geometry": {"type": "Point", "coordinates": [3.216465, 48.977706]}, "properties": {"year": 2024, "valeur_fonciere": 143000.0, "type_local": "Dépendance", "surface_reelle_bati": null, "nombre_pieces_principales": 0.0, "adresse_nom_voie": "CHE DE PAROUSIN", "price_per_sqm": null, "date_iso": "2024-01-26", "parcelle": "773310000B1136", "addr_num": "6"}}, {"type": "Feature", "geometry": {"type": "Point", "coordinates": [3.216465, 48.977706]}, "properties": {"year": 2024, "valeur_fonciere": 143000.0, "type_local": "Maison", "surface_reelle_bati": 56.0, "nombre_pieces_principales": 3.0, "adresse_nom_voie": "CHE DE PAROUSIN", "price_per_sqm": 2553.5714285714284, "date_iso": "2024-01-26", "parcelle": "773310000B1136", "addr_num": "6"}}, {"type": "Feature", "geometry": {"type": "Point", "coordinates": [3.216366, 48.977662]}, "properties": {"year": 2024, "valeur_fonciere": 143000.0, "type_local": null, "surface_reelle_bati": null, "nombre_pieces_principales": null, "adresse_nom_voie": "CHE DE PAROUSIN", "price_per_sqm": null, "date_iso": "2024-01-26", "parcelle": "773310000B1192", "addr_num": ""}}, {"type": "Feature", "geometry": {"type": "Point", "coordinates": [3.222906, 48.98583]}, "properties": {"year": 2024, "valeur_fonciere": 70500.0, "type_local": null, "surface_reelle_bati": null, "nombre_pieces_principales": null, "adresse_nom_voie": "LES PLATRIERES", "price_per_sqm": null, "date_iso": "2024-03-05", "parcelle": "77331000ZC0012", "addr_num": ""}}, {"type": "Feature", "geometry": {"type": "Point", "coordinates": [3.22613, 48.985397]}, "properties": {"year": 2024, "valeur_fonciere": 178640.0, "type_local": null, "surface_reelle_bati": null, "nombre_pieces_principales": null, "adresse_nom_voie": "LES FORTES TERRES", "price_per_sqm": null, "date_iso": "2024-05-03", "parcelle": "77331000ZC0058", "addr_num": ""}}, {"type": "Feature", "geometry": {"type": "Point", "coordinates": [3.221112, 48.978455]}, "properties": {"year": 2024, "valeur_fonciere": 47000.0, "type_local": "Appartement", "surface_reelle_bati": 43.0, "nombre_pieces_principales": 1.0, "adresse_nom_voie": "PL LAFAYETTE", "price_per_sqm": 1093.0232558139535, "date_iso": "2024-06-11", "parcelle": "773310000B0762", "addr_num": "10"}}, {"type": "Feature", "geometry": {"type": "Point", "coordinates": [3.221339, 48.982471]}, "properties": {"year": 2024, "valeur_fonciere": 200000.0, "type_local": "Dépendance", "surface_reelle_bati": null, "nombre_pieces_principales": 0.0, "adresse_nom_voie": "AU DESSUS DE NANTEUIL", "price_per_sqm": null, "date_iso": "2024-06-18", "parcelle": "77331000ZB0102", "addr_num": "9001"}}, {"type": "Feature", "geometry": {"type": "Point", "coordinates": [3.221339, 48.982471]}, "properties": {"year": 2024, "valeur_fonciere": 200000.0, "type_local": "Dépendance", "surface_reelle_bati": null, "nombre_pieces_principales": 0.0, "adresse_nom_voie": "AU DESSUS DE NANTEUIL", "price_per_sqm": null, "date_iso": "2024-06-18", "parcelle": "77331000ZB0102", "addr_num": "9001"}}, {"type": "Feature", "geometry": {"type": "Point", "coordinates": [3.221339, 48.982471]}, "properties": {"year": 2024, "valeur_fonciere": 200000.0, "type_local": "Dépendance", "surface_reelle_bati": null, "nombre_pieces_principales": 0.0, "adresse_nom_voie": "AU DESSUS DE NANTEUIL", "price_per_sqm": null, "date_iso": "2024-06-18", "parcelle": "77331000ZB0102", "addr_num": "9001"}}, {"type": "Feature", "geometry": {"type": "Point", "coordinates": [3.221293, 48.978242]}, "properties": {"year": 2024, "valeur_fonciere": 82000.0, "type_local": "Appartement", "surface_reelle_bati": 66.0, "nombre_pieces_principales": 3.0, "adresse_nom_voie": "PL LAFAYETTE", "price_per_sqm": 1242.4242424242425, "date_iso": "2024-09-05", "parcelle": "773310000B0782", "addr_num": "6"}}, {"type": "Feature", "geometry": {"type": "Point", "coordinates": [3.221293, 48.978242]}, "properties": {"year": 2024, "valeur_fonciere": 75000.0, "type_local": "Appartement", "surface_reelle_bati": 42.0, "nombre_pieces_principales": 2.0, "adresse_nom_voie": "PL LAFAYETTE", "price_per_sqm": 1785.7142857142858, "date_iso": "2024-10-10", "parcelle": "773310000B0782", "addr_num": "6"}}, {"type": "Feature", "geometry": {"type": "Point", "coordinates": [3.214749, 48.975709]}, "properties": {"year": 2024, "valeur_fonciere": 220000.0, "type_local": null, "surface_reelle_bati": null, "nombre_pieces_principales": null, "adresse_nom_voie": "PAROUSIN", "price_per_sqm": null, "date_iso": "2024-12-23", "parcelle": "773310000B1173", "addr_num": ""}}, {"type": "Feature", "geometry": {"type": "Point", "coordinates": [3.213803, 48.975621]}, "properties": {"year": 2024, "valeur_fonciere": 220000.0, "type_local": "Maison", "surface_reelle_bati": 122.0, "nombre_pieces_principales": 5.0, "adresse_nom_voie": "QUAI DE MARNE", "price_per_sqm": 1803.27868852459, "date_iso": "2024-12-23", "parcelle": "773310000B1179", "addr_num": "18"}}, {"type": "Feature", "geometry": {"type": "Point", "coordinates": [3.213803, 48.975621]}, "properties": {"year": 2024, "valeur_fonciere": 220000.0, "type_local": "Maison", "surface_reelle_bati": 122.0, "nombre_pieces_principales": 5.0, "adresse_nom_voie": "QUAI DE MARNE", "price_per_sqm": 1803.27868852459, "date_iso": "2024-12-23", "parcelle": "773310000B1179", "addr_num": "18"}}, {"type": "Feature", "geometry": {"type": "Point", "coordinates": [3.213803, 48.975621]}, "properties": {"year": 2024, "valeur_fonciere": 220000.0, "type_local": "Dépendance", "surface_reelle_bati": null, "nombre_pieces_principales": 0.0, "adresse_nom_voie": "QUAI DE MARNE", "price_per_sqm": null, "date_iso": "2024-12-23", "parcelle": "773310000B1179", "addr_num": "18"}}, {"type": "Feature", "geometry": {"type": "Point", "coordinates": [3.213803, 48.975621]}, "properties": {"year": 2024, "valeur_fonciere": 220000.0, "type_local": "Dépendance", "surface_reelle_bati": null, "nombre_pieces_principales": 0.0, "adresse_nom_voie": "QUAI DE MARNE", "price_per_sqm": null, "date_iso": "2024-12-23", "parcelle": "773310000B1179", "addr_num": "18"}}, {"type": "Feature", "geometry": {"type": "Point", "coordinates": [3.213803, 48.975621]}, "properties": {"year": 2024, "valeur_fonciere": 220000.0, "type_local": "Maison", "surface_reelle_bati": 122.0, "nombre_pieces_principales": 5.0, "adresse_nom_voie": "QUAI DE MARNE", "price_per_sqm": 1803.27868852459, "date_iso": "2024-12-23", "parcelle": "773310000B1179", "addr_num": "18"}}, {"type": "Feature", "geometry": {"type": "Point", "coordinates": [3.213803, 48.975621]}, "properties": {"year": 2024, "valeur_fonciere": 220000.0, "type_local": "Dépendance", "surface_reelle_bati": null, "nombre_pieces_principales": 0.0, "adresse_nom_voie": "QUAI DE MARNE", "price_per_sqm": null, "date_iso": "2024-12-23", "parcelle": "773310000B1179", "addr_num": "18"}}, {"type": "Feature", "geometry": {"type": "Point", "coordinates": [3.219804, 48.978534]}, "properties": {"year": 2025, "valeur_fonciere": 86000.0, "type_local": "Maison", "surface_reelle_bati": 114.0, "nombre_pieces_principales": 4.0, "adresse_nom_voie": "RUE DE LA CHARRIERE", "price_per_sqm": 754.3859649122807, "date_iso": "2025-01-29", "parcelle": "773310000B0872", "addr_num": "5"}}, {"type": "Feature", "geometry": {"type": "Point", "coordinates": [3.219692, 48.978582]}, "properties": {"year": 2025, "valeur_fonciere": 86000.0, "type_local": null, "surface_reelle_bati": null, "nombre_pieces_principales": null, "adresse_nom_voie": "NANTEUIL", "price_per_sqm": null, "date_iso": "2025-01-29", "parcelle": "773310000B1033", "addr_num": ""}}, {"type": "Feature", "geometry": {"type": "Point", "coordinates": [3.220075, 48.978311]}, "properties": {"year": 2025, "valeur_fonciere": 65000.0, "type_local": "Local industriel. commercial ou assimilé", "surface_reelle_bati": null, "nombre_pieces_principales": 0.0, "adresse_nom_voie": "RUE DES BONS ENFANTS", "price_per_sqm": null, "date_iso": "2025-03-13", "parcelle": "773310000B0970", "addr_num": "9002"}}, {"type": "Feature", "geometry": {"type": "Point", "coordinates": [3.219914, 48.978276]}, "properties": {"year": 2025, "valeur_fonciere": 65000.0, "type_local": "Maison", "surface_reelle_bati": 92.0, "nombre_pieces_principales": 4.0, "adresse_nom_voie": "RUE DE L ENTONNOIR", "price_per_sqm": 706.5217391304348, "date_iso": "2025-03-13", "parcelle": "773310000B1303", "addr_num": "3"}}, {"type": "Feature", "geometry": {"type": "Point", "coordinates": [3.219914, 48.978276]}, "properties": {"year": 2025, "valeur_fonciere": 65000.0, "type_local": "Dépendance", "surface_reelle_bati": null, "nombre_pieces_principales": 0.0, "adresse_nom_voie": "RUE DE L ENTONNOIR", "price_per_sqm": null, "date_iso": "2025-03-13", "parcelle": "773310000B1303", "addr_num": "3"}}, {"type": "Feature", "geometry": {"type": "Point", "coordinates": [3.22003, 48.978229]}, "properties": {"year": 2025, "valeur_fonciere": 65000.0, "type_local": null, "surface_reelle_bati": null, "nombre_pieces_principales": null, "adresse_nom_voie": "RUE ALEXANDRE MORLOT", "price_per_sqm": null, "date_iso": "2025-03-13", "parcelle": "773310000B1307", "addr_num": ""}}, {"type": "Feature", "geometry": {"type": "Point", "coordinates": [3.219902, 48.978351]}, "properties": {"year": 2025, "valeur_fonciere": 65000.0, "type_local": null, "surface_reelle_bati": null, "nombre_pieces_principales": null, "adresse_nom_voie": "RUE DE L ENTONNOIR", "price_per_sqm": null, "date_iso": "2025-03-13", "parcelle": "773310000B1308", "addr_num": "3"}}, {"type": "Feature", "geometry": {"type": "Point", "coordinates": [3.219791, 48.978327]}, "properties": {"year": 2025, "valeur_fonciere": 129000.0, "type_local": null, "surface_reelle_bati": null, "nombre_pieces_principales": null, "adresse_nom_voie": "RUE DE L ENTONNOIR", "price_per_sqm": null, "date_iso": "2025-04-18", "parcelle": "773310000B1304", "addr_num": ""}}, {"type": "Feature", "geometry": {"type": "Point", "coordinates": [3.219902, 48.978351]}, "properties": {"year": 2025, "valeur_fonciere": 129000.0, "type_local": null, "surface_reelle_bati": null, "nombre_pieces_principales": null, "adresse_nom_voie": "RUE DE L ENTONNOIR", "price_per_sqm": null, "date_iso": "2025-04-18", "parcelle": "773310000B1308", "addr_num": "3"}}, {"type": "Feature", "geometry": {"type": "Point", "coordinates": [3.219873, 48.978377]}, "properties": {"year": 2025, "valeur_fonciere": 129000.0, "type_local": null, "surface_reelle_bati": null, "nombre_pieces_principales": null, "adresse_nom_voie": "RUE DE L ENTONNOIR", "price_per_sqm": null, "date_iso": "2025-04-18", "parcelle": "773310000B1309", "addr_num": ""}}, {"type": "Feature", "geometry": {"type": "Point", "coordinates": [3.218926, 48.980997]}, "properties": {"year": 2025, "valeur_fonciere": 272170.0, "type_local": null, "surface_reelle_bati": null, "nombre_pieces_principales": null, "adresse_nom_voie": "AU DESSUS DE NANTEUIL", "price_per_sqm": null, "date_iso": "2025-04-07", "parcelle": "77331000ZB0090", "addr_num": ""}}, {"type": "Feature", "geometry": {"type": "Point", "coordinates": [3.218915, 48.981262]}, "properties": {"year": 2025, "valeur_fonciere": 272170.0, "type_local": null, "surface_reelle_bati": null, "nombre_pieces_principales": null, "adresse_nom_voie": "AU DESSUS DE NANTEUIL", "price_per_sqm": null, "date_iso": "2025-04-07", "parcelle": "77331000ZB0169", "addr_num": ""}}, {"type": "Feature", "geometry": {"type": "Point", "coordinates": [3.224185, 48.981786]}, "properties": {"year": 2025, "valeur_fonciere": 45000.0, "type_local": null, "surface_reelle_bati": null, "nombre_pieces_principales": null, "adresse_nom_voie": "LES GRESILLONS", "price_per_sqm": null, "date_iso": "2025-04-22", "parcelle": "77331000ZC0119", "addr_num": ""}}, {"type": "Feature", "geometry": {"type": "Point", "coordinates": [3.219875, 48.978194]}, "properties": {"year": 2025, "valeur_fonciere": 102500.0, "type_local": "Maison", "surface_reelle_bati": 78.0, "nombre_pieces_principales": 4.0, "adresse_nom_voie": "RUE ALEXANDRE MORLOT", "price_per_sqm": 1314.1025641025642, "date_iso": "2025-05-21", "parcelle": "773310000B1305", "addr_num": "12"}}, {"type": "Feature", "geometry": {"type": "Point", "coordinates": [3.228294, 48.977004]}, "properties": {"year": 2025, "valeur_fonciere": 3500.0, "type_local": null, "surface_reelle_bati": null, "nombre_pieces_principales": null, "adresse_nom_voie": "L ILE DU MOULIN DE NANTEUI", "price_per_sqm": null, "date_iso": "2025-05-30", "parcelle": "77331000ZD0200", "addr_num": ""}}, {"type": "Feature", "geometry": {"type": "Point", "coordinates": [3.219039, 48.978689]}, "properties": {"year": 2025, "valeur_fonciere": 270830.0, "type_local": "Maison", "surface_reelle_bati": 192.0, "nombre_pieces_principales": 8.0, "adresse_nom_voie": "RUE DE LA CHARRIERE", "price_per_sqm": 1410.5729166666667, "date_iso": "2025-05-30", "parcelle": "773310000B1293", "addr_num": "9"}}, {"type": "Feature", "geometry": {"type": "Point", "coordinates": [3.219039, 48.978689]}, "properties": {"year": 2025, "valeur_fonciere": 270830.0, "type_local": "Dépendance", "surface_reelle_bati": null, "nombre_pieces_principales": 0.0, "adresse_nom_voie": "RUE DE LA CHARRIERE", "price_per_sqm": null, "date_iso": "2025-05-30", "parcelle": "773310000B1293", "addr_num": "9"}}, {"type": "Feature", "geometry": {"type": "Point", "coordinates": [3.219039, 48.978689]}, "properties": {"year": 2025, "valeur_fonciere": 270830.0, "type_local": "Dépendance", "surface_reelle_bati": null, "nombre_pieces_principales": 0.0, "adresse_nom_voie": "RUE DE LA CHARRIERE", "price_per_sqm": null, "date_iso": "2025-05-30", "parcelle": "773310000B1293", "addr_num": "9"}}, {"type": "Feature", "geometry": {"type": "Point", "coordinates": [3.218823, 48.978524]}, "properties": {"year": 2025, "valeur_fonciere": 270830.0, "type_local": null, "surface_reelle_bati": null, "nombre_pieces_principales": null, "adresse_nom_voie": "RUE DE PASSY", "price_per_sqm": null, "date_iso": "2025-05-30", "parcelle": "773310000B1295", "addr_num": ""}}, {"type": "Feature", "geometry": {"type": "Point", "coordinates": [3.216891, 48.97847]}, "properties": {"year": 2025, "valeur_fonciere": 1800.0, "type_local": null, "surface_reelle_bati": null, "nombre_pieces_principales": null, "adresse_nom_voie": "LA MONTAGNE DES COQS", "price_per_sqm": null, "date_iso": "2025-06-17", "parcelle": "77331000ZA0048", "addr_num": ""}}, {"type": "Feature", "geometry": {"type": "Point", "coordinates": [3.214321, 48.977162]}, "properties": {"year": 2025, "valeur_fonciere": 1800.0, "type_local": null, "surface_reelle_bati": null, "nombre_pieces_principales": null, "adresse_nom_voie": "LE QUARTIER DES VACHES", "price_per_sqm": null, "date_iso": "2025-06-17", "parcelle": "77331000ZA0069", "addr_num": ""}}, {"type": "Feature", "geometry": {"type": "Point", "coordinates": [3.216806, 48.981761]}, "properties": {"year": 2025, "valeur_fonciere": 1800.0, "type_local": null, "surface_reelle_bati": null, "nombre_pieces_principales": null, "adresse_nom_voie": "DESSOUS DU BOIS DE PASSY", "price_per_sqm": null, "date_iso": "2025-06-17", "parcelle": "77331000ZB0212", "addr_num": ""}}, {"type": "Feature", "geometry": {"type": "Point", "coordinates": [3.220617, 48.977804]}, "properties": {"year": 2025, "valeur_fonciere": 160000.0, "type_local": "Maison", "surface_reelle_bati": 120.0, "nombre_pieces_principales": 4.0, "adresse_nom_voie": "RUE DU BAC", "price_per_sqm": 1333.3333333333333, "date_iso": "2025-06-02", "parcelle": "773310000B0809", "addr_num": "9"}}, {"type": "Feature", "geometry": {"type": "Point", "coordinates": [3.220447, 48.977681]}, "properties": {"year": 2025, "valeur_fonciere": 249000.0, "type_local": "Maison", "surface_reelle_bati": 120.0, "nombre_pieces_principales": 4.0, "adresse_nom_voie": "RUE ALEXANDRE MORLOT", "price_per_sqm": 2075.0, "date_iso": "2025-06-26", "parcelle": "773310000B0810", "addr_num": "1"}}, {"type": "Feature", "geometry": {"type": "Point", "coordinates": [3.220342, 48.97775]}, "properties": {"year": 2025, "valeur_fonciere": 249000.0, "type_local": null, "surface_reelle_bati": null, "nombre_pieces_principales": null, "adresse_nom_voie": "NANTEUIL", "price_per_sqm": null, "date_iso": "2025-06-26", "parcelle": "773310000B0811", "addr_num": ""}}, {"type": "Feature", "geometry": {"type": "Point", "coordinates": [3.227757, 48.981439]}, "properties": {"year": 2025, "valeur_fonciere": 249050.0, "type_local": null, "surface_reelle_bati": null, "nombre_pieces_principales": null, "adresse_nom_voie": "LES BIEN-AIMEES", "price_per_sqm": null, "date_iso": "2025-08-28", "parcelle": "77331000ZD0068", "addr_num": ""}}, {"type": "Feature", "geometry": {"type": "Point", "coordinates": [3.227911, 48.98177]}, "properties": {"year": 2025, "valeur_fonciere": 249050.0, "type_local": null, "surface_reelle_bati": null, "nombre_pieces_principales": null, "adresse_nom_voie": "LES BIEN-AIMEES", "price_per_sqm": null, "date_iso": "2025-08-28", "parcelle": "77331000ZD0187", "addr_num": ""}}, {"type": "Feature", "geometry": {"type": "Point", "coordinates": [3.219036, 48.980808]}, "properties": {"year": 2025, "valeur_fonciere": 46500.0, "type_local": null, "surface_reelle_bati": null, "nombre_pieces_principales": null, "adresse_nom_voie": "AU DESSUS DE NANTEUIL", "price_per_sqm": null, "date_iso": "2025-09-02", "parcelle": "77331000ZB0089", "addr_num": ""}}, {"type": "Feature", "geometry": {"type": "Point", "coordinates": [3.219783, 48.97739]}, "properties": {"year": 2025, "valeur_fonciere": 265000.0, "type_local": "Dépendance", "surface_reelle_bati": null, "nombre_pieces_principales": 0.0, "adresse_nom_voie": "QUAI DE MARNE", "price_per_sqm": null, "date_iso": "2025-09-09", "parcelle": "773310000B1269", "addr_num": "3"}}, {"type": "Feature", "geometry": {"type": "Point", "coordinates": [3.219783, 48.97739]}, "properties": {"year": 2025, "valeur_fonciere": 265000.0, "type_local": "Maison", "surface_reelle_bati": 126.0, "nombre_pieces_principales": 7.0, "adresse_nom_voie": "QUAI DE MARNE", "price_per_sqm": 2103.1746031746034, "date_iso": "2025-09-09", "parcelle": "773310000B1269", "addr_num": "3"}}, {"type": "Feature", "geometry": {"type": "Point", "coordinates": [3.219783, 48.97739]}, "properties": {"year": 2025, "valeur_fonciere": 265000.0, "type_local": "Dépendance", "surface_reelle_bati": null, "nombre_pieces_principales": 0.0, "adresse_nom_voie": "QUAI DE MARNE", "price_per_sqm": null, "date_iso": "2025-09-09", "parcelle": "773310000B1269", "addr_num": "3"}}, {"type": "Feature", "geometry": {"type": "Point", "coordinates": [3.219783, 48.97739]}, "properties": {"year": 2025, "valeur_fonciere": 265000.0, "type_local": "Maison", "surface_reelle_bati": 126.0, "nombre_pieces_principales": 7.0, "adresse_nom_voie": "QUAI DE MARNE", "price_per_sqm": 2103.1746031746034, "date_iso": "2025-09-09", "parcelle": "773310000B1269", "addr_num": "3"}}, {"type": "Feature", "geometry": {"type": "Point", "coordinates": [3.219783, 48.97739]}, "properties": {"year": 2025, "valeur_fonciere": 265000.0, "type_local": "Dépendance", "surface_reelle_bati": null, "nombre_pieces_principales": 0.0, "adresse_nom_voie": "QUAI DE MARNE", "price_per_sqm": null, "date_iso": "2025-09-09", "parcelle": "773310000B1269", "addr_num": "3"}}, {"type": "Feature", "geometry": {"type": "Point", "coordinates": [3.219783, 48.97739]}, "properties": {"year": 2025, "valeur_fonciere": 265000.0, "type_local": "Maison", "surface_reelle_bati": 126.0, "nombre_pieces_principales": 7.0, "adresse_nom_voie": "QUAI DE MARNE", "price_per_sqm": 2103.1746031746034, "date_iso": "2025-09-09", "parcelle": "773310000B1269", "addr_num": "3"}}, {"type": "Feature", "geometry": {"type": "Point", "coordinates": [3.219783, 48.97739]}, "properties": {"year": 2025, "valeur_fonciere": 265000.0, "type_local": "Dépendance", "surface_reelle_bati": null, "nombre_pieces_principales": 0.0, "adresse_nom_voie": "QUAI DE MARNE", "price_per_sqm": null, "date_iso": "2025-09-09", "parcelle": "773310000B1269", "addr_num": "3"}}, {"type": "Feature", "geometry": {"type": "Point", "coordinates": [3.219783, 48.97739]}, "properties": {"year": 2025, "valeur_fonciere": 265000.0, "type_local": "Dépendance", "surface_reelle_bati": null, "nombre_pieces_principales": 0.0, "adresse_nom_voie": "QUAI DE MARNE", "price_per_sqm": null, "date_iso": "2025-09-09", "parcelle": "773310000B1269", "addr_num": "3"}}, {"type": "Feature", "geometry": {"type": "Point", "coordinates": [3.219783, 48.97739]}, "properties": {"year": 2025, "valeur_fonciere": 265000.0, "type_local": "Dépendance", "surface_reelle_bati": null, "nombre_pieces_principales": 0.0, "adresse_nom_voie": "QUAI DE MARNE", "price_per_sqm": null, "date_iso": "2025-09-09", "parcelle": "773310000B1269", "addr_num": "3"}}, {"type": "Feature", "geometry": {"type": "Point", "coordinates": [3.221357, 48.978919]}, "properties": {"year": 2025, "valeur_fonciere": 1.0, "type_local": null, "surface_reelle_bati": null, "nombre_pieces_principales": null, "adresse_nom_voie": "RUE LECOMPTE", "price_per_sqm": null, "date_iso": "2025-11-03", "parcelle": "773310000B1219", "addr_num": "5"}}, {"type": "Feature", "geometry": {"type": "Point", "coordinates": [3.221293, 48.978242]}, "properties": {"year": 2025, "valeur_fonciere": 70000.0, "type_local": "Appartement", "surface_reelle_bati": 47.0, "nombre_pieces_principales": 2.0, "adresse_nom_voie": "PL LAFAYETTE", "price_per_sqm": 1489.3617021276596, "date_iso": "2025-11-07", "parcelle": "773310000B0782", "addr_num": "6"}}, {"type": "Feature", "geometry": {"type": "Point", "coordinates": [3.217271, 48.976934]}, "properties": {"year": 2025, "valeur_fonciere": 210000.0, "type_local": null, "surface_reelle_bati": null, "nombre_pieces_principales": null, "adresse_nom_voie": "PASSY", "price_per_sqm": null, "date_iso": "2025-11-17", "parcelle": "773310000B1129", "addr_num": ""}}, {"type": "Feature", "geometry": {"type": "Point", "coordinates": [3.217297, 48.976875]}, "properties": {"year": 2025, "valeur_fonciere": 210000.0, "type_local": "Maison", "surface_reelle_bati": 154.0, "nombre_pieces_principales": 5.0, "adresse_nom_voie": "RUE DE PASSY", "price_per_sqm": 1363.6363636363637, "date_iso": "2025-11-17", "parcelle": "773310000B1130", "addr_num": "34"}}, {"type": "Feature", "geometry": {"type": "Point", "coordinates": [3.219997, 48.978402]}, "properties": {"year": 2025, "valeur_fonciere": 93000.0, "type_local": "Appartement", "surface_reelle_bati": 35.0, "nombre_pieces_principales": 2.0, "adresse_nom_voie": "RUE DE L ENTONNOIR", "price_per_sqm": 2657.1428571428573, "date_iso": "2025-12-10", "parcelle": "773310000B0999", "addr_num": "1"}}, {"type": "Feature", "geometry": {"type": "Point", "coordinates": [3.219997, 48.978402]}, "properties": {"year": 2025, "valeur_fonciere": 93000.0, "type_local": "Appartement", "surface_reelle_bati": 35.0, "nombre_pieces_principales": 2.0, "adresse_nom_voie": "RUE DE L ENTONNOIR", "price_per_sqm": 2657.1428571428573, "date_iso": "2025-12-10", "parcelle": "773310000B0999", "addr_num": "1"}}, {"type": "Feature", "geometry": {"type": "Point", "coordinates": [3.219997, 48.978402]}, "properties": {"year": 2025, "valeur_fonciere": 93000.0, "type_local": "Appartement", "surface_reelle_bati": 35.0, "nombre_pieces_principales": 2.0, "adresse_nom_voie": "RUE DE L ENTONNOIR", "price_per_sqm": 2657.1428571428573, "date_iso": "2025-12-10", "parcelle": "773310000B0999", "addr_num": "1"}}, {"type": "Feature", "geometry": {"type": "Point", "coordinates": [3.219997, 48.978402]}, "properties": {"year": 2025, "valeur_fonciere": 93000.0, "type_local": "Appartement", "surface_reelle_bati": 35.0, "nombre_pieces_principales": 2.0, "adresse_nom_voie": "RUE DE L ENTONNOIR", "price_per_sqm": 2657.1428571428573, "date_iso": "2025-12-10", "parcelle": "773310000B0999", "addr_num": "1"}}, {"type": "Feature", "geometry": {"type": "Point", "coordinates": [3.227757, 48.981439]}, "properties": {"year": 2025, "valeur_fonciere": 294000.0, "type_local": null, "surface_reelle_bati": null, "nombre_pieces_principales": null, "adresse_nom_voie": "LES BIEN-AIMEES", "price_per_sqm": null, "date_iso": "2025-12-26", "parcelle": "77331000ZD0068", "addr_num": ""}}, {"type": "Feature", "geometry": {"type": "Point", "coordinates": [3.227911, 48.98177]}, "properties": {"year": 2025, "valeur_fonciere": 294000.0, "type_local": null, "surface_reelle_bati": null, "nombre_pieces_principales": null, "adresse_nom_voie": "LES BIEN-AIMEES", "price_per_sqm": null, "date_iso": "2025-12-26", "parcelle": "77331000ZD0187", "addr_num": ""}}]}