{"type": "FeatureCollection", "features": [{"type": "Feature", "geometry": {"type": "Point", "coordinates": [3.17214, 48.597077]}, "properties": {"id_parcelle": "771091490A0502", "address": "1 GR GRANDE RUE", "sales": 8, "median_price": 244000.0, "median_price_per_sqm": 1284.2105263157894, "median_rooms": 0.0, "first_sale": "2024-12-19", "last_sale": "2024-12-19"}}, {"type": "Feature", "geometry": {"type": "Point", "coordinates": [3.194016, 48.620046]}, "properties": {"id_parcelle": "771090000E0967", "address": "53 RUE DE LA FORET", "sales": 6, "median_price": 95000.0, "median_price_per_sqm": 697.2983257229832, "median_rooms": 0.0, "first_sale": "2024-07-22", "last_sale": "2024-07-22"}}, {"type": "Feature", "geometry": {"type": "Point", "coordinates": [3.173205, 48.597404]}, "properties": {"id_parcelle": "771091490A0503", "address": "11 GR GRANDE RUE", "sales": 6, "median_price": 272000.0, "median_price_per_sqm": 2472.7272727272725, "median_rooms": 0.0, "first_sale": "2022-09-16", "last_sale": "2022-09-16"}}, {"type": "Feature", "geometry": {"type": "Point", "coordinates": [3.190634, 48.61656]}, "properties": {"id_parcelle": "771090000E0593", "address": "25 RUE DES MESANGES", "sales": 6, "median_price": 220000.0, "median_price_per_sqm": 3098.5915492957747, "median_rooms": 0.0, "first_sale": "2023-12-14", "last_sale": "2023-12-14"}}, {"type": "Feature", "geometry": {"type": "Point", "coordinates": [3.193298, 48.615784]}, "properties": {"id_parcelle": "771090000E0674", "address": "5 RUE DES LISERONS", "sales": 4, "median_price": 203950.0, "median_price_per_sqm": 3289.516129032258, "median_rooms": 3.0, "first_sale": "2023-02-13", "last_sale": "2024-11-27"}}, {"type": "Feature", "geometry": {"type": "Point", "coordinates": [3.192152, 48.617385]}, "properties": {"id_parcelle": "771090000E0840", "address": "2 RUE DU CHATEAU D'EAU", "sales": 4, "median_price": 210000.0, "median_price_per_sqm": 1926.605504587156, "median_rooms": 2.5, "first_sale": "2024-07-30", "last_sale": "2024-07-30"}}, {"type": "Feature", "geometry": {"type": "Point", "coordinates": [3.194217, 48.617434]}, "properties": {"id_parcelle": "771090000E0102", "address": "33 RUE DE LA FORET", "sales": 4, "median_price": 145000.0, "median_price_per_sqm": 2592.296511627907, "median_rooms": 0.5, "first_sale": "2022-07-15", "last_sale": "2022-07-15"}}, {"type": "Feature", "geometry": {"type": "Point", "coordinates": [3.194487, 48.619452]}, "properties": {"id_parcelle": "771090000E0782", "address": "51 RUE DE LA FORET", "sales": 4, "median_price": 205000.0, "median_price_per_sqm": 2440.4761904761904, "median_rooms": 2.5, "first_sale": "2024-05-13", "last_sale": "2024-05-13"}}, {"type": "Feature", "geometry": {"type": "Point", "coordinates": [3.21592, 48.62406]}, "properties": {"id_parcelle": "77109000YH0032", "address": "4 RUE DE LA SOURCE", "sales": 4, "median_price": 75000.0, "median_price_per_sqm": 714.2857142857143, "median_rooms": 3.0, "first_sale": "2021-07-13", "last_sale": "2021-07-13"}}, {"type": "Feature", "geometry": {"type": "Point", "coordinates": [3.19895, 48.617499]}, "properties": {"id_parcelle": "77109000YE0040", "address": "8 RUE DE LA PLAINE", "sales": 4, "median_price": 200000.0, "median_price_per_sqm": 2439.0243902439024, "median_rooms": 2.0, "first_sale": "2022-07-21", "last_sale": "2022-07-21"}}, {"type": "Feature", "geometry": {"type": "Point", "coordinates": [3.189298, 48.615873]}, "properties": {"id_parcelle": "771090000E1052", "address": "39 RUE DES MESANGES", "sales": 4, "median_price": 264400.0, "median_price_per_sqm": 2381.981981981982, "median_rooms": 3.0, "first_sale": "2025-10-16", "last_sale": "2025-10-16"}}, {"type": "Feature", "geometry": {"type": "Point", "coordinates": [3.174586, 48.597678]}, "properties": {"id_parcelle": "771091490A0287", "address": "21 GRANDE RUE", "sales": 4, "median_price": 352180.0, "median_price_per_sqm": 2886.72131147541, "median_rooms": 0.0, "first_sale": "2025-06-17", "last_sale": "2025-06-17"}}, {"type": "Feature", "geometry": {"type": "Point", "coordinates": [3.184436, 48.615722]}, "properties": {"id_parcelle": "77109000VA0011", "address": "10 RUE DE LA CROIX", "sales": 4, "median_price": 354000.0, "median_price_per_sqm": 2765.625, "median_rooms": 2.5, "first_sale": "2022-10-13", "last_sale": "2022-10-13"}}, {"type": "Feature", "geometry": {"type": "Point", "coordinates": [3.212492, 48.581417]}, "properties": {"id_parcelle": "77109149ZE0019", "address": "SOULORON", "sales": 4, "median_price": 225000.0, "median_price_per_sqm": null, "median_rooms": null, "first_sale": "2025-07-22", "last_sale": "2025-07-22"}}, {"type": "Feature", "geometry": {"type": "Point", "coordinates": [3.191672, 48.583708]}, "properties": {"id_parcelle": "771091490C0462", "address": "8 CHE DU PLESSIS", "sales": 3, "median_price": 230000.0, "median_price_per_sqm": 2911.3924050632913, "median_rooms": 0.0, "first_sale": "2022-09-01", "last_sale": "2022-09-01"}}, {"type": "Feature", "geometry": {"type": "Point", "coordinates": [3.19158, 48.58199]}, "properties": {"id_parcelle": "77109149ZD0027", "address": "LA CROIX L OIGNON", "sales": 3, "median_price": 60000.0, "median_price_per_sqm": null, "median_rooms": null, "first_sale": "2024-01-22", "last_sale": "2024-01-22"}}, {"type": "Feature", "geometry": {"type": "Point", "coordinates": [3.17527, 48.642952]}, "properties": {"id_parcelle": "771090000A0099", "address": "5261 HAUTE FOSSE", "sales": 3, "median_price": 237000.0, "median_price_per_sqm": 1926.8292682926829, "median_rooms": 0.0, "first_sale": "2021-06-07", "last_sale": "2021-06-07"}}, {"type": "Feature", "geometry": {"type": "Point", "coordinates": [3.189899, 48.617686]}, "properties": {"id_parcelle": "771090000E0795", "address": "4 RUE DES FAUVETTES", "sales": 3, "median_price": 149000.0, "median_price_per_sqm": 931.25, "median_rooms": 0.0, "first_sale": "2024-09-10", "last_sale": "2024-09-10"}}, {"type": "Feature", "geometry": {"type": "Point", "coordinates": [3.192082, 48.61576]}, "properties": {"id_parcelle": "771090000E0330", "address": "16 RUE DIMERESSE", "sales": 2, "median_price": 125000.0, "median_price_per_sqm": 1470.5882352941176, "median_rooms": 3.0, "first_sale": "2022-12-02", "last_sale": "2022-12-02"}}, {"type": "Feature", "geometry": {"type": "Point", "coordinates": [3.190483, 48.615689]}, "properties": {"id_parcelle": "771090000E0317", "address": "34 RUE DIMERESSE", "sales": 2, "median_price": 69300.0, "median_price_per_sqm": 587.2881355932203, "median_rooms": 5.0, "first_sale": "2023-06-30", "last_sale": "2024-06-21"}}, {"type": "Feature", "geometry": {"type": "Point", "coordinates": [3.190418, 48.615898]}, "properties": {"id_parcelle": "771090000E0318", "address": "CHENOISE", "sales": 2, "median_price": 69300.0, "median_price_per_sqm": null, "median_rooms": null, "first_sale": "2023-06-30", "last_sale": "2024-06-21"}}, {"type": "Feature", "geometry": {"type": "Point", "coordinates": [3.210722, 48.627645]}, "properties": {"id_parcelle": "771090000C0401", "address": "LES BORDES", "sales": 2, "median_price": 188000.0, "median_price_per_sqm": null, "median_rooms": null, "first_sale": "2024-03-14", "last_sale": "2024-03-14"}}, {"type": "Feature", "geometry": {"type": "Point", "coordinates": [3.208922, 48.627767]}, "properties": {"id_parcelle": "771090000C0390", "address": "3 IMP VERTE", "sales": 2, "median_price": 135000.0, "median_price_per_sqm": 978.2608695652174, "median_rooms": 3.5, "first_sale": "2024-04-09", "last_sale": "2024-04-09"}}, {"type": "Feature", "geometry": {"type": "Point", "coordinates": [3.209315, 48.627872]}, "properties": {"id_parcelle": "771090000C0393", "address": "LES BORDES", "sales": 2, "median_price": 135000.0, "median_price_per_sqm": null, "median_rooms": null, "first_sale": "2024-04-09", "last_sale": "2024-04-09"}}, {"type": "Feature", "geometry": {"type": "Point", "coordinates": [3.208835, 48.627584]}, "properties": {"id_parcelle": "771090000C0391", "address": "LES BORDES", "sales": 2, "median_price": 135000.0, "median_price_per_sqm": null, "median_rooms": null, "first_sale": "2024-04-09", "last_sale": "2024-04-09"}}, {"type": "Feature", "geometry": {"type": "Point", "coordinates": [3.197088, 48.616828]}, "properties": {"id_parcelle": "771090000E0189", "address": "2 RLE DES ROSES", "sales": 2, "median_price": 237050.0, "median_price_per_sqm": 2394.4444444444443, "median_rooms": 2.0, "first_sale": "2021-10-05", "last_sale": "2021-10-05"}}, {"type": "Feature", "geometry": {"type": "Point", "coordinates": [3.196044, 48.61579]}, "properties": {"id_parcelle": "771090000E0232", "address": "16 RUE DES HORTENSIAS", "sales": 2, "median_price": 65000.0, "median_price_per_sqm": 1160.7142857142858, "median_rooms": 1.0, "first_sale": "2022-03-28", "last_sale": "2022-03-28"}}, {"type": "Feature", "geometry": {"type": "Point", "coordinates": [3.195161, 48.615335]}, "properties": {"id_parcelle": "771090000E0242", "address": "5 RUE DU CHATEAU", "sales": 2, "median_price": 182000.0, "median_price_per_sqm": 2419.4328069610056, "median_rooms": 2.0, "first_sale": "2024-03-14", "last_sale": "2024-03-14"}}, {"type": "Feature", "geometry": {"type": "Point", "coordinates": [3.193808, 48.614947]}, "properties": {"id_parcelle": "771090000E0248", "address": "5012 RUE DU PARC", "sales": 2, "median_price": 10000.0, "median_price_per_sqm": null, "median_rooms": 0.0, "first_sale": "2025-12-19", "last_sale": "2025-12-19"}}, {"type": "Feature", "geometry": {"type": "Point", "coordinates": [3.194441, 48.616823]}, "properties": {"id_parcelle": "771090000E0276", "address": "23 RUE DE LA FORET", "sales": 2, "median_price": 105000.0, "median_price_per_sqm": 1326.951951951952, "median_rooms": 2.5, "first_sale": "2022-02-25", "last_sale": "2022-02-25"}}, {"type": "Feature", "geometry": {"type": "Point", "coordinates": [3.198327, 48.616815]}, "properties": {"id_parcelle": "771090000C0731", "address": "2 RUE DE LA PLAINE", "sales": 2, "median_price": 190000.0, "median_price_per_sqm": null, "median_rooms": 0.0, "first_sale": "2025-09-08", "last_sale": "2025-09-08"}}, {"type": "Feature", "geometry": {"type": "Point", "coordinates": [3.196514, 48.617222]}, "properties": {"id_parcelle": "771090000E0134", "address": "5 RLE DES ROSES", "sales": 2, "median_price": 238270.0, "median_price_per_sqm": 3094.4155844155844, "median_rooms": 3.0, "first_sale": "2021-08-26", "last_sale": "2021-08-26"}}, {"type": "Feature", "geometry": {"type": "Point", "coordinates": [3.197087, 48.617114]}, "properties": {"id_parcelle": "771090000E0187", "address": "CHENOISE", "sales": 2, "median_price": 52590.0, "median_price_per_sqm": null, "median_rooms": null, "first_sale": "2022-11-04", "last_sale": "2024-06-21"}}, {"type": "Feature", "geometry": {"type": "Point", "coordinates": [3.193155, 48.615663]}, "properties": {"id_parcelle": "771090000E0743", "address": "CHENOISE", "sales": 2, "median_price": 203950.0, "median_price_per_sqm": null, "median_rooms": null, "first_sale": "2023-02-13", "last_sale": "2024-11-27"}}, {"type": "Feature", "geometry": {"type": "Point", "coordinates": [3.193156, 48.615714]}, "properties": {"id_parcelle": "771090000E0741", "address": "CHENOISE", "sales": 2, "median_price": 203950.0, "median_price_per_sqm": null, "median_rooms": null, "first_sale": "2023-02-13", "last_sale": "2024-11-27"}}, {"type": "Feature", "geometry": {"type": "Point", "coordinates": [3.193226, 48.61573]}, "properties": {"id_parcelle": "771090000E0739", "address": "CHENOISE", "sales": 2, "median_price": 203950.0, "median_price_per_sqm": null, "median_rooms": null, "first_sale": "2023-02-13", "last_sale": "2024-11-27"}}, {"type": "Feature", "geometry": {"type": "Point", "coordinates": [3.195699, 48.611443]}, "properties": {"id_parcelle": "771090000E0705", "address": "1 RUE DU STADE", "sales": 2, "median_price": 235000.0, "median_price_per_sqm": 2079.646017699115, "median_rooms": 2.0, "first_sale": "2021-12-17", "last_sale": "2021-12-17"}}, {"type": "Feature", "geometry": {"type": "Point", "coordinates": [3.194181, 48.617001]}, "properties": {"id_parcelle": "771090000E0658", "address": "27 RUE DE LA FORET", "sales": 2, "median_price": 175500.0, "median_price_per_sqm": 2193.75, "median_rooms": 2.5, "first_sale": "2022-07-01", "last_sale": "2022-07-01"}}, {"type": "Feature", "geometry": {"type": "Point", "coordinates": [3.193208, 48.615759]}, "properties": {"id_parcelle": "771090000E0673", "address": "CHENOISE", "sales": 2, "median_price": 203950.0, "median_price_per_sqm": null, "median_rooms": null, "first_sale": "2023-02-13", "last_sale": "2024-11-27"}}, {"type": "Feature", "geometry": {"type": "Point", "coordinates": [3.193285, 48.615615]}, "properties": {"id_parcelle": "771090000E0556", "address": "CHENOISE", "sales": 2, "median_price": 203950.0, "median_price_per_sqm": null, "median_rooms": null, "first_sale": "2023-02-13", "last_sale": "2024-11-27"}}, {"type": "Feature", "geometry": {"type": "Point", "coordinates": [3.195162, 48.610033]}, "properties": {"id_parcelle": "771090000E0625", "address": "12 RUE DES BOULEAUX", "sales": 2, "median_price": 247300.0, "median_price_per_sqm": 2208.035714285714, "median_rooms": 5.0, "first_sale": "2023-09-14", "last_sale": "2023-09-14"}}, {"type": "Feature", "geometry": {"type": "Point", "coordinates": [3.193462, 48.615702]}, "properties": {"id_parcelle": "771090000E0352", "address": "CHENOISE", "sales": 2, "median_price": 203950.0, "median_price_per_sqm": null, "median_rooms": null, "first_sale": "2023-02-13", "last_sale": "2024-11-27"}}, {"type": "Feature", "geometry": {"type": "Point", "coordinates": [3.193457, 48.615644]}, "properties": {"id_parcelle": "771090000E0353", "address": "CHENOISE", "sales": 2, "median_price": 203950.0, "median_price_per_sqm": null, "median_rooms": null, "first_sale": "2023-02-13", "last_sale": "2024-11-27"}}, {"type": "Feature", "geometry": {"type": "Point", "coordinates": [3.189473, 48.614996]}, "properties": {"id_parcelle": "771090000E0423", "address": "5040 RUE DES THUYAS", "sales": 2, "median_price": 10000.0, "median_price_per_sqm": null, "median_rooms": 0.0, "first_sale": "2023-01-25", "last_sale": "2023-01-25"}}, {"type": "Feature", "geometry": {"type": "Point", "coordinates": [3.190674, 48.61541]}, "properties": {"id_parcelle": "771090000E0415", "address": "27 RUE DIMERESSE", "sales": 2, "median_price": 215950.0, "median_price_per_sqm": 3320.7595526561045, "median_rooms": 2.0, "first_sale": "2021-06-15", "last_sale": "2021-06-15"}}, {"type": "Feature", "geometry": {"type": "Point", "coordinates": [3.193459, 48.615752]}, "properties": {"id_parcelle": "771090000E0351", "address": "CHENOISE", "sales": 2, "median_price": 203950.0, "median_price_per_sqm": null, "median_rooms": null, "first_sale": "2023-02-13", "last_sale": "2024-11-27"}}, {"type": "Feature", "geometry": {"type": "Point", "coordinates": [3.189519, 48.617054]}, "properties": {"id_parcelle": "771090000E0855", "address": "24 RUE DES MESANGES", "sales": 2, "median_price": 125000.0, "median_price_per_sqm": 2083.3333333333335, "median_rooms": 3.0, "first_sale": "2021-03-29", "last_sale": "2021-03-29"}}, {"type": "Feature", "geometry": {"type": "Point", "coordinates": [3.190768, 48.615303]}, "properties": {"id_parcelle": "771090000E0900", "address": "5058 RUE DIMERESSE", "sales": 2, "median_price": 215950.0, "median_price_per_sqm": null, "median_rooms": 0.0, "first_sale": "2021-06-15", "last_sale": "2021-06-15"}}, {"type": "Feature", "geometry": {"type": "Point", "coordinates": [3.193123, 48.618282]}, "properties": {"id_parcelle": "771090000E0829", "address": "16 RUE DE LA TUILERIE", "sales": 2, "median_price": 210000.0, "median_price_per_sqm": 2038.8349514563106, "median_rooms": 2.5, "first_sale": "2022-05-23", "last_sale": "2022-05-23"}}, {"type": "Feature", "geometry": {"type": "Point", "coordinates": [3.197194, 48.616937]}, "properties": {"id_parcelle": "771090000E1146", "address": "CHENOISE", "sales": 2, "median_price": 88090.0, "median_price_per_sqm": null, "median_rooms": null, "first_sale": "2022-10-08", "last_sale": "2024-06-21"}}, {"type": "Feature", "geometry": {"type": "Point", "coordinates": [3.197341, 48.617027]}, "properties": {"id_parcelle": "771090000E1145", "address": "CHENOISE", "sales": 2, "median_price": 88090.0, "median_price_per_sqm": null, "median_rooms": null, "first_sale": "2022-10-08", "last_sale": "2024-06-21"}}, {"type": "Feature", "geometry": {"type": "Point", "coordinates": [3.194128, 48.618917]}, "properties": {"id_parcelle": "771090000E1099", "address": "10 RUE DU VIVIER", "sales": 2, "median_price": 235000.0, "median_price_per_sqm": null, "median_rooms": null, "first_sale": "2021-03-24", "last_sale": "2021-03-24"}}, {"type": "Feature", "geometry": {"type": "Point", "coordinates": [3.19092, 48.617536]}, "properties": {"id_parcelle": "771090000E0928", "address": "4 RES DU CHATEAU D'EAU", "sales": 2, "median_price": 260000.0, "median_price_per_sqm": 2549.0196078431372, "median_rooms": 3.0, "first_sale": "2024-04-29", "last_sale": "2024-04-29"}}, {"type": "Feature", "geometry": {"type": "Point", "coordinates": [3.182299, 48.614293]}, "properties": {"id_parcelle": "771090000F0372", "address": "9 RUE DE LA CROIX", "sales": 2, "median_price": 277000.0, "median_price_per_sqm": 1822.3684210526317, "median_rooms": 7.0, "first_sale": "2021-05-17", "last_sale": "2023-04-24"}}, {"type": "Feature", "geometry": {"type": "Point", "coordinates": [3.182626, 48.616061]}, "properties": {"id_parcelle": "771090000F0345", "address": "14 RUE DE L ETANG MALIN", "sales": 2, "median_price": 235000.0, "median_price_per_sqm": 2281.5533980582522, "median_rooms": 5.0, "first_sale": "2021-03-06", "last_sale": "2021-03-06"}}, {"type": "Feature", "geometry": {"type": "Point", "coordinates": [3.19278, 48.612287]}, "properties": {"id_parcelle": "771090000E1171", "address": "5879 RUE DU STADE", "sales": 2, "median_price": 66098.5, "median_price_per_sqm": 322.4317073170732, "median_rooms": 0.0, "first_sale": "2024-04-22", "last_sale": "2024-10-01"}}, {"type": "Feature", "geometry": {"type": "Point", "coordinates": [3.182128, 48.614393]}, "properties": {"id_parcelle": "771090000F0105", "address": "11 RUE DE LA CROIX", "sales": 2, "median_price": 230000.0, "median_price_per_sqm": 3194.4444444444443, "median_rooms": 2.0, "first_sale": "2022-10-28", "last_sale": "2022-10-28"}}, {"type": "Feature", "geometry": {"type": "Point", "coordinates": [3.193607, 48.619947]}, "properties": {"id_parcelle": "77109000VA0233", "address": "27 RUE DE LA TUILERIE", "sales": 2, "median_price": 83000.0, "median_price_per_sqm": 813.7254901960785, "median_rooms": 4.0, "first_sale": "2022-04-14", "last_sale": "2022-04-14"}}, {"type": "Feature", "geometry": {"type": "Point", "coordinates": [3.182486, 48.614192]}, "properties": {"id_parcelle": "771090000F0375", "address": "LA CROIX DE CHENOISE", "sales": 2, "median_price": 277000.0, "median_price_per_sqm": null, "median_rooms": null, "first_sale": "2021-05-17", "last_sale": "2023-04-24"}}, {"type": "Feature", "geometry": {"type": "Point", "coordinates": [3.211547, 48.629589]}, "properties": {"id_parcelle": "77109000YH0034", "address": "LA GARENNE D ENFER", "sales": 2, "median_price": 110000.0, "median_price_per_sqm": null, "median_rooms": null, "first_sale": "2021-01-19", "last_sale": "2021-01-19"}}, {"type": "Feature", "geometry": {"type": "Point", "coordinates": [3.193956, 48.610226]}, "properties": {"id_parcelle": "771090000E0880", "address": "9 PL DES MARRONNIERS", "sales": 2, "median_price": 209000.0, "median_price_per_sqm": 1917.4311926605506, "median_rooms": 3.0, "first_sale": "2024-08-29", "last_sale": "2024-08-29"}}, {"type": "Feature", "geometry": {"type": "Point", "coordinates": [3.191556, 48.618548]}, "properties": {"id_parcelle": "771090000E0813", "address": "3 RUE DU CHATEAU D'EAU", "sales": 2, "median_price": 240000.0, "median_price_per_sqm": 1643.835616438356, "median_rooms": 5.0, "first_sale": "2021-01-12", "last_sale": "2021-01-12"}}, {"type": "Feature", "geometry": {"type": "Point", "coordinates": [3.193009, 48.618638]}, "properties": {"id_parcelle": "771090000E0827", "address": "20 RUE DE LA TUILERIE", "sales": 2, "median_price": 289000.0, "median_price_per_sqm": 2223.076923076923, "median_rooms": 2.5, "first_sale": "2023-06-05", "last_sale": "2023-06-05"}}, {"type": "Feature", "geometry": {"type": "Point", "coordinates": [3.189895, 48.617089]}, "properties": {"id_parcelle": "771090000E0799", "address": "1 RUE DES FAUVETTES", "sales": 2, "median_price": 180000.0, "median_price_per_sqm": 1818.1818181818182, "median_rooms": 2.5, "first_sale": "2024-11-27", "last_sale": "2024-11-27"}}, {"type": "Feature", "geometry": {"type": "Point", "coordinates": [3.189747, 48.617823]}, "properties": {"id_parcelle": "771090000E0794", "address": "5 RUE DES FAUVETTES", "sales": 2, "median_price": 229950.0, "median_price_per_sqm": 2583.7078651685392, "median_rooms": 2.0, "first_sale": "2025-06-24", "last_sale": "2025-06-24"}}, {"type": "Feature", "geometry": {"type": "Point", "coordinates": [3.173813, 48.597463]}, "properties": {"id_parcelle": "771091490A0280", "address": "15 GR GRANDE RUE", "sales": 2, "median_price": 190000.0, "median_price_per_sqm": 3454.5454545454545, "median_rooms": 1.5, "first_sale": "2024-05-24", "last_sale": "2024-05-24"}}, {"type": "Feature", "geometry": {"type": "Point", "coordinates": [3.173643, 48.597834]}, "properties": {"id_parcelle": "771091490A0279", "address": "LE PLESSIS AUX TOURNELLES", "sales": 2, "median_price": 190000.0, "median_price_per_sqm": null, "median_rooms": null, "first_sale": "2024-05-24", "last_sale": "2024-05-24"}}, {"type": "Feature", "geometry": {"type": "Point", "coordinates": [3.173648, 48.597429]}, "properties": {"id_parcelle": "771091490A0277", "address": "13 GR GRANDE RUE", "sales": 2, "median_price": 270000.0, "median_price_per_sqm": 1560.6936416184972, "median_rooms": 3.0, "first_sale": "2022-08-04", "last_sale": "2022-08-04"}}, {"type": "Feature", "geometry": {"type": "Point", "coordinates": [3.17324, 48.593526]}, "properties": {"id_parcelle": "771091490A0217", "address": "ANC CHAT DU PLESSIS TOURNE", "sales": 2, "median_price": 320966.4, "median_price_per_sqm": null, "median_rooms": null, "first_sale": "2025-02-07", "last_sale": "2025-02-07"}}, {"type": "Feature", "geometry": {"type": "Point", "coordinates": [3.198498, 48.61791]}, "properties": {"id_parcelle": "77109000YE0059", "address": "9 RUE DE LA PLAINE", "sales": 2, "median_price": 266350.0, "median_price_per_sqm": 1740.8496732026144, "median_rooms": 6.0, "first_sale": "2022-07-19", "last_sale": "2022-07-19"}}, {"type": "Feature", "geometry": {"type": "Point", "coordinates": [3.171341, 48.597411]}, "properties": {"id_parcelle": "771091490A0359", "address": "44 RUE DE LA MERCY", "sales": 2, "median_price": 225000.0, "median_price_per_sqm": 1691.7293233082708, "median_rooms": 2.0, "first_sale": "2025-02-27", "last_sale": "2025-02-27"}}, {"type": "Feature", "geometry": {"type": "Point", "coordinates": [3.17622, 48.597821]}, "properties": {"id_parcelle": "771091490A0399", "address": "LE PLESSIS AUX TOURNELLES", "sales": 2, "median_price": 224000.0, "median_price_per_sqm": null, "median_rooms": null, "first_sale": "2025-12-03", "last_sale": "2025-12-03"}}, {"type": "Feature", "geometry": {"type": "Point", "coordinates": [3.174259, 48.595702]}, "properties": {"id_parcelle": "771091490A0324", "address": "14 RUE DE LA MERCY", "sales": 2, "median_price": 210000.0, "median_price_per_sqm": 1050.0, "median_rooms": 3.0, "first_sale": "2025-07-09", "last_sale": "2025-07-09"}}, {"type": "Feature", "geometry": {"type": "Point", "coordinates": [3.175926, 48.597727]}, "properties": {"id_parcelle": "771091490A0408", "address": "31 GRANDE RUE", "sales": 2, "median_price": 224000.0, "median_price_per_sqm": 1696.969696969697, "median_rooms": 3.0, "first_sale": "2025-12-03", "last_sale": "2025-12-03"}}, {"type": "Feature", "geometry": {"type": "Point", "coordinates": [3.171913, 48.594253]}, "properties": {"id_parcelle": "771091490A0504", "address": "34 RUE DE LA MAIRIE", "sales": 2, "median_price": 320966.4, "median_price_per_sqm": 930.073090909091, "median_rooms": 3.0, "first_sale": "2025-02-07", "last_sale": "2025-02-07"}}, {"type": "Feature", "geometry": {"type": "Point", "coordinates": [3.195273, 48.581687]}, "properties": {"id_parcelle": "771091490C0248", "address": "CUCHARMOY", "sales": 2, "median_price": 26500.0, "median_price_per_sqm": null, "median_rooms": null, "first_sale": "2022-01-28", "last_sale": "2024-09-05"}}, {"type": "Feature", "geometry": {"type": "Point", "coordinates": [3.195162, 48.581343]}, "properties": {"id_parcelle": "771091490C0465", "address": "35 RUE DU VILLAGE", "sales": 2, "median_price": 155000.0, "median_price_per_sqm": 968.75, "median_rooms": 3.0, "first_sale": "2022-05-13", "last_sale": "2022-05-13"}}, {"type": "Feature", "geometry": {"type": "Point", "coordinates": [3.193619, 48.582317]}, "properties": {"id_parcelle": "771091490C0474", "address": "10 RUE DU PUITS CERVEAU", "sales": 2, "median_price": 119120.0, "median_price_per_sqm": 1890.7936507936508, "median_rooms": 1.5, "first_sale": "2024-11-19", "last_sale": "2024-11-19"}}, {"type": "Feature", "geometry": {"type": "Point", "coordinates": [3.193637, 48.581735]}, "properties": {"id_parcelle": "771091490C0484", "address": "26 RUE DU VILLAGE", "sales": 2, "median_price": 197500.0, "median_price_per_sqm": 2057.2916666666665, "median_rooms": 4.0, "first_sale": "2025-12-11", "last_sale": "2025-12-11"}}, {"type": "Feature", "geometry": {"type": "Point", "coordinates": [3.172675, 48.592291]}, "properties": {"id_parcelle": "771091490A0466", "address": "34 RUE DE LA MAIRIE", "sales": 2, "median_price": 285000.0, "median_price_per_sqm": 1867.5213675213674, "median_rooms": 3.0, "first_sale": "2025-03-31", "last_sale": "2025-03-31"}}, {"type": "Feature", "geometry": {"type": "Point", "coordinates": [3.174211, 48.595865]}, "properties": {"id_parcelle": "771091490A0325", "address": "LE PLESSIS AUX TOURNELLES", "sales": 2, "median_price": 210000.0, "median_price_per_sqm": null, "median_rooms": null, "first_sale": "2025-07-09", "last_sale": "2025-07-09"}}, {"type": "Feature", "geometry": {"type": "Point", "coordinates": [3.19626, 48.583793]}, "properties": {"id_parcelle": "771091490C0518", "address": "28 RUE DE LA BROSSE", "sales": 2, "median_price": 270000.0, "median_price_per_sqm": 2250.0, "median_rooms": 2.0, "first_sale": "2022-07-13", "last_sale": "2022-07-13"}}, {"type": "Feature", "geometry": {"type": "Point", "coordinates": [3.192923, 48.583456]}, "properties": {"id_parcelle": "771091490C0490", "address": "9 RLE DES GUES", "sales": 2, "median_price": 295000.0, "median_price_per_sqm": 1418.2692307692307, "median_rooms": 4.0, "first_sale": "2021-12-09", "last_sale": "2021-12-09"}}, {"type": "Feature", "geometry": {"type": "Point", "coordinates": [3.193877, 48.582655]}, "properties": {"id_parcelle": "771091490C0577", "address": "11 RUE DU PUITS CERVEAU", "sales": 2, "median_price": 99000.0, "median_price_per_sqm": 2152.173913043478, "median_rooms": 2.0, "first_sale": "2021-04-22", "last_sale": "2024-01-17"}}, {"type": "Feature", "geometry": {"type": "Point", "coordinates": [3.194049, 48.582687]}, "properties": {"id_parcelle": "771091490C0579", "address": "13 RUE DU PUITS CERVEAU", "sales": 2, "median_price": 99000.0, "median_price_per_sqm": 1375.0, "median_rooms": 1.5, "first_sale": "2021-08-03", "last_sale": "2021-08-03"}}, {"type": "Feature", "geometry": {"type": "Point", "coordinates": [3.188577, 48.587996]}, "properties": {"id_parcelle": "77109149ZC0018", "address": "LE VIEUX MOULIN CUCHARMOY", "sales": 2, "median_price": 60000.0, "median_price_per_sqm": null, "median_rooms": null, "first_sale": "2023-04-24", "last_sale": "2023-04-24"}}, {"type": "Feature", "geometry": {"type": "Point", "coordinates": [3.193351, 48.591613]}, "properties": {"id_parcelle": "77109149ZC0022", "address": "SAINT PIERRE AUX BOEUFS", "sales": 2, "median_price": 60000.0, "median_price_per_sqm": null, "median_rooms": null, "first_sale": "2023-04-24", "last_sale": "2023-04-24"}}, {"type": "Feature", "geometry": {"type": "Point", "coordinates": [3.164541, 48.604145]}, "properties": {"id_parcelle": "77109149ZB0001", "address": "LUGEME", "sales": 2, "median_price": 28000.0, "median_price_per_sqm": null, "median_rooms": null, "first_sale": "2024-09-23", "last_sale": "2024-09-23"}}, {"type": "Feature", "geometry": {"type": "Point", "coordinates": [3.18573, 48.594862]}, "properties": {"id_parcelle": "77109149ZC0012", "address": "LES CHATELOTS", "sales": 2, "median_price": 28000.0, "median_price_per_sqm": null, "median_rooms": null, "first_sale": "2024-09-23", "last_sale": "2024-09-23"}}, {"type": "Feature", "geometry": {"type": "Point", "coordinates": [3.175515, 48.580829]}, "properties": {"id_parcelle": "77109149ZD0002", "address": "LA JUSTICE", "sales": 2, "median_price": 225000.0, "median_price_per_sqm": null, "median_rooms": null, "first_sale": "2025-07-22", "last_sale": "2025-07-22"}}, {"type": "Feature", "geometry": {"type": "Point", "coordinates": [3.192635, 48.59227]}, "properties": {"id_parcelle": "77109149ZC0023", "address": "SAINT PIERRE AUX BOEUFS", "sales": 2, "median_price": 60000.0, "median_price_per_sqm": null, "median_rooms": null, "first_sale": "2024-01-22", "last_sale": "2024-01-22"}}, {"type": "Feature", "geometry": {"type": "Point", "coordinates": [3.188925, 48.579737]}, "properties": {"id_parcelle": "77109149ZD0029", "address": "LA CROIX L OIGNON", "sales": 2, "median_price": 225000.0, "median_price_per_sqm": null, "median_rooms": null, "first_sale": "2025-07-22", "last_sale": "2025-07-22"}}, {"type": "Feature", "geometry": {"type": "Point", "coordinates": [3.184678, 48.585891]}, "properties": {"id_parcelle": "77109149ZD0009", "address": "LA VIGNOTTE CUCHARMOY", "sales": 2, "median_price": 60000.0, "median_price_per_sqm": null, "median_rooms": null, "first_sale": "2024-01-22", "last_sale": "2024-01-22"}}, {"type": "Feature", "geometry": {"type": "Point", "coordinates": [3.186051, 48.578159]}, "properties": {"id_parcelle": "77109149ZD0030", "address": "LE MERISIER", "sales": 2, "median_price": 225000.0, "median_price_per_sqm": null, "median_rooms": null, "first_sale": "2025-07-22", "last_sale": "2025-07-22"}}, {"type": "Feature", "geometry": {"type": "Point", "coordinates": [3.177381, 48.578813]}, "properties": {"id_parcelle": "77109149ZD0047", "address": "LA BUTTE", "sales": 2, "median_price": 225000.0, "median_price_per_sqm": null, "median_rooms": null, "first_sale": "2025-07-22", "last_sale": "2025-07-22"}}, {"type": "Feature", "geometry": {"type": "Point", "coordinates": [3.195529, 48.579202]}, "properties": {"id_parcelle": "77109149ZE0006", "address": "LA POINTE AU CURE", "sales": 2, "median_price": 225000.0, "median_price_per_sqm": null, "median_rooms": null, "first_sale": "2025-07-22", "last_sale": "2025-07-22"}}, {"type": "Feature", "geometry": {"type": "Point", "coordinates": [3.195849, 48.58086]}, "properties": {"id_parcelle": "77109149ZE0010", "address": "LA POINTE AU CURE", "sales": 2, "median_price": 60000.0, "median_price_per_sqm": null, "median_rooms": null, "first_sale": "2023-04-24", "last_sale": "2023-04-24"}}]}