{"type": "FeatureCollection", "features": [{"type": "Feature", "geometry": {"type": "Polygon", "coordinates": [[[2.597473, 48.666163], [2.597121, 48.666036], [2.597081, 48.665907], [2.596823, 48.665738], [2.595827, 48.665049], [2.596147, 48.664754], [2.596612, 48.66498], [2.596792, 48.665102], [2.596961, 48.665269], [2.597249, 48.665455], [2.597767, 48.665749], [2.598224, 48.666056], [2.598643, 48.66631], [2.598802, 48.666381], [2.599115, 48.666387], [2.60055, 48.664622], [2.600768, 48.663744], [2.600839, 48.66373], [2.602223, 48.663771], [2.603066, 48.663741], [2.607624, 48.66342], [2.610187, 48.662601], [2.612676, 48.662038], [2.612696, 48.664337], [2.612548, 48.665009], [2.613122, 48.665288], [2.613556, 48.664215], [2.613754, 48.663493], [2.613857, 48.663013], [2.614003, 48.662191], [2.614187, 48.661296], [2.614644, 48.659409], [2.614874, 48.658428], [2.615033, 48.657974], [2.615336, 48.657494], [2.615739, 48.656959], [2.616255, 48.656219], [2.617231, 48.654874], [2.61755, 48.654393], [2.619232, 48.652068], [2.619625, 48.651516], [2.619138, 48.651357], [2.618586, 48.651846], [2.617806, 48.65236], [2.617259, 48.652664], [2.617016, 48.652744], [2.616328, 48.652868], [2.615421, 48.652768], [2.61468, 48.652478], [2.61371, 48.651898], [2.612921, 48.651382], [2.611675, 48.650416], [2.610773, 48.649731], [2.61001, 48.64919], [2.609197, 48.648689], [2.608318, 48.648236], [2.60738, 48.647842], [2.606946, 48.64765], [2.607032, 48.647581], [2.607434, 48.646288], [2.60751, 48.646116], [2.607597, 48.646075], [2.608519, 48.643113], [2.604145, 48.642952], [2.59181, 48.642554], [2.59231, 48.64325], [2.592677, 48.643789], [2.593987, 48.645764], [2.594222, 48.646142], [2.582233, 48.646505], [2.578139, 48.646603], [2.576255, 48.646637], [2.574251, 48.646685], [2.572925, 48.644005], [2.572824, 48.643862], [2.568361, 48.643528], [2.567594, 48.642546], [2.563126, 48.643565], [2.561768, 48.643922], [2.56169, 48.644126], [2.560678, 48.644216], [2.560274, 48.644233], [2.559208, 48.644545], [2.557816, 48.644643], [2.556331, 48.644773], [2.55605, 48.644491], [2.553836, 48.644977], [2.55294, 48.645163], [2.550467, 48.645617], [2.549386, 48.645007], [2.548998, 48.647099], [2.548909, 48.647444], [2.548496, 48.648555], [2.548359, 48.648848], [2.54794, 48.649662], [2.547667, 48.650223], [2.547597, 48.650408], [2.547522, 48.650734], [2.547373, 48.651502], [2.546689, 48.651607], [2.546264, 48.651615], [2.545838, 48.651594], [2.545538, 48.651552], [2.544798, 48.651289], [2.544369, 48.651256], [2.544292, 48.65135], [2.544336, 48.651476], [2.544189, 48.651571], [2.543996, 48.651497], [2.54376, 48.651528], [2.542137, 48.651486], [2.541212, 48.651471], [2.540349, 48.652092], [2.539739, 48.652448], [2.539555, 48.652691], [2.538225, 48.653717], [2.537218, 48.654427], [2.535362, 48.655808], [2.533413, 48.657253], [2.538151, 48.659614], [2.534849, 48.662051], [2.538654, 48.663554], [2.539084, 48.663927], [2.539882, 48.664316], [2.539986, 48.665541], [2.54013, 48.665346], [2.54031, 48.664865], [2.54068, 48.665362], [2.541108, 48.66581], [2.541862, 48.666751], [2.542031, 48.666974], [2.543192, 48.668382], [2.54331, 48.668572], [2.543247, 48.668632], [2.544233, 48.669227], [2.544471, 48.669336], [2.545506, 48.669641], [2.545442, 48.6698], [2.544795, 48.67107], [2.545058, 48.671156], [2.545157, 48.671233], [2.545603, 48.671311], [2.546459, 48.671519], [2.546595, 48.671565], [2.547554, 48.671798], [2.54791, 48.670672], [2.548021, 48.670386], [2.548194, 48.670095], [2.548356, 48.669985], [2.5486, 48.669889], [2.548818, 48.669672], [2.548837, 48.669601], [2.549096, 48.66924], [2.549265, 48.669135], [2.549724, 48.669039], [2.549813, 48.668971], [2.550038, 48.668996], [2.550164, 48.669105], [2.550438, 48.669249], [2.550723, 48.669502], [2.550925, 48.669778], [2.551238, 48.67026], [2.551763, 48.670952], [2.551892, 48.67134], [2.552217, 48.672635], [2.552207, 48.672943], [2.552247, 48.673447], [2.55233, 48.673787], [2.552469, 48.674053], [2.55277, 48.674298], [2.553105, 48.674504], [2.554062, 48.675152], [2.554761, 48.67556], [2.555623, 48.675953], [2.555885, 48.676039], [2.556062, 48.676049], [2.556381, 48.675901], [2.556714, 48.675984], [2.556928, 48.675964], [2.557127, 48.675869], [2.557451, 48.675642], [2.557744, 48.675347], [2.557926, 48.674936], [2.557876, 48.674589], [2.557966, 48.674324], [2.558409, 48.673709], [2.558744, 48.67317], [2.559136, 48.672608], [2.559513, 48.672225], [2.560052, 48.671743], [2.560386, 48.671424], [2.560764, 48.670882], [2.561126, 48.670311], [2.561658, 48.669657], [2.562657, 48.668614], [2.563015, 48.668189], [2.563346, 48.66789], [2.56363, 48.66775], [2.56506, 48.667216], [2.565273, 48.667202], [2.565631, 48.667256], [2.56616, 48.667243], [2.567356, 48.667053], [2.567695, 48.666836], [2.567989, 48.666732], [2.568624, 48.666664], [2.569006, 48.666725], [2.569186, 48.666811], [2.569955, 48.667276], [2.570184, 48.667446], [2.570749, 48.667993], [2.570873, 48.668128], [2.571199, 48.668307], [2.571727, 48.668425], [2.571848, 48.668619], [2.571994, 48.669979], [2.571844, 48.670123], [2.571604, 48.670235], [2.571329, 48.670418], [2.571059, 48.670703], [2.570832, 48.671061], [2.570696, 48.671584], [2.570506, 48.672169], [2.570453, 48.672485], [2.570463, 48.672929], [2.570503, 48.673182], [2.570669, 48.67374], [2.570863, 48.674252], [2.571049, 48.674945], [2.571157, 48.675077], [2.571382, 48.675213], [2.572336, 48.675518], [2.572578, 48.675634], [2.572758, 48.675774], [2.57323, 48.676033], [2.573643, 48.676164], [2.573896, 48.676464], [2.574158, 48.676603], [2.574548, 48.676731], [2.575434, 48.67689], [2.576362, 48.67711], [2.576537, 48.677187], [2.577072, 48.67732], [2.578065, 48.677498], [2.578904, 48.677678], [2.57943, 48.677819], [2.579704, 48.67785], [2.580264, 48.677881], [2.581241, 48.677808], [2.582209, 48.677797], [2.58251, 48.677768], [2.583063, 48.67776], [2.583249, 48.677711], [2.583902, 48.677287], [2.584302, 48.676682], [2.584762, 48.67634], [2.584924, 48.676124], [2.585029, 48.675441], [2.585298, 48.674901], [2.585297, 48.67456], [2.585158, 48.674038], [2.585021, 48.673751], [2.584885, 48.673571], [2.584231, 48.672998], [2.583604, 48.672729], [2.583332, 48.67255], [2.583194, 48.672173], [2.583193, 48.671831], [2.583164, 48.671507], [2.583053, 48.670986], [2.583052, 48.670699], [2.583184, 48.669853], [2.583426, 48.66935], [2.583425, 48.669165], [2.583695, 48.668944], [2.583577, 48.668767], [2.583504, 48.668517], [2.583411, 48.66844], [2.58314, 48.668412], [2.583171, 48.668232], [2.583516, 48.667776], [2.583712, 48.667489], [2.583759, 48.667352], [2.584905, 48.666398], [2.585553, 48.665966], [2.586122, 48.665676], [2.586664, 48.665334], [2.586988, 48.665189], [2.587557, 48.664991], [2.587991, 48.664899], [2.588399, 48.664899], [2.58913, 48.664753], [2.589428, 48.664663], [2.589807, 48.66441], [2.590132, 48.664301], [2.590647, 48.664211], [2.591136, 48.66421], [2.592222, 48.664423], [2.592955, 48.664422], [2.594204, 48.664365], [2.594448, 48.664437], [2.594911, 48.664866], [2.595131, 48.665262], [2.596556, 48.666036], [2.596573, 48.666097], [2.59685, 48.666308], [2.596984, 48.666356], [2.597199, 48.666344], [2.597473, 48.666163]]]}, "properties": {"code_iris": "771220000", "nom_iris": "Combs-la-Ville (commune entière)", "type_iris": "Z", "lat": 48.6602, "lng": 2.5765, "dvf_sales_total": 3825, "dvf_sales_appt": 0, "dvf_sales_maison": 0, "dvf_median_price": 245000.0, "dvf_median_ppsqm": 3372.093023255814, "dvf_by_year": "[{\"year\": 2021, \"sales\": 1309, \"median_price\": 315000.0}, {\"year\": 2022, \"sales\": 742, \"median_price\": 233750.0}, {\"year\": 2023, \"sales\": 595, \"median_price\": 213400.0}, {\"year\": 2024, \"sales\": 523, \"median_price\": 228000.0}, {\"year\": 2025, \"sales\": 656, \"median_price\": 216805.0}]", "population": 23350, "n_log": null, "n_rp": null, "pct_proprio": null, "pct_hlm": null, "pct_appart": null, "pct_cadres": null, "pct_bac5p": null, "pct_etrangers": null, "pct_0_14": null, "pct_65p": null, "bpe_total": null, "bpe_commerces": null, "bpe_enseignement": null, "bpe_sante": null, "dpe": null, "attractivity_score": null, "rank_attractivity_score": null, "rank_total_attractivity_score": 1, "commune_avg": null, "is_stub": true}}]}