{"type": "FeatureCollection", "features": [{"type": "Feature", "geometry": {"type": "Point", "coordinates": [3.16859, 48.511024500000005]}, "properties": {"street_name": "SOGNOLLES", "sales": 68, "sales_appt": 0, "sales_maison": 0, "median_price": 227900.0, "median_price_per_sqm": null, "turnover_score": 100.0, "turnover_rank": 1, "first_year": 2021, "last_year": 2025, "years_active": 5}}, {"type": "Feature", "geometry": {"type": "Point", "coordinates": [3.169385, 48.510594]}, "properties": {"street_name": "RUE DE THENISY", "sales": 31, "sales_appt": 0, "sales_maison": 12, "median_price": 320000.0, "median_price_per_sqm": 2162.162162162162, "turnover_score": 45.6, "turnover_rank": 2, "first_year": 2021, "last_year": 2025, "years_active": 4}}, {"type": "Feature", "geometry": {"type": "Point", "coordinates": [3.157784, 48.508171]}, "properties": {"street_name": "LA CROYOTTE", "sales": 23, "sales_appt": 0, "sales_maison": 0, "median_price": 38000.0, "median_price_per_sqm": null, "turnover_score": 33.8, "turnover_rank": 3, "first_year": 2023, "last_year": 2025, "years_active": 2}}, {"type": "Feature", "geometry": {"type": "Point", "coordinates": [3.1758154999999997, 48.5109225]}, "properties": {"street_name": "LA PORTE D EN BAS", "sales": 14, "sales_appt": 0, "sales_maison": 0, "median_price": 215000.0, "median_price_per_sqm": null, "turnover_score": 20.6, "turnover_rank": 4, "first_year": 2022, "last_year": 2025, "years_active": 2}}, {"type": "Feature", "geometry": {"type": "Point", "coordinates": [3.164846, 48.510747]}, "properties": {"street_name": "RUE DE CESSOY", "sales": 14, "sales_appt": 0, "sales_maison": 9, "median_price": 207000.0, "median_price_per_sqm": 1666.6666666666667, "turnover_score": 20.6, "turnover_rank": 4, "first_year": 2021, "last_year": 2025, "years_active": 4}}, {"type": "Feature", "geometry": {"type": "Point", "coordinates": [3.186975, 48.514559]}, "properties": {"street_name": "LA MAROLLE", "sales": 8, "sales_appt": 0, "sales_maison": 0, "median_price": 167400.0, "median_price_per_sqm": null, "turnover_score": 11.8, "turnover_rank": 5, "first_year": 2023, "last_year": 2025, "years_active": 3}}, {"type": "Feature", "geometry": {"type": "Point", "coordinates": [3.138273, 48.524528]}, "properties": {"street_name": "COURTEMONT", "sales": 8, "sales_appt": 0, "sales_maison": 2, "median_price": 680000.0, "median_price_per_sqm": 3349.753694581281, "turnover_score": 11.8, "turnover_rank": 5, "first_year": 2024, "last_year": 2024, "years_active": 1}}, {"type": "Feature", "geometry": {"type": "Point", "coordinates": [3.182137, 48.5043915]}, "properties": {"street_name": "LES MARTEAUX", "sales": 8, "sales_appt": 0, "sales_maison": 0, "median_price": 2620.0, "median_price_per_sqm": null, "turnover_score": 11.8, "turnover_rank": 5, "first_year": 2025, "last_year": 2025, "years_active": 1}}, {"type": "Feature", "geometry": {"type": "Point", "coordinates": [3.166504, 48.510642]}, "properties": {"street_name": "CHE DES MURGERS", "sales": 7, "sales_appt": 0, "sales_maison": 4, "median_price": 185000.0, "median_price_per_sqm": 2139.8354876615745, "turnover_score": 10.3, "turnover_rank": 6, "first_year": 2021, "last_year": 2025, "years_active": 2}}, {"type": "Feature", "geometry": {"type": "Point", "coordinates": [3.180984, 48.507604]}, "properties": {"street_name": "LES ECHARDS", "sales": 7, "sales_appt": 0, "sales_maison": 0, "median_price": 2620.0, "median_price_per_sqm": null, "turnover_score": 10.3, "turnover_rank": 6, "first_year": 2023, "last_year": 2025, "years_active": 2}}, {"type": "Feature", "geometry": {"type": "Point", "coordinates": [3.166588, 48.511949]}, "properties": {"street_name": "RUE BERTHIER", "sales": 6, "sales_appt": 0, "sales_maison": 5, "median_price": 162000.0, "median_price_per_sqm": 1861.8181818181818, "turnover_score": 8.8, "turnover_rank": 7, "first_year": 2022, "last_year": 2024, "years_active": 3}}, {"type": "Feature", "geometry": {"type": "Point", "coordinates": [3.1762604999999997, 48.5154285]}, "properties": {"street_name": "LES MURGETS", "sales": 6, "sales_appt": 0, "sales_maison": 0, "median_price": 2620.0, "median_price_per_sqm": null, "turnover_score": 8.8, "turnover_rank": 7, "first_year": 2025, "last_year": 2025, "years_active": 1}}, {"type": "Feature", "geometry": {"type": "Point", "coordinates": [3.162395, 48.510779]}, "properties": {"street_name": "LES FAUBOURGS", "sales": 5, "sales_appt": 0, "sales_maison": 0, "median_price": 64000.0, "median_price_per_sqm": null, "turnover_score": 7.4, "turnover_rank": 8, "first_year": 2021, "last_year": 2025, "years_active": 3}}, {"type": "Feature", "geometry": {"type": "Point", "coordinates": [3.118486, 48.529258]}, "properties": {"street_name": "PRES DES VERRINES", "sales": 5, "sales_appt": 0, "sales_maison": 0, "median_price": 7007.0, "median_price_per_sqm": null, "turnover_score": 7.4, "turnover_rank": 8, "first_year": 2021, "last_year": 2024, "years_active": 2}}, {"type": "Feature", "geometry": {"type": "Point", "coordinates": [3.164746, 48.511885]}, "properties": {"street_name": "RUE DES HOUCHES", "sales": 5, "sales_appt": 0, "sales_maison": 2, "median_price": 227900.0, "median_price_per_sqm": 1875.0217825841833, "turnover_score": 7.4, "turnover_rank": 8, "first_year": 2022, "last_year": 2022, "years_active": 1}}, {"type": "Feature", "geometry": {"type": "Point", "coordinates": [3.132849, 48.532668]}, "properties": {"street_name": "PLAINE DE GRIVEAU", "sales": 5, "sales_appt": 0, "sales_maison": 0, "median_price": 100000.0, "median_price_per_sqm": null, "turnover_score": 7.4, "turnover_rank": 8, "first_year": 2021, "last_year": 2023, "years_active": 2}}, {"type": "Feature", "geometry": {"type": "Point", "coordinates": [3.168344, 48.511413]}, "properties": {"street_name": "RUE DU PRESBYTERE", "sales": 4, "sales_appt": 0, "sales_maison": 2, "median_price": 185000.0, "median_price_per_sqm": 2106.5495487601856, "turnover_score": 5.9, "turnover_rank": 9, "first_year": 2021, "last_year": 2022, "years_active": 2}}, {"type": "Feature", "geometry": {"type": "Point", "coordinates": [3.185111, 48.510617]}, "properties": {"street_name": "LES MONTAGNES", "sales": 4, "sales_appt": 0, "sales_maison": 0, "median_price": 54860.0, "median_price_per_sqm": null, "turnover_score": 5.9, "turnover_rank": 9, "first_year": 2023, "last_year": 2025, "years_active": 2}}, {"type": "Feature", "geometry": {"type": "Point", "coordinates": [3.134502, 48.528019]}, "properties": {"street_name": "SOUS LA FALAISE", "sales": 3, "sales_appt": 0, "sales_maison": 0, "median_price": 680000.0, "median_price_per_sqm": null, "turnover_score": 4.4, "turnover_rank": 10, "first_year": 2024, "last_year": 2024, "years_active": 1}}, {"type": "Feature", "geometry": {"type": "Point", "coordinates": [3.168336, 48.512395]}, "properties": {"street_name": "RUE DES VALLEES", "sales": 3, "sales_appt": 0, "sales_maison": 3, "median_price": 227000.0, "median_price_per_sqm": 1860.655737704918, "turnover_score": 4.4, "turnover_rank": 10, "first_year": 2021, "last_year": 2023, "years_active": 2}}, {"type": "Feature", "geometry": {"type": "Point", "coordinates": [3.176497, 48.512766]}, "properties": {"street_name": "LES GAINS", "sales": 3, "sales_appt": 0, "sales_maison": 0, "median_price": 2620.0, "median_price_per_sqm": null, "turnover_score": 4.4, "turnover_rank": 10, "first_year": 2025, "last_year": 2025, "years_active": 1}}, {"type": "Feature", "geometry": {"type": "Point", "coordinates": [3.17731, 48.507543]}, "properties": {"street_name": "LES CHANVRES", "sales": 3, "sales_appt": 0, "sales_maison": 0, "median_price": 2620.0, "median_price_per_sqm": null, "turnover_score": 4.4, "turnover_rank": 10, "first_year": 2025, "last_year": 2025, "years_active": 1}}, {"type": "Feature", "geometry": {"type": "Point", "coordinates": [3.188056, 48.503423]}, "properties": {"street_name": "LE CHEMIN DE MONS", "sales": 3, "sales_appt": 0, "sales_maison": 0, "median_price": 3000.0, "median_price_per_sqm": null, "turnover_score": 4.4, "turnover_rank": 10, "first_year": 2023, "last_year": 2025, "years_active": 2}}, {"type": "Feature", "geometry": {"type": "Point", "coordinates": [3.164298, 48.509521]}, "properties": {"street_name": "LES CARRIERES", "sales": 3, "sales_appt": 0, "sales_maison": 0, "median_price": 3500.0, "median_price_per_sqm": null, "turnover_score": 4.4, "turnover_rank": 10, "first_year": 2021, "last_year": 2022, "years_active": 2}}, {"type": "Feature", "geometry": {"type": "Point", "coordinates": [3.180201, 48.519168]}, "properties": {"street_name": "LE BOIS DES COUDRES", "sales": 3, "sales_appt": 0, "sales_maison": 0, "median_price": 1000.0, "median_price_per_sqm": null, "turnover_score": 4.4, "turnover_rank": 10, "first_year": 2025, "last_year": 2025, "years_active": 1}}, {"type": "Feature", "geometry": {"type": "Point", "coordinates": [3.177708, 48.515701]}, "properties": {"street_name": "SUR LES VALLEES", "sales": 3, "sales_appt": 0, "sales_maison": 0, "median_price": 2620.0, "median_price_per_sqm": null, "turnover_score": 4.4, "turnover_rank": 10, "first_year": 2025, "last_year": 2025, "years_active": 1}}, {"type": "Feature", "geometry": {"type": "Point", "coordinates": [3.161489, 48.509931]}, "properties": {"street_name": "LE PONT DE TERRE", "sales": 3, "sales_appt": 0, "sales_maison": 0, "median_price": 235000.0, "median_price_per_sqm": null, "turnover_score": 4.4, "turnover_rank": 10, "first_year": 2021, "last_year": 2023, "years_active": 2}}, {"type": "Feature", "geometry": {"type": "Point", "coordinates": [3.166841, 48.509468]}, "properties": {"street_name": "LE MURGER DES QUINTES", "sales": 3, "sales_appt": 0, "sales_maison": 0, "median_price": 9500.0, "median_price_per_sqm": null, "turnover_score": 4.4, "turnover_rank": 10, "first_year": 2022, "last_year": 2025, "years_active": 2}}, {"type": "Feature", "geometry": {"type": "Point", "coordinates": [3.174014, 48.518445]}, "properties": {"street_name": "LE CHAMP DE LIZINES", "sales": 3, "sales_appt": 0, "sales_maison": 0, "median_price": 2620.0, "median_price_per_sqm": null, "turnover_score": 4.4, "turnover_rank": 10, "first_year": 2025, "last_year": 2025, "years_active": 1}}, {"type": "Feature", "geometry": {"type": "Point", "coordinates": [3.1787605, 48.51446]}, "properties": {"street_name": "BARQUE", "sales": 2, "sales_appt": 0, "sales_maison": 0, "median_price": 2620.0, "median_price_per_sqm": null, "turnover_score": 2.9, "turnover_rank": 11, "first_year": 2025, "last_year": 2025, "years_active": 1}}, {"type": "Feature", "geometry": {"type": "Point", "coordinates": [3.1790965, 48.5104555]}, "properties": {"street_name": "LE BAS DES ECHARDS", "sales": 2, "sales_appt": 0, "sales_maison": 0, "median_price": 38000.0, "median_price_per_sqm": null, "turnover_score": 2.9, "turnover_rank": 11, "first_year": 2023, "last_year": 2023, "years_active": 1}}, {"type": "Feature", "geometry": {"type": "Point", "coordinates": [3.164845, 48.513087]}, "properties": {"street_name": "SEN DES FOSSES", "sales": 2, "sales_appt": 0, "sales_maison": 2, "median_price": 225000.0, "median_price_per_sqm": 1704.5454545454545, "turnover_score": 2.9, "turnover_rank": 11, "first_year": 2022, "last_year": 2022, "years_active": 1}}, {"type": "Feature", "geometry": {"type": "Point", "coordinates": [3.1740635, 48.509572000000006]}, "properties": {"street_name": "LE CHAMP D ANE", "sales": 2, "sales_appt": 0, "sales_maison": 0, "median_price": 38000.0, "median_price_per_sqm": null, "turnover_score": 2.9, "turnover_rank": 11, "first_year": 2023, "last_year": 2023, "years_active": 1}}, {"type": "Feature", "geometry": {"type": "Point", "coordinates": [3.166943, 48.507118000000006]}, "properties": {"street_name": "LA COTE", "sales": 2, "sales_appt": 0, "sales_maison": 0, "median_price": 38000.0, "median_price_per_sqm": null, "turnover_score": 2.9, "turnover_rank": 11, "first_year": 2023, "last_year": 2023, "years_active": 1}}, {"type": "Feature", "geometry": {"type": "Point", "coordinates": [3.169156, 48.510999]}, "properties": {"street_name": "RLE D EAU", "sales": 2, "sales_appt": 0, "sales_maison": 1, "median_price": 215000.0, "median_price_per_sqm": 1641.2213740458014, "turnover_score": 2.9, "turnover_rank": 11, "first_year": 2022, "last_year": 2022, "years_active": 1}}, {"type": "Feature", "geometry": {"type": "Point", "coordinates": [3.13062, 48.529888]}, "properties": {"street_name": "CHAMP DE LA FALAISE", "sales": 2, "sales_appt": 0, "sales_maison": 0, "median_price": 38921.19, "median_price_per_sqm": null, "turnover_score": 2.9, "turnover_rank": 11, "first_year": 2024, "last_year": 2024, "years_active": 1}}, {"type": "Feature", "geometry": {"type": "Point", "coordinates": [3.169274, 48.518433]}, "properties": {"street_name": "CHAMPBOURON", "sales": 1, "sales_appt": 0, "sales_maison": 0, "median_price": 2620.0, "median_price_per_sqm": null, "turnover_score": 1.5, "turnover_rank": 12, "first_year": 2025, "last_year": 2025, "years_active": 1}}, {"type": "Feature", "geometry": {"type": "Point", "coordinates": [3.165028, 48.502501]}, "properties": {"street_name": "CHAMPMAI", "sales": 1, "sales_appt": 0, "sales_maison": 0, "median_price": 31626.05, "median_price_per_sqm": null, "turnover_score": 1.5, "turnover_rank": 12, "first_year": 2024, "last_year": 2024, "years_active": 1}}, {"type": "Feature", "geometry": {"type": "Point", "coordinates": [3.121154, 48.519664]}, "properties": {"street_name": "DESSOUS DES VERRINES", "sales": 1, "sales_appt": 0, "sales_maison": 0, "median_price": 171285.0, "median_price_per_sqm": null, "turnover_score": 1.5, "turnover_rank": 12, "first_year": 2023, "last_year": 2023, "years_active": 1}}, {"type": "Feature", "geometry": {"type": "Point", "coordinates": [3.180892, 48.505476]}, "properties": {"street_name": "LA CORRE", "sales": 1, "sales_appt": 0, "sales_maison": 0, "median_price": 2620.0, "median_price_per_sqm": null, "turnover_score": 1.5, "turnover_rank": 12, "first_year": 2025, "last_year": 2025, "years_active": 1}}, {"type": "Feature", "geometry": {"type": "Point", "coordinates": [3.169505, 48.512262]}, "properties": {"street_name": "LE PUITS DE L EAU", "sales": 1, "sales_appt": 0, "sales_maison": 0, "median_price": 500.0, "median_price_per_sqm": null, "turnover_score": 1.5, "turnover_rank": 12, "first_year": 2021, "last_year": 2021, "years_active": 1}}, {"type": "Feature", "geometry": {"type": "Point", "coordinates": [3.163082, 48.501975]}, "properties": {"street_name": "LES BORDES", "sales": 1, "sales_appt": 0, "sales_maison": 0, "median_price": 45741.55, "median_price_per_sqm": null, "turnover_score": 1.5, "turnover_rank": 12, "first_year": 2022, "last_year": 2022, "years_active": 1}}, {"type": "Feature", "geometry": {"type": "Point", "coordinates": [3.174841, 48.504835]}, "properties": {"street_name": "LES CAILLOTIS", "sales": 1, "sales_appt": 0, "sales_maison": 0, "median_price": 38000.0, "median_price_per_sqm": null, "turnover_score": 1.5, "turnover_rank": 12, "first_year": 2023, "last_year": 2023, "years_active": 1}}, {"type": "Feature", "geometry": {"type": "Point", "coordinates": [3.144667, 48.516148]}, "properties": {"street_name": "LES PRES DE LA MARE GIGOT", "sales": 1, "sales_appt": 0, "sales_maison": 0, "median_price": 38000.0, "median_price_per_sqm": null, "turnover_score": 1.5, "turnover_rank": 12, "first_year": 2023, "last_year": 2023, "years_active": 1}}, {"type": "Feature", "geometry": {"type": "Point", "coordinates": [3.175607, 48.510971]}, "properties": {"street_name": "RUE DE LA MONTAGNE", "sales": 1, "sales_appt": 0, "sales_maison": 1, "median_price": 215000.0, "median_price_per_sqm": 1287.4251497005987, "turnover_score": 1.5, "turnover_rank": 12, "first_year": 2022, "last_year": 2022, "years_active": 1}}, {"type": "Feature", "geometry": {"type": "Point", "coordinates": [3.175131, 48.517805]}, "properties": {"street_name": "LES VALLEES", "sales": 1, "sales_appt": 0, "sales_maison": 0, "median_price": 2620.0, "median_price_per_sqm": null, "turnover_score": 1.5, "turnover_rank": 12, "first_year": 2025, "last_year": 2025, "years_active": 1}}, {"type": "Feature", "geometry": {"type": "Point", "coordinates": [3.164719, 48.510283]}, "properties": {"street_name": "RUE DE BELLEVUE", "sales": 1, "sales_appt": 0, "sales_maison": 1, "median_price": 212998.0, "median_price_per_sqm": 2218.7291666666665, "turnover_score": 1.5, "turnover_rank": 12, "first_year": 2022, "last_year": 2022, "years_active": 1}}]}