{"type": "FeatureCollection", "features": [{"type": "Feature", "geometry": {"type": "Point", "coordinates": [2.564091, 48.358489]}, "properties": {"id_parcelle": "770010000A0799", "address": "39 DOM DEFONTAINE", "sales": 22, "median_price": 278700.0, "median_price_per_sqm": 2784.0425531914893, "median_rooms": 4.0, "first_sale": "2021-05-11", "last_sale": "2025-10-07"}}, {"type": "Feature", "geometry": {"type": "Point", "coordinates": [2.561386, 48.360951]}, "properties": {"id_parcelle": "770010000A1623", "address": "1 DOM DU BOIS DE LA GARENNE", "sales": 14, "median_price": 511500.0, "median_price_per_sqm": 3320.3125, "median_rooms": 5.0, "first_sale": "2021-07-20", "last_sale": "2024-12-20"}}, {"type": "Feature", "geometry": {"type": "Point", "coordinates": [2.564485, 48.3635]}, "properties": {"id_parcelle": "770010000A0127", "address": "LE DESSUS DE LA GARENNE", "sales": 10, "median_price": 258850.0, "median_price_per_sqm": null, "median_rooms": null, "first_sale": "2021-05-11", "last_sale": "2025-05-28"}}, {"type": "Feature", "geometry": {"type": "Point", "coordinates": [2.564994, 48.36334]}, "properties": {"id_parcelle": "770010000A0126", "address": "LE DESSUS DE LA GARENNE", "sales": 10, "median_price": 258850.0, "median_price_per_sqm": null, "median_rooms": null, "first_sale": "2021-05-11", "last_sale": "2025-05-28"}}, {"type": "Feature", "geometry": {"type": "Point", "coordinates": [2.567014, 48.352032]}, "properties": {"id_parcelle": "770010000G0433", "address": "3 CHE DU COLOMBIER", "sales": 6, "median_price": 440000.0, "median_price_per_sqm": 3606.55737704918, "median_rooms": 0.0, "first_sale": "2022-09-21", "last_sale": "2022-09-21"}}, {"type": "Feature", "geometry": {"type": "Point", "coordinates": [2.56959, 48.35311]}, "properties": {"id_parcelle": "770010000B1202", "address": "26 RUE LAURENT POLI", "sales": 6, "median_price": 504200.0, "median_price_per_sqm": 11721.012987012988, "median_rooms": 0.0, "first_sale": "2022-07-28", "last_sale": "2022-07-28"}}, {"type": "Feature", "geometry": {"type": "Point", "coordinates": [2.549673, 48.356734]}, "properties": {"id_parcelle": "770010000A1710", "address": "26 PARIS FORET", "sales": 6, "median_price": 465000.0, "median_price_per_sqm": 2961.7834394904457, "median_rooms": 3.5, "first_sale": "2022-07-13", "last_sale": "2022-07-13"}}, {"type": "Feature", "geometry": {"type": "Point", "coordinates": [2.559328, 48.356508]}, "properties": {"id_parcelle": "770010000G0304", "address": "47 RUE DE LA LIBERATION", "sales": 6, "median_price": 390450.0, "median_price_per_sqm": 2892.222222222222, "median_rooms": 0.0, "first_sale": "2025-03-12", "last_sale": "2025-03-12"}}, {"type": "Feature", "geometry": {"type": "Point", "coordinates": [2.567234, 48.346244]}, "properties": {"id_parcelle": "770010000F0925", "address": "15 RUE DU COL FABIEN", "sales": 6, "median_price": 430000.0, "median_price_per_sqm": 4942.528735632184, "median_rooms": 0.0, "first_sale": "2021-06-03", "last_sale": "2021-06-03"}}, {"type": "Feature", "geometry": {"type": "Point", "coordinates": [2.560064, 48.355593]}, "properties": {"id_parcelle": "770010000G0372", "address": "7 CHE DU VAUDOUE", "sales": 6, "median_price": 480000.0, "median_price_per_sqm": 2909.090909090909, "median_rooms": 0.0, "first_sale": "2021-06-07", "last_sale": "2021-06-07"}}, {"type": "Feature", "geometry": {"type": "Point", "coordinates": [2.562505, 48.345377]}, "properties": {"id_parcelle": "770010000F0803", "address": "19 RUE DU MARCHAIS", "sales": 6, "median_price": 280000.0, "median_price_per_sqm": 3500.0, "median_rooms": 0.0, "first_sale": "2025-08-05", "last_sale": "2025-08-05"}}, {"type": "Feature", "geometry": {"type": "Point", "coordinates": [2.564488, 48.34249]}, "properties": {"id_parcelle": "770010000F0402", "address": "16 RUE DU CLOSEAU", "sales": 5, "median_price": 830000.0, "median_price_per_sqm": 5480.546202768424, "median_rooms": 0.0, "first_sale": "2023-07-04", "last_sale": "2023-07-04"}}, {"type": "Feature", "geometry": {"type": "Point", "coordinates": [2.568092, 48.355273]}, "properties": {"id_parcelle": "770010000B0798", "address": "11 RUE DE LA LIBERATION", "sales": 5, "median_price": 255000.0, "median_price_per_sqm": 1593.75, "median_rooms": 0.0, "first_sale": "2025-10-14", "last_sale": "2025-10-14"}}, {"type": "Feature", "geometry": {"type": "Point", "coordinates": [2.567928, 48.351533]}, "properties": {"id_parcelle": "77001000ZB0056", "address": "2 RUE LAURENT POLI", "sales": 5, "median_price": 285000.0, "median_price_per_sqm": 2500.0, "median_rooms": 0.0, "first_sale": "2025-03-31", "last_sale": "2025-03-31"}}, {"type": "Feature", "geometry": {"type": "Point", "coordinates": [2.562559, 48.341275]}, "properties": {"id_parcelle": "770010000F0365", "address": "3 RUE DU CLOSEAU", "sales": 4, "median_price": 350000.0, "median_price_per_sqm": 2229.2993630573246, "median_rooms": 3.5, "first_sale": "2024-06-10", "last_sale": "2024-06-10"}}, {"type": "Feature", "geometry": {"type": "Point", "coordinates": [2.564262, 48.355803]}, "properties": {"id_parcelle": "770010000G0392", "address": "31 RUE DE LA LIBERATION", "sales": 4, "median_price": 1038000.0, "median_price_per_sqm": 3284.8101265822784, "median_rooms": 3.5, "first_sale": "2023-11-27", "last_sale": "2023-11-27"}}, {"type": "Feature", "geometry": {"type": "Point", "coordinates": [2.568734, 48.351431]}, "properties": {"id_parcelle": "77001000ZB0004", "address": "2 RUE LAURENT POLI", "sales": 4, "median_price": 261540.0, "median_price_per_sqm": 2641.818181818182, "median_rooms": 2.5, "first_sale": "2021-08-13", "last_sale": "2021-08-13"}}, {"type": "Feature", "geometry": {"type": "Point", "coordinates": [2.561247, 48.355532]}, "properties": {"id_parcelle": "770010000G0344", "address": "37 RUE DE LA LIBERATION", "sales": 4, "median_price": 479000.0, "median_price_per_sqm": 3090.3225806451615, "median_rooms": 3.5, "first_sale": "2021-07-26", "last_sale": "2021-07-26"}}, {"type": "Feature", "geometry": {"type": "Point", "coordinates": [2.563292, 48.356994]}, "properties": {"id_parcelle": "770010000A1767", "address": "34 RUE DE LA LIBERATION", "sales": 4, "median_price": 389000.0, "median_price_per_sqm": 3039.0625, "median_rooms": 1.5, "first_sale": "2021-08-02", "last_sale": "2021-08-02"}}, {"type": "Feature", "geometry": {"type": "Point", "coordinates": [2.56916, 48.355405]}, "properties": {"id_parcelle": "770010000B0778", "address": "2 RUE DU GEN DE GAULLE", "sales": 4, "median_price": 311000.0, "median_price_per_sqm": 3110.0, "median_rooms": 0.0, "first_sale": "2022-02-18", "last_sale": "2022-02-18"}}, {"type": "Feature", "geometry": {"type": "Point", "coordinates": [2.563243, 48.340695]}, "properties": {"id_parcelle": "770010000F0382", "address": "4 RUE DU CLOSEAU", "sales": 4, "median_price": 570000.0, "median_price_per_sqm": 5277.777777777777, "median_rooms": 0.0, "first_sale": "2024-08-02", "last_sale": "2024-08-02"}}, {"type": "Feature", "geometry": {"type": "Point", "coordinates": [2.564932, 48.343714]}, "properties": {"id_parcelle": "770010000F0412", "address": "30 RUE DU CLOSEAU", "sales": 3, "median_price": 400000.0, "median_price_per_sqm": 4166.666666666667, "median_rooms": 0.0, "first_sale": "2024-08-27", "last_sale": "2024-08-27"}}, {"type": "Feature", "geometry": {"type": "Point", "coordinates": [2.570529, 48.354136]}, "properties": {"id_parcelle": "770010000B0686", "address": "34 RUE LAURENT POLI", "sales": 3, "median_price": 615000.0, "median_price_per_sqm": 3892.4050632911394, "median_rooms": 0.0, "first_sale": "2021-06-18", "last_sale": "2021-06-18"}}, {"type": "Feature", "geometry": {"type": "Point", "coordinates": [2.557541, 48.356308]}, "properties": {"id_parcelle": "770010000G0368", "address": "53 RUE DE LA LIBERATION", "sales": 3, "median_price": 614770.0, "median_price_per_sqm": 4520.367647058823, "median_rooms": 0.0, "first_sale": "2025-07-02", "last_sale": "2025-07-02"}}, {"type": "Feature", "geometry": {"type": "Point", "coordinates": [2.570379, 48.353967]}, "properties": {"id_parcelle": "770010000B0684", "address": "32 RUE LAURENT POLI", "sales": 3, "median_price": 416000.0, "median_price_per_sqm": 3200.0, "median_rooms": 0.0, "first_sale": "2021-07-16", "last_sale": "2021-07-16"}}, {"type": "Feature", "geometry": {"type": "Point", "coordinates": [2.570528, 48.35497]}, "properties": {"id_parcelle": "770010000B0698", "address": "44 RUE LAURENT POLI", "sales": 3, "median_price": 340000.0, "median_price_per_sqm": 3333.3333333333335, "median_rooms": 0.0, "first_sale": "2022-11-28", "last_sale": "2022-11-28"}}, {"type": "Feature", "geometry": {"type": "Point", "coordinates": [2.57, 48.354187]}, "properties": {"id_parcelle": "770010000B0816", "address": "35 RUE LAURENT POLI", "sales": 3, "median_price": 153000.0, "median_price_per_sqm": 1821.4285714285713, "median_rooms": 0.0, "first_sale": "2024-02-05", "last_sale": "2024-02-05"}}, {"type": "Feature", "geometry": {"type": "Point", "coordinates": [2.568857, 48.357078]}, "properties": {"id_parcelle": "770010000B1018", "address": "20 RUE DU CHATEAU", "sales": 3, "median_price": 200000.0, "median_price_per_sqm": 1538.4615384615386, "median_rooms": 0.0, "first_sale": "2025-12-12", "last_sale": "2025-12-12"}}, {"type": "Feature", "geometry": {"type": "Point", "coordinates": [2.566151, 48.344696]}, "properties": {"id_parcelle": "770010000F1125", "address": "6 RLE BESNARD", "sales": 3, "median_price": 185000.0, "median_price_per_sqm": 1555.061100515646, "median_rooms": 4.0, "first_sale": "2021-11-17", "last_sale": "2021-11-17"}}, {"type": "Feature", "geometry": {"type": "Point", "coordinates": [2.560971, 48.347307]}, "properties": {"id_parcelle": "770010000F0993", "address": "16 RUE DES VAUXBLAS", "sales": 3, "median_price": 621500.0, "median_price_per_sqm": 4376.760563380281, "median_rooms": 0.0, "first_sale": "2022-10-14", "last_sale": "2022-10-14"}}, {"type": "Feature", "geometry": {"type": "Point", "coordinates": [2.575971, 48.351178]}, "properties": {"id_parcelle": "77001000ZA0154", "address": "31 RUE DE LA CRX ST ANTOINE", "sales": 3, "median_price": 171300.0, "median_price_per_sqm": 3568.75, "median_rooms": 0.0, "first_sale": "2022-05-09", "last_sale": "2022-05-09"}}, {"type": "Feature", "geometry": {"type": "Point", "coordinates": [2.554106, 48.356207]}, "properties": {"id_parcelle": "770010000A0225", "address": "7 PARIS FORET", "sales": 2, "median_price": 323000.0, "median_price_per_sqm": 3105.769230769231, "median_rooms": 4.0, "first_sale": "2023-12-09", "last_sale": "2023-12-09"}}, {"type": "Feature", "geometry": {"type": "Point", "coordinates": [2.566069, 48.356418]}, "properties": {"id_parcelle": "770010000A1561", "address": "7 CHE D ARBONNE", "sales": 2, "median_price": 352000.0, "median_price_per_sqm": 2588.235294117647, "median_rooms": 6.0, "first_sale": "2024-10-11", "last_sale": "2024-10-11"}}, {"type": "Feature", "geometry": {"type": "Point", "coordinates": [2.565493, 48.358304]}, "properties": {"id_parcelle": "770010000A1357", "address": "30 RUE DU CHATEAU", "sales": 2, "median_price": 406000.0, "median_price_per_sqm": 337.2093023255814, "median_rooms": 0.0, "first_sale": "2024-10-18", "last_sale": "2024-10-18"}}, {"type": "Feature", "geometry": {"type": "Point", "coordinates": [2.549349, 48.356773]}, "properties": {"id_parcelle": "770010000A1292", "address": "28 PARIS FORET", "sales": 2, "median_price": 354000.0, "median_price_per_sqm": 4538.461538461538, "median_rooms": 1.5, "first_sale": "2023-07-03", "last_sale": "2023-07-03"}}, {"type": "Feature", "geometry": {"type": "Point", "coordinates": [2.547476, 48.356106]}, "properties": {"id_parcelle": "770010000A0251", "address": "33 PARIS FORET", "sales": 2, "median_price": 457750.0, "median_price_per_sqm": 4444.174757281553, "median_rooms": 5.0, "first_sale": "2024-09-02", "last_sale": "2024-09-02"}}, {"type": "Feature", "geometry": {"type": "Point", "coordinates": [2.568926, 48.355628]}, "properties": {"id_parcelle": "770010000B0776", "address": "1 RUE DU GEN DE GAULLE", "sales": 2, "median_price": 920000.0, "median_price_per_sqm": 3172.4137931034484, "median_rooms": 3.5, "first_sale": "2025-11-06", "last_sale": "2025-11-06"}}, {"type": "Feature", "geometry": {"type": "Point", "coordinates": [2.566922, 48.357348]}, "properties": {"id_parcelle": "770010000A1739", "address": "17 RUE DU CHATEAU", "sales": 2, "median_price": 597600.0, "median_price_per_sqm": 3494.7368421052633, "median_rooms": 7.0, "first_sale": "2023-12-08", "last_sale": "2023-12-08"}}, {"type": "Feature", "geometry": {"type": "Point", "coordinates": [2.572029, 48.35347]}, "properties": {"id_parcelle": "770010000B0568", "address": "15 RUE DE LA CRX ST ANTOINE", "sales": 2, "median_price": 371000.0, "median_price_per_sqm": 1656.25, "median_rooms": 2.0, "first_sale": "2022-10-11", "last_sale": "2022-10-11"}}, {"type": "Feature", "geometry": {"type": "Point", "coordinates": [2.56753, 48.357979]}, "properties": {"id_parcelle": "770010000A1707", "address": "28 RUE DU CHATEAU", "sales": 2, "median_price": 331000.0, "median_price_per_sqm": 5516.666666666667, "median_rooms": 4.0, "first_sale": "2021-02-23", "last_sale": "2021-02-23"}}, {"type": "Feature", "geometry": {"type": "Point", "coordinates": [2.572273, 48.352971]}, "properties": {"id_parcelle": "770010000B1208", "address": "5378 LA CROIX SAINT ANTOINE", "sales": 2, "median_price": 79000.0, "median_price_per_sqm": null, "median_rooms": 0.0, "first_sale": "2021-06-17", "last_sale": "2021-06-17"}}, {"type": "Feature", "geometry": {"type": "Point", "coordinates": [2.569868, 48.355568]}, "properties": {"id_parcelle": "770010000B1228", "address": "7 RUE DU CHATEAU", "sales": 2, "median_price": 498250.0, "median_price_per_sqm": 13166.007834757835, "median_rooms": 3.5, "first_sale": "2023-01-06", "last_sale": "2023-01-06"}}, {"type": "Feature", "geometry": {"type": "Point", "coordinates": [2.568388, 48.356756]}, "properties": {"id_parcelle": "770010000B1164", "address": "11 RUE DU CHATEAU", "sales": 2, "median_price": 327750.0, "median_price_per_sqm": null, "median_rooms": null, "first_sale": "2024-06-28", "last_sale": "2024-06-28"}}, {"type": "Feature", "geometry": {"type": "Point", "coordinates": [2.569932, 48.353603]}, "properties": {"id_parcelle": "770010000B1169", "address": "30 RUE LAURENT POLI", "sales": 2, "median_price": 497500.0, "median_price_per_sqm": 3980.0, "median_rooms": 3.0, "first_sale": "2022-11-08", "last_sale": "2022-11-08"}}, {"type": "Feature", "geometry": {"type": "Point", "coordinates": [2.570619, 48.355631]}, "properties": {"id_parcelle": "770010000B1138", "address": "ACHERES", "sales": 2, "median_price": 495000.0, "median_price_per_sqm": null, "median_rooms": null, "first_sale": "2024-12-16", "last_sale": "2024-12-16"}}, {"type": "Feature", "geometry": {"type": "Point", "coordinates": [2.568781, 48.357165]}, "properties": {"id_parcelle": "770010000B1123", "address": "ACHERES", "sales": 2, "median_price": 200000.0, "median_price_per_sqm": null, "median_rooms": null, "first_sale": "2025-12-12", "last_sale": "2025-12-12"}}, {"type": "Feature", "geometry": {"type": "Point", "coordinates": [2.570898, 48.356065]}, "properties": {"id_parcelle": "770010000B1124", "address": "2 RUE DU CANAPE", "sales": 2, "median_price": 820000.0, "median_price_per_sqm": 2928.5714285714284, "median_rooms": 8.0, "first_sale": "2021-05-27", "last_sale": "2021-05-27"}}, {"type": "Feature", "geometry": {"type": "Point", "coordinates": [2.570097, 48.355148]}, "properties": {"id_parcelle": "770010000B1128", "address": "1 RUE DU CHATEAU", "sales": 2, "median_price": 122500.0, "median_price_per_sqm": 1750.0, "median_rooms": 2.0, "first_sale": "2021-06-21", "last_sale": "2021-06-21"}}, {"type": "Feature", "geometry": {"type": "Point", "coordinates": [2.571398, 48.353048]}, "properties": {"id_parcelle": "770010000B0868", "address": "6 RUE DE LA CROIX SAINT ANTOINE", "sales": 2, "median_price": 177000.0, "median_price_per_sqm": 2528.5714285714284, "median_rooms": 4.0, "first_sale": "2025-05-23", "last_sale": "2025-05-23"}}, {"type": "Feature", "geometry": {"type": "Point", "coordinates": [2.567649, 48.351939]}, "properties": {"id_parcelle": "770010000B1050", "address": "1 RUE LAURENT POLI", "sales": 2, "median_price": 205000.0, "median_price_per_sqm": 3474.576271186441, "median_rooms": 1.5, "first_sale": "2022-10-21", "last_sale": "2022-10-21"}}, {"type": "Feature", "geometry": {"type": "Point", "coordinates": [2.561073, 48.357321]}, "properties": {"id_parcelle": "770010000A1728", "address": "44 RUE DE LA LIBERATION", "sales": 2, "median_price": 460000.0, "median_price_per_sqm": 3194.4444444444443, "median_rooms": 5.0, "first_sale": "2021-07-22", "last_sale": "2021-07-22"}}, {"type": "Feature", "geometry": {"type": "Point", "coordinates": [2.559424, 48.357974]}, "properties": {"id_parcelle": "770010000A1724", "address": "50 RUE DE LA LIBERATION", "sales": 2, "median_price": 568085.0, "median_price_per_sqm": 2135.657894736842, "median_rooms": 2.5, "first_sale": "2021-07-08", "last_sale": "2021-07-08"}}, {"type": "Feature", "geometry": {"type": "Point", "coordinates": [2.568233, 48.351884]}, "properties": {"id_parcelle": "770010000B0658", "address": "4 RUE LAURENT POLI", "sales": 2, "median_price": 300000.0, "median_price_per_sqm": 4000.0, "median_rooms": 1.5, "first_sale": "2023-07-03", "last_sale": "2023-07-03"}}, {"type": "Feature", "geometry": {"type": "Point", "coordinates": [2.570459, 48.355526]}, "properties": {"id_parcelle": "770010000B0704", "address": "4 RUE DU CHATEAU", "sales": 2, "median_price": 495000.0, "median_price_per_sqm": 4090.909090909091, "median_rooms": 2.5, "first_sale": "2024-12-16", "last_sale": "2024-12-16"}}, {"type": "Feature", "geometry": {"type": "Point", "coordinates": [2.569711, 48.356781]}, "properties": {"id_parcelle": "770010000B0731", "address": "14 RUE DU CHATEAU", "sales": 2, "median_price": 192000.0, "median_price_per_sqm": 3692.3076923076924, "median_rooms": 1.0, "first_sale": "2022-07-09", "last_sale": "2022-07-09"}}, {"type": "Feature", "geometry": {"type": "Point", "coordinates": [2.566501, 48.344905]}, "properties": {"id_parcelle": "770010000F0441", "address": "9 RLE BESNARD", "sales": 2, "median_price": 170000.0, "median_price_per_sqm": 2615.3846153846152, "median_rooms": 4.0, "first_sale": "2023-09-13", "last_sale": "2023-09-13"}}, {"type": "Feature", "geometry": {"type": "Point", "coordinates": [2.565089, 48.354829]}, "properties": {"id_parcelle": "770010000G0410", "address": "2 LOT DES MAISONS BLANCHES", "sales": 2, "median_price": 280000.0, "median_price_per_sqm": 2333.3333333333335, "median_rooms": 5.0, "first_sale": "2025-09-04", "last_sale": "2025-09-04"}}, {"type": "Feature", "geometry": {"type": "Point", "coordinates": [2.564975, 48.345239]}, "properties": {"id_parcelle": "770010000F0429", "address": "46 RUE DU CLOSEAU", "sales": 2, "median_price": 335992.0, "median_price_per_sqm": 3652.086956521739, "median_rooms": 2.0, "first_sale": "2021-10-18", "last_sale": "2021-10-18"}}, {"type": "Feature", "geometry": {"type": "Point", "coordinates": [2.567829, 48.345913]}, "properties": {"id_parcelle": "770010000F0455", "address": "16 RUE DU DOC BATTESTI", "sales": 2, "median_price": 683500.0, "median_price_per_sqm": 2971.7391304347825, "median_rooms": 2.5, "first_sale": "2021-12-01", "last_sale": "2021-12-01"}}, {"type": "Feature", "geometry": {"type": "Point", "coordinates": [2.567917, 48.345807]}, "properties": {"id_parcelle": "770010000F0452", "address": "MEUN", "sales": 2, "median_price": 683500.0, "median_price_per_sqm": null, "median_rooms": null, "first_sale": "2021-12-01", "last_sale": "2021-12-01"}}, {"type": "Feature", "geometry": {"type": "Point", "coordinates": [2.558412, 48.356058]}, "properties": {"id_parcelle": "770010000G0462", "address": "12 CHE DU VAUDOUE", "sales": 2, "median_price": 460000.0, "median_price_per_sqm": 3770.4918032786886, "median_rooms": 3.0, "first_sale": "2022-10-13", "last_sale": "2022-10-13"}}, {"type": "Feature", "geometry": {"type": "Point", "coordinates": [2.573225, 48.358493]}, "properties": {"id_parcelle": "77001000ZA0156", "address": "4 CHE DE FONTAINEBLEAU", "sales": 2, "median_price": 200000.0, "median_price_per_sqm": 2666.6666666666665, "median_rooms": 5.0, "first_sale": "2024-11-20", "last_sale": "2024-11-20"}}, {"type": "Feature", "geometry": {"type": "Point", "coordinates": [2.56489, 48.354561]}, "properties": {"id_parcelle": "770010000G0455", "address": "3 LOT DES MAISONS BLANCHES", "sales": 2, "median_price": 150000.0, "median_price_per_sqm": 1153.8461538461538, "median_rooms": 6.0, "first_sale": "2021-06-15", "last_sale": "2021-06-15"}}, {"type": "Feature", "geometry": {"type": "Point", "coordinates": [2.565798, 48.352795]}, "properties": {"id_parcelle": "770010000G0440", "address": "11 CHE DE LA MARE AUX ORMES", "sales": 2, "median_price": 501400.0, "median_price_per_sqm": 3076.0736196319017, "median_rooms": 7.0, "first_sale": "2025-07-03", "last_sale": "2025-07-03"}}, {"type": "Feature", "geometry": {"type": "Point", "coordinates": [2.574526, 48.358949]}, "properties": {"id_parcelle": "77001000ZA0212", "address": "2 CHE DE FONTAINEBLEAU", "sales": 2, "median_price": 230000.0, "median_price_per_sqm": 3026.315789473684, "median_rooms": 3.0, "first_sale": "2024-01-30", "last_sale": "2024-01-30"}}, {"type": "Feature", "geometry": {"type": "Point", "coordinates": [2.573948, 48.358853]}, "properties": {"id_parcelle": "77001000ZA0171", "address": "2 CHE DE FONTAINEBLEAU", "sales": 2, "median_price": 209000.0, "median_price_per_sqm": 1741.6666666666667, "median_rooms": 4.0, "first_sale": "2025-10-27", "last_sale": "2025-10-27"}}, {"type": "Feature", "geometry": {"type": "Point", "coordinates": [2.57632, 48.351619]}, "properties": {"id_parcelle": "77001000ZA0223", "address": "8 RTE DE BARNOLETS", "sales": 2, "median_price": 199000.0, "median_price_per_sqm": 1592.0, "median_rooms": 5.0, "first_sale": "2024-12-03", "last_sale": "2024-12-03"}}, {"type": "Feature", "geometry": {"type": "Point", "coordinates": [2.568747, 48.343807]}, "properties": {"id_parcelle": "77001000ZC0025", "address": "26 CHE DE LA CHAPELLE", "sales": 2, "median_price": 150000.0, "median_price_per_sqm": 1562.5, "median_rooms": 5.0, "first_sale": "2021-09-03", "last_sale": "2021-09-03"}}, {"type": "Feature", "geometry": {"type": "Point", "coordinates": [2.573345, 48.341397]}, "properties": {"id_parcelle": "77001000ZL0009", "address": "GROUETTES VALLEE DE NEMOUR", "sales": 2, "median_price": 3173.0, "median_price_per_sqm": null, "median_rooms": null, "first_sale": "2023-05-31", "last_sale": "2023-05-31"}}, {"type": "Feature", "geometry": {"type": "Point", "coordinates": [2.574584, 48.332334]}, "properties": {"id_parcelle": "77001000ZM0034", "address": "LA LONGUE RAIE", "sales": 2, "median_price": 600.0, "median_price_per_sqm": null, "median_rooms": null, "first_sale": "2023-04-19", "last_sale": "2023-04-19"}}, {"type": "Feature", "geometry": {"type": "Point", "coordinates": [2.561315, 48.344916]}, "properties": {"id_parcelle": "77001000ZO0029", "address": "LE FOURNEAU", "sales": 2, "median_price": 5800.0, "median_price_per_sqm": null, "median_rooms": null, "first_sale": "2023-04-19", "last_sale": "2023-04-19"}}, {"type": "Feature", "geometry": {"type": "Point", "coordinates": [2.559503, 48.34293]}, "properties": {"id_parcelle": "77001000ZO0043", "address": "LE FOURNEAU", "sales": 2, "median_price": 69476.0, "median_price_per_sqm": null, "median_rooms": null, "first_sale": "2025-09-25", "last_sale": "2025-09-25"}}]}