{"type": "FeatureCollection", "features": [{"type": "Feature", "geometry": {"type": "Polygon", "coordinates": [[[3.023525, 48.359123], [3.020833, 48.359666], [3.019301, 48.360108], [3.017958, 48.360547], [3.016804, 48.361057], [3.016189, 48.361384], [3.015277, 48.361929], [3.014824, 48.362327], [3.014345, 48.362833], [3.013845, 48.363462], [3.013594, 48.363781], [3.013311, 48.36426], [3.013076, 48.364908], [3.012817, 48.365737], [3.012821, 48.366079], [3.01272, 48.366619], [3.012778, 48.366906], [3.013055, 48.367462], [3.01347, 48.368215], [3.013747, 48.368806], [3.013886, 48.369057], [3.014025, 48.369416], [3.014139, 48.369865], [3.014143, 48.370189], [3.01412, 48.370513], [3.01399, 48.370927], [3.01386, 48.371198], [3.013488, 48.371775], [3.012184, 48.373185], [3.011758, 48.373565], [3.011196, 48.373911], [3.01074, 48.374146], [3.009692, 48.374567], [3.008399, 48.374825], [3.008023, 48.374882], [3.007456, 48.374884], [3.006861, 48.374798], [3.005886, 48.374534], [3.005262, 48.374303], [3.004774, 48.374037], [3.004146, 48.373447], [3.003651, 48.372821], [3.003376, 48.372337], [3.003096, 48.371637], [3.003094, 48.371385], [3.002864, 48.370361], [3.002722, 48.369787], [3.002305, 48.368872], [3.002193, 48.368477], [3.001643, 48.367725], [3.001342, 48.367439], [3.000744, 48.367065], [2.999795, 48.36662], [2.998954, 48.366338], [2.997952, 48.366091], [2.996953, 48.365989], [2.995594, 48.366009], [2.995601, 48.366456], [2.995498, 48.36775], [2.995482, 48.368042], [2.993684, 48.368087], [2.99375, 48.368265], [2.993759, 48.368937], [2.993793, 48.369295], [2.993736, 48.37009], [2.993832, 48.370816], [2.993816, 48.371265], [2.993837, 48.371508], [2.993749, 48.373386], [2.993734, 48.373591], [2.993406, 48.374306], [2.993303, 48.374656], [2.993268, 48.37566], [2.99306, 48.377377], [2.993002, 48.37819], [2.993065, 48.378453], [2.992047, 48.378581], [2.991831, 48.378625], [2.990325, 48.379041], [2.990055, 48.379085], [2.987531, 48.379172], [2.986673, 48.379191], [2.986234, 48.379128], [2.985782, 48.379092], [2.985042, 48.379106], [2.984977, 48.379214], [2.984699, 48.379482], [2.983312, 48.381012], [2.98399, 48.381107], [2.984543, 48.381143], [2.984478, 48.381699], [2.986185, 48.381792], [2.986308, 48.381977], [2.986979, 48.382377], [2.987368, 48.38264], [2.987518, 48.382847], [2.987697, 48.383165], [2.987863, 48.383528], [2.98807, 48.384253], [2.988207, 48.384793], [2.988219, 48.385155], [2.989557, 48.38524], [2.989546, 48.385644], [2.989213, 48.385879], [2.988704, 48.386054], [2.988081, 48.386213], [2.987956, 48.386393], [2.987587, 48.387024], [2.987387, 48.387399], [2.987129, 48.387829], [2.986242, 48.388905], [2.986174, 48.389059], [2.985849, 48.389327], [2.985437, 48.389704], [2.985792, 48.389794], [2.985483, 48.390223], [2.985228, 48.390278], [2.984637, 48.390578], [2.983585, 48.391052], [2.983562, 48.391517], [2.982662, 48.391857], [2.982506, 48.393614], [2.982733, 48.393651], [2.983652, 48.393636], [2.984753, 48.393456], [2.984788, 48.393294], [2.985158, 48.393284], [2.986464, 48.393119], [2.986472, 48.393039], [2.987425, 48.393005], [2.987423, 48.393428], [2.987575, 48.393455], [2.988403, 48.393529], [2.990468, 48.393659], [2.991002, 48.393759], [2.991354, 48.393893], [2.992451, 48.395057], [2.992577, 48.395156], [2.993457, 48.395761], [2.994237, 48.396262], [2.995068, 48.396833], [2.997302, 48.396577], [2.998165, 48.396469], [2.999079, 48.397493], [2.999501, 48.397448], [3.000005, 48.397438], [3.002085, 48.397355], [3.002064, 48.397602], [3.003123, 48.39759], [3.007303, 48.39758], [3.009914, 48.397569], [3.011009, 48.397572], [3.010933, 48.396745], [3.010935, 48.396626], [3.011621, 48.396584], [3.012048, 48.396545], [3.012591, 48.396469], [3.012914, 48.396408], [3.013765, 48.396331], [3.014697, 48.396369], [3.015651, 48.396308], [3.016588, 48.395914], [3.017287, 48.395811], [3.017342, 48.395715], [3.017592, 48.39563], [3.018462, 48.395468], [3.018781, 48.395379], [3.019126, 48.395408], [3.019802, 48.395245], [3.020403, 48.395137], [3.020576, 48.395124], [3.021104, 48.395254], [3.021439, 48.395218], [3.021977, 48.395362], [3.022175, 48.395357], [3.022889, 48.39566], [3.02329, 48.3958], [3.024216, 48.396606], [3.024594, 48.396783], [3.024947, 48.396768], [3.025283, 48.396833], [3.025316, 48.39688], [3.025758, 48.397062], [3.025702, 48.397323], [3.025767, 48.397398], [3.026162, 48.397499], [3.026301, 48.397504], [3.026728, 48.397684], [3.026971, 48.397761], [3.027177, 48.397898], [3.027358, 48.397946], [3.027856, 48.398185], [3.028462, 48.398439], [3.02889, 48.39854], [3.029102, 48.398685], [3.029321, 48.398757], [3.029945, 48.398907], [3.029874, 48.399171], [3.030431, 48.399289], [3.030803, 48.399299], [3.031058, 48.39934], [3.031679, 48.399552], [3.032225, 48.399616], [3.033169, 48.399648], [3.03336, 48.399616], [3.034001, 48.399396], [3.03475, 48.398974], [3.035256, 48.398811], [3.03562, 48.398737], [3.036223, 48.398728], [3.036904, 48.398698], [3.037462, 48.398643], [3.037938, 48.398686], [3.037985, 48.398538], [3.038701, 48.398579], [3.039201, 48.398634], [3.039429, 48.398622], [3.039898, 48.398526], [3.040711, 48.398337], [3.041103, 48.398095], [3.042056, 48.397851], [3.042305, 48.397777], [3.042687, 48.39773], [3.043028, 48.39762], [3.043677, 48.397339], [3.04376, 48.397406], [3.044519, 48.397335], [3.04472, 48.397367], [3.045204, 48.397542], [3.04589, 48.397752], [3.046139, 48.397732], [3.046367, 48.39777], [3.046773, 48.397782], [3.047204, 48.397932], [3.047655, 48.398211], [3.047809, 48.398277], [3.048031, 48.398435], [3.048396, 48.398514], [3.048801, 48.398446], [3.048981, 48.398392], [3.04915, 48.398393], [3.049392, 48.398619], [3.049713, 48.398803], [3.049865, 48.398956], [3.050338, 48.399009], [3.050705, 48.399001], [3.05099, 48.398907], [3.051263, 48.398736], [3.05147, 48.398661], [3.051875, 48.398623], [3.052355, 48.398937], [3.052767, 48.398992], [3.053099, 48.399076], [3.053378, 48.399243], [3.053727, 48.399385], [3.05406, 48.399442], [3.054445, 48.399551], [3.055043, 48.399757], [3.055844, 48.400115], [3.056259, 48.400236], [3.056905, 48.400324], [3.057186, 48.400378], [3.057862, 48.400612], [3.058225, 48.401079], [3.058423, 48.401116], [3.058587, 48.401211], [3.058672, 48.401373], [3.059225, 48.401775], [3.059405, 48.401873], [3.059812, 48.402189], [3.060085, 48.402429], [3.060569, 48.402785], [3.060738, 48.402868], [3.060918, 48.402904], [3.061911, 48.403019], [3.062379, 48.403126], [3.062622, 48.40324], [3.062918, 48.403338], [3.063712, 48.403513], [3.064355, 48.403486], [3.064806, 48.403363], [3.065129, 48.403169], [3.065326, 48.403003], [3.06554, 48.402689], [3.065609, 48.402542], [3.065976, 48.402602], [3.06628, 48.40273], [3.06664, 48.402725], [3.066753, 48.402797], [3.067267, 48.40277], [3.068512, 48.4026], [3.068735, 48.402612], [3.068905, 48.402171], [3.06889, 48.40202], [3.068959, 48.401878], [3.069127, 48.401777], [3.069488, 48.401726], [3.070104, 48.401712], [3.070685, 48.401622], [3.071515, 48.401164], [3.071992, 48.400853], [3.072142, 48.400697], [3.072433, 48.400533], [3.072509, 48.400314], [3.072398, 48.400201], [3.072388, 48.399975], [3.072685, 48.399735], [3.072833, 48.399549], [3.072924, 48.399247], [3.073147, 48.399185], [3.07345, 48.399139], [3.07373, 48.399132], [3.074288, 48.399275], [3.074602, 48.399071], [3.074503, 48.398866], [3.074477, 48.398725], [3.074839, 48.398304], [3.074975, 48.398081], [3.07551, 48.397705], [3.075647, 48.397561], [3.075649, 48.397132], [3.07578, 48.397215], [3.076132, 48.39585], [3.076433, 48.394655], [3.07614, 48.394596], [3.07589, 48.3924], [3.075853, 48.391997], [3.075685, 48.390754], [3.075573, 48.389985], [3.075477, 48.389982], [3.07542, 48.389637], [3.074817, 48.389641], [3.074297, 48.389626], [3.074882, 48.386936], [3.072992, 48.38665], [3.073013, 48.386315], [3.073539, 48.386316], [3.073539, 48.386231], [3.073651, 48.385549], [3.073805, 48.384496], [3.074109, 48.382618], [3.074621, 48.382633], [3.074759, 48.382049], [3.074936, 48.381204], [3.075144, 48.380289], [3.075429, 48.378984], [3.075377, 48.378611], [3.075305, 48.377839], [3.075205, 48.377186], [3.075102, 48.37627], [3.075129, 48.37618], [3.075079, 48.376088], [3.075032, 48.375579], [3.075389, 48.375578], [3.075334, 48.375005], [3.07521, 48.374627], [3.07534, 48.374611], [3.074905, 48.373619], [3.074752, 48.373229], [3.074143, 48.371978], [3.073842, 48.371429], [3.073165, 48.370112], [3.072789, 48.369327], [3.072725, 48.36934], [3.072505, 48.369396], [3.071902, 48.369487], [3.069011, 48.369947], [3.068143, 48.370073], [3.067648, 48.370128], [3.068204, 48.371294], [3.064265, 48.371344], [3.064107, 48.371026], [3.063671, 48.371128], [3.063828, 48.371742], [3.063935, 48.372084], [3.061733, 48.372151], [3.057557, 48.372286], [3.053865, 48.372411], [3.053137, 48.372441], [3.052653, 48.3725], [3.052238, 48.372759], [3.05116, 48.373309], [3.048331, 48.373403], [3.044464, 48.373536], [3.04321, 48.373573], [3.040475, 48.373665], [3.038806, 48.373725], [3.038677, 48.373347], [3.037812, 48.370623], [3.037695, 48.370609], [3.036062, 48.370766], [3.035204, 48.370861], [3.034881, 48.370909], [3.033705, 48.371136], [3.033296, 48.371206], [3.031869, 48.371406], [3.031175, 48.371537], [3.030232, 48.371753], [3.029178, 48.371976], [3.028878, 48.372024], [3.028406, 48.370551], [3.028172, 48.36986], [3.028052, 48.369578], [3.027953, 48.369427], [3.027634, 48.369085], [3.027279, 48.368846], [3.027569, 48.368084], [3.027751, 48.367557], [3.027479, 48.367147], [3.02652, 48.365656], [3.026431, 48.365682], [3.026312, 48.365455], [3.02557, 48.36391], [3.025382, 48.363534], [3.025315, 48.363349], [3.024344, 48.361499], [3.023525, 48.359123]]]}, "properties": {"code_iris": "772790000", "nom_iris": "Marolles-sur-Seine (commune entière)", "type_iris": "Z", "lat": 48.3813, "lng": 3.0295, "dvf_sales_total": 286, "dvf_sales_appt": 0, "dvf_sales_maison": 0, "dvf_median_price": 182590.0, "dvf_median_ppsqm": 2120.1923076923076, "dvf_by_year": "[{\"year\": 2021, \"sales\": 66, \"median_price\": 152750.0}, {\"year\": 2022, \"sales\": 48, \"median_price\": 220000.0}, {\"year\": 2023, \"sales\": 64, \"median_price\": 196495.0}, {\"year\": 2024, \"sales\": 69, \"median_price\": 185000.0}, {\"year\": 2025, \"sales\": 39, \"median_price\": 184180.0}]", "population": 1774, "n_log": null, "n_rp": null, "pct_proprio": null, "pct_hlm": null, "pct_appart": null, "pct_cadres": null, "pct_bac5p": null, "pct_etrangers": null, "pct_0_14": null, "pct_65p": null, "bpe_total": null, "bpe_commerces": null, "bpe_enseignement": null, "bpe_sante": null, "dpe": null, "attractivity_score": null, "rank_attractivity_score": null, "rank_total_attractivity_score": 1, "commune_avg": null, "is_stub": true}}]}