{"type": "FeatureCollection", "features": [{"type": "Feature", "geometry": {"type": "Polygon", "coordinates": [[[2.48907, 48.329789], [2.487707, 48.330849], [2.487816, 48.330888], [2.487566, 48.331185], [2.48749, 48.331406], [2.487412, 48.331787], [2.48736, 48.33183], [2.486519, 48.333148], [2.486415, 48.333127], [2.485851, 48.334645], [2.485556, 48.334591], [2.485449, 48.334863], [2.484572, 48.337281], [2.483906, 48.33758], [2.48424, 48.338151], [2.483306, 48.338255], [2.483721, 48.339197], [2.483703, 48.33925], [2.483691, 48.3408], [2.483702, 48.341607], [2.484941, 48.341676], [2.486203, 48.341748], [2.487199, 48.341792], [2.487439, 48.343668], [2.488344, 48.343716], [2.488458, 48.343819], [2.489163, 48.344837], [2.491655, 48.345834], [2.493518, 48.347728], [2.495191, 48.349437], [2.497053, 48.351785], [2.497609, 48.352479], [2.497702, 48.353358], [2.498007, 48.353351], [2.498578, 48.354478], [2.498775, 48.354829], [2.499021, 48.355327], [2.499894, 48.357055], [2.500755, 48.358746], [2.502305, 48.359112], [2.503458, 48.359376], [2.504651, 48.359832], [2.505472, 48.360127], [2.505529, 48.360093], [2.507923, 48.360884], [2.50847, 48.361142], [2.509634, 48.361465], [2.511515, 48.362018], [2.511591, 48.362113], [2.514575, 48.363556], [2.515872, 48.364175], [2.517362, 48.364875], [2.517509, 48.365041], [2.518508, 48.366087], [2.519685, 48.367286], [2.521596, 48.368103], [2.522469, 48.368469], [2.524496, 48.369295], [2.52462, 48.369335], [2.526086, 48.369675], [2.527837, 48.370073], [2.530023, 48.370472], [2.530219, 48.370537], [2.531087, 48.370692], [2.534944, 48.371423], [2.540183, 48.372379], [2.540526, 48.372455], [2.541034, 48.372503], [2.543267, 48.372517], [2.544626, 48.372504], [2.545493, 48.372477], [2.545709, 48.37246], [2.547767, 48.372201], [2.549105, 48.37204], [2.549544, 48.371994], [2.551226, 48.371785], [2.552675, 48.371616], [2.554778, 48.37135], [2.555455, 48.371278], [2.554977, 48.370952], [2.554839, 48.370838], [2.554483, 48.370995], [2.553343, 48.370644], [2.552176, 48.369711], [2.550947, 48.368546], [2.549227, 48.366934], [2.547632, 48.365413], [2.547209, 48.364834], [2.545583, 48.362551], [2.545807, 48.360983], [2.546555, 48.360284], [2.546659, 48.358691], [2.5467, 48.358353], [2.546841, 48.356399], [2.546903, 48.356277], [2.547132, 48.356034], [2.547784, 48.355429], [2.547915, 48.35527], [2.548611, 48.355242], [2.548988, 48.355082], [2.549122, 48.354929], [2.549108, 48.354825], [2.548936, 48.35441], [2.548931, 48.354334], [2.549463, 48.353969], [2.549843, 48.353643], [2.55014, 48.353329], [2.549679, 48.353227], [2.548658, 48.35308], [2.548007, 48.353017], [2.547698, 48.35296], [2.547429, 48.352426], [2.546855, 48.352452], [2.546669, 48.352304], [2.5457, 48.351493], [2.545291, 48.351166], [2.543971, 48.350087], [2.543686, 48.349868], [2.543252, 48.34877], [2.5427, 48.347301], [2.54555, 48.347527], [2.545598, 48.346717], [2.545627, 48.345991], [2.545682, 48.345078], [2.546017, 48.344762], [2.546881, 48.343976], [2.54821, 48.342239], [2.548338, 48.342253], [2.548449, 48.341823], [2.548685, 48.341011], [2.548691, 48.34074], [2.548585, 48.340093], [2.548509, 48.339772], [2.547961, 48.339307], [2.547504, 48.338787], [2.547233, 48.338291], [2.546359, 48.337013], [2.54621, 48.336754], [2.546169, 48.336567], [2.545708, 48.335175], [2.545448, 48.334424], [2.545772, 48.334043], [2.544658, 48.332577], [2.54349, 48.331053], [2.543112, 48.330538], [2.542246, 48.328482], [2.535618, 48.329733], [2.534621, 48.327746], [2.534473, 48.327436], [2.534171, 48.327501], [2.531647, 48.328088], [2.530486, 48.323878], [2.530248, 48.32311], [2.530006, 48.322286], [2.52976, 48.32134], [2.529693, 48.321034], [2.529587, 48.320998], [2.528014, 48.320999], [2.526354, 48.321022], [2.526256, 48.320998], [2.525984, 48.321033], [2.524455, 48.32119], [2.522989, 48.321359], [2.52263, 48.322455], [2.521153, 48.322243], [2.520952, 48.323261], [2.520933, 48.323293], [2.520573, 48.325211], [2.520337, 48.326595], [2.520331, 48.326749], [2.519887, 48.326622], [2.519202, 48.32736], [2.518211, 48.328448], [2.517445, 48.329422], [2.517282, 48.329386], [2.516546, 48.3302], [2.515659, 48.331114], [2.514296, 48.332469], [2.514174, 48.332645], [2.510963, 48.332217], [2.508724, 48.331911], [2.505742, 48.331509], [2.504, 48.331267], [2.503666, 48.331204], [2.504375, 48.330937], [2.504366, 48.330919], [2.501505, 48.330984], [2.499569, 48.330959], [2.498263, 48.330802], [2.4955, 48.330511], [2.494607, 48.330414], [2.493656, 48.330322], [2.493379, 48.330313], [2.492925, 48.330346], [2.492755, 48.330338], [2.490739, 48.330394], [2.490659, 48.330389], [2.48907, 48.329789]]]}, "properties": {"code_iris": "774850000", "nom_iris": "Le Vaudoué (commune entière)", "type_iris": "Z", "lat": 48.3468, "lng": 2.5194, "dvf_sales_total": 534, "dvf_sales_appt": 0, "dvf_sales_maison": 0, "dvf_median_price": 240000.0, "dvf_median_ppsqm": 3258.722109533469, "dvf_by_year": "[{\"year\": 2021, \"sales\": 65, \"median_price\": 353000.0}, {\"year\": 2022, \"sales\": 133, \"median_price\": 92000.0}, {\"year\": 2023, \"sales\": 103, \"median_price\": 200000.0}, {\"year\": 2024, \"sales\": 86, \"median_price\": 215615.0}, {\"year\": 2025, \"sales\": 147, \"median_price\": 401860.0}]", "population": 731, "n_log": null, "n_rp": null, "pct_proprio": null, "pct_hlm": null, "pct_appart": null, "pct_cadres": null, "pct_bac5p": null, "pct_etrangers": null, "pct_0_14": null, "pct_65p": null, "bpe_total": null, "bpe_commerces": null, "bpe_enseignement": null, "bpe_sante": null, "dpe": null, "attractivity_score": null, "rank_attractivity_score": null, "rank_total_attractivity_score": 1, "commune_avg": null, "is_stub": true}}]}