{"type": "FeatureCollection", "features": [{"type": "Feature", "geometry": {"type": "Point", "coordinates": [3.225634, 48.80789]}, "properties": {"id_parcelle": "77432000ZI0059", "address": "1 CHE DU CHAMPEAU", "sales": 9, "median_price": 132000.0, "median_price_per_sqm": 2344.7368421052633, "median_rooms": 2.0, "first_sale": "2025-01-14", "last_sale": "2025-01-14"}}, {"type": "Feature", "geometry": {"type": "Point", "coordinates": [3.22778, 48.79906]}, "properties": {"id_parcelle": "77432000AM0305", "address": "5093 LA FONTAINE", "sales": 8, "median_price": 178500.0, "median_price_per_sqm": 1961.5384615384614, "median_rooms": 2.0, "first_sale": "2022-04-25", "last_sale": "2023-12-20"}}, {"type": "Feature", "geometry": {"type": "Point", "coordinates": [3.232591, 48.794172]}, "properties": {"id_parcelle": "77432000AL0388", "address": "25 RUE DE LA CORNEE", "sales": 8, "median_price": 340000.0, "median_price_per_sqm": 1612.5, "median_rooms": 4.5, "first_sale": "2021-01-25", "last_sale": "2025-11-03"}}, {"type": "Feature", "geometry": {"type": "Point", "coordinates": [3.247558, 48.808904]}, "properties": {"id_parcelle": "77432000ZK0088", "address": "5357 LA PETITE PRESLE", "sales": 8, "median_price": 390000.0, "median_price_per_sqm": 4062.5, "median_rooms": 3.0, "first_sale": "2023-04-03", "last_sale": "2023-04-03"}}, {"type": "Feature", "geometry": {"type": "Point", "coordinates": [3.227204, 48.814091]}, "properties": {"id_parcelle": "77432000AP0154", "address": "24 RUE DE LA NAFFETIERE", "sales": 6, "median_price": 199000.0, "median_price_per_sqm": 1658.3333333333333, "median_rooms": 0.0, "first_sale": "2022-10-28", "last_sale": "2022-10-28"}}, {"type": "Feature", "geometry": {"type": "Point", "coordinates": [3.232735, 48.79724]}, "properties": {"id_parcelle": "77432000AL0333", "address": "9 LA CORNEE", "sales": 4, "median_price": 367750.0, "median_price_per_sqm": 3343.181818181818, "median_rooms": 0.0, "first_sale": "2023-03-17", "last_sale": "2023-03-17"}}, {"type": "Feature", "geometry": {"type": "Point", "coordinates": [3.230369, 48.795688]}, "properties": {"id_parcelle": "77432000AL0126", "address": "5 RUE DU LAVOIR", "sales": 4, "median_price": 210000.0, "median_price_per_sqm": 1891.8918918918919, "median_rooms": 0.0, "first_sale": "2025-06-27", "last_sale": "2025-06-27"}}, {"type": "Feature", "geometry": {"type": "Point", "coordinates": [3.243819, 48.816095]}, "properties": {"id_parcelle": "77432000AE0173", "address": "6 RUE DE MONTMOGIS", "sales": 4, "median_price": 248000.0, "median_price_per_sqm": 2610.5263157894738, "median_rooms": 2.0, "first_sale": "2021-10-29", "last_sale": "2021-10-29"}}, {"type": "Feature", "geometry": {"type": "Point", "coordinates": [3.243623, 48.794075]}, "properties": {"id_parcelle": "77432000AK0244", "address": "13 LE CHARNOY", "sales": 4, "median_price": 445000.0, "median_price_per_sqm": 2889.6103896103896, "median_rooms": 1.5, "first_sale": "2022-08-10", "last_sale": "2022-08-10"}}, {"type": "Feature", "geometry": {"type": "Point", "coordinates": [3.223036, 48.804133]}, "properties": {"id_parcelle": "77432000AO0091", "address": "14 RUE DE REVEILLON", "sales": 4, "median_price": 270000.0, "median_price_per_sqm": 1888.1118881118882, "median_rooms": 0.0, "first_sale": "2023-06-20", "last_sale": "2023-06-20"}}, {"type": "Feature", "geometry": {"type": "Point", "coordinates": [3.243178, 48.82067]}, "properties": {"id_parcelle": "77432000ZE0173", "address": "51 RUE DE MONTMOGIS", "sales": 4, "median_price": 312000.0, "median_price_per_sqm": 1544.5544554455446, "median_rooms": 6.0, "first_sale": "2021-04-15", "last_sale": "2024-10-21"}}, {"type": "Feature", "geometry": {"type": "Point", "coordinates": [3.241416, 48.811695]}, "properties": {"id_parcelle": "77432000ZK0114", "address": "12 LES ORMEAUX", "sales": 4, "median_price": 250000.0, "median_price_per_sqm": 1953.125, "median_rooms": 4.0, "first_sale": "2021-09-28", "last_sale": "2024-09-27"}}, {"type": "Feature", "geometry": {"type": "Point", "coordinates": [3.240278, 48.809926]}, "properties": {"id_parcelle": "77432000AN0437", "address": "5308 LA VIGNE A LA NOBLE", "sales": 4, "median_price": 112010.0, "median_price_per_sqm": 1898.4745762711864, "median_rooms": 1.5, "first_sale": "2022-11-30", "last_sale": "2022-11-30"}}, {"type": "Feature", "geometry": {"type": "Point", "coordinates": [3.252649, 48.823695]}, "properties": {"id_parcelle": "77432000ZD0133", "address": "9 LETTREE", "sales": 4, "median_price": 210000.0, "median_price_per_sqm": 2307.6923076923076, "median_rooms": 2.0, "first_sale": "2023-12-28", "last_sale": "2023-12-28"}}, {"type": "Feature", "geometry": {"type": "Point", "coordinates": [3.232663, 48.797376]}, "properties": {"id_parcelle": "77432000AL0336", "address": "LE BOIS LOUVET", "sales": 3, "median_price": 367750.0, "median_price_per_sqm": null, "median_rooms": null, "first_sale": "2023-03-17", "last_sale": "2023-03-17"}}, {"type": "Feature", "geometry": {"type": "Point", "coordinates": [3.245117, 48.806059]}, "properties": {"id_parcelle": "77432000AI0084", "address": "19 AUTHEIL", "sales": 3, "median_price": 249000.0, "median_price_per_sqm": 1915.3846153846155, "median_rooms": 0.0, "first_sale": "2021-06-30", "last_sale": "2021-06-30"}}, {"type": "Feature", "geometry": {"type": "Point", "coordinates": [3.229385, 48.796679]}, "properties": {"id_parcelle": "77432000AL0327", "address": "1 CHE DU CUL DE SAC", "sales": 3, "median_price": 185000.0, "median_price_per_sqm": 2283.9506172839506, "median_rooms": 3.0, "first_sale": "2022-09-16", "last_sale": "2022-09-16"}}, {"type": "Feature", "geometry": {"type": "Point", "coordinates": [3.23122, 48.795963]}, "properties": {"id_parcelle": "77432000AL0353", "address": "37 RUE DE LA CORNEE", "sales": 3, "median_price": 236100.0, "median_price_per_sqm": 2053.0434782608695, "median_rooms": 0.0, "first_sale": "2024-08-29", "last_sale": "2024-08-29"}}, {"type": "Feature", "geometry": {"type": "Point", "coordinates": [3.24322, 48.806186]}, "properties": {"id_parcelle": "77432000AI0020", "address": "5141 CUL CHAUD", "sales": 3, "median_price": 237000.0, "median_price_per_sqm": 1991.5966386554621, "median_rooms": 6.0, "first_sale": "2025-08-28", "last_sale": "2025-08-28"}}, {"type": "Feature", "geometry": {"type": "Point", "coordinates": [3.244082, 48.819135]}, "properties": {"id_parcelle": "77432000AE0073", "address": "32 RUE DE MONTMOGIS", "sales": 3, "median_price": 270000.0, "median_price_per_sqm": 1285.7142857142858, "median_rooms": 0.0, "first_sale": "2022-03-02", "last_sale": "2022-03-02"}}, {"type": "Feature", "geometry": {"type": "Point", "coordinates": [3.2458, 48.820608]}, "properties": {"id_parcelle": "77432000ZE0106", "address": "46 RUE DE MONTMOGIS", "sales": 3, "median_price": 350000.0, "median_price_per_sqm": 995.6384128454531, "median_rooms": 0.0, "first_sale": "2023-07-19", "last_sale": "2023-07-19"}}, {"type": "Feature", "geometry": {"type": "Point", "coordinates": [3.246564, 48.821178]}, "properties": {"id_parcelle": "77432000AE0158", "address": "5183 SAINT LAZARE", "sales": 3, "median_price": 130000.0, "median_price_per_sqm": 1733.3333333333333, "median_rooms": 4.0, "first_sale": "2022-08-09", "last_sale": "2022-08-09"}}, {"type": "Feature", "geometry": {"type": "Point", "coordinates": [3.245474, 48.805852]}, "properties": {"id_parcelle": "77432000AI0079", "address": "5150 AUTHEIL", "sales": 3, "median_price": 95000.0, "median_price_per_sqm": 1187.5, "median_rooms": 0.0, "first_sale": "2024-07-24", "last_sale": "2024-07-24"}}, {"type": "Feature", "geometry": {"type": "Point", "coordinates": [3.233936, 48.831194]}, "properties": {"id_parcelle": "774320000Z0026", "address": "5402 LE BOIS MAUGE", "sales": 3, "median_price": 55000.0, "median_price_per_sqm": 1170.212765957447, "median_rooms": 0.0, "first_sale": "2025-05-23", "last_sale": "2025-05-23"}}, {"type": "Feature", "geometry": {"type": "Point", "coordinates": [3.252956, 48.820462]}, "properties": {"id_parcelle": "77432000AD0016", "address": "LE BOIS BUISSON", "sales": 2, "median_price": 10500.0, "median_price_per_sqm": null, "median_rooms": null, "first_sale": "2024-06-04", "last_sale": "2025-03-27"}}, {"type": "Feature", "geometry": {"type": "Point", "coordinates": [3.249383, 48.819474]}, "properties": {"id_parcelle": "77432000AD0003", "address": "LE BOIS BUISSON", "sales": 2, "median_price": 10500.0, "median_price_per_sqm": null, "median_rooms": null, "first_sale": "2024-06-04", "last_sale": "2025-03-27"}}, {"type": "Feature", "geometry": {"type": "Point", "coordinates": [3.223416, 48.809985]}, "properties": {"id_parcelle": "774320000C0062", "address": "LE CHAMPEAU", "sales": 2, "median_price": 10500.0, "median_price_per_sqm": null, "median_rooms": null, "first_sale": "2024-06-04", "last_sale": "2025-03-27"}}, {"type": "Feature", "geometry": {"type": "Point", "coordinates": [3.252476, 48.820115]}, "properties": {"id_parcelle": "77432000AD0014", "address": "LE BOIS BUISSON", "sales": 2, "median_price": 10500.0, "median_price_per_sqm": null, "median_rooms": null, "first_sale": "2024-06-04", "last_sale": "2025-03-27"}}, {"type": "Feature", "geometry": {"type": "Point", "coordinates": [3.251834, 48.819739]}, "properties": {"id_parcelle": "77432000AD0011", "address": "LE BOIS BUISSON", "sales": 2, "median_price": 10500.0, "median_price_per_sqm": null, "median_rooms": null, "first_sale": "2024-06-04", "last_sale": "2025-03-27"}}, {"type": "Feature", "geometry": {"type": "Point", "coordinates": [3.252392, 48.819445]}, "properties": {"id_parcelle": "77432000AD0017", "address": "LE BOIS BUISSON", "sales": 2, "median_price": 10500.0, "median_price_per_sqm": null, "median_rooms": null, "first_sale": "2024-06-04", "last_sale": "2025-03-27"}}, {"type": "Feature", "geometry": {"type": "Point", "coordinates": [3.255843, 48.820586]}, "properties": {"id_parcelle": "77432000AD0045", "address": "LE BOIS BUISSON", "sales": 2, "median_price": 10500.0, "median_price_per_sqm": null, "median_rooms": null, "first_sale": "2024-06-04", "last_sale": "2025-03-27"}}, {"type": "Feature", "geometry": {"type": "Point", "coordinates": [3.255908, 48.820985]}, "properties": {"id_parcelle": "77432000AD0043", "address": "LE BOIS BUISSON", "sales": 2, "median_price": 10500.0, "median_price_per_sqm": null, "median_rooms": null, "first_sale": "2024-06-04", "last_sale": "2025-03-27"}}, {"type": "Feature", "geometry": {"type": "Point", "coordinates": [3.254033, 48.82088]}, "properties": {"id_parcelle": "77432000AD0035", "address": "LE BOIS BUISSON", "sales": 2, "median_price": 10500.0, "median_price_per_sqm": null, "median_rooms": null, "first_sale": "2024-06-04", "last_sale": "2025-03-27"}}, {"type": "Feature", "geometry": {"type": "Point", "coordinates": [3.253411, 48.821022]}, "properties": {"id_parcelle": "77432000AD0034", "address": "LE BOIS BUISSON", "sales": 2, "median_price": 10500.0, "median_price_per_sqm": null, "median_rooms": null, "first_sale": "2024-06-04", "last_sale": "2025-03-27"}}, {"type": "Feature", "geometry": {"type": "Point", "coordinates": [3.253923, 48.820387]}, "properties": {"id_parcelle": "77432000AD0031", "address": "LE BOIS BUISSON", "sales": 2, "median_price": 10500.0, "median_price_per_sqm": null, "median_rooms": null, "first_sale": "2024-06-04", "last_sale": "2025-03-27"}}, {"type": "Feature", "geometry": {"type": "Point", "coordinates": [3.253773, 48.81971]}, "properties": {"id_parcelle": "77432000AD0024", "address": "LE BOIS BUISSON", "sales": 2, "median_price": 10500.0, "median_price_per_sqm": null, "median_rooms": null, "first_sale": "2024-06-04", "last_sale": "2025-03-27"}}, {"type": "Feature", "geometry": {"type": "Point", "coordinates": [3.252553, 48.819469]}, "properties": {"id_parcelle": "77432000AD0018", "address": "LE BOIS BUISSON", "sales": 2, "median_price": 10500.0, "median_price_per_sqm": null, "median_rooms": null, "first_sale": "2024-06-04", "last_sale": "2025-03-27"}}, {"type": "Feature", "geometry": {"type": "Point", "coordinates": [3.231251, 48.795517]}, "properties": {"id_parcelle": "77432000AL0352", "address": "35 RUE DE LA CORNEE", "sales": 2, "median_price": 292000.0, "median_price_per_sqm": 2000.0, "median_rooms": 6.0, "first_sale": "2023-03-06", "last_sale": "2023-03-06"}}, {"type": "Feature", "geometry": {"type": "Point", "coordinates": [3.232189, 48.796253]}, "properties": {"id_parcelle": "77432000AL0160", "address": "5059 LA CORNEE", "sales": 2, "median_price": 212000.0, "median_price_per_sqm": null, "median_rooms": 0.0, "first_sale": "2024-02-23", "last_sale": "2024-02-23"}}, {"type": "Feature", "geometry": {"type": "Point", "coordinates": [3.232226, 48.796099]}, "properties": {"id_parcelle": "77432000AL0159", "address": "53 RUE DE LA CORNEE", "sales": 2, "median_price": 212000.0, "median_price_per_sqm": 2329.6703296703295, "median_rooms": 4.0, "first_sale": "2024-02-23", "last_sale": "2024-02-23"}}, {"type": "Feature", "geometry": {"type": "Point", "coordinates": [3.248149, 48.803494]}, "properties": {"id_parcelle": "77432000AI0166", "address": "5138 LES MARGATS DE LOUVEAU", "sales": 2, "median_price": 178000.0, "median_price_per_sqm": 2000.0, "median_rooms": 3.0, "first_sale": "2024-11-22", "last_sale": "2024-11-22"}}, {"type": "Feature", "geometry": {"type": "Point", "coordinates": [3.247263, 48.801971]}, "properties": {"id_parcelle": "77432000AK0123", "address": "5296 LOUVEAU", "sales": 2, "median_price": 100000.0, "median_price_per_sqm": 1851.851851851852, "median_rooms": 3.0, "first_sale": "2022-04-14", "last_sale": "2022-04-14"}}, {"type": "Feature", "geometry": {"type": "Point", "coordinates": [3.245233, 48.806043]}, "properties": {"id_parcelle": "77432000AI0083", "address": "20 AUTHEIL", "sales": 2, "median_price": 115000.0, "median_price_per_sqm": 2875.0, "median_rooms": 1.5, "first_sale": "2021-10-20", "last_sale": "2021-10-20"}}, {"type": "Feature", "geometry": {"type": "Point", "coordinates": [3.25158, 48.818484]}, "properties": {"id_parcelle": "77432000AD0121", "address": "LES COTINS", "sales": 2, "median_price": 10500.0, "median_price_per_sqm": null, "median_rooms": null, "first_sale": "2024-06-04", "last_sale": "2025-03-27"}}, {"type": "Feature", "geometry": {"type": "Point", "coordinates": [3.245271, 48.807576]}, "properties": {"id_parcelle": "77432000AI0043", "address": "CUL CHAUD", "sales": 2, "median_price": 10500.0, "median_price_per_sqm": null, "median_rooms": null, "first_sale": "2024-06-04", "last_sale": "2025-03-27"}}, {"type": "Feature", "geometry": {"type": "Point", "coordinates": [3.251971, 48.818361]}, "properties": {"id_parcelle": "77432000AD0118", "address": "LES COTINS", "sales": 2, "median_price": 10500.0, "median_price_per_sqm": null, "median_rooms": null, "first_sale": "2024-06-04", "last_sale": "2025-03-27"}}, {"type": "Feature", "geometry": {"type": "Point", "coordinates": [3.234113, 48.805246]}, "properties": {"id_parcelle": "77432000AN0133", "address": "LES VIGNOTS", "sales": 2, "median_price": 10500.0, "median_price_per_sqm": null, "median_rooms": null, "first_sale": "2024-06-04", "last_sale": "2025-03-27"}}, {"type": "Feature", "geometry": {"type": "Point", "coordinates": [3.232353, 48.805792]}, "properties": {"id_parcelle": "77432000AN0110", "address": "LES VIGNOTS", "sales": 2, "median_price": 10500.0, "median_price_per_sqm": null, "median_rooms": null, "first_sale": "2024-06-04", "last_sale": "2025-03-27"}}, {"type": "Feature", "geometry": {"type": "Point", "coordinates": [3.2192, 48.79282]}, "properties": {"id_parcelle": "77432000AM0326", "address": "LE MONTCEL", "sales": 2, "median_price": 290000.0, "median_price_per_sqm": null, "median_rooms": null, "first_sale": "2025-11-20", "last_sale": "2025-11-20"}}, {"type": "Feature", "geometry": {"type": "Point", "coordinates": [3.219242, 48.79269]}, "properties": {"id_parcelle": "77432000AM0324", "address": "10 LE MONTCEL", "sales": 2, "median_price": 290000.0, "median_price_per_sqm": 2900.0, "median_rooms": 3.0, "first_sale": "2025-11-20", "last_sale": "2025-11-20"}}, {"type": "Feature", "geometry": {"type": "Point", "coordinates": [3.217912, 48.796661]}, "properties": {"id_parcelle": "77432000AM0029", "address": "LES MARGATS", "sales": 2, "median_price": 10500.0, "median_price_per_sqm": null, "median_rooms": null, "first_sale": "2024-06-04", "last_sale": "2025-03-27"}}, {"type": "Feature", "geometry": {"type": "Point", "coordinates": [3.217759, 48.79673]}, "properties": {"id_parcelle": "77432000AM0027", "address": "LES MARGATS", "sales": 2, "median_price": 10500.0, "median_price_per_sqm": null, "median_rooms": null, "first_sale": "2024-06-04", "last_sale": "2025-03-27"}}, {"type": "Feature", "geometry": {"type": "Point", "coordinates": [3.231001, 48.796789]}, "properties": {"id_parcelle": "77432000AL0417", "address": "32 RUE DE LA CORNEE", "sales": 2, "median_price": 85000.0, "median_price_per_sqm": 2125.0, "median_rooms": 0.5, "first_sale": "2023-05-30", "last_sale": "2023-05-30"}}, {"type": "Feature", "geometry": {"type": "Point", "coordinates": [3.231335, 48.794639]}, "properties": {"id_parcelle": "77432000AL0383", "address": "20 RUE DE LA CORNEE", "sales": 2, "median_price": 338000.0, "median_price_per_sqm": 2939.1304347826085, "median_rooms": 2.5, "first_sale": "2022-07-25", "last_sale": "2022-07-25"}}, {"type": "Feature", "geometry": {"type": "Point", "coordinates": [3.231566, 48.792229]}, "properties": {"id_parcelle": "77432000AL0221", "address": "29 RUE PRINCIPALE", "sales": 2, "median_price": 145000.0, "median_price_per_sqm": 1835.4430379746836, "median_rooms": 2.0, "first_sale": "2023-07-22", "last_sale": "2023-07-22"}}, {"type": "Feature", "geometry": {"type": "Point", "coordinates": [3.253153, 48.824467]}, "properties": {"id_parcelle": "77432000ZD0129", "address": "17 LETTREE", "sales": 2, "median_price": 248000.0, "median_price_per_sqm": 2725.2747252747254, "median_rooms": 2.0, "first_sale": "2022-11-18", "last_sale": "2022-11-18"}}, {"type": "Feature", "geometry": {"type": "Point", "coordinates": [3.223177, 48.803829]}, "properties": {"id_parcelle": "77432000AO0093", "address": "5244 BARLONGES", "sales": 2, "median_price": 270000.0, "median_price_per_sqm": null, "median_rooms": 0.0, "first_sale": "2023-06-20", "last_sale": "2023-06-20"}}, {"type": "Feature", "geometry": {"type": "Point", "coordinates": [3.241073, 48.827171]}, "properties": {"id_parcelle": "77432000ZE0016", "address": "LES VALLEES", "sales": 2, "median_price": 10500.0, "median_price_per_sqm": null, "median_rooms": null, "first_sale": "2024-06-04", "last_sale": "2025-03-27"}}, {"type": "Feature", "geometry": {"type": "Point", "coordinates": [3.240863, 48.828288]}, "properties": {"id_parcelle": "77432000ZE0118", "address": "LE BOIS DES VALLEES", "sales": 2, "median_price": 10500.0, "median_price_per_sqm": null, "median_rooms": null, "first_sale": "2024-06-04", "last_sale": "2025-03-27"}}, {"type": "Feature", "geometry": {"type": "Point", "coordinates": [3.254077, 48.819071]}, "properties": {"id_parcelle": "77432000ZD0066", "address": "LA HANTELLE", "sales": 2, "median_price": 5000.0, "median_price_per_sqm": null, "median_rooms": null, "first_sale": "2023-09-26", "last_sale": "2023-09-26"}}, {"type": "Feature", "geometry": {"type": "Point", "coordinates": [3.236513, 48.806796]}, "properties": {"id_parcelle": "77432000AN0178", "address": "5109 POIVRECHAUD", "sales": 2, "median_price": 54000.0, "median_price_per_sqm": 760.5633802816901, "median_rooms": 1.5, "first_sale": "2024-04-11", "last_sale": "2024-04-11"}}, {"type": "Feature", "geometry": {"type": "Point", "coordinates": [3.236726, 48.806922]}, "properties": {"id_parcelle": "77432000AN0181", "address": "POIVRECHAUD", "sales": 2, "median_price": 117000.0, "median_price_per_sqm": null, "median_rooms": null, "first_sale": "2022-11-09", "last_sale": "2024-04-11"}}, {"type": "Feature", "geometry": {"type": "Point", "coordinates": [3.22977, 48.820943]}, "properties": {"id_parcelle": "77432000ZH0027", "address": "LE CHAMP FAILLY", "sales": 2, "median_price": 31720.0, "median_price_per_sqm": null, "median_rooms": null, "first_sale": "2025-02-06", "last_sale": "2025-02-06"}}, {"type": "Feature", "geometry": {"type": "Point", "coordinates": [3.241018, 48.827679]}, "properties": {"id_parcelle": "77432000ZE0137", "address": "LE BOIS DES VALLEES", "sales": 2, "median_price": 10500.0, "median_price_per_sqm": null, "median_rooms": null, "first_sale": "2024-06-04", "last_sale": "2025-03-27"}}, {"type": "Feature", "geometry": {"type": "Point", "coordinates": [3.241265, 48.828353]}, "properties": {"id_parcelle": "77432000ZE0121", "address": "LE BOIS DES VALLEES", "sales": 2, "median_price": 10500.0, "median_price_per_sqm": null, "median_rooms": null, "first_sale": "2024-06-04", "last_sale": "2025-03-27"}}, {"type": "Feature", "geometry": {"type": "Point", "coordinates": [3.235545, 48.823485]}, "properties": {"id_parcelle": "77432000ZH0033", "address": "LE CHAMP DE LA PIE", "sales": 2, "median_price": 31720.0, "median_price_per_sqm": null, "median_rooms": null, "first_sale": "2025-02-06", "last_sale": "2025-02-06"}}, {"type": "Feature", "geometry": {"type": "Point", "coordinates": [3.226502, 48.804478]}, "properties": {"id_parcelle": "77432000ZI0151", "address": "6 CHE DES JEUNES VIGNES", "sales": 2, "median_price": 240000.0, "median_price_per_sqm": 3529.4117647058824, "median_rooms": 3.0, "first_sale": "2024-11-25", "last_sale": "2024-11-25"}}, {"type": "Feature", "geometry": {"type": "Point", "coordinates": [3.231091, 48.803689]}, "properties": {"id_parcelle": "77432000ZI0173", "address": "14 RUE DE LA VANNE", "sales": 2, "median_price": 120000.0, "median_price_per_sqm": 1445.7831325301204, "median_rooms": 3.0, "first_sale": "2022-03-28", "last_sale": "2022-03-28"}}, {"type": "Feature", "geometry": {"type": "Point", "coordinates": [3.237986, 48.818177]}, "properties": {"id_parcelle": "77432000ZH0051", "address": "LA BOUCHOTTE", "sales": 2, "median_price": 45000.0, "median_price_per_sqm": null, "median_rooms": null, "first_sale": "2024-07-02", "last_sale": "2024-07-02"}}, {"type": "Feature", "geometry": {"type": "Point", "coordinates": [3.225315, 48.809236]}, "properties": {"id_parcelle": "77432000ZI0060", "address": "LES ROUGERIAUX", "sales": 2, "median_price": 132000.0, "median_price_per_sqm": null, "median_rooms": null, "first_sale": "2025-01-14", "last_sale": "2025-01-14"}}, {"type": "Feature", "geometry": {"type": "Point", "coordinates": [3.226958, 48.805553]}, "properties": {"id_parcelle": "77432000ZI0226", "address": "15 RUE DES ARTONS", "sales": 2, "median_price": 300000.0, "median_price_per_sqm": 2205.8823529411766, "median_rooms": 6.0, "first_sale": "2024-10-23", "last_sale": "2024-10-23"}}, {"type": "Feature", "geometry": {"type": "Point", "coordinates": [3.229307, 48.802496]}, "properties": {"id_parcelle": "77432000ZI0206", "address": "25 RUE DE LA VANNE", "sales": 2, "median_price": 220000.0, "median_price_per_sqm": 1981.981981981982, "median_rooms": 4.0, "first_sale": "2024-12-19", "last_sale": "2024-12-19"}}, {"type": "Feature", "geometry": {"type": "Point", "coordinates": [3.247898, 48.813958]}, "properties": {"id_parcelle": "77432000ZK0030", "address": "LA GROSSE HAIE", "sales": 2, "median_price": 45000.0, "median_price_per_sqm": null, "median_rooms": null, "first_sale": "2024-07-02", "last_sale": "2024-07-02"}}, {"type": "Feature", "geometry": {"type": "Point", "coordinates": [3.240801, 48.810974]}, "properties": {"id_parcelle": "77432000ZK0111", "address": "9 RUE DE LA VIGNE A LA NOBLE", "sales": 2, "median_price": 200000.0, "median_price_per_sqm": 2272.7272727272725, "median_rooms": 5.0, "first_sale": "2025-07-07", "last_sale": "2025-07-07"}}, {"type": "Feature", "geometry": {"type": "Point", "coordinates": [3.238912, 48.804506]}, "properties": {"id_parcelle": "77432000ZM0095", "address": "12 RESIDENCE DROUET", "sales": 2, "median_price": 81500.0, "median_price_per_sqm": 831.6326530612245, "median_rooms": 4.0, "first_sale": "2025-05-12", "last_sale": "2025-05-12"}}, {"type": "Feature", "geometry": {"type": "Point", "coordinates": [3.238642, 48.796254]}, "properties": {"id_parcelle": "77432000ZN0063", "address": "5000 LE CLOS GUERIN", "sales": 2, "median_price": 269000.0, "median_price_per_sqm": 2773.1958762886597, "median_rooms": 4.0, "first_sale": "2022-08-18", "last_sale": "2022-08-18"}}, {"type": "Feature", "geometry": {"type": "Point", "coordinates": [3.220977, 48.79613]}, "properties": {"id_parcelle": "77432000ZO0009", "address": "LES FOLIES", "sales": 2, "median_price": 800.0, "median_price_per_sqm": null, "median_rooms": null, "first_sale": "2022-08-05", "last_sale": "2025-02-27"}}, {"type": "Feature", "geometry": {"type": "Point", "coordinates": [3.222057, 48.791846]}, "properties": {"id_parcelle": "77432000ZO0119", "address": "LE DESSUS DES CLOS DU MONT", "sales": 2, "median_price": 68000.0, "median_price_per_sqm": null, "median_rooms": null, "first_sale": "2021-10-04", "last_sale": "2021-10-04"}}]}