{"type": "FeatureCollection", "features": [{"type": "Feature", "geometry": {"type": "Point", "coordinates": [2.4168464136231043, 48.846964075187586]}, "properties": {"updated": "2024-01-25", "year": 2024, "type_bati": "Bâtiment principal", "area_m2": 213.0, "code_iris": "940670103", "nom_iris": "Saint-Louis"}}, {"type": "Feature", "geometry": {"type": "Point", "coordinates": [2.4168954999323793, 48.84709066879654]}, "properties": {"updated": "2026-01-12", "year": 2026, "type_bati": "Bâtiment principal", "area_m2": 231.0, "code_iris": "940670103", "nom_iris": "Saint-Louis"}}, {"type": "Feature", "geometry": {"type": "Point", "coordinates": [2.417381436411957, 48.847070044005164]}, "properties": {"updated": "2026-01-12", "year": 2026, "type_bati": "Bâtiment principal", "area_m2": 212.0, "code_iris": "940670103", "nom_iris": "Saint-Louis"}}, {"type": "Feature", "geometry": {"type": "Point", "coordinates": [2.4180631673382926, 48.844703852222665]}, "properties": {"updated": "2019-04-19", "year": 2019, "type_bati": "Bâtiment principal", "area_m2": 167.0, "code_iris": "940670102", "nom_iris": "Charles de Gaulle"}}, {"type": "Feature", "geometry": {"type": "Point", "coordinates": [2.41827783564116, 48.84429319844162]}, "properties": {"updated": "2019-02-22", "year": 2019, "type_bati": "Bâtiment principal", "area_m2": 232.0, "code_iris": "940670102", "nom_iris": "Charles de Gaulle"}}, {"type": "Feature", "geometry": {"type": "Point", "coordinates": [2.424331327951617, 48.84447407663784]}, "properties": {"updated": "2025-08-20", "year": 2025, "type_bati": "Bâtiment principal", "area_m2": 1338.0, "code_iris": "940670101", "nom_iris": "Bégin"}}, {"type": "Feature", "geometry": {"type": "Point", "coordinates": [2.4249416721870163, 48.84440669537566]}, "properties": {"updated": "2019-12-04", "year": 2019, "type_bati": "Bâtiment principal", "area_m2": 705.0, "code_iris": "940670101", "nom_iris": "Bégin"}}, {"type": "Feature", "geometry": {"type": "Point", "coordinates": [2.422151644500435, 48.84584744384258]}, "properties": {"updated": "2021-01-11", "year": 2021, "type_bati": "Bâtiment principal", "area_m2": 318.0, "code_iris": "940670102", "nom_iris": "Charles de Gaulle"}}, {"type": "Feature", "geometry": {"type": "Point", "coordinates": [2.4148148542469876, 48.84208484623934]}, "properties": {"updated": "2024-01-10", "year": 2024, "type_bati": "Bâtiment principal", "area_m2": 176.0, "code_iris": "940670107", "nom_iris": "Notre-Dame"}}, {"type": "Feature", "geometry": {"type": "Point", "coordinates": [2.4182218648801084, 48.83873442372828]}, "properties": {"updated": "2021-01-11", "year": 2021, "type_bati": "Bâtiment principal", "area_m2": 114.0, "code_iris": "940670105", "nom_iris": "Saint-Michel"}}, {"type": "Feature", "geometry": {"type": "Point", "coordinates": [2.418027795386646, 48.83894505145289]}, "properties": {"updated": "2021-01-11", "year": 2021, "type_bati": "Bâtiment principal", "area_m2": 307.0, "code_iris": "940670105", "nom_iris": "Saint-Michel"}}, {"type": "Feature", "geometry": {"type": "Point", "coordinates": [2.4188208983249364, 48.83894681845388]}, "properties": {"updated": "2019-09-09", "year": 2019, "type_bati": "Bâtiment principal", "area_m2": 94.0, "code_iris": "940670105", "nom_iris": "Saint-Michel"}}, {"type": "Feature", "geometry": {"type": "Point", "coordinates": [2.419922044874282, 48.83971847089668]}, "properties": {"updated": "2025-07-11", "year": 2025, "type_bati": "Bâtiment principal", "area_m2": 1277.0, "code_iris": "940670105", "nom_iris": "Saint-Michel"}}, {"type": "Feature", "geometry": {"type": "Point", "coordinates": [2.42045183486788, 48.839746727606034]}, "properties": {"updated": "2023-12-22", "year": 2023, "type_bati": "Bâtiment principal", "area_m2": 137.0, "code_iris": "940670105", "nom_iris": "Saint-Michel"}}, {"type": "Feature", "geometry": {"type": "Point", "coordinates": [2.4196736684376874, 48.84007937379351]}, "properties": {"updated": "2019-07-25", "year": 2019, "type_bati": "Bâtiment principal", "area_m2": 246.0, "code_iris": "940670105", "nom_iris": "Saint-Michel"}}, {"type": "Feature", "geometry": {"type": "Point", "coordinates": [2.4203980067812347, 48.839821445849644]}, "properties": {"updated": "2023-12-22", "year": 2023, "type_bati": "Bâtiment principal", "area_m2": 163.0, "code_iris": "940670105", "nom_iris": "Saint-Michel"}}, {"type": "Feature", "geometry": {"type": "Point", "coordinates": [2.418388638577374, 48.84023305901876]}, "properties": {"updated": "2025-09-02", "year": 2025, "type_bati": "Bâtiment principal", "area_m2": 530.0, "code_iris": "940670105", "nom_iris": "Saint-Michel"}}, {"type": "Feature", "geometry": {"type": "Point", "coordinates": [2.4172075162034816, 48.83491632198556]}, "properties": {"updated": "2019-09-26", "year": 2019, "type_bati": "Bâtiment principal", "area_m2": 169.0, "code_iris": "940670109", "nom_iris": "Daumesnil"}}, {"type": "Feature", "geometry": {"type": "Point", "coordinates": [2.417025457236906, 48.83577954782083]}, "properties": {"updated": "2019-09-26", "year": 2019, "type_bati": "Bâtiment principal", "area_m2": 188.0, "code_iris": "940670109", "nom_iris": "Daumesnil"}}, {"type": "Feature", "geometry": {"type": "Point", "coordinates": [2.416924251204733, 48.835708115454615]}, "properties": {"updated": "2024-09-06", "year": 2024, "type_bati": "Bâtiment principal", "area_m2": 45.0, "code_iris": "940670109", "nom_iris": "Daumesnil"}}, {"type": "Feature", "geometry": {"type": "Point", "coordinates": [2.4176038921963805, 48.835856478422734]}, "properties": {"updated": "2019-09-26", "year": 2019, "type_bati": "Bâtiment principal", "area_m2": 343.0, "code_iris": "940670109", "nom_iris": "Daumesnil"}}, {"type": "Feature", "geometry": {"type": "Point", "coordinates": [2.418726018537471, 48.83615289722001]}, "properties": {"updated": "2019-09-26", "year": 2019, "type_bati": "Bâtiment principal", "area_m2": 181.0, "code_iris": "940670109", "nom_iris": "Daumesnil"}}, {"type": "Feature", "geometry": {"type": "Point", "coordinates": [2.418599840825052, 48.83622804379257]}, "properties": {"updated": "2019-09-26", "year": 2019, "type_bati": "Bâtiment principal", "area_m2": 357.0, "code_iris": "940670109", "nom_iris": "Daumesnil"}}, {"type": "Feature", "geometry": {"type": "Point", "coordinates": [2.419936709009463, 48.837121788441586]}, "properties": {"updated": "2021-03-19", "year": 2021, "type_bati": "Bâtiment principal", "area_m2": 131.0, "code_iris": "940670106", "nom_iris": "La Pelouse"}}, {"type": "Feature", "geometry": {"type": "Point", "coordinates": [2.4200068593965787, 48.8370491157115]}, "properties": {"updated": "2021-03-19", "year": 2021, "type_bati": "Bâtiment principal", "area_m2": 194.0, "code_iris": "940670106", "nom_iris": "La Pelouse"}}, {"type": "Feature", "geometry": {"type": "Point", "coordinates": [2.419872064715668, 48.83705842993918]}, "properties": {"updated": "2021-03-19", "year": 2021, "type_bati": "Annexe / léger", "area_m2": 31.0, "code_iris": "940670106", "nom_iris": "La Pelouse"}}, {"type": "Feature", "geometry": {"type": "Point", "coordinates": [2.419538043718501, 48.837015982454595]}, "properties": {"updated": "2021-03-19", "year": 2021, "type_bati": "Bâtiment principal", "area_m2": 116.0, "code_iris": "940670106", "nom_iris": "La Pelouse"}}, {"type": "Feature", "geometry": {"type": "Point", "coordinates": [2.4131935517609584, 48.83661236627607]}, "properties": {"updated": "2021-03-19", "year": 2021, "type_bati": "Bâtiment principal", "area_m2": 106.0, "code_iris": "940670108", "nom_iris": "Libération"}}, {"type": "Feature", "geometry": {"type": "Point", "coordinates": [2.414074480984088, 48.8347316202824]}, "properties": {"updated": "2024-04-19", "year": 2024, "type_bati": "Bâtiment principal", "area_m2": 70.0, "code_iris": "940670109", "nom_iris": "Daumesnil"}}, {"type": "Feature", "geometry": {"type": "Point", "coordinates": [2.4139928932183974, 48.834716814863]}, "properties": {"updated": "2024-04-19", "year": 2024, "type_bati": "Bâtiment principal", "area_m2": 40.0, "code_iris": "940670109", "nom_iris": "Daumesnil"}}]}