{"type": "FeatureCollection", "features": [{"type": "Feature", "geometry": {"type": "Point", "coordinates": [3.191874, 48.915475]}, "properties": {"id_parcelle": "774050000B0309", "address": "5807 L HERMITIERE", "sales": 12, "median_price": 390000.0, "median_price_per_sqm": 2228.5714285714284, "median_rooms": 3.0, "first_sale": "2023-06-15", "last_sale": "2023-06-15"}}, {"type": "Feature", "geometry": {"type": "Point", "coordinates": [3.185286, 48.935323]}, "properties": {"id_parcelle": "774050000A0129", "address": "26 RTE HAMEAU DE NOISEMENT", "sales": 8, "median_price": 258000.0, "median_price_per_sqm": 2504.854368932039, "median_rooms": 0.0, "first_sale": "2024-07-04", "last_sale": "2024-07-04"}}, {"type": "Feature", "geometry": {"type": "Point", "coordinates": [3.188343, 48.906458]}, "properties": {"id_parcelle": "774050000E1031", "address": "4 RUE DES ROSETTES", "sales": 8, "median_price": 276500.0, "median_price_per_sqm": 2304.166666666667, "median_rooms": 2.5, "first_sale": "2021-07-12", "last_sale": "2025-08-04"}}, {"type": "Feature", "geometry": {"type": "Point", "coordinates": [3.141704, 48.889359]}, "properties": {"id_parcelle": "774050000H0081", "address": "5596 GOINS", "sales": 8, "median_price": 344750.0, "median_price_per_sqm": 2298.3333333333335, "median_rooms": 0.0, "first_sale": "2021-08-26", "last_sale": "2021-08-26"}}, {"type": "Feature", "geometry": {"type": "Point", "coordinates": [3.1828, 48.906518]}, "properties": {"id_parcelle": "774050000F0981", "address": "10 RUE EUGENE DAUMONT", "sales": 7, "median_price": 120000.0, "median_price_per_sqm": 1617.00703046535, "median_rooms": 0.0, "first_sale": "2025-01-09", "last_sale": "2025-01-09"}}, {"type": "Feature", "geometry": {"type": "Point", "coordinates": [3.177548, 48.932683]}, "properties": {"id_parcelle": "774050000B0286", "address": "9 MORAS", "sales": 6, "median_price": 103000.0, "median_price_per_sqm": 1584.6153846153845, "median_rooms": 0.0, "first_sale": "2023-03-23", "last_sale": "2023-03-23"}}, {"type": "Feature", "geometry": {"type": "Point", "coordinates": [3.178787, 48.931386]}, "properties": {"id_parcelle": "774050000B0213", "address": "17 VORPILLIERE", "sales": 6, "median_price": 457000.0, "median_price_per_sqm": 3769.86531986532, "median_rooms": 4.0, "first_sale": "2021-09-01", "last_sale": "2021-09-01"}}, {"type": "Feature", "geometry": {"type": "Point", "coordinates": [3.168457, 48.892811]}, "properties": {"id_parcelle": "774050000G1087", "address": "3361 RTE DE REBAIS", "sales": 6, "median_price": 543000.0, "median_price_per_sqm": 1954.2976493911074, "median_rooms": 0.0, "first_sale": "2024-07-04", "last_sale": "2024-07-04"}}, {"type": "Feature", "geometry": {"type": "Point", "coordinates": [3.195817, 48.921104]}, "properties": {"id_parcelle": "77405000ZK0090", "address": "34 RUE JEAN RENAULT", "sales": 6, "median_price": 192000.0, "median_price_per_sqm": 2133.3333333333335, "median_rooms": 0.0, "first_sale": "2025-12-29", "last_sale": "2025-12-29"}}, {"type": "Feature", "geometry": {"type": "Point", "coordinates": [3.18145, 48.905663]}, "properties": {"id_parcelle": "774050000F0152", "address": "15 RUE DES FORGES", "sales": 4, "median_price": 190000.0, "median_price_per_sqm": 2753.623188405797, "median_rooms": 1.5, "first_sale": "2021-12-14", "last_sale": "2021-12-14"}}, {"type": "Feature", "geometry": {"type": "Point", "coordinates": [3.189184, 48.906006]}, "properties": {"id_parcelle": "774050000E1055", "address": "LA COUTURE", "sales": 4, "median_price": 96000.0, "median_price_per_sqm": null, "median_rooms": null, "first_sale": "2021-07-28", "last_sale": "2024-07-23"}}, {"type": "Feature", "geometry": {"type": "Point", "coordinates": [3.189312, 48.905931]}, "properties": {"id_parcelle": "774050000E1052", "address": "21 AV DANIEL SIMON", "sales": 4, "median_price": 96000.0, "median_price_per_sqm": null, "median_rooms": null, "first_sale": "2021-07-28", "last_sale": "2024-07-23"}}, {"type": "Feature", "geometry": {"type": "Point", "coordinates": [3.179261, 48.907817]}, "properties": {"id_parcelle": "774050000F1020", "address": "20 AV DE LA FERTE SOUS JOUARRE", "sales": 4, "median_price": 530000.0, "median_price_per_sqm": 2650.0, "median_rooms": 3.0, "first_sale": "2024-03-14", "last_sale": "2024-03-14"}}, {"type": "Feature", "geometry": {"type": "Point", "coordinates": [3.154042, 48.896138]}, "properties": {"id_parcelle": "77405000ZO0050", "address": "LES CARRIERES", "sales": 4, "median_price": 65000.0, "median_price_per_sqm": null, "median_rooms": null, "first_sale": "2022-07-28", "last_sale": "2022-07-28"}}, {"type": "Feature", "geometry": {"type": "Point", "coordinates": [3.161291, 48.890442]}, "properties": {"id_parcelle": "77405000ZO0016", "address": "LE CHP DE LA TOURNELLE", "sales": 4, "median_price": 72861.0, "median_price_per_sqm": null, "median_rooms": null, "first_sale": "2023-03-16", "last_sale": "2023-03-16"}}, {"type": "Feature", "geometry": {"type": "Point", "coordinates": [3.152436, 48.904324]}, "properties": {"id_parcelle": "77405000ZN0055", "address": "LE CHP DE CHOISEL", "sales": 4, "median_price": 5580.35, "median_price_per_sqm": null, "median_rooms": null, "first_sale": "2021-12-10", "last_sale": "2022-07-26"}}, {"type": "Feature", "geometry": {"type": "Point", "coordinates": [3.161066, 48.890783]}, "properties": {"id_parcelle": "77405000ZO0019", "address": "LE CHP DE LA TOURNELLE", "sales": 4, "median_price": 72861.0, "median_price_per_sqm": null, "median_rooms": null, "first_sale": "2023-03-16", "last_sale": "2023-03-16"}}, {"type": "Feature", "geometry": {"type": "Point", "coordinates": [3.16161, 48.890464]}, "properties": {"id_parcelle": "77405000ZO0045", "address": "LE CHP DE LA TOURNELLE", "sales": 4, "median_price": 72861.0, "median_price_per_sqm": null, "median_rooms": null, "first_sale": "2023-03-16", "last_sale": "2023-03-16"}}, {"type": "Feature", "geometry": {"type": "Point", "coordinates": [3.160839, 48.890093]}, "properties": {"id_parcelle": "77405000ZO0017", "address": "LE CHP DE LA TOURNELLE", "sales": 4, "median_price": 72861.0, "median_price_per_sqm": null, "median_rooms": null, "first_sale": "2023-03-16", "last_sale": "2023-03-16"}}, {"type": "Feature", "geometry": {"type": "Point", "coordinates": [3.179971, 48.907938]}, "properties": {"id_parcelle": "774050000F0959", "address": "18 AV DE LA FERTE SOUS JOUARRE", "sales": 4, "median_price": 700000.0, "median_price_per_sqm": 3181.818181818182, "median_rooms": 3.5, "first_sale": "2022-02-22", "last_sale": "2022-02-22"}}, {"type": "Feature", "geometry": {"type": "Point", "coordinates": [3.138361, 48.894775]}, "properties": {"id_parcelle": "77405000ZP0022", "address": "LA CRX BLANCHE", "sales": 4, "median_price": 50139.0, "median_price_per_sqm": null, "median_rooms": null, "first_sale": "2023-03-16", "last_sale": "2023-03-16"}}, {"type": "Feature", "geometry": {"type": "Point", "coordinates": [3.17384, 48.904202]}, "properties": {"id_parcelle": "774050000F0763", "address": "12 RUE DES MONTGOINS", "sales": 4, "median_price": 348000.0, "median_price_per_sqm": 1740.0, "median_rooms": 4.0, "first_sale": "2022-01-17", "last_sale": "2022-01-17"}}, {"type": "Feature", "geometry": {"type": "Point", "coordinates": [3.179442, 48.907818]}, "properties": {"id_parcelle": "774050000F1029", "address": "20 AV DE LA FERTE SOUS JOUARRE", "sales": 4, "median_price": 414000.0, "median_price_per_sqm": 6613.083164300203, "median_rooms": 3.0, "first_sale": "2022-07-11", "last_sale": "2022-07-11"}}, {"type": "Feature", "geometry": {"type": "Point", "coordinates": [3.190779, 48.914231]}, "properties": {"id_parcelle": "774050000E0987", "address": "35 RTE DES VIEILLES VIGNES", "sales": 4, "median_price": 219000.0, "median_price_per_sqm": 2517.2413793103447, "median_rooms": 2.0, "first_sale": "2021-10-18", "last_sale": "2021-10-18"}}, {"type": "Feature", "geometry": {"type": "Point", "coordinates": [3.188995, 48.905823]}, "properties": {"id_parcelle": "774050000E1051", "address": "21 AV DANIEL SIMON", "sales": 4, "median_price": 96000.0, "median_price_per_sqm": null, "median_rooms": null, "first_sale": "2021-07-28", "last_sale": "2024-07-23"}}, {"type": "Feature", "geometry": {"type": "Point", "coordinates": [3.189332, 48.905967]}, "properties": {"id_parcelle": "774050000E1056", "address": "LA COUTURE", "sales": 4, "median_price": 96000.0, "median_price_per_sqm": null, "median_rooms": null, "first_sale": "2021-07-28", "last_sale": "2024-07-23"}}, {"type": "Feature", "geometry": {"type": "Point", "coordinates": [3.180155, 48.9062]}, "properties": {"id_parcelle": "774050000F0207", "address": "42 RUE EUGENE DAUMONT", "sales": 4, "median_price": 212000.0, "median_price_per_sqm": 1593.984962406015, "median_rooms": 0.0, "first_sale": "2025-06-09", "last_sale": "2025-06-09"}}, {"type": "Feature", "geometry": {"type": "Point", "coordinates": [3.177762, 48.907301]}, "properties": {"id_parcelle": "774050000F0803", "address": "24 AV DE LA FERTE SOUS JOUARRE", "sales": 4, "median_price": 200000.0, "median_price_per_sqm": 2000.0, "median_rooms": 2.0, "first_sale": "2024-03-12", "last_sale": "2024-03-12"}}, {"type": "Feature", "geometry": {"type": "Point", "coordinates": [3.182923, 48.906344]}, "properties": {"id_parcelle": "774050000F0949", "address": "5 RUE EUGENE DAUMONT", "sales": 4, "median_price": 133000.0, "median_price_per_sqm": 2850.0, "median_rooms": 0.5, "first_sale": "2024-07-05", "last_sale": "2024-07-05"}}, {"type": "Feature", "geometry": {"type": "Point", "coordinates": [3.179634, 48.907117]}, "properties": {"id_parcelle": "774050000F0304", "address": "21 AV DE LA FERTE SOUS JOUARRE", "sales": 4, "median_price": 240000.0, "median_price_per_sqm": 3809.5238095238096, "median_rooms": 1.5, "first_sale": "2023-04-28", "last_sale": "2023-04-28"}}, {"type": "Feature", "geometry": {"type": "Point", "coordinates": [3.18426, 48.90666]}, "properties": {"id_parcelle": "774050000F0801", "address": "1 COUR SAINTE", "sales": 4, "median_price": 190000.0, "median_price_per_sqm": 1357.142857142857, "median_rooms": 2.0, "first_sale": "2022-03-25", "last_sale": "2022-03-25"}}, {"type": "Feature", "geometry": {"type": "Point", "coordinates": [3.142605, 48.897497]}, "properties": {"id_parcelle": "77405000ZP0012", "address": "LE CHP NOIRET", "sales": 4, "median_price": 72861.0, "median_price_per_sqm": null, "median_rooms": null, "first_sale": "2023-03-16", "last_sale": "2023-03-16"}}, {"type": "Feature", "geometry": {"type": "Point", "coordinates": [3.162962, 48.916199]}, "properties": {"id_parcelle": "774050000C1664", "address": "26 RUE DU GOUFFRE", "sales": 4, "median_price": 153000.0, "median_price_per_sqm": 1318.9655172413793, "median_rooms": 1.5, "first_sale": "2022-03-15", "last_sale": "2022-03-15"}}, {"type": "Feature", "geometry": {"type": "Point", "coordinates": [3.202235, 48.930796]}, "properties": {"id_parcelle": "77405000ZC0058", "address": "2 RTE DE MONTMIRAIL", "sales": 4, "median_price": 190000.0, "median_price_per_sqm": 3454.5454545454545, "median_rooms": 2.5, "first_sale": "2023-10-02", "last_sale": "2023-10-02"}}, {"type": "Feature", "geometry": {"type": "Point", "coordinates": [3.1823, 48.905208]}, "properties": {"id_parcelle": "774050000F0135", "address": "22 RUE DE CHAVIGNY", "sales": 3, "median_price": 138000.0, "median_price_per_sqm": 1815.7894736842106, "median_rooms": 0.0, "first_sale": "2022-03-14", "last_sale": "2022-03-14"}}, {"type": "Feature", "geometry": {"type": "Point", "coordinates": [3.163545, 48.917987]}, "properties": {"id_parcelle": "774050000C1698", "address": "21 RUE DE CHAMPEAUX", "sales": 3, "median_price": 358500.0, "median_price_per_sqm": 2096.4912280701756, "median_rooms": 0.0, "first_sale": "2023-07-07", "last_sale": "2023-07-07"}}, {"type": "Feature", "geometry": {"type": "Point", "coordinates": [3.162402, 48.916369]}, "properties": {"id_parcelle": "774050000C1705", "address": "5841 RUE DES PRES", "sales": 3, "median_price": 70000.0, "median_price_per_sqm": null, "median_rooms": 0.0, "first_sale": "2025-09-16", "last_sale": "2025-09-16"}}, {"type": "Feature", "geometry": {"type": "Point", "coordinates": [3.194442, 48.92102]}, "properties": {"id_parcelle": "774050000B0058", "address": "5453 CHAMPTORTET", "sales": 3, "median_price": 108000.0, "median_price_per_sqm": 1350.0, "median_rooms": 3.0, "first_sale": "2024-07-18", "last_sale": "2024-07-18"}}, {"type": "Feature", "geometry": {"type": "Point", "coordinates": [3.174443, 48.911488]}, "properties": {"id_parcelle": "774050000D0636", "address": "9 RTE DES VIEILLES VIGNES", "sales": 3, "median_price": 277000.0, "median_price_per_sqm": 2518.181818181818, "median_rooms": 0.0, "first_sale": "2022-06-24", "last_sale": "2022-06-24"}}, {"type": "Feature", "geometry": {"type": "Point", "coordinates": [3.188863, 48.90574]}, "properties": {"id_parcelle": "774050000E1077", "address": "21 AV DANIEL SIMON", "sales": 3, "median_price": 82000.0, "median_price_per_sqm": null, "median_rooms": 0.0, "first_sale": "2021-07-28", "last_sale": "2024-07-23"}}, {"type": "Feature", "geometry": {"type": "Point", "coordinates": [3.187235, 48.916282]}, "properties": {"id_parcelle": "77405000ZK0067", "address": "5846 CHE DE LA MERESSE", "sales": 3, "median_price": 443000.0, "median_price_per_sqm": 2407.608695652174, "median_rooms": 6.0, "first_sale": "2024-11-22", "last_sale": "2024-11-22"}}, {"type": "Feature", "geometry": {"type": "Point", "coordinates": [3.187138, 48.905929]}, "properties": {"id_parcelle": "77405000ZL0155", "address": "7 AV DANIEL SIMON", "sales": 3, "median_price": 144000.0, "median_price_per_sqm": 2285.714285714286, "median_rooms": 0.0, "first_sale": "2021-06-18", "last_sale": "2021-06-18"}}, {"type": "Feature", "geometry": {"type": "Point", "coordinates": [3.153166, 48.896127]}, "properties": {"id_parcelle": "77405000ZO0059", "address": "LES CARRIERES", "sales": 3, "median_price": 65000.0, "median_price_per_sqm": null, "median_rooms": null, "first_sale": "2022-07-28", "last_sale": "2022-07-28"}}, {"type": "Feature", "geometry": {"type": "Point", "coordinates": [3.166891, 48.893067]}, "properties": {"id_parcelle": "774050000G1550", "address": "5618 LES GDS MONTGOINS", "sales": 3, "median_price": 119800.0, "median_price_per_sqm": 1261.0526315789473, "median_rooms": 0.0, "first_sale": "2025-02-12", "last_sale": "2025-02-12"}}, {"type": "Feature", "geometry": {"type": "Point", "coordinates": [3.157309, 48.905458]}, "properties": {"id_parcelle": "774050000G0105", "address": "26 RUE JEAN-PIERRE CHABROL", "sales": 3, "median_price": 168000.0, "median_price_per_sqm": 1976.4705882352941, "median_rooms": 0.0, "first_sale": "2025-11-03", "last_sale": "2025-11-03"}}, {"type": "Feature", "geometry": {"type": "Point", "coordinates": [3.181826, 48.904947]}, "properties": {"id_parcelle": "774050000F0120", "address": "SAINT CYR", "sales": 3, "median_price": 167000.0, "median_price_per_sqm": null, "median_rooms": null, "first_sale": "2023-07-07", "last_sale": "2024-07-18"}}, {"type": "Feature", "geometry": {"type": "Point", "coordinates": [3.189587, 48.914593]}, "properties": {"id_parcelle": "774050000E0977", "address": "10 RUE DE L'HERMITIERE", "sales": 3, "median_price": 99700.0, "median_price_per_sqm": 1557.8125, "median_rooms": 0.0, "first_sale": "2022-01-05", "last_sale": "2022-01-05"}}, {"type": "Feature", "geometry": {"type": "Point", "coordinates": [3.155771, 48.894894]}, "properties": {"id_parcelle": "774050000G1154", "address": "9 LES PTS MONTGOINS", "sales": 3, "median_price": 715000.0, "median_price_per_sqm": 6849.647266313934, "median_rooms": 3.0, "first_sale": "2023-10-31", "last_sale": "2023-10-31"}}, {"type": "Feature", "geometry": {"type": "Point", "coordinates": [3.181615, 48.904994]}, "properties": {"id_parcelle": "774050000F0119", "address": "46 RUE DE CHAVIGNY", "sales": 3, "median_price": 355590.0, "median_price_per_sqm": 4678.815789473684, "median_rooms": 0.0, "first_sale": "2024-07-18", "last_sale": "2024-07-18"}}, {"type": "Feature", "geometry": {"type": "Point", "coordinates": [3.18355, 48.906602]}, "properties": {"id_parcelle": "774050000F0271", "address": "2 RUE EUGENE DAUMONT", "sales": 3, "median_price": 159000.0, "median_price_per_sqm": 3975.0, "median_rooms": 2.0, "first_sale": "2022-11-04", "last_sale": "2022-11-04"}}, {"type": "Feature", "geometry": {"type": "Point", "coordinates": [3.18337, 48.906321]}, "properties": {"id_parcelle": "774050000F0838", "address": "4 PL DE L EGLISE", "sales": 3, "median_price": 199500.0, "median_price_per_sqm": 3764.1509433962265, "median_rooms": 3.0, "first_sale": "2022-11-07", "last_sale": "2022-11-07"}}, {"type": "Feature", "geometry": {"type": "Point", "coordinates": [3.163681, 48.915937]}, "properties": {"id_parcelle": "774050000C1450", "address": "2 RUE DE MONTHOME", "sales": 2, "median_price": 99000.0, "median_price_per_sqm": 1706.896551724138, "median_rooms": 1.5, "first_sale": "2024-06-20", "last_sale": "2024-06-20"}}, {"type": "Feature", "geometry": {"type": "Point", "coordinates": [3.163909, 48.915884]}, "properties": {"id_parcelle": "774050000C1451", "address": "BIERCY", "sales": 2, "median_price": 79500.0, "median_price_per_sqm": null, "median_rooms": null, "first_sale": "2022-12-09", "last_sale": "2024-06-20"}}, {"type": "Feature", "geometry": {"type": "Point", "coordinates": [3.163132, 48.91534]}, "properties": {"id_parcelle": "774050000C1630", "address": "9 RUE DU GOUFFRE", "sales": 2, "median_price": 318000.0, "median_price_per_sqm": 1987.5, "median_rooms": 3.0, "first_sale": "2023-04-04", "last_sale": "2023-04-04"}}, {"type": "Feature", "geometry": {"type": "Point", "coordinates": [3.163832, 48.915639]}, "properties": {"id_parcelle": "774050000C1657", "address": "8 RUE DE MONTHOME", "sales": 2, "median_price": 60000.0, "median_price_per_sqm": null, "median_rooms": 0.0, "first_sale": "2022-12-09", "last_sale": "2022-12-09"}}, {"type": "Feature", "geometry": {"type": "Point", "coordinates": [3.194468, 48.920949]}, "properties": {"id_parcelle": "774050000B0413", "address": "5826 RUE DU BOIS MORET", "sales": 2, "median_price": 128000.0, "median_price_per_sqm": 2133.3333333333335, "median_rooms": 1.5, "first_sale": "2023-11-17", "last_sale": "2023-11-17"}}, {"type": "Feature", "geometry": {"type": "Point", "coordinates": [3.184001, 48.919683]}, "properties": {"id_parcelle": "774050000B0374", "address": "9 RUE DES PRES", "sales": 2, "median_price": 102500.0, "median_price_per_sqm": 915.1785714285714, "median_rooms": 2.0, "first_sale": "2025-03-31", "last_sale": "2025-03-31"}}, {"type": "Feature", "geometry": {"type": "Point", "coordinates": [3.178912, 48.931174]}, "properties": {"id_parcelle": "774050000B0373", "address": "17 RUE DE VORPILLIERE", "sales": 2, "median_price": 457000.0, "median_price_per_sqm": null, "median_rooms": null, "first_sale": "2021-09-01", "last_sale": "2021-09-01"}}, {"type": "Feature", "geometry": {"type": "Point", "coordinates": [3.177244, 48.929774]}, "properties": {"id_parcelle": "774050000B0238", "address": "12 VORPILLIERE", "sales": 2, "median_price": 268500.0, "median_price_per_sqm": 1790.0, "median_rooms": 3.5, "first_sale": "2021-07-27", "last_sale": "2021-07-27"}}, {"type": "Feature", "geometry": {"type": "Point", "coordinates": [3.164457, 48.915993]}, "properties": {"id_parcelle": "774050000C1431", "address": "18 RUE DE MONTHOME", "sales": 2, "median_price": 240000.0, "median_price_per_sqm": 2666.6666666666665, "median_rooms": 2.0, "first_sale": "2022-06-15", "last_sale": "2022-06-15"}}, {"type": "Feature", "geometry": {"type": "Point", "coordinates": [3.164077, 48.917405]}, "properties": {"id_parcelle": "774050000C1213", "address": "LES MUROTS", "sales": 2, "median_price": 133000.0, "median_price_per_sqm": null, "median_rooms": null, "first_sale": "2022-04-20", "last_sale": "2022-04-20"}}, {"type": "Feature", "geometry": {"type": "Point", "coordinates": [3.164155, 48.917421]}, "properties": {"id_parcelle": "774050000C1212", "address": "4 RUE DE CHAMPEAUX", "sales": 2, "median_price": 133000.0, "median_price_per_sqm": 2955.5555555555557, "median_rooms": 1.0, "first_sale": "2022-04-20", "last_sale": "2022-04-20"}}, {"type": "Feature", "geometry": {"type": "Point", "coordinates": [3.191202, 48.915422]}, "properties": {"id_parcelle": "774050000B0422", "address": "SUR LE CLOS DE LA FERME", "sales": 2, "median_price": 1500.0, "median_price_per_sqm": null, "median_rooms": null, "first_sale": "2022-10-18", "last_sale": "2023-06-15"}}, {"type": "Feature", "geometry": {"type": "Point", "coordinates": [3.178962, 48.93101]}, "properties": {"id_parcelle": "774050000B0217", "address": "19 VORPILLIERE", "sales": 2, "median_price": 465000.0, "median_price_per_sqm": 3059.2105263157896, "median_rooms": 6.0, "first_sale": "2021-04-29", "last_sale": "2021-04-29"}}, {"type": "Feature", "geometry": {"type": "Point", "coordinates": [3.185193, 48.920119]}, "properties": {"id_parcelle": "774050000B0103", "address": "8 RUE DE LA PLACE", "sales": 2, "median_price": 118000.0, "median_price_per_sqm": 2809.5238095238096, "median_rooms": 1.5, "first_sale": "2022-01-27", "last_sale": "2022-01-27"}}, {"type": "Feature", "geometry": {"type": "Point", "coordinates": [3.186444, 48.920544]}, "properties": {"id_parcelle": "774050000B0125", "address": "3 RUE GUYOT", "sales": 2, "median_price": 340000.0, "median_price_per_sqm": 2045.4545454545455, "median_rooms": 3.0, "first_sale": "2022-09-19", "last_sale": "2022-09-19"}}, {"type": "Feature", "geometry": {"type": "Point", "coordinates": [3.17718, 48.934258]}, "properties": {"id_parcelle": "774050000A0009", "address": "5811 MORAS", "sales": 2, "median_price": 201039.66, "median_price_per_sqm": 2010.3966, "median_rooms": 1.5, "first_sale": "2022-09-09", "last_sale": "2022-09-09"}}, {"type": "Feature", "geometry": {"type": "Point", "coordinates": [3.193608, 48.921486]}, "properties": {"id_parcelle": "774050000B0095", "address": "5445 CHAMPTORTET", "sales": 2, "median_price": 150000.0, "median_price_per_sqm": 3571.4285714285716, "median_rooms": 0.5, "first_sale": "2022-09-27", "last_sale": "2022-09-27"}}, {"type": "Feature", "geometry": {"type": "Point", "coordinates": [3.186677, 48.920381]}, "properties": {"id_parcelle": "774050000B0150", "address": "4 RUE GUYOT", "sales": 2, "median_price": 91500.0, "median_price_per_sqm": 1452.3809523809523, "median_rooms": 2.5, "first_sale": "2023-12-15", "last_sale": "2023-12-15"}}, {"type": "Feature", "geometry": {"type": "Point", "coordinates": [3.163721, 48.916215]}, "properties": {"id_parcelle": "774050000C1484", "address": "1 RUE DE MONTHOME", "sales": 2, "median_price": 145000.0, "median_price_per_sqm": 1647.7272727272727, "median_rooms": 2.5, "first_sale": "2023-12-29", "last_sale": "2023-12-29"}}, {"type": "Feature", "geometry": {"type": "Point", "coordinates": [3.165056, 48.915552]}, "properties": {"id_parcelle": "774050000C1538", "address": "28 RUE DE MONTHOME", "sales": 2, "median_price": 155000.0, "median_price_per_sqm": 2384.6153846153848, "median_rooms": 2.5, "first_sale": "2021-12-22", "last_sale": "2021-12-22"}}, {"type": "Feature", "geometry": {"type": "Point", "coordinates": [3.191986, 48.911588]}, "properties": {"id_parcelle": "774050000E0303", "address": "LA TALMOUSE", "sales": 2, "median_price": 4744.02, "median_price_per_sqm": null, "median_rooms": null, "first_sale": "2022-06-17", "last_sale": "2024-10-08"}}, {"type": "Feature", "geometry": {"type": "Point", "coordinates": [3.177937, 48.910565]}, "properties": {"id_parcelle": "774050000D0692", "address": "8 RUE DES ROSETTES", "sales": 2, "median_price": 196000.0, "median_price_per_sqm": 2063.157894736842, "median_rooms": 5.0, "first_sale": "2021-07-06", "last_sale": "2021-07-06"}}, {"type": "Feature", "geometry": {"type": "Point", "coordinates": [3.177664, 48.910421]}, "properties": {"id_parcelle": "774050000D0691", "address": "10 RUE DES ROSETTES", "sales": 2, "median_price": 189000.0, "median_price_per_sqm": 1968.75, "median_rooms": 5.0, "first_sale": "2021-11-19", "last_sale": "2021-11-19"}}, {"type": "Feature", "geometry": {"type": "Point", "coordinates": [3.17354, 48.90997]}, "properties": {"id_parcelle": "774050000D0616", "address": "LE CLOS D EN HAUT", "sales": 2, "median_price": 391950.0, "median_price_per_sqm": null, "median_rooms": null, "first_sale": "2023-05-10", "last_sale": "2023-05-10"}}, {"type": "Feature", "geometry": {"type": "Point", "coordinates": [3.170715, 48.915008]}, "properties": {"id_parcelle": "774050000D0105", "address": "LE BOIS DES MAURY", "sales": 2, "median_price": 3919.77, "median_price_per_sqm": null, "median_rooms": null, "first_sale": "2022-06-17", "last_sale": "2024-10-08"}}, {"type": "Feature", "geometry": {"type": "Point", "coordinates": [3.173734, 48.909959]}, "properties": {"id_parcelle": "774050000D0615", "address": "36 PROM PIERRE MAC ORLAN", "sales": 2, "median_price": 391950.0, "median_price_per_sqm": 2214.406779661017, "median_rooms": 6.0, "first_sale": "2023-05-10", "last_sale": "2023-05-10"}}, {"type": "Feature", "geometry": {"type": "Point", "coordinates": [3.162323, 48.915286]}, "properties": {"id_parcelle": "774050000C1721", "address": "7 COUR DU GOUFFRE", "sales": 2, "median_price": 170000.0, "median_price_per_sqm": 2982.4561403508774, "median_rooms": 1.5, "first_sale": "2024-09-20", "last_sale": "2024-09-20"}}, {"type": "Feature", "geometry": {"type": "Point", "coordinates": [3.164113, 48.917256]}, "properties": {"id_parcelle": "774050000C1710", "address": "2 RUE DE CHAMPEAUX", "sales": 2, "median_price": 292776.0, "median_price_per_sqm": 2788.342857142857, "median_rooms": 5.0, "first_sale": "2025-02-07", "last_sale": "2025-02-07"}}, {"type": "Feature", "geometry": {"type": "Point", "coordinates": [3.160921, 48.914736]}, "properties": {"id_parcelle": "774050000C1590", "address": "13 RUE DE LA FERME", "sales": 2, "median_price": 189100.0, "median_price_per_sqm": null, "median_rooms": null, "first_sale": "2024-06-26", "last_sale": "2024-06-26"}}, {"type": "Feature", "geometry": {"type": "Point", "coordinates": [3.159953, 48.914347]}, "properties": {"id_parcelle": "774050000C1697", "address": "37 RUE DE LA FERME", "sales": 2, "median_price": 189000.0, "median_price_per_sqm": 1050.0, "median_rooms": 3.0, "first_sale": "2025-06-10", "last_sale": "2025-06-10"}}, {"type": "Feature", "geometry": {"type": "Point", "coordinates": [3.181977, 48.905004]}, "properties": {"id_parcelle": "774050000F0126", "address": "28 RUE DE CHAVIGNY", "sales": 2, "median_price": 167000.0, "median_price_per_sqm": 1855.5555555555557, "median_rooms": 1.5, "first_sale": "2023-07-07", "last_sale": "2023-07-07"}}, {"type": "Feature", "geometry": {"type": "Point", "coordinates": [3.189643, 48.913221]}, "properties": {"id_parcelle": "774050000E0547", "address": "L ERMITAGE", "sales": 2, "median_price": 4744.02, "median_price_per_sqm": null, "median_rooms": null, "first_sale": "2022-06-17", "last_sale": "2024-10-08"}}, {"type": "Feature", "geometry": {"type": "Point", "coordinates": [3.194089, 48.905164]}, "properties": {"id_parcelle": "774050000E0891", "address": "5347 RUE DU CHEMIN", "sales": 2, "median_price": 300000.0, "median_price_per_sqm": 1875.0, "median_rooms": 3.0, "first_sale": "2021-09-15", "last_sale": "2021-09-15"}}, {"type": "Feature", "geometry": {"type": "Point", "coordinates": [3.187043, 48.913009]}, "properties": {"id_parcelle": "774050000E0727", "address": "LE LG BOIS", "sales": 2, "median_price": 4744.02, "median_price_per_sqm": null, "median_rooms": null, "first_sale": "2022-06-17", "last_sale": "2024-10-08"}}, {"type": "Feature", "geometry": {"type": "Point", "coordinates": [3.188742, 48.90593]}, "properties": {"id_parcelle": "774050000E0949", "address": "19 AV DANIEL SIMON", "sales": 2, "median_price": 390000.0, "median_price_per_sqm": 2349.765258215962, "median_rooms": 2.5, "first_sale": "2022-12-23", "last_sale": "2022-12-23"}}, {"type": "Feature", "geometry": {"type": "Point", "coordinates": [3.1892, 48.914869]}, "properties": {"id_parcelle": "774050000E0996", "address": "8 RUE DE L'HERMITIERE", "sales": 2, "median_price": 230000.0, "median_price_per_sqm": 2300.0, "median_rooms": 4.0, "first_sale": "2023-05-23", "last_sale": "2023-05-23"}}, {"type": "Feature", "geometry": {"type": "Point", "coordinates": [3.193493, 48.91241]}, "properties": {"id_parcelle": "774050000E0369", "address": "LES PLANTES", "sales": 2, "median_price": 4744.02, "median_price_per_sqm": null, "median_rooms": null, "first_sale": "2022-06-17", "last_sale": "2024-10-08"}}, {"type": "Feature", "geometry": {"type": "Point", "coordinates": [3.193553, 48.905147]}, "properties": {"id_parcelle": "774050000E1107", "address": "RUE DU CHEMIN", "sales": 2, "median_price": 80000.0, "median_price_per_sqm": null, "median_rooms": 0.0, "first_sale": "2022-01-20", "last_sale": "2022-01-20"}}, {"type": "Feature", "geometry": {"type": "Point", "coordinates": [3.188802, 48.905772]}, "properties": {"id_parcelle": "774050000E1085", "address": "21 AV DANIEL SIMON", "sales": 2, "median_price": 70000.0, "median_price_per_sqm": 1076.923076923077, "median_rooms": 1.5, "first_sale": "2024-01-26", "last_sale": "2024-01-26"}}, {"type": "Feature", "geometry": {"type": "Point", "coordinates": [3.19013, 48.905491]}, "properties": {"id_parcelle": "774050000E1096", "address": "27 AV DANIEL SIMON", "sales": 2, "median_price": 180000.0, "median_price_per_sqm": null, "median_rooms": 0.0, "first_sale": "2021-05-12", "last_sale": "2021-05-12"}}, {"type": "Feature", "geometry": {"type": "Point", "coordinates": [3.193082, 48.906623]}, "properties": {"id_parcelle": "774050000E1061", "address": "1 RUE DE L ISOLEMENT", "sales": 2, "median_price": 245300.0, "median_price_per_sqm": null, "median_rooms": null, "first_sale": "2023-08-28", "last_sale": "2023-08-28"}}, {"type": "Feature", "geometry": {"type": "Point", "coordinates": [3.18891, 48.905971]}, "properties": {"id_parcelle": "774050000E1048", "address": "21 AV DANIEL SIMON", "sales": 2, "median_price": 96000.0, "median_price_per_sqm": null, "median_rooms": 0.0, "first_sale": "2021-07-28", "last_sale": "2024-07-23"}}, {"type": "Feature", "geometry": {"type": "Point", "coordinates": [3.193906, 48.906694]}, "properties": {"id_parcelle": "774050000E1003", "address": "43 RUE LUCIEN DEVOS", "sales": 2, "median_price": 225000.0, "median_price_per_sqm": 2027.027027027027, "median_rooms": 6.0, "first_sale": "2022-12-07", "last_sale": "2022-12-07"}}, {"type": "Feature", "geometry": {"type": "Point", "coordinates": [3.188775, 48.905734]}, "properties": {"id_parcelle": "774050000E1046", "address": "1 AV DANIEL SIMON", "sales": 2, "median_price": 96000.0, "median_price_per_sqm": 1411.7647058823532, "median_rooms": 3.0, "first_sale": "2021-07-28", "last_sale": "2024-07-23"}}, {"type": "Feature", "geometry": {"type": "Point", "coordinates": [3.191376, 48.913532]}, "properties": {"id_parcelle": "774050000E0456", "address": "LE ROCHEFORT", "sales": 2, "median_price": 4744.02, "median_price_per_sqm": null, "median_rooms": null, "first_sale": "2022-06-17", "last_sale": "2024-10-08"}}, {"type": "Feature", "geometry": {"type": "Point", "coordinates": [3.191051, 48.913091]}, "properties": {"id_parcelle": "774050000E0451", "address": "LE ROCHEFORT", "sales": 2, "median_price": 4744.02, "median_price_per_sqm": null, "median_rooms": null, "first_sale": "2022-06-17", "last_sale": "2024-10-08"}}, {"type": "Feature", "geometry": {"type": "Point", "coordinates": [3.190365, 48.912065]}, "properties": {"id_parcelle": "774050000E0519", "address": "LE ROCHEFORT", "sales": 2, "median_price": 4744.02, "median_price_per_sqm": null, "median_rooms": null, "first_sale": "2022-06-17", "last_sale": "2024-10-08"}}, {"type": "Feature", "geometry": {"type": "Point", "coordinates": [3.192076, 48.911724]}, "properties": {"id_parcelle": "774050000E0318", "address": "LA TALMOUSE", "sales": 2, "median_price": 4744.02, "median_price_per_sqm": null, "median_rooms": null, "first_sale": "2022-06-17", "last_sale": "2024-10-08"}}, {"type": "Feature", "geometry": {"type": "Point", "coordinates": [3.193775, 48.912314]}, "properties": {"id_parcelle": "774050000E0373", "address": "LES PLANTES", "sales": 2, "median_price": 4744.02, "median_price_per_sqm": null, "median_rooms": null, "first_sale": "2022-06-17", "last_sale": "2024-10-08"}}, {"type": "Feature", "geometry": {"type": "Point", "coordinates": [3.191487, 48.913698]}, "properties": {"id_parcelle": "774050000E0433", "address": "LE ROCHEFORT", "sales": 2, "median_price": 4744.02, "median_price_per_sqm": null, "median_rooms": null, "first_sale": "2022-06-17", "last_sale": "2024-10-08"}}, {"type": "Feature", "geometry": {"type": "Point", "coordinates": [3.193385, 48.912466]}, "properties": {"id_parcelle": "774050000E0368", "address": "LES PLANTES", "sales": 2, "median_price": 4744.02, "median_price_per_sqm": null, "median_rooms": null, "first_sale": "2022-06-17", "last_sale": "2024-10-08"}}, {"type": "Feature", "geometry": {"type": "Point", "coordinates": [3.193308, 48.912625]}, "properties": {"id_parcelle": "774050000E0366", "address": "LES PLANTES", "sales": 2, "median_price": 4744.02, "median_price_per_sqm": null, "median_rooms": null, "first_sale": "2022-06-17", "last_sale": "2024-10-08"}}, {"type": "Feature", "geometry": {"type": "Point", "coordinates": [3.166958, 48.895974]}, "properties": {"id_parcelle": "774050000G1065", "address": "5829 LES GDS MONTGOINS", "sales": 2, "median_price": 93000.0, "median_price_per_sqm": 1192.3076923076924, "median_rooms": 1.5, "first_sale": "2025-05-30", "last_sale": "2025-05-30"}}, {"type": "Feature", "geometry": {"type": "Point", "coordinates": [3.167823, 48.89794]}, "properties": {"id_parcelle": "774050000G1072", "address": "LA PLATRIERE A BAUSSANT", "sales": 2, "median_price": 367900.0, "median_price_per_sqm": null, "median_rooms": null, "first_sale": "2022-12-28", "last_sale": "2022-12-28"}}, {"type": "Feature", "geometry": {"type": "Point", "coordinates": [3.151317, 48.901169]}, "properties": {"id_parcelle": "774050000G0754", "address": "LES FORTES TERRES", "sales": 2, "median_price": 3554.335, "median_price_per_sqm": null, "median_rooms": null, "first_sale": "2023-11-20", "last_sale": "2024-03-05"}}, {"type": "Feature", "geometry": {"type": "Point", "coordinates": [3.151034, 48.901366]}, "properties": {"id_parcelle": "774050000G0756", "address": "LES FORTES TERRES", "sales": 2, "median_price": 3554.335, "median_price_per_sqm": null, "median_rooms": null, "first_sale": "2023-11-20", "last_sale": "2024-03-05"}}, {"type": "Feature", "geometry": {"type": "Point", "coordinates": [3.161136, 48.905477]}, "properties": {"id_parcelle": "774050000G0233", "address": "7 RUE JEAN-PIERRE CHABROL", "sales": 2, "median_price": 285500.0, "median_price_per_sqm": 1586.111111111111, "median_rooms": 2.5, "first_sale": "2023-08-16", "last_sale": "2023-08-16"}}, {"type": "Feature", "geometry": {"type": "Point", "coordinates": [3.159103, 48.90613]}, "properties": {"id_parcelle": "774050000G0192", "address": "3 RUE LEGRAND", "sales": 2, "median_price": 238230.0, "median_price_per_sqm": 4754.151315789473, "median_rooms": 3.0, "first_sale": "2021-06-25", "last_sale": "2021-06-25"}}, {"type": "Feature", "geometry": {"type": "Point", "coordinates": [3.180031, 48.905916]}, "properties": {"id_parcelle": "774050000F1092", "address": "29 RUE EUGENE DAUMONT", "sales": 2, "median_price": 135000.0, "median_price_per_sqm": 1406.25, "median_rooms": 2.5, "first_sale": "2024-10-21", "last_sale": "2024-10-21"}}, {"type": "Feature", "geometry": {"type": "Point", "coordinates": [3.158901, 48.904786]}, "properties": {"id_parcelle": "774050000G0166", "address": "COURCELLES LA ROUE", "sales": 2, "median_price": 5500.0, "median_price_per_sqm": null, "median_rooms": null, "first_sale": "2023-11-20", "last_sale": "2024-09-27"}}, {"type": "Feature", "geometry": {"type": "Point", "coordinates": [3.179884, 48.909274]}, "properties": {"id_parcelle": "774050000F0960", "address": "SAINT CYR", "sales": 2, "median_price": 700000.0, "median_price_per_sqm": null, "median_rooms": null, "first_sale": "2022-02-22", "last_sale": "2022-02-22"}}, {"type": "Feature", "geometry": {"type": "Point", "coordinates": [3.181128, 48.904229]}, "properties": {"id_parcelle": "774050000F0489", "address": "58 RUE DE CHAVIGNY", "sales": 2, "median_price": 250000.0, "median_price_per_sqm": 2136.7521367521367, "median_rooms": 2.0, "first_sale": "2025-08-28", "last_sale": "2025-08-28"}}, {"type": "Feature", "geometry": {"type": "Point", "coordinates": [3.183265, 48.906248]}, "properties": {"id_parcelle": "774050000F0168", "address": "4 RUE DE CHAVIGNY", "sales": 2, "median_price": 128000.0, "median_price_per_sqm": 1280.0, "median_rooms": 2.5, "first_sale": "2024-03-15", "last_sale": "2024-03-15"}}, {"type": "Feature", "geometry": {"type": "Point", "coordinates": [3.182598, 48.906162]}, "properties": {"id_parcelle": "774050000F0188", "address": "17 RUE EUGENE DAUMONT", "sales": 2, "median_price": 110000.0, "median_price_per_sqm": 1067.9611650485438, "median_rooms": 2.0, "first_sale": "2021-09-27", "last_sale": "2021-09-27"}}, {"type": "Feature", "geometry": {"type": "Point", "coordinates": [3.182499, 48.906775]}, "properties": {"id_parcelle": "774050000F0261", "address": "8 PAS GUIBERT", "sales": 2, "median_price": 199000.0, "median_price_per_sqm": 2584.4155844155844, "median_rooms": 3.0, "first_sale": "2021-06-01", "last_sale": "2021-06-01"}}, {"type": "Feature", "geometry": {"type": "Point", "coordinates": [3.180067, 48.908717]}, "properties": {"id_parcelle": "774050000F0851", "address": "18 AV DE LA FERTE SOUS JOUARRE", "sales": 2, "median_price": 700000.0, "median_price_per_sqm": null, "median_rooms": 0.0, "first_sale": "2022-02-22", "last_sale": "2022-02-22"}}, {"type": "Feature", "geometry": {"type": "Point", "coordinates": [3.183727, 48.906198]}, "properties": {"id_parcelle": "774050000F0397", "address": "4 PL DE L EGLISE", "sales": 2, "median_price": 140000.0, "median_price_per_sqm": 1619.6078431372548, "median_rooms": 1.0, "first_sale": "2024-03-01", "last_sale": "2024-03-01"}}, {"type": "Feature", "geometry": {"type": "Point", "coordinates": [3.150139, 48.901189]}, "properties": {"id_parcelle": "774050000G1187", "address": "LES LOUVIERES", "sales": 2, "median_price": 3554.335, "median_price_per_sqm": null, "median_rooms": null, "first_sale": "2023-11-20", "last_sale": "2024-03-05"}}, {"type": "Feature", "geometry": {"type": "Point", "coordinates": [3.151072, 48.900401]}, "properties": {"id_parcelle": "774050000G1205", "address": "LES LOUVIERES", "sales": 2, "median_price": 3554.335, "median_price_per_sqm": null, "median_rooms": null, "first_sale": "2023-11-20", "last_sale": "2024-03-05"}}, {"type": "Feature", "geometry": {"type": "Point", "coordinates": [3.15131, 48.900398]}, "properties": {"id_parcelle": "774050000G1204", "address": "LES LOUVIERES", "sales": 2, "median_price": 3554.335, "median_price_per_sqm": null, "median_rooms": null, "first_sale": "2023-11-20", "last_sale": "2024-03-05"}}, {"type": "Feature", "geometry": {"type": "Point", "coordinates": [3.151445, 48.900611]}, "properties": {"id_parcelle": "774050000G1203", "address": "LES LOUVIERES", "sales": 2, "median_price": 3554.335, "median_price_per_sqm": null, "median_rooms": null, "first_sale": "2023-11-20", "last_sale": "2024-03-05"}}, {"type": "Feature", "geometry": {"type": "Point", "coordinates": [3.15117, 48.90024]}, "properties": {"id_parcelle": "774050000G1207", "address": "LES LOUVIERES", "sales": 2, "median_price": 3554.335, "median_price_per_sqm": null, "median_rooms": null, "first_sale": "2023-11-20", "last_sale": "2024-03-05"}}, {"type": "Feature", "geometry": {"type": "Point", "coordinates": [3.150656, 48.900799]}, "properties": {"id_parcelle": "774050000G1193", "address": "LES LOUVIERES", "sales": 2, "median_price": 3554.335, "median_price_per_sqm": null, "median_rooms": null, "first_sale": "2023-11-20", "last_sale": "2024-03-05"}}, {"type": "Feature", "geometry": {"type": "Point", "coordinates": [3.150274, 48.901]}, "properties": {"id_parcelle": "774050000G1188", "address": "LES LOUVIERES", "sales": 2, "median_price": 3554.335, "median_price_per_sqm": null, "median_rooms": null, "first_sale": "2023-11-20", "last_sale": "2024-03-05"}}, {"type": "Feature", "geometry": {"type": "Point", "coordinates": [3.150442, 48.90091]}, "properties": {"id_parcelle": "774050000G1189", "address": "LES LOUVIERES", "sales": 2, "median_price": 3554.335, "median_price_per_sqm": null, "median_rooms": null, "first_sale": "2023-11-20", "last_sale": "2024-03-05"}}, {"type": "Feature", "geometry": {"type": "Point", "coordinates": [3.150491, 48.900868]}, "properties": {"id_parcelle": "774050000G1191", "address": "LES LOUVIERES", "sales": 2, "median_price": 3554.335, "median_price_per_sqm": null, "median_rooms": null, "first_sale": "2023-11-20", "last_sale": "2024-03-05"}}, {"type": "Feature", "geometry": {"type": "Point", "coordinates": [3.15099, 48.900665]}, "properties": {"id_parcelle": "774050000G1197", "address": "LES LOUVIERES", "sales": 2, "median_price": 3554.335, "median_price_per_sqm": null, "median_rooms": null, "first_sale": "2023-11-20", "last_sale": "2024-03-05"}}, {"type": "Feature", "geometry": {"type": "Point", "coordinates": [3.151048, 48.900757]}, "properties": {"id_parcelle": "774050000G1198", "address": "LES LOUVIERES", "sales": 2, "median_price": 3554.335, "median_price_per_sqm": null, "median_rooms": null, "first_sale": "2023-11-20", "last_sale": "2024-03-05"}}, {"type": "Feature", "geometry": {"type": "Point", "coordinates": [3.151042, 48.900886]}, "properties": {"id_parcelle": "774050000G1200", "address": "LES LOUVIERES", "sales": 2, "median_price": 3554.335, "median_price_per_sqm": null, "median_rooms": null, "first_sale": "2023-11-20", "last_sale": "2024-03-05"}}, {"type": "Feature", "geometry": {"type": "Point", "coordinates": [3.151158, 48.900842]}, "properties": {"id_parcelle": "774050000G1201", "address": "LES LOUVIERES", "sales": 2, "median_price": 3554.335, "median_price_per_sqm": null, "median_rooms": null, "first_sale": "2023-11-20", "last_sale": "2024-03-05"}}, {"type": "Feature", "geometry": {"type": "Point", "coordinates": [3.151241, 48.900775]}, "properties": {"id_parcelle": "774050000G1202", "address": "LES LOUVIERES", "sales": 2, "median_price": 3554.335, "median_price_per_sqm": null, "median_rooms": null, "first_sale": "2023-11-20", "last_sale": "2024-03-05"}}, {"type": "Feature", "geometry": {"type": "Point", "coordinates": [3.150736, 48.90062]}, "properties": {"id_parcelle": "774050000G1194", "address": "LES LOUVIERES", "sales": 2, "median_price": 3554.335, "median_price_per_sqm": null, "median_rooms": null, "first_sale": "2023-11-20", "last_sale": "2024-03-05"}}, {"type": "Feature", "geometry": {"type": "Point", "coordinates": [3.150801, 48.900744]}, "properties": {"id_parcelle": "774050000G1195", "address": "LES LOUVIERES", "sales": 2, "median_price": 3554.335, "median_price_per_sqm": null, "median_rooms": null, "first_sale": "2023-11-20", "last_sale": "2024-03-05"}}, {"type": "Feature", "geometry": {"type": "Point", "coordinates": [3.150893, 48.900678]}, "properties": {"id_parcelle": "774050000G1196", "address": "LES LOUVIERES", "sales": 2, "median_price": 3554.335, "median_price_per_sqm": null, "median_rooms": null, "first_sale": "2023-11-20", "last_sale": "2024-03-05"}}, {"type": "Feature", "geometry": {"type": "Point", "coordinates": [3.18193, 48.928408]}, "properties": {"id_parcelle": "77405000ZE0052", "address": "LE MONCET", "sales": 2, "median_price": 169500.0, "median_price_per_sqm": null, "median_rooms": null, "first_sale": "2021-09-29", "last_sale": "2025-11-04"}}, {"type": "Feature", "geometry": {"type": "Point", "coordinates": [3.201237, 48.930575]}, "properties": {"id_parcelle": "77405000ZE0039", "address": "3 RTE DE MONTMIRAIL", "sales": 2, "median_price": 260000.0, "median_price_per_sqm": 1595.0920245398772, "median_rooms": 2.5, "first_sale": "2023-07-13", "last_sale": "2023-07-13"}}, {"type": "Feature", "geometry": {"type": "Point", "coordinates": [3.202127, 48.931053]}, "properties": {"id_parcelle": "77405000ZC0049", "address": "68 MONTAPEINE", "sales": 2, "median_price": 264000.0, "median_price_per_sqm": 1984.9624060150377, "median_rooms": 5.0, "first_sale": "2022-02-16", "last_sale": "2022-02-16"}}, {"type": "Feature", "geometry": {"type": "Point", "coordinates": [3.201181, 48.931237]}, "properties": {"id_parcelle": "77405000ZB0058", "address": "1 MONTAPEINE", "sales": 2, "median_price": 300000.0, "median_price_per_sqm": 1666.6666666666667, "median_rooms": 2.0, "first_sale": "2022-01-14", "last_sale": "2022-01-14"}}, {"type": "Feature", "geometry": {"type": "Point", "coordinates": [3.180955, 48.911918]}, "properties": {"id_parcelle": "774050000V0455", "address": "18 RTE DES VIEILLES VIGNES", "sales": 2, "median_price": 313000.0, "median_price_per_sqm": 1534.313725490196, "median_rooms": 6.0, "first_sale": "2021-02-24", "last_sale": "2021-02-24"}}, {"type": "Feature", "geometry": {"type": "Point", "coordinates": [3.143519, 48.901684]}, "properties": {"id_parcelle": "774050000G1493", "address": "2 LE RU DE VROU", "sales": 2, "median_price": 364000.0, "median_price_per_sqm": 3913.978494623656, "median_rooms": 2.0, "first_sale": "2021-09-27", "last_sale": "2021-09-27"}}, {"type": "Feature", "geometry": {"type": "Point", "coordinates": [3.149467, 48.900065]}, "properties": {"id_parcelle": "774050000G1505", "address": "21 RTE HAMEAU DES LOUVIERES", "sales": 2, "median_price": 40000.0, "median_price_per_sqm": 677.9661016949152, "median_rooms": 3.0, "first_sale": "2024-10-03", "last_sale": "2024-10-03"}}, {"type": "Feature", "geometry": {"type": "Point", "coordinates": [3.149449, 48.89998]}, "properties": {"id_parcelle": "774050000G1506", "address": "5689 LES LOUVIERES", "sales": 2, "median_price": 160000.0, "median_price_per_sqm": null, "median_rooms": 0.0, "first_sale": "2024-10-11", "last_sale": "2024-10-11"}}, {"type": "Feature", "geometry": {"type": "Point", "coordinates": [3.148859, 48.899468]}, "properties": {"id_parcelle": "774050000G1238", "address": "5420 LES LOUVIERES", "sales": 2, "median_price": 223000.0, "median_price_per_sqm": 1873.9495798319329, "median_rooms": 2.5, "first_sale": "2024-01-12", "last_sale": "2024-01-12"}}, {"type": "Feature", "geometry": {"type": "Point", "coordinates": [3.149437, 48.899845]}, "properties": {"id_parcelle": "774050000G1231", "address": "17 RTE HAMEAU DES LOUVIERES", "sales": 2, "median_price": 160000.0, "median_price_per_sqm": 1103.448275862069, "median_rooms": 2.5, "first_sale": "2024-10-11", "last_sale": "2024-10-11"}}, {"type": "Feature", "geometry": {"type": "Point", "coordinates": [3.151397, 48.89994]}, "properties": {"id_parcelle": "774050000G1208", "address": "LES LOUVIERES", "sales": 2, "median_price": 3554.335, "median_price_per_sqm": null, "median_rooms": null, "first_sale": "2023-11-20", "last_sale": "2024-03-05"}}, {"type": "Feature", "geometry": {"type": "Point", "coordinates": [3.157971, 48.904819]}, "properties": {"id_parcelle": "774050000G1473", "address": "20 RUE JEAN-PIERRE CHABROL", "sales": 2, "median_price": 224000.0, "median_price_per_sqm": 2133.3333333333335, "median_rooms": 5.0, "first_sale": "2021-03-25", "last_sale": "2021-03-25"}}, {"type": "Feature", "geometry": {"type": "Point", "coordinates": [3.158492, 48.921113]}, "properties": {"id_parcelle": "77405000ZI0016", "address": "LES PRES DE LA POINTE", "sales": 2, "median_price": 4843.5, "median_price_per_sqm": null, "median_rooms": null, "first_sale": "2022-05-25", "last_sale": "2022-05-25"}}, {"type": "Feature", "geometry": {"type": "Point", "coordinates": [3.181796, 48.928257]}, "properties": {"id_parcelle": "77405000ZE0071", "address": "10 LE MONCET", "sales": 2, "median_price": 169500.0, "median_price_per_sqm": 1900.0, "median_rooms": 4.0, "first_sale": "2021-09-29", "last_sale": "2025-11-04"}}, {"type": "Feature", "geometry": {"type": "Point", "coordinates": [3.176414, 48.918771]}, "properties": {"id_parcelle": "77405000ZK0003", "address": "LE FORT DES MORTS", "sales": 2, "median_price": 23727.22, "median_price_per_sqm": null, "median_rooms": null, "first_sale": "2022-04-14", "last_sale": "2022-04-14"}}, {"type": "Feature", "geometry": {"type": "Point", "coordinates": [3.181714, 48.928373]}, "properties": {"id_parcelle": "77405000ZE0058", "address": "LE MONCET", "sales": 2, "median_price": 169500.0, "median_price_per_sqm": null, "median_rooms": null, "first_sale": "2021-09-29", "last_sale": "2025-11-04"}}, {"type": "Feature", "geometry": {"type": "Point", "coordinates": [3.159012, 48.908464]}, "properties": {"id_parcelle": "77405000ZM0109", "address": "5155 LES REGAINS DES PORTES", "sales": 2, "median_price": 15000.0, "median_price_per_sqm": 468.75, "median_rooms": 2.0, "first_sale": "2024-11-12", "last_sale": "2024-11-12"}}, {"type": "Feature", "geometry": {"type": "Point", "coordinates": [3.15853, 48.909505]}, "properties": {"id_parcelle": "77405000ZM0103", "address": "LES REGAINS DES PORTES", "sales": 2, "median_price": 3050.0, "median_price_per_sqm": null, "median_rooms": null, "first_sale": "2023-10-23", "last_sale": "2023-10-23"}}, {"type": "Feature", "geometry": {"type": "Point", "coordinates": [3.165617, 48.910121]}, "properties": {"id_parcelle": "77405000ZM0044", "address": "ENTRE BIERCY ET ARCHET", "sales": 2, "median_price": 17640.0, "median_price_per_sqm": null, "median_rooms": null, "first_sale": "2022-06-20", "last_sale": "2022-06-20"}}, {"type": "Feature", "geometry": {"type": "Point", "coordinates": [3.18799, 48.906541]}, "properties": {"id_parcelle": "77405000ZL0235", "address": "RUE DES ROSETTES", "sales": 2, "median_price": 22867.5, "median_price_per_sqm": null, "median_rooms": null, "first_sale": "2023-08-16", "last_sale": "2023-10-30"}}, {"type": "Feature", "geometry": {"type": "Point", "coordinates": [3.187684, 48.906725]}, "properties": {"id_parcelle": "77405000ZL0234", "address": "RUE DES ROSETTES", "sales": 2, "median_price": 22867.5, "median_price_per_sqm": null, "median_rooms": null, "first_sale": "2023-08-16", "last_sale": "2023-10-30"}}, {"type": "Feature", "geometry": {"type": "Point", "coordinates": [3.18877, 48.905327]}, "properties": {"id_parcelle": "77405000ZL0222", "address": "22 AV DANIEL SIMON", "sales": 2, "median_price": 164500.0, "median_price_per_sqm": 1218.5185185185185, "median_rooms": 2.0, "first_sale": "2023-01-09", "last_sale": "2023-01-09"}}, {"type": "Feature", "geometry": {"type": "Point", "coordinates": [3.186972, 48.905692]}, "properties": {"id_parcelle": "77405000ZL0152", "address": "8 AV DANIEL SIMON", "sales": 2, "median_price": 285000.0, "median_price_per_sqm": 2850.0, "median_rooms": 4.0, "first_sale": "2023-09-21", "last_sale": "2023-09-21"}}, {"type": "Feature", "geometry": {"type": "Point", "coordinates": [3.195855, 48.916232]}, "properties": {"id_parcelle": "77405000ZK0089", "address": "LE BOIS MORET", "sales": 2, "median_price": 17000.0, "median_price_per_sqm": null, "median_rooms": null, "first_sale": "2025-06-25", "last_sale": "2025-06-25"}}, {"type": "Feature", "geometry": {"type": "Point", "coordinates": [3.181754, 48.928128]}, "properties": {"id_parcelle": "77405000ZE0070", "address": "27 LE MONCET", "sales": 2, "median_price": 12000.0, "median_price_per_sqm": 218.1818181818182, "median_rooms": 1.0, "first_sale": "2022-09-12", "last_sale": "2022-09-12"}}, {"type": "Feature", "geometry": {"type": "Point", "coordinates": [3.168167, 48.905826]}, "properties": {"id_parcelle": "77405000ZM0136", "address": "LA MAILLE", "sales": 2, "median_price": 9168.72, "median_price_per_sqm": null, "median_rooms": null, "first_sale": "2021-07-21", "last_sale": "2023-04-04"}}, {"type": "Feature", "geometry": {"type": "Point", "coordinates": [3.158543, 48.907493]}, "properties": {"id_parcelle": "77405000ZM0171", "address": "LE GD AUNE", "sales": 2, "median_price": 9168.72, "median_price_per_sqm": null, "median_rooms": null, "first_sale": "2021-07-21", "last_sale": "2023-04-04"}}, {"type": "Feature", "geometry": {"type": "Point", "coordinates": [3.152095, 48.904944]}, "properties": {"id_parcelle": "77405000ZN0054", "address": "LE CHP DE CHOISEL", "sales": 2, "median_price": 5580.35, "median_price_per_sqm": null, "median_rooms": null, "first_sale": "2021-12-10", "last_sale": "2022-07-26"}}, {"type": "Feature", "geometry": {"type": "Point", "coordinates": [3.153496, 48.903903]}, "properties": {"id_parcelle": "77405000ZN0064", "address": "LE CHP DE LA DEMOISELLE", "sales": 2, "median_price": 5580.35, "median_price_per_sqm": null, "median_rooms": null, "first_sale": "2021-12-10", "last_sale": "2022-07-26"}}, {"type": "Feature", "geometry": {"type": "Point", "coordinates": [3.1488, 48.889126]}, "properties": {"id_parcelle": "77405000ZO0034", "address": "LE MARGAT", "sales": 2, "median_price": 63000.0, "median_price_per_sqm": null, "median_rooms": null, "first_sale": "2025-06-20", "last_sale": "2025-06-20"}}, {"type": "Feature", "geometry": {"type": "Point", "coordinates": [3.153573, 48.895154]}, "properties": {"id_parcelle": "77405000ZO0062", "address": "5434 LES PTS MONTGOINS", "sales": 2, "median_price": 185000.0, "median_price_per_sqm": 1541.6666666666667, "median_rooms": 3.0, "first_sale": "2023-07-03", "last_sale": "2023-07-03"}}, {"type": "Feature", "geometry": {"type": "Point", "coordinates": [3.138075, 48.897538]}, "properties": {"id_parcelle": "77405000ZP0029", "address": "LA RUE VILLENEUVE", "sales": 2, "median_price": 50139.0, "median_price_per_sqm": null, "median_rooms": null, "first_sale": "2023-03-16", "last_sale": "2023-03-16"}}]}