{"type": "FeatureCollection", "features": [{"type": "Feature", "geometry": {"type": "Polygon", "coordinates": [[[2.859601, 48.450029], [2.859406, 48.450113], [2.85786, 48.450633], [2.857118, 48.450868], [2.856735, 48.450973], [2.856113, 48.45111], [2.855704, 48.451215], [2.854878, 48.451406], [2.852977, 48.451725], [2.851352, 48.452019], [2.85004, 48.452224], [2.849299, 48.452352], [2.848551, 48.452529], [2.846638, 48.453028], [2.845739, 48.453249], [2.843736, 48.453868], [2.843871, 48.453885], [2.844788, 48.453917], [2.845096, 48.453965], [2.846062, 48.454164], [2.84781, 48.454609], [2.848149, 48.454664], [2.848735, 48.454672], [2.849166, 48.454647], [2.849538, 48.454585], [2.850207, 48.454442], [2.850488, 48.454407], [2.850749, 48.454416], [2.850801, 48.454731], [2.851093, 48.455428], [2.851259, 48.455764], [2.850898, 48.455917], [2.850678, 48.45597], [2.850779, 48.45661], [2.850261, 48.456668], [2.850171, 48.456042], [2.849719, 48.456094], [2.849795, 48.456472], [2.849633, 48.456492], [2.849545, 48.456166], [2.849055, 48.456258], [2.848608, 48.456377], [2.847931, 48.456664], [2.848002, 48.456746], [2.847379, 48.457083], [2.846879, 48.457478], [2.846548, 48.457945], [2.846499, 48.458041], [2.84615, 48.458952], [2.848583, 48.459467], [2.848963, 48.459554], [2.849207, 48.459705], [2.849661, 48.460199], [2.849791, 48.460297], [2.849435, 48.460373], [2.849807, 48.461229], [2.849524, 48.461311], [2.849353, 48.461306], [2.849543, 48.461569], [2.848747, 48.461769], [2.849046, 48.462558], [2.848089, 48.462804], [2.847709, 48.462932], [2.847438, 48.463053], [2.846766, 48.463191], [2.846328, 48.463333], [2.845499, 48.463631], [2.845136, 48.463714], [2.845334, 48.464203], [2.845459, 48.464629], [2.845046, 48.464549], [2.844356, 48.464363], [2.844212, 48.464189], [2.843986, 48.463988], [2.843725, 48.463851], [2.843516, 48.463671], [2.842996, 48.463651], [2.842541, 48.463837], [2.842314, 48.463894], [2.841473, 48.463774], [2.840908, 48.463617], [2.840634, 48.463984], [2.840009, 48.463704], [2.839328, 48.463513], [2.838931, 48.463467], [2.83828, 48.463592], [2.838071, 48.46371], [2.83742, 48.464149], [2.837317, 48.46424], [2.837795, 48.464523], [2.83729, 48.465263], [2.837293, 48.465398], [2.837369, 48.465576], [2.837447, 48.465913], [2.837476, 48.466366], [2.837684, 48.466796], [2.837926, 48.467203], [2.838089, 48.467436], [2.83832, 48.467696], [2.838582, 48.467946], [2.839293, 48.46845], [2.839507, 48.468709], [2.839778, 48.469134], [2.840183, 48.469512], [2.84057, 48.469792], [2.84128, 48.47028], [2.84152, 48.470515], [2.841583, 48.470685], [2.841587, 48.471232], [2.841701, 48.47155], [2.842104, 48.472098], [2.842661, 48.472785], [2.84276, 48.473081], [2.842715, 48.473624], [2.842643, 48.474166], [2.842427, 48.474883], [2.842486, 48.474959], [2.842877, 48.475043], [2.84318, 48.475214], [2.843317, 48.475452], [2.843467, 48.476324], [2.843465, 48.47676], [2.84357, 48.476836], [2.834858, 48.481373], [2.832477, 48.482605], [2.833615, 48.483449], [2.833762, 48.483547], [2.840334, 48.481007], [2.841249, 48.480649], [2.841571, 48.480485], [2.842272, 48.480478], [2.842442, 48.480619], [2.84269, 48.481022], [2.843158, 48.481523], [2.843178, 48.481568], [2.843687, 48.482185], [2.844537, 48.483332], [2.843934, 48.484043], [2.843606, 48.485109], [2.843618, 48.485127], [2.8441, 48.484977], [2.845077, 48.484649], [2.845414, 48.48464], [2.846166, 48.48466], [2.848268, 48.484658], [2.847915, 48.484117], [2.849074, 48.483943], [2.850091, 48.483218], [2.850366, 48.48309], [2.850837, 48.482941], [2.851552, 48.48282], [2.852753, 48.482688], [2.853667, 48.482527], [2.854727, 48.482228], [2.855155, 48.482137], [2.855593, 48.482097], [2.85605, 48.482017], [2.856469, 48.481973], [2.857076, 48.481872], [2.857302, 48.481849], [2.857849, 48.481731], [2.85911, 48.48125], [2.85947, 48.481168], [2.860352, 48.481099], [2.861151, 48.481093], [2.861699, 48.481148], [2.862698, 48.481295], [2.863278, 48.481371], [2.863313, 48.48118], [2.86395, 48.481189], [2.864448, 48.481218], [2.865944, 48.481483], [2.866122, 48.481483], [2.867277, 48.481423], [2.867594, 48.481396], [2.868431, 48.481265], [2.869149, 48.481138], [2.87024, 48.481002], [2.871792, 48.480899], [2.871908, 48.48133], [2.874744, 48.481007], [2.874987, 48.480973], [2.876547, 48.480791], [2.877875, 48.48063], [2.880245, 48.480355], [2.880927, 48.480263], [2.884718, 48.480069], [2.88657, 48.479613], [2.88667, 48.479638], [2.88685, 48.479501], [2.886856, 48.479398], [2.887108, 48.47875], [2.887109, 48.478463], [2.887447, 48.477777], [2.88776, 48.476926], [2.888061, 48.476385], [2.88831, 48.475844], [2.888628, 48.475085], [2.888753, 48.474758], [2.892026, 48.474661], [2.893251, 48.474628], [2.8944, 48.474574], [2.893716, 48.473201], [2.892939, 48.471683], [2.892668, 48.471188], [2.892343, 48.470518], [2.892133, 48.470332], [2.892041, 48.47016], [2.891842, 48.46906], [2.891826, 48.468664], [2.891808, 48.46761], [2.891787, 48.467108], [2.891852, 48.466526], [2.891907, 48.465711], [2.891959, 48.464091], [2.891954, 48.463925], [2.891288, 48.463744], [2.890012, 48.463462], [2.888441, 48.463079], [2.887645, 48.462909], [2.886213, 48.462645], [2.884648, 48.462345], [2.883726, 48.462182], [2.883208, 48.462099], [2.882342, 48.462015], [2.882109, 48.461808], [2.882456, 48.461664], [2.881102, 48.460542], [2.880366, 48.459974], [2.879947, 48.459676], [2.879647, 48.459552], [2.878942, 48.458653], [2.878021, 48.457574], [2.87786, 48.457482], [2.879679, 48.45617], [2.879232, 48.456008], [2.878496, 48.455807], [2.877793, 48.455654], [2.877299, 48.455463], [2.876798, 48.455233], [2.876285, 48.454966], [2.874909, 48.45419], [2.874507, 48.453949], [2.874267, 48.453709], [2.873623, 48.453241], [2.873339, 48.452968], [2.872951, 48.452373], [2.872643, 48.451976], [2.87248, 48.451579], [2.871869, 48.451852], [2.870762, 48.452151], [2.870507, 48.452233], [2.869545, 48.452621], [2.86932, 48.45277], [2.868893, 48.453162], [2.868626, 48.453339], [2.868339, 48.453466], [2.8678, 48.453646], [2.867024, 48.45373], [2.8666, 48.453903], [2.866347, 48.454061], [2.865452, 48.453723], [2.865039, 48.453533], [2.864256, 48.453217], [2.863577, 48.452974], [2.862664, 48.452579], [2.862037, 48.452326], [2.859402, 48.451275], [2.859447, 48.45081], [2.859601, 48.450029]]]}, "properties": {"code_iris": "773540000", "nom_iris": "Pamfou (commune entière)", "type_iris": "Z", "lat": 48.4676, "lng": 2.8634, "dvf_sales_total": 229, "dvf_sales_appt": 0, "dvf_sales_maison": 0, "dvf_median_price": 220000.0, "dvf_median_ppsqm": 2807.0175438596493, "dvf_by_year": "[{\"year\": 2021, \"sales\": 55, \"median_price\": 228000.0}, {\"year\": 2022, \"sales\": 44, \"median_price\": 250000.0}, {\"year\": 2023, \"sales\": 44, \"median_price\": 280000.0}, {\"year\": 2024, \"sales\": 41, \"median_price\": 206000.0}, {\"year\": 2025, \"sales\": 45, \"median_price\": 50000.0}]", "population": 983, "n_log": null, "n_rp": null, "pct_proprio": null, "pct_hlm": null, "pct_appart": null, "pct_cadres": null, "pct_bac5p": null, "pct_etrangers": null, "pct_0_14": null, "pct_65p": null, "bpe_total": null, "bpe_commerces": null, "bpe_enseignement": null, "bpe_sante": null, "dpe": null, "attractivity_score": null, "rank_attractivity_score": null, "rank_total_attractivity_score": 1, "commune_avg": null, "is_stub": true}}]}