{"type": "FeatureCollection", "features": [{"type": "Feature", "geometry": {"type": "Polygon", "coordinates": [[[2.929574, 48.652924], [2.929805, 48.65321], [2.929876, 48.653417], [2.929883, 48.653753], [2.929923, 48.653918], [2.930007, 48.654044], [2.930555, 48.654509], [2.930302, 48.655637], [2.930276, 48.656177], [2.930295, 48.656926], [2.930785, 48.656962], [2.93107, 48.656951], [2.930828, 48.657446], [2.930428, 48.657974], [2.929534, 48.658772], [2.930694, 48.659224], [2.93134, 48.659466], [2.932151, 48.659793], [2.93278, 48.660083], [2.933104, 48.660257], [2.933484, 48.660508], [2.93378, 48.660803], [2.933869, 48.660945], [2.934064, 48.661387], [2.934256, 48.661945], [2.934581, 48.662437], [2.935006, 48.662855], [2.936148, 48.663911], [2.93642, 48.664179], [2.936761, 48.66458], [2.937245, 48.665266], [2.937649, 48.665716], [2.937879, 48.665924], [2.93832, 48.666256], [2.939023, 48.666673], [2.939281, 48.666804], [2.940319, 48.667277], [2.940729, 48.667533], [2.941448, 48.668068], [2.942341, 48.668529], [2.943021, 48.668916], [2.944482, 48.667669], [2.944859, 48.667452], [2.945477, 48.667254], [2.945898, 48.66706], [2.946136, 48.666916], [2.946845, 48.666376], [2.947189, 48.666191], [2.947988, 48.665875], [2.948375, 48.665683], [2.948615, 48.665506], [2.949072, 48.665084], [2.949631, 48.66442], [2.949813, 48.66422], [2.950335, 48.663744], [2.950949, 48.663289], [2.951162, 48.663098], [2.951563, 48.662655], [2.95221, 48.662269], [2.952716, 48.661923], [2.95294, 48.661801], [2.9529, 48.661698], [2.953934, 48.661285], [2.95432, 48.661184], [2.954499, 48.661161], [2.954933, 48.661162], [2.958075, 48.661281], [2.96009, 48.661364], [2.961777, 48.661425], [2.963084, 48.661466], [2.963983, 48.661359], [2.964431, 48.661376], [2.965546, 48.661555], [2.965843, 48.661494], [2.967003, 48.661066], [2.967691, 48.660923], [2.967959, 48.660816], [2.968388, 48.660572], [2.968926, 48.66035], [2.970003, 48.660052], [2.971937, 48.659386], [2.971914, 48.659273], [2.972663, 48.659048], [2.973105, 48.65878], [2.973667, 48.658509], [2.973123, 48.65749], [2.972176, 48.656557], [2.972047, 48.656255], [2.971742, 48.655834], [2.971704, 48.655547], [2.971526, 48.655189], [2.971409, 48.654501], [2.971238, 48.654209], [2.971171, 48.653981], [2.971165, 48.653729], [2.972981, 48.653483], [2.974796, 48.653344], [2.974597, 48.652922], [2.97384, 48.651914], [2.973257, 48.651123], [2.973294, 48.65043], [2.973047, 48.650052], [2.973025, 48.649692], [2.972861, 48.649341], [2.972872, 48.648924], [2.972821, 48.648441], [2.972814, 48.648142], [2.972778, 48.647923], [2.972796, 48.647286], [2.972293, 48.647426], [2.971957, 48.646508], [2.971781, 48.645999], [2.971932, 48.646018], [2.972361, 48.645923], [2.972615, 48.645898], [2.972894, 48.645835], [2.973391, 48.645619], [2.973687, 48.645577], [2.974055, 48.645101], [2.974294, 48.644931], [2.974403, 48.644757], [2.974368, 48.644438], [2.974388, 48.644304], [2.974578, 48.643998], [2.974591, 48.643874], [2.9745, 48.643706], [2.974802, 48.643409], [2.974792, 48.64334], [2.974546, 48.643279], [2.974481, 48.643208], [2.974351, 48.64282], [2.974603, 48.642611], [2.974441, 48.642474], [2.974427, 48.64232], [2.974743, 48.642294], [2.9748, 48.642241], [2.974722, 48.642052], [2.974908, 48.641864], [2.974654, 48.6418], [2.974574, 48.641688], [2.974588, 48.641585], [2.974718, 48.641459], [2.974614, 48.641206], [2.974666, 48.641148], [2.97493, 48.641108], [2.975038, 48.640954], [2.975337, 48.64095], [2.975416, 48.640871], [2.975451, 48.640676], [2.975534, 48.640554], [2.975827, 48.640379], [2.97589, 48.640088], [2.976033, 48.639774], [2.975894, 48.639517], [2.976655, 48.638953], [2.976942, 48.638817], [2.977267, 48.63878], [2.977534, 48.638539], [2.977208, 48.638518], [2.977373, 48.638331], [2.977559, 48.638214], [2.97761, 48.638003], [2.97789, 48.637727], [2.978186, 48.637619], [2.978676, 48.63766], [2.978961, 48.637629], [2.97908, 48.637488], [2.979519, 48.637305], [2.979589, 48.637312], [2.979881, 48.637574], [2.97991, 48.637711], [2.979999, 48.637802], [2.980444, 48.638053], [2.980703, 48.638086], [2.981484, 48.638089], [2.982052, 48.63801], [2.982361, 48.638185], [2.982798, 48.638251], [2.983009, 48.638191], [2.983342, 48.637977], [2.983621, 48.638029], [2.983987, 48.63777], [2.98413, 48.637595], [2.984027, 48.637336], [2.983916, 48.637208], [2.984037, 48.637088], [2.983994, 48.636973], [2.984028, 48.636806], [2.984341, 48.636616], [2.98464, 48.636558], [2.984895, 48.636461], [2.98555, 48.636271], [2.986187, 48.636051], [2.986841, 48.635925], [2.987611, 48.635723], [2.988121, 48.635645], [2.988691, 48.635511], [2.989087, 48.635298], [2.989287, 48.635159], [2.989453, 48.634986], [2.989907, 48.634574], [2.990238, 48.633993], [2.990452, 48.633781], [2.990646, 48.633563], [2.990864, 48.633064], [2.991334, 48.63281], [2.991332, 48.632663], [2.991262, 48.632528], [2.990919, 48.632104], [2.990909, 48.631931], [2.991014, 48.631798], [2.991183, 48.631706], [2.991865, 48.631432], [2.991545, 48.630771], [2.991355, 48.630541], [2.991066, 48.630313], [2.990433, 48.629878], [2.98998, 48.62938], [2.989166, 48.628129], [2.988922, 48.627905], [2.988438, 48.627633], [2.987959, 48.627248], [2.98738, 48.626599], [2.987032, 48.626247], [2.986667, 48.625723], [2.986496, 48.625338], [2.986314, 48.624609], [2.982534, 48.623921], [2.981692, 48.623786], [2.980652, 48.62367], [2.98004, 48.623613], [2.979451, 48.623516], [2.978838, 48.623352], [2.978123, 48.623209], [2.977263, 48.623068], [2.976428, 48.622869], [2.976177, 48.622792], [2.976066, 48.623081], [2.975764, 48.62408], [2.97314, 48.624197], [2.971965, 48.624259], [2.971705, 48.624261], [2.97107, 48.625831], [2.970217, 48.625824], [2.969085, 48.625834], [2.968767, 48.625892], [2.968485, 48.625996], [2.968207, 48.625992], [2.968074, 48.625857], [2.968093, 48.625096], [2.968026, 48.624477], [2.967889, 48.624162], [2.967331, 48.622968], [2.96722, 48.622677], [2.967183, 48.622453], [2.967299, 48.622219], [2.966581, 48.622272], [2.965835, 48.622369], [2.963293, 48.62286], [2.96362, 48.623732], [2.960782, 48.624654], [2.95894, 48.625225], [2.958724, 48.62613], [2.958551, 48.626647], [2.958449, 48.627192], [2.958619, 48.628456], [2.958288, 48.628463], [2.958452, 48.629302], [2.958487, 48.629668], [2.958495, 48.630031], [2.958477, 48.630401], [2.957309, 48.630492], [2.955309, 48.630604], [2.955327, 48.631218], [2.953126, 48.63155], [2.950831, 48.63189], [2.950895, 48.63295], [2.947165, 48.633297], [2.946067, 48.633392], [2.946021, 48.633411], [2.945234, 48.633377], [2.943253, 48.633468], [2.943138, 48.633186], [2.942836, 48.632368], [2.942336, 48.63106], [2.941715, 48.631061], [2.938424, 48.631046], [2.936077, 48.631042], [2.935818, 48.63025], [2.935884, 48.630062], [2.935856, 48.629754], [2.935701, 48.629523], [2.935061, 48.629701], [2.934856, 48.629469], [2.933857, 48.629807], [2.933513, 48.629439], [2.93244, 48.629744], [2.931836, 48.629005], [2.931178, 48.62919], [2.930496, 48.628515], [2.929577, 48.627683], [2.929154, 48.627313], [2.928453, 48.626828], [2.927325, 48.627342], [2.926794, 48.627562], [2.926605, 48.627622], [2.926971, 48.628097], [2.926994, 48.628347], [2.926907, 48.628492], [2.926723, 48.628613], [2.926017, 48.628971], [2.925371, 48.629379], [2.924984, 48.629698], [2.924869, 48.629818], [2.924377, 48.630428], [2.924065, 48.630774], [2.923838, 48.630961], [2.924691, 48.631078], [2.924453, 48.631496], [2.924587, 48.631763], [2.92321, 48.632274], [2.922393, 48.631632], [2.921228, 48.632274], [2.920878, 48.632595], [2.920474, 48.63284], [2.92, 48.633094], [2.918226, 48.634181], [2.919133, 48.634823], [2.921312, 48.636386], [2.92181, 48.636696], [2.92253, 48.637109], [2.924624, 48.638384], [2.925595, 48.639009], [2.926092, 48.639352], [2.926491, 48.639666], [2.926994, 48.640106], [2.927433, 48.640616], [2.927746, 48.640897], [2.927545, 48.64108], [2.927248, 48.641652], [2.928002, 48.642308], [2.927881, 48.642633], [2.927741, 48.642732], [2.927243, 48.643258], [2.927023, 48.643415], [2.927154, 48.643593], [2.927732, 48.644708], [2.927904, 48.645127], [2.928085, 48.645921], [2.928322, 48.646624], [2.928719, 48.647676], [2.928787, 48.647927], [2.928835, 48.648336], [2.92896, 48.649097], [2.929128, 48.649581], [2.929579, 48.650225], [2.92978, 48.65067], [2.929932, 48.651144], [2.92986, 48.651558], [2.929433, 48.652635], [2.929574, 48.652924]]]}, "properties": {"code_iris": "771350000", "nom_iris": "Courpalay (commune entière)", "type_iris": "Z", "lat": 48.6456, "lng": 2.955, "dvf_sales_total": 386, "dvf_sales_appt": 0, "dvf_sales_maison": 0, "dvf_median_price": 209500.0, "dvf_median_ppsqm": 2324.3410852713178, "dvf_by_year": "[{\"year\": 2021, \"sales\": 108, \"median_price\": 185000.0}, {\"year\": 2022, \"sales\": 70, \"median_price\": 231000.0}, {\"year\": 2023, \"sales\": 52, \"median_price\": 203000.0}, {\"year\": 2024, \"sales\": 64, \"median_price\": 210000.0}, {\"year\": 2025, \"sales\": 92, \"median_price\": 220000.0}]", "population": 1610, "n_log": null, "n_rp": null, "pct_proprio": null, "pct_hlm": null, "pct_appart": null, "pct_cadres": null, "pct_bac5p": null, "pct_etrangers": null, "pct_0_14": null, "pct_65p": null, "bpe_total": null, "bpe_commerces": null, "bpe_enseignement": null, "bpe_sante": null, "dpe": null, "attractivity_score": null, "rank_attractivity_score": null, "rank_total_attractivity_score": 1, "commune_avg": null, "is_stub": true}}]}