{"type": "FeatureCollection", "features": [{"type": "Feature", "geometry": {"type": "Polygon", "coordinates": [[[2.572824, 48.643862], [2.573343, 48.643262], [2.573532, 48.643089], [2.573775, 48.642913], [2.574063, 48.642741], [2.574759, 48.642457], [2.574116, 48.641757], [2.573985, 48.64154], [2.573695, 48.641206], [2.573173, 48.640548], [2.57296, 48.640244], [2.572622, 48.639686], [2.572716, 48.639635], [2.57252, 48.639272], [2.571863, 48.638348], [2.571615, 48.637964], [2.571405, 48.637476], [2.571053, 48.636592], [2.571407, 48.63655], [2.572085, 48.636436], [2.572435, 48.636315], [2.573007, 48.636092], [2.57324, 48.636032], [2.573945, 48.636117], [2.574044, 48.636077], [2.574086, 48.635797], [2.574085, 48.635394], [2.573453, 48.635438], [2.572928, 48.635438], [2.57272, 48.633057], [2.5723, 48.633062], [2.571312, 48.633042], [2.571034, 48.631574], [2.570631, 48.631552], [2.570505, 48.631397], [2.570511, 48.630872], [2.570454, 48.630644], [2.570057, 48.630036], [2.5698, 48.629601], [2.569644, 48.629301], [2.569544, 48.628946], [2.569778, 48.628379], [2.570282, 48.626954], [2.570468, 48.626521], [2.570409, 48.625772], [2.570441, 48.625424], [2.56979, 48.624812], [2.569604, 48.624568], [2.569855, 48.624438], [2.569855, 48.624312], [2.569461, 48.62401], [2.561991, 48.62328], [2.5628, 48.622575], [2.565954, 48.619867], [2.566652, 48.619277], [2.567305, 48.618755], [2.568446, 48.617767], [2.568732, 48.617509], [2.570273, 48.616189], [2.570653, 48.615838], [2.571505, 48.6151], [2.573224, 48.613632], [2.573825, 48.613111], [2.575052, 48.612068], [2.57616, 48.611108], [2.576478, 48.610887], [2.576717, 48.610763], [2.57789, 48.610323], [2.578241, 48.610087], [2.578415, 48.609903], [2.579223, 48.608717], [2.579591, 48.608209], [2.579699, 48.608082], [2.580038, 48.607857], [2.580301, 48.607633], [2.580923, 48.606989], [2.581423, 48.606536], [2.582378, 48.605727], [2.581336, 48.605872], [2.579529, 48.606263], [2.578831, 48.606355], [2.577151, 48.606952], [2.576532, 48.607205], [2.575347, 48.60763], [2.574865, 48.60782], [2.573926, 48.608047], [2.573282, 48.60819], [2.572303, 48.608337], [2.569879, 48.60869], [2.568965, 48.608904], [2.567892, 48.609232], [2.567334, 48.609383], [2.566533, 48.609542], [2.565421, 48.609704], [2.564756, 48.609769], [2.564133, 48.609816], [2.562895, 48.609852], [2.562229, 48.609862], [2.56161, 48.609843], [2.560966, 48.609801], [2.560258, 48.609715], [2.559418, 48.609566], [2.557679, 48.609167], [2.555908, 48.60855], [2.555646, 48.608483], [2.555025, 48.608151], [2.5545, 48.607927], [2.553953, 48.607815], [2.553578, 48.607797], [2.553077, 48.607821], [2.552474, 48.607923], [2.551544, 48.608145], [2.548157, 48.608723], [2.546943, 48.608966], [2.546237, 48.609049], [2.545706, 48.609074], [2.545269, 48.609071], [2.543778, 48.608949], [2.54279, 48.608821], [2.542463, 48.608755], [2.540639, 48.611294], [2.525662, 48.613176], [2.526138, 48.616055], [2.526675, 48.619266], [2.526688, 48.619752], [2.526715, 48.619901], [2.526659, 48.620981], [2.526613, 48.62116], [2.526455, 48.621282], [2.526235, 48.621287], [2.525184, 48.621239], [2.524984, 48.62127], [2.524363, 48.621829], [2.523947, 48.622163], [2.523512, 48.62257], [2.522723, 48.623285], [2.522412, 48.623462], [2.522077, 48.623733], [2.520383, 48.625176], [2.519681, 48.62579], [2.518162, 48.62706], [2.51747, 48.627626], [2.516987, 48.628043], [2.516352, 48.628361], [2.515604, 48.629247], [2.519075, 48.630734], [2.520246, 48.631293], [2.520989, 48.631695], [2.521332, 48.631926], [2.521721, 48.632067], [2.524431, 48.632999], [2.525012, 48.633148], [2.525681, 48.63328], [2.526341, 48.633367], [2.527139, 48.633419], [2.527577, 48.633222], [2.528495, 48.632943], [2.529439, 48.632689], [2.530101, 48.632533], [2.530228, 48.632561], [2.53065, 48.632401], [2.532954, 48.631841], [2.533601, 48.631719], [2.535462, 48.631424], [2.536506, 48.631222], [2.53748, 48.63306], [2.537565, 48.633237], [2.538229, 48.633076], [2.541406, 48.632339], [2.541578, 48.63333], [2.542247, 48.633305], [2.542444, 48.634937], [2.542483, 48.635646], [2.542464, 48.636146], [2.54238, 48.63673], [2.542153, 48.636727], [2.541709, 48.637804], [2.5408, 48.63777], [2.540669, 48.639169], [2.540745, 48.639181], [2.540912, 48.640206], [2.541827, 48.640442], [2.540848, 48.641314], [2.54191, 48.641709], [2.540679, 48.642737], [2.540814, 48.642863], [2.541037, 48.6427], [2.541791, 48.642571], [2.542398, 48.643663], [2.542888, 48.644371], [2.543933, 48.645646], [2.543625, 48.645794], [2.542982, 48.64596], [2.541919, 48.646094], [2.543944, 48.64754], [2.544177, 48.647695], [2.545568, 48.648473], [2.547119, 48.64933], [2.547504, 48.649522], [2.54794, 48.649662], [2.548359, 48.648848], [2.548496, 48.648555], [2.548909, 48.647444], [2.548998, 48.647099], [2.549386, 48.645007], [2.550467, 48.645617], [2.55294, 48.645163], [2.553836, 48.644977], [2.55605, 48.644491], [2.556331, 48.644773], [2.557816, 48.644643], [2.559208, 48.644545], [2.560274, 48.644233], [2.560678, 48.644216], [2.56169, 48.644126], [2.561768, 48.643922], [2.563126, 48.643565], [2.567594, 48.642546], [2.568361, 48.643528], [2.572824, 48.643862]]]}, "properties": {"code_iris": "772510000", "nom_iris": "Lieusaint (commune entière)", "type_iris": "Z", "lat": 48.6277, "lng": 2.549, "dvf_sales_total": 2373, "dvf_sales_appt": 0, "dvf_sales_maison": 0, "dvf_median_price": 227000.0, "dvf_median_ppsqm": 3606.55737704918, "dvf_by_year": "[{\"year\": 2021, \"sales\": 488, \"median_price\": 211000.0}, {\"year\": 2022, \"sales\": 544, \"median_price\": 246995.0}, {\"year\": 2023, \"sales\": 569, \"median_price\": 221500.0}, {\"year\": 2024, \"sales\": 347, \"median_price\": 238000.0}, {\"year\": 2025, \"sales\": 425, \"median_price\": 224000.0}]", "population": 14017, "n_log": null, "n_rp": null, "pct_proprio": null, "pct_hlm": null, "pct_appart": null, "pct_cadres": null, "pct_bac5p": null, "pct_etrangers": null, "pct_0_14": null, "pct_65p": null, "bpe_total": null, "bpe_commerces": null, "bpe_enseignement": null, "bpe_sante": null, "dpe": null, "attractivity_score": null, "rank_attractivity_score": null, "rank_total_attractivity_score": 1, "commune_avg": null, "is_stub": true}}]}