{"type": "FeatureCollection", "features": [{"type": "Feature", "geometry": {"type": "Point", "coordinates": [3.165688, 48.785206]}, "properties": {"street_name": "LA FERRIERE", "sales": 22, "sales_appt": 0, "sales_maison": 5, "median_price": 499500.0, "median_price_per_sqm": 3330.0, "turnover_score": 100.0, "turnover_rank": 1, "first_year": 2022, "last_year": 2023, "years_active": 2}}, {"type": "Feature", "geometry": {"type": "Point", "coordinates": [3.161535, 48.776202]}, "properties": {"street_name": "PL DE LA MAIRIE", "sales": 16, "sales_appt": 0, "sales_maison": 4, "median_price": 300000.0, "median_price_per_sqm": 1500.0, "turnover_score": 72.7, "turnover_rank": 2, "first_year": 2024, "last_year": 2024, "years_active": 1}}, {"type": "Feature", "geometry": {"type": "Point", "coordinates": [3.177934, 48.770834]}, "properties": {"street_name": "MILHARD", "sales": 11, "sales_appt": 0, "sales_maison": 4, "median_price": 314000.0, "median_price_per_sqm": 1962.5, "turnover_score": 50.0, "turnover_rank": 3, "first_year": 2023, "last_year": 2025, "years_active": 3}}, {"type": "Feature", "geometry": {"type": "Point", "coordinates": [3.17107, 48.784419]}, "properties": {"street_name": "LE CHAMP JACOB", "sales": 11, "sales_appt": 0, "sales_maison": 0, "median_price": 10200.0, "median_price_per_sqm": null, "turnover_score": 50.0, "turnover_rank": 3, "first_year": 2021, "last_year": 2024, "years_active": 4}}, {"type": "Feature", "geometry": {"type": "Point", "coordinates": [3.170859, 48.75988]}, "properties": {"street_name": "MALNOUE", "sales": 11, "sales_appt": 0, "sales_maison": 1, "median_price": 1847.84, "median_price_per_sqm": 3880.597014925373, "turnover_score": 50.0, "turnover_rank": 3, "first_year": 2021, "last_year": 2022, "years_active": 2}}, {"type": "Feature", "geometry": {"type": "Point", "coordinates": [3.150652, 48.766566999999995]}, "properties": {"street_name": "RANCHIEN", "sales": 8, "sales_appt": 0, "sales_maison": 0, "median_price": 2000.0, "median_price_per_sqm": null, "turnover_score": 36.4, "turnover_rank": 4, "first_year": 2021, "last_year": 2021, "years_active": 1}}, {"type": "Feature", "geometry": {"type": "Point", "coordinates": [3.1641285000000003, 48.775481]}, "properties": {"street_name": "RUE DE L'ARCHE", "sales": 8, "sales_appt": 0, "sales_maison": 5, "median_price": 312645.0, "median_price_per_sqm": 2810.344827586207, "turnover_score": 36.4, "turnover_rank": 4, "first_year": 2023, "last_year": 2024, "years_active": 2}}, {"type": "Feature", "geometry": {"type": "Point", "coordinates": [3.1787704999999997, 48.7744455]}, "properties": {"street_name": "RUE DES MORILS", "sales": 8, "sales_appt": 0, "sales_maison": 6, "median_price": 294300.0, "median_price_per_sqm": 2263.157894736842, "turnover_score": 36.4, "turnover_rank": 4, "first_year": 2021, "last_year": 2021, "years_active": 1}}, {"type": "Feature", "geometry": {"type": "Point", "coordinates": [3.1638155, 48.7779515]}, "properties": {"street_name": "RUE DU CEDRE", "sales": 8, "sales_appt": 0, "sales_maison": 4, "median_price": 304225.0, "median_price_per_sqm": 1800.1479289940828, "turnover_score": 36.4, "turnover_rank": 4, "first_year": 2022, "last_year": 2025, "years_active": 3}}, {"type": "Feature", "geometry": {"type": "Point", "coordinates": [3.159506, 48.776615]}, "properties": {"street_name": "RUE CREUSE", "sales": 7, "sales_appt": 0, "sales_maison": 3, "median_price": 310450.0, "median_price_per_sqm": 2200.0, "turnover_score": 31.8, "turnover_rank": 5, "first_year": 2025, "last_year": 2025, "years_active": 1}}, {"type": "Feature", "geometry": {"type": "Point", "coordinates": [3.166207, 48.778007]}, "properties": {"street_name": "RUE COURTESOUPE", "sales": 6, "sales_appt": 0, "sales_maison": 2, "median_price": 260000.0, "median_price_per_sqm": 2342.3423423423424, "turnover_score": 27.3, "turnover_rank": 6, "first_year": 2024, "last_year": 2024, "years_active": 1}}, {"type": "Feature", "geometry": {"type": "Point", "coordinates": [3.1754645000000004, 48.779161]}, "properties": {"street_name": "FORET", "sales": 6, "sales_appt": 0, "sales_maison": 1, "median_price": 550000.0, "median_price_per_sqm": 6395.3488372093025, "turnover_score": 27.3, "turnover_rank": 6, "first_year": 2023, "last_year": 2024, "years_active": 2}}, {"type": "Feature", "geometry": {"type": "Point", "coordinates": [3.166061, 48.769875]}, "properties": {"street_name": "IMP DU LAVOIR", "sales": 5, "sales_appt": 0, "sales_maison": 2, "median_price": 136000.0, "median_price_per_sqm": 1133.3333333333333, "turnover_score": 22.7, "turnover_rank": 7, "first_year": 2025, "last_year": 2025, "years_active": 1}}, {"type": "Feature", "geometry": {"type": "Point", "coordinates": [3.164073, 48.777037]}, "properties": {"street_name": "MAROLLES", "sales": 5, "sales_appt": 0, "sales_maison": 0, "median_price": 231000.0, "median_price_per_sqm": null, "turnover_score": 22.7, "turnover_rank": 7, "first_year": 2021, "last_year": 2025, "years_active": 3}}, {"type": "Feature", "geometry": {"type": "Point", "coordinates": [3.180793, 48.7690075]}, "properties": {"street_name": "LE PRE BOURDON", "sales": 4, "sales_appt": 0, "sales_maison": 0, "median_price": 14833.0, "median_price_per_sqm": null, "turnover_score": 18.2, "turnover_rank": 8, "first_year": 2023, "last_year": 2023, "years_active": 1}}, {"type": "Feature", "geometry": {"type": "Point", "coordinates": [3.185973, 48.772718]}, "properties": {"street_name": "LES PRES CHARLOT", "sales": 3, "sales_appt": 0, "sales_maison": 0, "median_price": 14660.0, "median_price_per_sqm": null, "turnover_score": 13.6, "turnover_rank": 9, "first_year": 2021, "last_year": 2021, "years_active": 1}}, {"type": "Feature", "geometry": {"type": "Point", "coordinates": [3.180846, 48.775149]}, "properties": {"street_name": "RTE DE CHOISY", "sales": 3, "sales_appt": 0, "sales_maison": 2, "median_price": 248880.0, "median_price_per_sqm": 2488.8, "turnover_score": 13.6, "turnover_rank": 9, "first_year": 2024, "last_year": 2024, "years_active": 1}}, {"type": "Feature", "geometry": {"type": "Point", "coordinates": [3.160294, 48.784688]}, "properties": {"street_name": "LE SIFFLOT", "sales": 3, "sales_appt": 0, "sales_maison": 3, "median_price": 212000.0, "median_price_per_sqm": 2329.6703296703295, "turnover_score": 13.6, "turnover_rank": 9, "first_year": 2021, "last_year": 2023, "years_active": 2}}, {"type": "Feature", "geometry": {"type": "Point", "coordinates": [3.168349, 48.785732]}, "properties": {"street_name": "LA BASSIGNIERE", "sales": 2, "sales_appt": 0, "sales_maison": 0, "median_price": 5350.45, "median_price_per_sqm": null, "turnover_score": 9.1, "turnover_rank": 10, "first_year": 2022, "last_year": 2023, "years_active": 2}}, {"type": "Feature", "geometry": {"type": "Point", "coordinates": [3.165643, 48.779188]}, "properties": {"street_name": "LE CHAMP DE FAMINE", "sales": 2, "sales_appt": 0, "sales_maison": 0, "median_price": 4000.0, "median_price_per_sqm": null, "turnover_score": 9.1, "turnover_rank": 10, "first_year": 2024, "last_year": 2024, "years_active": 1}}, {"type": "Feature", "geometry": {"type": "Point", "coordinates": [3.161134, 48.766871]}, "properties": {"street_name": "LE CHAMP ROBIN", "sales": 2, "sales_appt": 0, "sales_maison": 0, "median_price": 14202.5, "median_price_per_sqm": null, "turnover_score": 9.1, "turnover_rank": 10, "first_year": 2025, "last_year": 2025, "years_active": 1}}, {"type": "Feature", "geometry": {"type": "Point", "coordinates": [3.1674385000000003, 48.761227000000005]}, "properties": {"street_name": "LE CHAMP DE MEAUX", "sales": 2, "sales_appt": 0, "sales_maison": 0, "median_price": 43255.58, "median_price_per_sqm": null, "turnover_score": 9.1, "turnover_rank": 10, "first_year": 2022, "last_year": 2022, "years_active": 1}}, {"type": "Feature", "geometry": {"type": "Point", "coordinates": [3.162551, 48.776262]}, "properties": {"street_name": "RUE DU GUE BRULE", "sales": 2, "sales_appt": 0, "sales_maison": 1, "median_price": 310000.0, "median_price_per_sqm": 3875.0, "turnover_score": 9.1, "turnover_rank": 10, "first_year": 2021, "last_year": 2021, "years_active": 1}}, {"type": "Feature", "geometry": {"type": "Point", "coordinates": [3.176567, 48.76435]}, "properties": {"street_name": "NON GERARD", "sales": 2, "sales_appt": 0, "sales_maison": 0, "median_price": 13014.3, "median_price_per_sqm": null, "turnover_score": 9.1, "turnover_rank": 10, "first_year": 2025, "last_year": 2025, "years_active": 1}}, {"type": "Feature", "geometry": {"type": "Point", "coordinates": [3.13702, 48.786693]}, "properties": {"street_name": "LE SALUT", "sales": 2, "sales_appt": 0, "sales_maison": 0, "median_price": 24000.0, "median_price_per_sqm": null, "turnover_score": 9.1, "turnover_rank": 10, "first_year": 2022, "last_year": 2022, "years_active": 1}}, {"type": "Feature", "geometry": {"type": "Point", "coordinates": [3.165436, 48.7687635]}, "properties": {"street_name": "LES PETITS BOIS", "sales": 2, "sales_appt": 0, "sales_maison": 0, "median_price": 3468.4, "median_price_per_sqm": null, "turnover_score": 9.1, "turnover_rank": 10, "first_year": 2025, "last_year": 2025, "years_active": 1}}, {"type": "Feature", "geometry": {"type": "Point", "coordinates": [3.177911, 48.774397]}, "properties": {"street_name": "LES MORILS", "sales": 1, "sales_appt": 0, "sales_maison": 0, "median_price": 258000.0, "median_price_per_sqm": null, "turnover_score": 4.5, "turnover_rank": 11, "first_year": 2021, "last_year": 2021, "years_active": 1}}, {"type": "Feature", "geometry": {"type": "Point", "coordinates": [3.187617, 48.771721]}, "properties": {"street_name": "LES MONDOUX", "sales": 1, "sales_appt": 0, "sales_maison": 0, "median_price": 4450.0, "median_price_per_sqm": null, "turnover_score": 4.5, "turnover_rank": 11, "first_year": 2025, "last_year": 2025, "years_active": 1}}, {"type": "Feature", "geometry": {"type": "Point", "coordinates": [3.18077, 48.774737]}, "properties": {"street_name": "LES FORTES TERRES", "sales": 1, "sales_appt": 0, "sales_maison": 0, "median_price": 248880.0, "median_price_per_sqm": null, "turnover_score": 4.5, "turnover_rank": 11, "first_year": 2024, "last_year": 2024, "years_active": 1}}, {"type": "Feature", "geometry": {"type": "Point", "coordinates": [3.180262, 48.771681]}, "properties": {"street_name": "LE CHAMP DE LA MEUNIERE", "sales": 1, "sales_appt": 0, "sales_maison": 0, "median_price": 223000.0, "median_price_per_sqm": null, "turnover_score": 4.5, "turnover_rank": 11, "first_year": 2024, "last_year": 2024, "years_active": 1}}, {"type": "Feature", "geometry": {"type": "Point", "coordinates": [3.174809, 48.776479]}, "properties": {"street_name": "LE BOIS DES ECOUTES", "sales": 1, "sales_appt": 0, "sales_maison": 0, "median_price": 11975.15, "median_price_per_sqm": null, "turnover_score": 4.5, "turnover_rank": 11, "first_year": 2024, "last_year": 2024, "years_active": 1}}, {"type": "Feature", "geometry": {"type": "Point", "coordinates": [3.185886, 48.771184]}, "properties": {"street_name": "LA FONTAINE BLANCHE", "sales": 1, "sales_appt": 0, "sales_maison": 0, "median_price": 12000.0, "median_price_per_sqm": null, "turnover_score": 4.5, "turnover_rank": 11, "first_year": 2025, "last_year": 2025, "years_active": 1}}, {"type": "Feature", "geometry": {"type": "Point", "coordinates": [3.181083, 48.774735]}, "properties": {"street_name": "LES SABLES DES MORILS", "sales": 1, "sales_appt": 0, "sales_maison": 0, "median_price": 248880.0, "median_price_per_sqm": null, "turnover_score": 4.5, "turnover_rank": 11, "first_year": 2024, "last_year": 2024, "years_active": 1}}, {"type": "Feature", "geometry": {"type": "Point", "coordinates": [3.162624, 48.775186]}, "properties": {"street_name": "RUE DE L'ORGERE", "sales": 1, "sales_appt": 0, "sales_maison": 1, "median_price": 230000.0, "median_price_per_sqm": 2053.5714285714284, "turnover_score": 4.5, "turnover_rank": 11, "first_year": 2025, "last_year": 2025, "years_active": 1}}]}