{"type": "FeatureCollection", "features": [{"type": "Feature", "geometry": {"type": "Point", "coordinates": [2.919525, 48.312635]}, "properties": {"id_parcelle": "77184000AC0364", "address": "10 RUE DU MOULIN", "sales": 4, "median_price": 363000.0, "median_price_per_sqm": 1797.029702970297, "median_rooms": 3.0, "first_sale": "2022-09-01", "last_sale": "2024-09-18"}}, {"type": "Feature", "geometry": {"type": "Point", "coordinates": [2.919571, 48.312503]}, "properties": {"id_parcelle": "77184000AC0026", "address": "5054 RUE DU MOULIN", "sales": 4, "median_price": 363000.0, "median_price_per_sqm": null, "median_rooms": 0.0, "first_sale": "2022-09-01", "last_sale": "2024-09-18"}}, {"type": "Feature", "geometry": {"type": "Point", "coordinates": [2.898621, 48.292233]}, "properties": {"id_parcelle": "77184000ZD0041", "address": "LA FORET", "sales": 4, "median_price": 50000.0, "median_price_per_sqm": null, "median_rooms": null, "first_sale": "2025-11-13", "last_sale": "2025-11-13"}}, {"type": "Feature", "geometry": {"type": "Point", "coordinates": [2.920353, 48.311969]}, "properties": {"id_parcelle": "77184000AC0368", "address": "13 RUE GRANDE", "sales": 3, "median_price": 195000.0, "median_price_per_sqm": 2321.4285714285716, "median_rooms": 0.0, "first_sale": "2024-08-19", "last_sale": "2024-08-19"}}, {"type": "Feature", "geometry": {"type": "Point", "coordinates": [2.922033, 48.313033]}, "properties": {"id_parcelle": "77184000AC0398", "address": "1 RUE DU POELON", "sales": 3, "median_price": 290000.0, "median_price_per_sqm": 2071.4285714285716, "median_rooms": 0.0, "first_sale": "2022-10-26", "last_sale": "2022-10-26"}}, {"type": "Feature", "geometry": {"type": "Point", "coordinates": [2.92058, 48.313122]}, "properties": {"id_parcelle": "77184000AC0034", "address": "1 RUE DU MOULIN", "sales": 3, "median_price": 170000.0, "median_price_per_sqm": 1062.5, "median_rooms": 0.0, "first_sale": "2023-08-02", "last_sale": "2023-08-02"}}, {"type": "Feature", "geometry": {"type": "Point", "coordinates": [2.920208, 48.313377]}, "properties": {"id_parcelle": "77184000AC0378", "address": "2 RUE DU MOULIN", "sales": 3, "median_price": 175000.0, "median_price_per_sqm": 1861.7021276595744, "median_rooms": 0.0, "first_sale": "2023-11-29", "last_sale": "2023-11-29"}}, {"type": "Feature", "geometry": {"type": "Point", "coordinates": [2.92243, 48.314054]}, "properties": {"id_parcelle": "771840000A0521", "address": "LE BIE", "sales": 2, "median_price": 152500.0, "median_price_per_sqm": null, "median_rooms": null, "first_sale": "2022-03-02", "last_sale": "2022-03-02"}}, {"type": "Feature", "geometry": {"type": "Point", "coordinates": [2.918728, 48.313451]}, "properties": {"id_parcelle": "771840000A0611", "address": "6 RUE DU MOULIN BILLARD", "sales": 2, "median_price": 235000.0, "median_price_per_sqm": 2196.2616822429904, "median_rooms": 4.0, "first_sale": "2024-03-29", "last_sale": "2024-03-29"}}, {"type": "Feature", "geometry": {"type": "Point", "coordinates": [2.918812, 48.313022]}, "properties": {"id_parcelle": "771840000A0653", "address": "10 RUE DU MOULIN BILLARD", "sales": 2, "median_price": 250600.0, "median_price_per_sqm": 3132.5, "median_rooms": 4.0, "first_sale": "2025-06-20", "last_sale": "2025-06-20"}}, {"type": "Feature", "geometry": {"type": "Point", "coordinates": [2.928863, 48.319401]}, "properties": {"id_parcelle": "77184000AB0169", "address": "BOIS DE BELLE FONTAINE", "sales": 2, "median_price": 1250.0, "median_price_per_sqm": null, "median_rooms": null, "first_sale": "2021-03-01", "last_sale": "2021-03-01"}}, {"type": "Feature", "geometry": {"type": "Point", "coordinates": [2.928981, 48.319496]}, "properties": {"id_parcelle": "77184000AB0168", "address": "BOIS DE BELLE FONTAINE", "sales": 2, "median_price": 1250.0, "median_price_per_sqm": null, "median_rooms": null, "first_sale": "2021-03-01", "last_sale": "2021-03-01"}}, {"type": "Feature", "geometry": {"type": "Point", "coordinates": [2.928482, 48.319364]}, "properties": {"id_parcelle": "77184000AB0172", "address": "BOIS DE BELLE FONTAINE", "sales": 2, "median_price": 1250.0, "median_price_per_sqm": null, "median_rooms": null, "first_sale": "2021-03-01", "last_sale": "2021-03-01"}}, {"type": "Feature", "geometry": {"type": "Point", "coordinates": [2.933969, 48.317455]}, "properties": {"id_parcelle": "77184000AB0088", "address": "BOIS DE BELLE FONTAINE", "sales": 2, "median_price": 325000.0, "median_price_per_sqm": null, "median_rooms": null, "first_sale": "2021-01-21", "last_sale": "2021-01-21"}}, {"type": "Feature", "geometry": {"type": "Point", "coordinates": [2.929631, 48.319396]}, "properties": {"id_parcelle": "77184000AB0164", "address": "BOIS DE BELLE FONTAINE", "sales": 2, "median_price": 1250.0, "median_price_per_sqm": null, "median_rooms": null, "first_sale": "2021-03-01", "last_sale": "2021-03-01"}}, {"type": "Feature", "geometry": {"type": "Point", "coordinates": [2.929524, 48.319291]}, "properties": {"id_parcelle": "77184000AB0165", "address": "BOIS DE BELLE FONTAINE", "sales": 2, "median_price": 1250.0, "median_price_per_sqm": null, "median_rooms": null, "first_sale": "2021-03-01", "last_sale": "2021-03-01"}}, {"type": "Feature", "geometry": {"type": "Point", "coordinates": [2.934149, 48.3168]}, "properties": {"id_parcelle": "77184000AB0091", "address": "5188 BOIS DE BELLE FONTAINE", "sales": 2, "median_price": 325000.0, "median_price_per_sqm": 2754.237288135593, "median_rooms": 5.0, "first_sale": "2021-01-21", "last_sale": "2021-01-21"}}, {"type": "Feature", "geometry": {"type": "Point", "coordinates": [2.925102, 48.318193]}, "properties": {"id_parcelle": "77184000AB0123", "address": "4 RUE DE NOISY", "sales": 2, "median_price": 219150.0, "median_price_per_sqm": 3130.714285714286, "median_rooms": 3.0, "first_sale": "2023-04-25", "last_sale": "2023-04-25"}}, {"type": "Feature", "geometry": {"type": "Point", "coordinates": [2.923448, 48.312578]}, "properties": {"id_parcelle": "77184000AC0132", "address": "10 RUE TRAVERSIERE", "sales": 2, "median_price": 107000.0, "median_price_per_sqm": 869.9186991869918, "median_rooms": 2.5, "first_sale": "2025-09-12", "last_sale": "2025-09-12"}}, {"type": "Feature", "geometry": {"type": "Point", "coordinates": [2.919701, 48.313404]}, "properties": {"id_parcelle": "77184000AC0009", "address": "5060 RUE TRIPIER", "sales": 2, "median_price": 197000.0, "median_price_per_sqm": 1858.4905660377358, "median_rooms": 4.0, "first_sale": "2024-12-12", "last_sale": "2024-12-12"}}, {"type": "Feature", "geometry": {"type": "Point", "coordinates": [2.927579, 48.318908]}, "properties": {"id_parcelle": "77184000AB0175", "address": "BOIS DE BELLE FONTAINE", "sales": 2, "median_price": 1250.0, "median_price_per_sqm": null, "median_rooms": null, "first_sale": "2021-03-01", "last_sale": "2021-03-01"}}, {"type": "Feature", "geometry": {"type": "Point", "coordinates": [2.92006, 48.313496]}, "properties": {"id_parcelle": "77184000AC0008", "address": "LE BOURG", "sales": 2, "median_price": 175000.0, "median_price_per_sqm": null, "median_rooms": null, "first_sale": "2023-11-29", "last_sale": "2023-11-29"}}, {"type": "Feature", "geometry": {"type": "Point", "coordinates": [2.92883, 48.318775]}, "properties": {"id_parcelle": "77184000AB0173", "address": "BOIS DE BELLE FONTAINE", "sales": 2, "median_price": 1250.0, "median_price_per_sqm": null, "median_rooms": null, "first_sale": "2021-03-01", "last_sale": "2021-03-01"}}, {"type": "Feature", "geometry": {"type": "Point", "coordinates": [2.925551, 48.312326]}, "properties": {"id_parcelle": "77184000AC0333", "address": "7 RUE DE L AUNAIE", "sales": 2, "median_price": 289000.0, "median_price_per_sqm": 2428.5714285714284, "median_rooms": 6.0, "first_sale": "2024-11-30", "last_sale": "2024-11-30"}}, {"type": "Feature", "geometry": {"type": "Point", "coordinates": [2.923399, 48.311303]}, "properties": {"id_parcelle": "77184000AC0150", "address": "9 RUE DE L HOTEL DIEU", "sales": 2, "median_price": 155000.0, "median_price_per_sqm": 2384.6153846153848, "median_rooms": 1.5, "first_sale": "2025-01-03", "last_sale": "2025-01-03"}}, {"type": "Feature", "geometry": {"type": "Point", "coordinates": [2.923288, 48.310414]}, "properties": {"id_parcelle": "77184000AC0303", "address": "7 RUE D EPISY", "sales": 2, "median_price": 174000.0, "median_price_per_sqm": 2383.5616438356165, "median_rooms": 4.0, "first_sale": "2025-07-12", "last_sale": "2025-07-12"}}, {"type": "Feature", "geometry": {"type": "Point", "coordinates": [2.923301, 48.312066]}, "properties": {"id_parcelle": "77184000AC0142", "address": "4 RUE DE L HOTEL DIEU", "sales": 2, "median_price": 160000.0, "median_price_per_sqm": 1632.6530612244899, "median_rooms": 3.0, "first_sale": "2023-03-24", "last_sale": "2023-03-24"}}, {"type": "Feature", "geometry": {"type": "Point", "coordinates": [2.92423, 48.309462]}, "properties": {"id_parcelle": "77184000AC0451", "address": "11 LE SAFRAN", "sales": 2, "median_price": 245000.0, "median_price_per_sqm": 2227.2727272727275, "median_rooms": 2.5, "first_sale": "2022-03-29", "last_sale": "2022-03-29"}}, {"type": "Feature", "geometry": {"type": "Point", "coordinates": [2.91908, 48.311443]}, "properties": {"id_parcelle": "77184000AC0550", "address": "1 RTE DE SAINT ANGE", "sales": 2, "median_price": 262000.0, "median_price_per_sqm": 2543.6893203883496, "median_rooms": 2.5, "first_sale": "2024-01-12", "last_sale": "2024-01-12"}}, {"type": "Feature", "geometry": {"type": "Point", "coordinates": [2.922864, 48.310088]}, "properties": {"id_parcelle": "77184000AC0471", "address": "3 RUE DE LA CROIX SAINT MARC", "sales": 2, "median_price": 200000.0, "median_price_per_sqm": 1980.1980198019803, "median_rooms": 5.0, "first_sale": "2022-03-01", "last_sale": "2022-03-01"}}, {"type": "Feature", "geometry": {"type": "Point", "coordinates": [2.921365, 48.313213]}, "properties": {"id_parcelle": "77184000AC0618", "address": "3 RUE DES BAS VERGERS", "sales": 2, "median_price": 60000.0, "median_price_per_sqm": 348.83720930232556, "median_rooms": 3.5, "first_sale": "2024-07-09", "last_sale": "2024-07-09"}}, {"type": "Feature", "geometry": {"type": "Point", "coordinates": [2.922, 48.309811]}, "properties": {"id_parcelle": "77184000ZB0068", "address": "10 RUE DE LA CROIX SAINT MARC", "sales": 2, "median_price": 220000.0, "median_price_per_sqm": 1896.551724137931, "median_rooms": 5.0, "first_sale": "2022-04-22", "last_sale": "2022-04-22"}}, {"type": "Feature", "geometry": {"type": "Point", "coordinates": [2.919726, 48.310805]}, "properties": {"id_parcelle": "77184000ZB0114", "address": "4 RTE DE SAINT ANGE", "sales": 2, "median_price": 198000.0, "median_price_per_sqm": 2828.5714285714284, "median_rooms": 4.0, "first_sale": "2025-11-04", "last_sale": "2025-11-04"}}, {"type": "Feature", "geometry": {"type": "Point", "coordinates": [2.89715, 48.295454]}, "properties": {"id_parcelle": "77184000ZD0042", "address": "LA CAILLOTERIE", "sales": 2, "median_price": 50000.0, "median_price_per_sqm": null, "median_rooms": null, "first_sale": "2025-11-13", "last_sale": "2025-11-13"}}]}