{"type": "FeatureCollection", "features": [{"type": "Feature", "geometry": {"type": "Point", "coordinates": [2.710923, 48.986976]}, "properties": {"id_parcelle": "77427000ZB0067", "address": "71 RUE DU LEVANT", "sales": 6, "median_price": 340000.0, "median_price_per_sqm": 3238.095238095238, "median_rooms": 0.0, "first_sale": "2023-05-24", "last_sale": "2023-05-24"}}, {"type": "Feature", "geometry": {"type": "Point", "coordinates": [2.709012, 48.986859]}, "properties": {"id_parcelle": "774270000A0361", "address": "53 RUE DES MARTYRS", "sales": 4, "median_price": 252000.0, "median_price_per_sqm": 3876.923076923077, "median_rooms": 1.5, "first_sale": "2022-09-23", "last_sale": "2025-08-27"}}, {"type": "Feature", "geometry": {"type": "Point", "coordinates": [2.698126, 48.985579]}, "properties": {"id_parcelle": "77427000ZC0069", "address": "78 RUE DES TEMPLIERS", "sales": 4, "median_price": 501000.0, "median_price_per_sqm": 4008.0, "median_rooms": 3.0, "first_sale": "2025-08-04", "last_sale": "2025-08-04"}}, {"type": "Feature", "geometry": {"type": "Point", "coordinates": [2.705577, 48.986552]}, "properties": {"id_parcelle": "774270000A0857", "address": "36 RUE DE LA GRANGE AUX DIMES", "sales": 4, "median_price": 344050.0, "median_price_per_sqm": 4410.897435897436, "median_rooms": 2.0, "first_sale": "2025-05-02", "last_sale": "2025-05-02"}}, {"type": "Feature", "geometry": {"type": "Point", "coordinates": [2.696837, 48.98397]}, "properties": {"id_parcelle": "774270000A0792", "address": "13 PL SAINT JEAN", "sales": 3, "median_price": 245000.0, "median_price_per_sqm": 2425.7425742574255, "median_rooms": 0.0, "first_sale": "2023-12-18", "last_sale": "2023-12-18"}}, {"type": "Feature", "geometry": {"type": "Point", "coordinates": [2.693457, 48.983011]}, "properties": {"id_parcelle": "774270000A1013", "address": "104 RUE ROYALE", "sales": 3, "median_price": 169000.0, "median_price_per_sqm": 1877.7777777777778, "median_rooms": 0.0, "first_sale": "2023-06-01", "last_sale": "2023-06-01"}}, {"type": "Feature", "geometry": {"type": "Point", "coordinates": [2.693331, 48.983462]}, "properties": {"id_parcelle": "774270000A0900", "address": "102 RUE DU FOUR", "sales": 2, "median_price": 309775.0, "median_price_per_sqm": 2670.4741379310344, "median_rooms": 2.0, "first_sale": "2025-08-11", "last_sale": "2025-08-11"}}, {"type": "Feature", "geometry": {"type": "Point", "coordinates": [2.710686, 48.987043]}, "properties": {"id_parcelle": "774270000A0731", "address": "61 RUE DU LEVANT", "sales": 2, "median_price": 280000.0, "median_price_per_sqm": 3333.3333333333335, "median_rooms": 2.5, "first_sale": "2021-07-13", "last_sale": "2021-07-13"}}, {"type": "Feature", "geometry": {"type": "Point", "coordinates": [2.702709, 48.986791]}, "properties": {"id_parcelle": "774270000A0333", "address": "55 RUE DE VINEUIL", "sales": 2, "median_price": 432500.0, "median_price_per_sqm": null, "median_rooms": null, "first_sale": "2023-04-18", "last_sale": "2023-04-18"}}, {"type": "Feature", "geometry": {"type": "Point", "coordinates": [2.694038, 48.984307]}, "properties": {"id_parcelle": "774270000A0949", "address": "37 RUE DU FOUR", "sales": 2, "median_price": 465000.0, "median_price_per_sqm": 2818.181818181818, "median_rooms": 3.0, "first_sale": "2021-04-15", "last_sale": "2021-04-15"}}, {"type": "Feature", "geometry": {"type": "Point", "coordinates": [2.702774, 48.986073]}, "properties": {"id_parcelle": "774270000A1058", "address": "50 RUE DE VINEUIL", "sales": 2, "median_price": 375000.0, "median_price_per_sqm": 4166.666666666667, "median_rooms": 4.0, "first_sale": "2025-10-28", "last_sale": "2025-10-28"}}, {"type": "Feature", "geometry": {"type": "Point", "coordinates": [2.695522, 48.983653]}, "properties": {"id_parcelle": "774270000A1098", "address": "24 RUE ROYALE", "sales": 2, "median_price": 236960.0, "median_price_per_sqm": 1822.7692307692307, "median_rooms": 2.0, "first_sale": "2024-07-08", "last_sale": "2024-07-08"}}, {"type": "Feature", "geometry": {"type": "Point", "coordinates": [2.70161, 48.986057]}, "properties": {"id_parcelle": "774270000A1009", "address": "12 RUE DE VINEUIL", "sales": 2, "median_price": 510000.0, "median_price_per_sqm": 3834.5864661654136, "median_rooms": 5.0, "first_sale": "2022-09-20", "last_sale": "2022-09-20"}}, {"type": "Feature", "geometry": {"type": "Point", "coordinates": [2.702946, 48.986819]}, "properties": {"id_parcelle": "774270000A1022", "address": "79 RUE DE VINEUIL", "sales": 2, "median_price": 365000.0, "median_price_per_sqm": 2433.3333333333335, "median_rooms": 6.0, "first_sale": "2023-12-22", "last_sale": "2023-12-22"}}, {"type": "Feature", "geometry": {"type": "Point", "coordinates": [2.699586, 48.987507]}, "properties": {"id_parcelle": "77427000ZB0023", "address": "1 LA RUELLE AUX PRETRES", "sales": 2, "median_price": 45000.0, "median_price_per_sqm": null, "median_rooms": 0.0, "first_sale": "2024-03-14", "last_sale": "2024-03-14"}}, {"type": "Feature", "geometry": {"type": "Point", "coordinates": [2.715892, 48.988234]}, "properties": {"id_parcelle": "77427000YA0009", "address": "L OSIER", "sales": 2, "median_price": 49900.0, "median_price_per_sqm": null, "median_rooms": null, "first_sale": "2025-10-01", "last_sale": "2025-10-01"}}, {"type": "Feature", "geometry": {"type": "Point", "coordinates": [2.697777, 48.98444]}, "properties": {"id_parcelle": "77427000ZC0080", "address": "31 RUE DE RICHEBOURG", "sales": 2, "median_price": 369850.0, "median_price_per_sqm": 3244.2982456140353, "median_rooms": 5.0, "first_sale": "2022-08-26", "last_sale": "2022-08-26"}}, {"type": "Feature", "geometry": {"type": "Point", "coordinates": [2.697248, 48.984314]}, "properties": {"id_parcelle": "77427000ZC0082", "address": "17 RUE DE RICHEBOURG", "sales": 2, "median_price": 370000.0, "median_price_per_sqm": 3700.0, "median_rooms": 5.0, "first_sale": "2021-03-03", "last_sale": "2021-03-03"}}, {"type": "Feature", "geometry": {"type": "Point", "coordinates": [2.696849, 48.984526]}, "properties": {"id_parcelle": "77427000ZC0086", "address": "47 RUE DES CHEVALIERS", "sales": 2, "median_price": 360000.0, "median_price_per_sqm": 3495.145631067961, "median_rooms": 6.0, "first_sale": "2021-09-02", "last_sale": "2021-09-02"}}, {"type": "Feature", "geometry": {"type": "Point", "coordinates": [2.696587, 48.984625]}, "properties": {"id_parcelle": "77427000ZC0146", "address": "55 RUE DES CHEVALIERS", "sales": 2, "median_price": 310000.0, "median_price_per_sqm": 2743.362831858407, "median_rooms": 5.0, "first_sale": "2023-04-26", "last_sale": "2023-04-26"}}, {"type": "Feature", "geometry": {"type": "Point", "coordinates": [2.697791, 48.985383]}, "properties": {"id_parcelle": "77427000ZC0151", "address": "59 RUE DES TEMPLIERS", "sales": 2, "median_price": 383500.0, "median_price_per_sqm": 2681.818181818182, "median_rooms": 7.0, "first_sale": "2025-01-10", "last_sale": "2025-01-10"}}, {"type": "Feature", "geometry": {"type": "Point", "coordinates": [2.698164, 48.985942]}, "properties": {"id_parcelle": "77427000ZC0153", "address": "83 RUE DES TEMPLIERS", "sales": 2, "median_price": 485000.0, "median_price_per_sqm": 3439.7163120567375, "median_rooms": 4.0, "first_sale": "2021-12-10", "last_sale": "2021-12-10"}}]}