{"type": "FeatureCollection", "features": [{"type": "Feature", "geometry": {"type": "Polygon", "coordinates": [[[2.889758, 48.286259], [2.890246, 48.286923], [2.89098, 48.287863], [2.891209, 48.288142], [2.891804, 48.288908], [2.892205, 48.28878], [2.892491, 48.289252], [2.893357, 48.290477], [2.893808, 48.291165], [2.894014, 48.291101], [2.894693, 48.292041], [2.895155, 48.29191], [2.895774, 48.292798], [2.895102, 48.295519], [2.895704, 48.296213], [2.895923, 48.29644], [2.896251, 48.296817], [2.89609, 48.297331], [2.896799, 48.297976], [2.896889, 48.29804], [2.896873, 48.298301], [2.896988, 48.298682], [2.897172, 48.298959], [2.89734, 48.299344], [2.89758, 48.299717], [2.898142, 48.300295], [2.898275, 48.300507], [2.898349, 48.300729], [2.898306, 48.300884], [2.898495, 48.300935], [2.898634, 48.301039], [2.899258, 48.301798], [2.900656, 48.303513], [2.902234, 48.305421], [2.903215, 48.306518], [2.905329, 48.30886], [2.90748, 48.31126], [2.907412, 48.311297], [2.907804, 48.312257], [2.907688, 48.312273], [2.908115, 48.313737], [2.909067, 48.313771], [2.909222, 48.313803], [2.909596, 48.313667], [2.909994, 48.314307], [2.909797, 48.31434], [2.911641, 48.316477], [2.912536, 48.316473], [2.912971, 48.316414], [2.913514, 48.318138], [2.91384, 48.319245], [2.913754, 48.319321], [2.913838, 48.319488], [2.913916, 48.319778], [2.91389, 48.319847], [2.914474, 48.320552], [2.914559, 48.320679], [2.915114, 48.32171], [2.915487, 48.322435], [2.915576, 48.322569], [2.915856, 48.322882], [2.916534, 48.323799], [2.916893, 48.324164], [2.917687, 48.324848], [2.918956, 48.325456], [2.91924, 48.325684], [2.919789, 48.326052], [2.920223, 48.326388], [2.921035, 48.326618], [2.921166, 48.326583], [2.921717, 48.32665], [2.923582, 48.327171], [2.92386, 48.327259], [2.923266, 48.327523], [2.923265, 48.327629], [2.922785, 48.327834], [2.923172, 48.328259], [2.923479, 48.328619], [2.922035, 48.329112], [2.920546, 48.329697], [2.919981, 48.329895], [2.92026, 48.330176], [2.920518, 48.330401], [2.920902, 48.330692], [2.921297, 48.330961], [2.921766, 48.331216], [2.92213, 48.331376], [2.922752, 48.331637], [2.923129, 48.331178], [2.923204, 48.331279], [2.924888, 48.331362], [2.924893, 48.331417], [2.926292, 48.331387], [2.926318, 48.331557], [2.926617, 48.331566], [2.928763, 48.331278], [2.928762, 48.330972], [2.928614, 48.330562], [2.931141, 48.329758], [2.932344, 48.329335], [2.93239, 48.329381], [2.935285, 48.328331], [2.934927, 48.327928], [2.935378, 48.327764], [2.937324, 48.327078], [2.937445, 48.32717], [2.9378, 48.327553], [2.938069, 48.327819], [2.938497, 48.327448], [2.938709, 48.327171], [2.939018, 48.326545], [2.939176, 48.325902], [2.939278, 48.325415], [2.939517, 48.324081], [2.939509, 48.323933], [2.939731, 48.323379], [2.940045, 48.322813], [2.94095, 48.321473], [2.941119, 48.321198], [2.941712, 48.320753], [2.941953, 48.320885], [2.942478, 48.320348], [2.943461, 48.318884], [2.943824, 48.318295], [2.943996, 48.318057], [2.943954, 48.318022], [2.944117, 48.317814], [2.944536, 48.31704], [2.944691, 48.316725], [2.942137, 48.315744], [2.941074, 48.315332], [2.941016, 48.315377], [2.940245, 48.315088], [2.939784, 48.315124], [2.938433, 48.314661], [2.937109, 48.314971], [2.936912, 48.314996], [2.936667, 48.314916], [2.936351, 48.315229], [2.936164, 48.315286], [2.935698, 48.315362], [2.934527, 48.315423], [2.934457, 48.315398], [2.934224, 48.315096], [2.933837, 48.315008], [2.933591, 48.314985], [2.933478, 48.315014], [2.933327, 48.31518], [2.933034, 48.315119], [2.932574, 48.31482], [2.932581, 48.314749], [2.932746, 48.314649], [2.932589, 48.31459], [2.93243, 48.314593], [2.932291, 48.314669], [2.931962, 48.314704], [2.931837, 48.314663], [2.931786, 48.314537], [2.931451, 48.314437], [2.930994, 48.314374], [2.930866, 48.314332], [2.930694, 48.314144], [2.93034, 48.313965], [2.930042, 48.314081], [2.929562, 48.314], [2.929314, 48.314029], [2.929135, 48.313999], [2.928648, 48.313757], [2.928614, 48.313778], [2.92783, 48.313297], [2.92806, 48.312487], [2.927797, 48.312483], [2.927636, 48.312182], [2.92728, 48.311605], [2.927206, 48.31163], [2.926968, 48.311099], [2.927051, 48.311072], [2.926655, 48.310488], [2.926482, 48.310363], [2.925794, 48.309735], [2.925553, 48.309746], [2.92486, 48.308965], [2.92395, 48.307958], [2.924414, 48.307777], [2.92382, 48.307186], [2.923487, 48.307408], [2.923374, 48.307161], [2.922905, 48.306405], [2.922507, 48.305855], [2.922307, 48.30546], [2.922241, 48.305282], [2.9221, 48.30505], [2.921907, 48.30505], [2.921036, 48.304108], [2.920867, 48.304171], [2.92, 48.303159], [2.919582, 48.302683], [2.918802, 48.302976], [2.918185, 48.302299], [2.916959, 48.300971], [2.915265, 48.30165], [2.914888, 48.300822], [2.914446, 48.29995], [2.913745, 48.298712], [2.913578, 48.29838], [2.912388, 48.296609], [2.912061, 48.296133], [2.911769, 48.295744], [2.911524, 48.295314], [2.911375, 48.294865], [2.911177, 48.294425], [2.910908, 48.293904], [2.910772, 48.293736], [2.910108, 48.293275], [2.909851, 48.292992], [2.909546, 48.292585], [2.909255, 48.292118], [2.908904, 48.29149], [2.908029, 48.290242], [2.907841, 48.289893], [2.907357, 48.289157], [2.907121, 48.28878], [2.906895, 48.288489], [2.906519, 48.287831], [2.906355, 48.287466], [2.906006, 48.286894], [2.905613, 48.286446], [2.905422, 48.286185], [2.90528, 48.285795], [2.904014, 48.286448], [2.90344, 48.286963], [2.903147, 48.287153], [2.901886, 48.287733], [2.901059, 48.286538], [2.900802, 48.286131], [2.900492, 48.286152], [2.899811, 48.286115], [2.898885, 48.286028], [2.89907, 48.286618], [2.899086, 48.286762], [2.898024, 48.285884], [2.896426, 48.28559], [2.896463, 48.285734], [2.895544, 48.285605], [2.895443, 48.285359], [2.894679, 48.285253], [2.893279, 48.285047], [2.8932, 48.28515], [2.891915, 48.285583], [2.890374, 48.286077], [2.889758, 48.286259]]]}, "properties": {"code_iris": "771840000", "nom_iris": "Flagy (commune entière)", "type_iris": "Z", "lat": 48.3083, "lng": 2.9172, "dvf_sales_total": 215, "dvf_sales_appt": 0, "dvf_sales_maison": 0, "dvf_median_price": 97000.0, "dvf_median_ppsqm": 2352.495107632094, "dvf_by_year": "[{\"year\": 2021, \"sales\": 62, \"median_price\": 107200.0}, {\"year\": 2022, \"sales\": 31, \"median_price\": 200000.0}, {\"year\": 2023, \"sales\": 26, \"median_price\": 165000.0}, {\"year\": 2024, \"sales\": 61, \"median_price\": 3507.0}, {\"year\": 2025, \"sales\": 35, \"median_price\": 50000.0}]", "population": 584, "n_log": null, "n_rp": null, "pct_proprio": null, "pct_hlm": null, "pct_appart": null, "pct_cadres": null, "pct_bac5p": null, "pct_etrangers": null, "pct_0_14": null, "pct_65p": null, "bpe_total": null, "bpe_commerces": null, "bpe_enseignement": null, "bpe_sante": null, "dpe": null, "attractivity_score": null, "rank_attractivity_score": null, "rank_total_attractivity_score": 1, "commune_avg": null, "is_stub": true}}]}