{"type": "FeatureCollection", "features": [{"type": "Feature", "geometry": {"type": "Point", "coordinates": [2.897799, 48.549597]}, "properties": {"street_name": "RUE GRANDE", "sales": 64, "sales_appt": 12, "sales_maison": 19, "median_price": 240000.0, "median_price_per_sqm": 2696.1260649891024, "turnover_score": 100.0, "turnover_rank": 1, "first_year": 2021, "last_year": 2025, "years_active": 5}}, {"type": "Feature", "geometry": {"type": "Point", "coordinates": [2.902207, 48.549608]}, "properties": {"street_name": "FG DE NANGIS", "sales": 41, "sales_appt": 4, "sales_maison": 18, "median_price": 242250.0, "median_price_per_sqm": 2878.787878787879, "turnover_score": 64.1, "turnover_rank": 2, "first_year": 2021, "last_year": 2025, "years_active": 5}}, {"type": "Feature", "geometry": {"type": "Point", "coordinates": [2.8992255, 48.549251]}, "properties": {"street_name": "LA CHAPELLE GAUTHIER", "sales": 38, "sales_appt": 0, "sales_maison": 0, "median_price": 204000.0, "median_price_per_sqm": null, "turnover_score": 59.4, "turnover_rank": 3, "first_year": 2021, "last_year": 2025, "years_active": 5}}, {"type": "Feature", "geometry": {"type": "Point", "coordinates": [2.8985665000000003, 48.54664]}, "properties": {"street_name": "RUE DU GRIPPON", "sales": 22, "sales_appt": 0, "sales_maison": 11, "median_price": 247500.0, "median_price_per_sqm": 1780.4814814814815, "turnover_score": 34.4, "turnover_rank": 4, "first_year": 2021, "last_year": 2025, "years_active": 4}}, {"type": "Feature", "geometry": {"type": "Point", "coordinates": [2.8735489999999997, 48.534667]}, "properties": {"street_name": "LE BEAU MARCHAIS", "sales": 10, "sales_appt": 0, "sales_maison": 0, "median_price": 2082510.0, "median_price_per_sqm": null, "turnover_score": 15.6, "turnover_rank": 5, "first_year": 2022, "last_year": 2022, "years_active": 1}}, {"type": "Feature", "geometry": {"type": "Point", "coordinates": [2.8963205, 48.546382]}, "properties": {"street_name": "LA PELLE A FOUR", "sales": 10, "sales_appt": 0, "sales_maison": 0, "median_price": 97750.0, "median_price_per_sqm": null, "turnover_score": 15.6, "turnover_rank": 5, "first_year": 2021, "last_year": 2023, "years_active": 3}}, {"type": "Feature", "geometry": {"type": "Point", "coordinates": [2.897474, 48.550064]}, "properties": {"street_name": "RUE DU TRAVETEAU", "sales": 9, "sales_appt": 0, "sales_maison": 8, "median_price": 248000.0, "median_price_per_sqm": 3290.2476780185757, "turnover_score": 14.1, "turnover_rank": 6, "first_year": 2023, "last_year": 2025, "years_active": 3}}, {"type": "Feature", "geometry": {"type": "Point", "coordinates": [2.897669, 48.548452]}, "properties": {"street_name": "RUE DE GRANDVILLIERS", "sales": 8, "sales_appt": 3, "sales_maison": 3, "median_price": 193250.0, "median_price_per_sqm": 1968.75, "turnover_score": 12.5, "turnover_rank": 7, "first_year": 2022, "last_year": 2025, "years_active": 3}}, {"type": "Feature", "geometry": {"type": "Point", "coordinates": [2.900601, 48.54754]}, "properties": {"street_name": "RUE DE LA POTERIE", "sales": 8, "sales_appt": 0, "sales_maison": 6, "median_price": 227000.0, "median_price_per_sqm": 2308.333333333333, "turnover_score": 12.5, "turnover_rank": 7, "first_year": 2021, "last_year": 2024, "years_active": 4}}, {"type": "Feature", "geometry": {"type": "Point", "coordinates": [2.895241, 48.553317]}, "properties": {"street_name": "RUE DE LA MAUPERCHETTE", "sales": 8, "sales_appt": 0, "sales_maison": 3, "median_price": 253630.0, "median_price_per_sqm": 2646.551724137931, "turnover_score": 12.5, "turnover_rank": 7, "first_year": 2021, "last_year": 2025, "years_active": 4}}, {"type": "Feature", "geometry": {"type": "Point", "coordinates": [2.888397, 48.548957]}, "properties": {"street_name": "FG DE MELUN", "sales": 8, "sales_appt": 0, "sales_maison": 5, "median_price": 207800.0, "median_price_per_sqm": 2258.695652173913, "turnover_score": 12.5, "turnover_rank": 7, "first_year": 2021, "last_year": 2022, "years_active": 2}}, {"type": "Feature", "geometry": {"type": "Point", "coordinates": [2.897364, 48.550092]}, "properties": {"street_name": "RUE SOUDAIN", "sales": 7, "sales_appt": 0, "sales_maison": 1, "median_price": 99000.0, "median_price_per_sqm": 3266.6666666666665, "turnover_score": 10.9, "turnover_rank": 8, "first_year": 2023, "last_year": 2025, "years_active": 2}}, {"type": "Feature", "geometry": {"type": "Point", "coordinates": [2.8851925, 48.5392795]}, "properties": {"street_name": "GRAND VILLIERS", "sales": 6, "sales_appt": 0, "sales_maison": 0, "median_price": 2082510.0, "median_price_per_sqm": null, "turnover_score": 9.4, "turnover_rank": 9, "first_year": 2022, "last_year": 2022, "years_active": 1}}, {"type": "Feature", "geometry": {"type": "Point", "coordinates": [2.900996, 48.545457]}, "properties": {"street_name": "RUE DE L'HEURTEBISE", "sales": 6, "sales_appt": 0, "sales_maison": 4, "median_price": 244000.0, "median_price_per_sqm": 3511.892217371669, "turnover_score": 9.4, "turnover_rank": 9, "first_year": 2022, "last_year": 2024, "years_active": 2}}, {"type": "Feature", "geometry": {"type": "Point", "coordinates": [2.861455, 48.540779]}, "properties": {"street_name": "LA PAGESSE", "sales": 6, "sales_appt": 0, "sales_maison": 0, "median_price": 2082510.0, "median_price_per_sqm": null, "turnover_score": 9.4, "turnover_rank": 9, "first_year": 2022, "last_year": 2022, "years_active": 1}}, {"type": "Feature", "geometry": {"type": "Point", "coordinates": [2.8826105, 48.535085499999994]}, "properties": {"street_name": "LA RUE DE GOULOT", "sales": 6, "sales_appt": 0, "sales_maison": 0, "median_price": 2082510.0, "median_price_per_sqm": null, "turnover_score": 9.4, "turnover_rank": 9, "first_year": 2022, "last_year": 2022, "years_active": 1}}, {"type": "Feature", "geometry": {"type": "Point", "coordinates": [2.8980490000000003, 48.551265]}, "properties": {"street_name": "RUE DE LA POSTE", "sales": 6, "sales_appt": 0, "sales_maison": 4, "median_price": 233500.0, "median_price_per_sqm": 2561.417748917749, "turnover_score": 9.4, "turnover_rank": 9, "first_year": 2021, "last_year": 2024, "years_active": 3}}, {"type": "Feature", "geometry": {"type": "Point", "coordinates": [2.882214, 48.542085]}, "properties": {"street_name": "LE BUISSON POUILLEUX", "sales": 5, "sales_appt": 0, "sales_maison": 0, "median_price": 2082510.0, "median_price_per_sqm": null, "turnover_score": 7.8, "turnover_rank": 10, "first_year": 2022, "last_year": 2022, "years_active": 1}}, {"type": "Feature", "geometry": {"type": "Point", "coordinates": [2.8733445, 48.5411945]}, "properties": {"street_name": "AU NORD DES GRANDS PRES", "sales": 4, "sales_appt": 0, "sales_maison": 0, "median_price": 2082510.0, "median_price_per_sqm": null, "turnover_score": 6.2, "turnover_rank": 11, "first_year": 2022, "last_year": 2022, "years_active": 1}}, {"type": "Feature", "geometry": {"type": "Point", "coordinates": [2.8939364999999997, 48.54842]}, "properties": {"street_name": "BD DE LA CASTILLONNERIE", "sales": 4, "sales_appt": 0, "sales_maison": 2, "median_price": 251500.0, "median_price_per_sqm": 2258.948635634029, "turnover_score": 6.2, "turnover_rank": 11, "first_year": 2022, "last_year": 2024, "years_active": 2}}, {"type": "Feature", "geometry": {"type": "Point", "coordinates": [2.899451, 48.548089]}, "properties": {"street_name": "RUE DES CHICHUELLES", "sales": 4, "sales_appt": 0, "sales_maison": 4, "median_price": 259750.0, "median_price_per_sqm": 2717.105263157895, "turnover_score": 6.2, "turnover_rank": 11, "first_year": 2021, "last_year": 2024, "years_active": 3}}, {"type": "Feature", "geometry": {"type": "Point", "coordinates": [2.890957, 48.556658]}, "properties": {"street_name": "LES FONDRIERES", "sales": 4, "sales_appt": 0, "sales_maison": 0, "median_price": 15000.0, "median_price_per_sqm": null, "turnover_score": 6.2, "turnover_rank": 11, "first_year": 2021, "last_year": 2024, "years_active": 2}}, {"type": "Feature", "geometry": {"type": "Point", "coordinates": [2.896384, 48.547454]}, "properties": {"street_name": "RUE DU MOULIN DE LA TOUR", "sales": 4, "sales_appt": 0, "sales_maison": 3, "median_price": 275000.0, "median_price_per_sqm": 2226.5625, "turnover_score": 6.2, "turnover_rank": 11, "first_year": 2021, "last_year": 2024, "years_active": 2}}, {"type": "Feature", "geometry": {"type": "Point", "coordinates": [2.897818, 48.552388]}, "properties": {"street_name": "LA MAUPERCHETTE", "sales": 3, "sales_appt": 0, "sales_maison": 0, "median_price": 99000.0, "median_price_per_sqm": null, "turnover_score": 4.7, "turnover_rank": 12, "first_year": 2023, "last_year": 2023, "years_active": 1}}, {"type": "Feature", "geometry": {"type": "Point", "coordinates": [2.884351, 48.539877]}, "properties": {"street_name": "FERME DE GRAND VILLIERS", "sales": 2, "sales_appt": 0, "sales_maison": 2, "median_price": 900000.0, "median_price_per_sqm": 10635.286372613562, "turnover_score": 3.1, "turnover_rank": 13, "first_year": 2022, "last_year": 2022, "years_active": 1}}, {"type": "Feature", "geometry": {"type": "Point", "coordinates": [2.8851500000000003, 48.549268]}, "properties": {"street_name": "LE GRAND TRAVETEAU", "sales": 2, "sales_appt": 0, "sales_maison": 1, "median_price": 15000.0, "median_price_per_sqm": 750.0, "turnover_score": 3.1, "turnover_rank": 13, "first_year": 2025, "last_year": 2025, "years_active": 1}}, {"type": "Feature", "geometry": {"type": "Point", "coordinates": [2.9054025, 48.5501495]}, "properties": {"street_name": "LE CHATEAU", "sales": 2, "sales_appt": 0, "sales_maison": 0, "median_price": 230000.0, "median_price_per_sqm": null, "turnover_score": 3.1, "turnover_rank": 13, "first_year": 2023, "last_year": 2025, "years_active": 2}}, {"type": "Feature", "geometry": {"type": "Point", "coordinates": [2.893603, 48.548362]}, "properties": {"street_name": "RUE DE LA BISTOURIE", "sales": 2, "sales_appt": 0, "sales_maison": 2, "median_price": 293570.0, "median_price_per_sqm": 1649.2696629213483, "turnover_score": 3.1, "turnover_rank": 13, "first_year": 2021, "last_year": 2021, "years_active": 1}}, {"type": "Feature", "geometry": {"type": "Point", "coordinates": [2.903989, 48.554736000000005]}, "properties": {"street_name": "LES GRIGNARDS", "sales": 2, "sales_appt": 0, "sales_maison": 0, "median_price": 63000.0, "median_price_per_sqm": null, "turnover_score": 3.1, "turnover_rank": 13, "first_year": 2022, "last_year": 2024, "years_active": 2}}, {"type": "Feature", "geometry": {"type": "Point", "coordinates": [2.8889725, 48.549609000000004]}, "properties": {"street_name": "LE NORD DE LA CASTILLONNER", "sales": 2, "sales_appt": 0, "sales_maison": 0, "median_price": 301025.0, "median_price_per_sqm": null, "turnover_score": 3.1, "turnover_rank": 13, "first_year": 2021, "last_year": 2022, "years_active": 2}}, {"type": "Feature", "geometry": {"type": "Point", "coordinates": [2.898996, 48.549828]}, "properties": {"street_name": "BD DANGER", "sales": 1, "sales_appt": 0, "sales_maison": 1, "median_price": 305250.0, "median_price_per_sqm": 2180.3571428571427, "turnover_score": 1.6, "turnover_rank": 14, "first_year": 2021, "last_year": 2021, "years_active": 1}}, {"type": "Feature", "geometry": {"type": "Point", "coordinates": [2.896794, 48.542943]}, "properties": {"street_name": "BOIS DE LA CLOTEE", "sales": 1, "sales_appt": 0, "sales_maison": 0, "median_price": 3500.0, "median_price_per_sqm": null, "turnover_score": 1.6, "turnover_rank": 14, "first_year": 2022, "last_year": 2022, "years_active": 1}}, {"type": "Feature", "geometry": {"type": "Point", "coordinates": [2.844717, 48.510829]}, "properties": {"street_name": "LA CROIX BRICARD", "sales": 1, "sales_appt": 0, "sales_maison": 0, "median_price": 750000.0, "median_price_per_sqm": null, "turnover_score": 1.6, "turnover_rank": 14, "first_year": 2024, "last_year": 2024, "years_active": 1}}, {"type": "Feature", "geometry": {"type": "Point", "coordinates": [2.860479, 48.540174]}, "properties": {"street_name": "FERME DE LA PAGESSE", "sales": 1, "sales_appt": 0, "sales_maison": 0, "median_price": 2082510.0, "median_price_per_sqm": null, "turnover_score": 1.6, "turnover_rank": 14, "first_year": 2022, "last_year": 2022, "years_active": 1}}, {"type": "Feature", "geometry": {"type": "Point", "coordinates": [2.884355, 48.549916]}, "properties": {"street_name": "LE PETIT TRAVETEAU", "sales": 1, "sales_appt": 0, "sales_maison": 0, "median_price": 2800.0, "median_price_per_sqm": null, "turnover_score": 1.6, "turnover_rank": 14, "first_year": 2022, "last_year": 2022, "years_active": 1}}, {"type": "Feature", "geometry": {"type": "Point", "coordinates": [2.872586, 48.5372]}, "properties": {"street_name": "LES CENT ARPENTS", "sales": 1, "sales_appt": 0, "sales_maison": 0, "median_price": 2082510.0, "median_price_per_sqm": null, "turnover_score": 1.6, "turnover_rank": 14, "first_year": 2022, "last_year": 2022, "years_active": 1}}, {"type": "Feature", "geometry": {"type": "Point", "coordinates": [2.893666, 48.554028]}, "properties": {"street_name": "LES VIGNES DES CHAMPS", "sales": 1, "sales_appt": 0, "sales_maison": 0, "median_price": 100000.0, "median_price_per_sqm": null, "turnover_score": 1.6, "turnover_rank": 14, "first_year": 2023, "last_year": 2023, "years_active": 1}}, {"type": "Feature", "geometry": {"type": "Point", "coordinates": [2.882902, 48.532186]}, "properties": {"street_name": "LES TROIS BORNES", "sales": 1, "sales_appt": 0, "sales_maison": 0, "median_price": 2082510.0, "median_price_per_sqm": null, "turnover_score": 1.6, "turnover_rank": 14, "first_year": 2022, "last_year": 2022, "years_active": 1}}, {"type": "Feature", "geometry": {"type": "Point", "coordinates": [2.904408, 48.547776]}, "properties": {"street_name": "LES MALADRERIES", "sales": 1, "sales_appt": 0, "sales_maison": 0, "median_price": 125000.0, "median_price_per_sqm": null, "turnover_score": 1.6, "turnover_rank": 14, "first_year": 2024, "last_year": 2024, "years_active": 1}}, {"type": "Feature", "geometry": {"type": "Point", "coordinates": [2.894629, 48.551037]}, "properties": {"street_name": "LES GAINS", "sales": 1, "sales_appt": 0, "sales_maison": 0, "median_price": 222000.0, "median_price_per_sqm": null, "turnover_score": 1.6, "turnover_rank": 14, "first_year": 2024, "last_year": 2024, "years_active": 1}}, {"type": "Feature", "geometry": {"type": "Point", "coordinates": [2.898018, 48.54666]}, "properties": {"street_name": "RUE DE VILLEFERMOY", "sales": 1, "sales_appt": 0, "sales_maison": 0, "median_price": 320000.0, "median_price_per_sqm": null, "turnover_score": 1.6, "turnover_rank": 14, "first_year": 2023, "last_year": 2023, "years_active": 1}}, {"type": "Feature", "geometry": {"type": "Point", "coordinates": [2.895726, 48.547807]}, "properties": {"street_name": "RUE DE LA FOSSE AU GEAI", "sales": 1, "sales_appt": 0, "sales_maison": 1, "median_price": 270000.0, "median_price_per_sqm": 2673.267326732673, "turnover_score": 1.6, "turnover_rank": 14, "first_year": 2021, "last_year": 2021, "years_active": 1}}, {"type": "Feature", "geometry": {"type": "Point", "coordinates": [2.898253, 48.547155]}, "properties": {"street_name": "RUE DU VERGER", "sales": 1, "sales_appt": 0, "sales_maison": 0, "median_price": 102500.0, "median_price_per_sqm": null, "turnover_score": 1.6, "turnover_rank": 14, "first_year": 2024, "last_year": 2024, "years_active": 1}}, {"type": "Feature", "geometry": {"type": "Point", "coordinates": [2.888276, 48.550228]}, "properties": {"street_name": "RUE VERTE", "sales": 1, "sales_appt": 0, "sales_maison": 0, "median_price": 173000.0, "median_price_per_sqm": 460.1063829787234, "turnover_score": 1.6, "turnover_rank": 14, "first_year": 2025, "last_year": 2025, "years_active": 1}}]}