{"type": "FeatureCollection", "features": [{"type": "Feature", "geometry": {"type": "Point", "coordinates": [2.778624, 48.291646]}, "properties": {"id_parcelle": "773400000B0965", "address": "2 RUE DU MOCQUEBARIL", "sales": 6, "median_price": 265900.0, "median_price_per_sqm": 4828.184210526316, "median_rooms": 0.0, "first_sale": "2022-04-27", "last_sale": "2022-04-27"}}, {"type": "Feature", "geometry": {"type": "Point", "coordinates": [2.774375, 48.293768]}, "properties": {"id_parcelle": "773400000B1077", "address": "13 RUE DE CHERELLES", "sales": 6, "median_price": 299000.0, "median_price_per_sqm": 4271.428571428572, "median_rooms": 0.0, "first_sale": "2022-12-14", "last_sale": "2022-12-14"}}, {"type": "Feature", "geometry": {"type": "Point", "coordinates": [2.792511, 48.286497]}, "properties": {"id_parcelle": "773400000D0370", "address": "26 RUE GRANDE", "sales": 6, "median_price": 560000.0, "median_price_per_sqm": 5600.0, "median_rooms": 0.0, "first_sale": "2022-04-29", "last_sale": "2022-04-29"}}, {"type": "Feature", "geometry": {"type": "Point", "coordinates": [2.793018, 48.280184]}, "properties": {"id_parcelle": "773400000D0245", "address": "13 RUE DE LAUNOY", "sales": 6, "median_price": 335500.0, "median_price_per_sqm": 4473.333333333333, "median_rooms": 0.0, "first_sale": "2021-07-12", "last_sale": "2021-07-12"}}, {"type": "Feature", "geometry": {"type": "Point", "coordinates": [2.790552, 48.285186]}, "properties": {"id_parcelle": "773400000D0251", "address": "28 RUE GRANDE", "sales": 4, "median_price": 285000.0, "median_price_per_sqm": 3000.0, "median_rooms": 1.5, "first_sale": "2023-12-21", "last_sale": "2023-12-21"}}, {"type": "Feature", "geometry": {"type": "Point", "coordinates": [2.792417, 48.283939]}, "properties": {"id_parcelle": "773400000D0036", "address": "8 RUE GRANDE", "sales": 4, "median_price": 250000.0, "median_price_per_sqm": 2809.3434343434346, "median_rooms": 0.0, "first_sale": "2022-02-28", "last_sale": "2022-02-28"}}, {"type": "Feature", "geometry": {"type": "Point", "coordinates": [2.777536, 48.291374]}, "properties": {"id_parcelle": "773400000B0875", "address": "5 RUE DU MOCQUEBARIL", "sales": 4, "median_price": 256950.0, "median_price_per_sqm": 2215.0862068965516, "median_rooms": 2.5, "first_sale": "2022-11-08", "last_sale": "2022-11-08"}}, {"type": "Feature", "geometry": {"type": "Point", "coordinates": [2.793518, 48.285126]}, "properties": {"id_parcelle": "773400000D0313", "address": "6 RUE GRANDE", "sales": 4, "median_price": 2500000.0, "median_price_per_sqm": 5263.1578947368425, "median_rooms": 2.5, "first_sale": "2021-06-17", "last_sale": "2021-06-17"}}, {"type": "Feature", "geometry": {"type": "Point", "coordinates": [2.782437, 48.291227]}, "properties": {"id_parcelle": "773400000B0718", "address": "60 RTE DE FONTAINEBLEAU", "sales": 4, "median_price": 321800.0, "median_price_per_sqm": 3218.0, "median_rooms": 2.0, "first_sale": "2024-01-06", "last_sale": "2024-01-06"}}, {"type": "Feature", "geometry": {"type": "Point", "coordinates": [2.789171, 48.285075]}, "properties": {"id_parcelle": "77340000ZE0028", "address": "31 RUE GRANDE", "sales": 4, "median_price": 165000.0, "median_price_per_sqm": 2142.8571428571427, "median_rooms": 2.0, "first_sale": "2025-12-19", "last_sale": "2025-12-19"}}, {"type": "Feature", "geometry": {"type": "Point", "coordinates": [2.779388, 48.292484]}, "properties": {"id_parcelle": "773400000B0762", "address": "85 RTE DE FONTAINEBLEAU", "sales": 3, "median_price": 1133800.0, "median_price_per_sqm": 12061.702127659575, "median_rooms": 0.0, "first_sale": "2023-01-09", "last_sale": "2023-01-09"}}, {"type": "Feature", "geometry": {"type": "Point", "coordinates": [2.793355, 48.280572]}, "properties": {"id_parcelle": "773400000D0337", "address": "9 RUE DE LAUNOY", "sales": 3, "median_price": 140000.0, "median_price_per_sqm": 1346.1538461538462, "median_rooms": 0.0, "first_sale": "2021-06-19", "last_sale": "2021-06-19"}}, {"type": "Feature", "geometry": {"type": "Point", "coordinates": [2.77829, 48.294204]}, "properties": {"id_parcelle": "773400000B1184", "address": "104 RTE DE FONTAINEBLEAU", "sales": 3, "median_price": 215000.0, "median_price_per_sqm": 2471.264367816092, "median_rooms": 0.0, "first_sale": "2025-12-06", "last_sale": "2025-12-06"}}, {"type": "Feature", "geometry": {"type": "Point", "coordinates": [2.773313, 48.28318]}, "properties": {"id_parcelle": "773400000F0580", "address": "5196 RTE DE NEMOURS", "sales": 3, "median_price": 500000.0, "median_price_per_sqm": 2074.688796680498, "median_rooms": 6.0, "first_sale": "2025-05-30", "last_sale": "2025-05-30"}}, {"type": "Feature", "geometry": {"type": "Point", "coordinates": [2.777599, 48.293238]}, "properties": {"id_parcelle": "773400000B0851", "address": "6 RUE DE CHERELLES", "sales": 3, "median_price": 180000.0, "median_price_per_sqm": 3272.7272727272725, "median_rooms": 0.0, "first_sale": "2023-11-16", "last_sale": "2023-11-16"}}, {"type": "Feature", "geometry": {"type": "Point", "coordinates": [2.775122, 48.293375]}, "properties": {"id_parcelle": "773400000B0504", "address": "PROCHE LE LANDY", "sales": 2, "median_price": 487000.0, "median_price_per_sqm": null, "median_rooms": null, "first_sale": "2022-08-26", "last_sale": "2022-08-26"}}, {"type": "Feature", "geometry": {"type": "Point", "coordinates": [2.771859, 48.298514]}, "properties": {"id_parcelle": "773400000B0058", "address": "PROCHE LA COUTIERE", "sales": 2, "median_price": 6995.625, "median_price_per_sqm": null, "median_rooms": null, "first_sale": "2021-06-07", "last_sale": "2022-07-20"}}, {"type": "Feature", "geometry": {"type": "Point", "coordinates": [2.772305, 48.298634]}, "properties": {"id_parcelle": "773400000B0071", "address": "PROCHE LA COUTIERE", "sales": 2, "median_price": 6995.625, "median_price_per_sqm": null, "median_rooms": null, "first_sale": "2021-06-07", "last_sale": "2022-07-20"}}, {"type": "Feature", "geometry": {"type": "Point", "coordinates": [2.781627, 48.291906]}, "properties": {"id_parcelle": "773400000B0728", "address": "PROCHE LA PRAIRIE DU LANDY", "sales": 2, "median_price": 270000.0, "median_price_per_sqm": null, "median_rooms": null, "first_sale": "2025-01-10", "last_sale": "2025-01-10"}}, {"type": "Feature", "geometry": {"type": "Point", "coordinates": [2.78163, 48.291855]}, "properties": {"id_parcelle": "773400000B0726", "address": "PROCHE LA PRAIRIE DU LANDY", "sales": 2, "median_price": 270000.0, "median_price_per_sqm": null, "median_rooms": null, "first_sale": "2025-01-10", "last_sale": "2025-01-10"}}, {"type": "Feature", "geometry": {"type": "Point", "coordinates": [2.782488, 48.291309]}, "properties": {"id_parcelle": "773400000B0719", "address": "PROCHE LA PRAIRIE DU LANDY", "sales": 2, "median_price": 321800.0, "median_price_per_sqm": null, "median_rooms": null, "first_sale": "2024-01-06", "last_sale": "2024-01-06"}}, {"type": "Feature", "geometry": {"type": "Point", "coordinates": [2.78276, 48.291283]}, "properties": {"id_parcelle": "773400000B0717", "address": "PROCHE LA PRAIRIE DU LANDY", "sales": 2, "median_price": 321800.0, "median_price_per_sqm": null, "median_rooms": null, "first_sale": "2024-01-06", "last_sale": "2024-01-06"}}, {"type": "Feature", "geometry": {"type": "Point", "coordinates": [2.776571, 48.293432]}, "properties": {"id_parcelle": "773400000B0394", "address": "20 RUE DE CHERELLES", "sales": 2, "median_price": 172500.0, "median_price_per_sqm": 1960.2272727272727, "median_rooms": 4.0, "first_sale": "2021-11-06", "last_sale": "2021-11-06"}}, {"type": "Feature", "geometry": {"type": "Point", "coordinates": [2.780517, 48.290732]}, "properties": {"id_parcelle": "773400000B0945", "address": "71 RTE DE FONTAINEBLEAU", "sales": 2, "median_price": 262600.0, "median_price_per_sqm": 1974.436090225564, "median_rooms": 5.0, "first_sale": "2022-01-14", "last_sale": "2022-01-14"}}, {"type": "Feature", "geometry": {"type": "Point", "coordinates": [2.783171, 48.290745]}, "properties": {"id_parcelle": "773400000B0940", "address": "52 RTE DE FONTAINEBLEAU", "sales": 2, "median_price": 245000.0, "median_price_per_sqm": 1475.9036144578313, "median_rooms": 5.0, "first_sale": "2021-04-10", "last_sale": "2021-04-10"}}, {"type": "Feature", "geometry": {"type": "Point", "coordinates": [2.783397, 48.290657]}, "properties": {"id_parcelle": "773400000B0941", "address": "PROCHE LA PRAIRIE DU LANDY", "sales": 2, "median_price": 245000.0, "median_price_per_sqm": null, "median_rooms": null, "first_sale": "2021-04-10", "last_sale": "2021-04-10"}}, {"type": "Feature", "geometry": {"type": "Point", "coordinates": [2.785663, 48.287714]}, "properties": {"id_parcelle": "773400000B1243", "address": "LA PRAIRIE DU LANDY", "sales": 2, "median_price": 140000.5, "median_price_per_sqm": null, "median_rooms": null, "first_sale": "2024-01-23", "last_sale": "2024-05-15"}}, {"type": "Feature", "geometry": {"type": "Point", "coordinates": [2.781447, 48.292318]}, "properties": {"id_parcelle": "773400000B1047", "address": "72 RTE DE FONTAINEBLEAU", "sales": 2, "median_price": 285000.0, "median_price_per_sqm": 4318.181818181818, "median_rooms": 3.0, "first_sale": "2022-03-05", "last_sale": "2022-03-05"}}, {"type": "Feature", "geometry": {"type": "Point", "coordinates": [2.776502, 48.293168]}, "properties": {"id_parcelle": "773400000B0973", "address": "5023 RUE DE CHERELLES", "sales": 2, "median_price": 148000.0, "median_price_per_sqm": 2208.955223880597, "median_rooms": 2.0, "first_sale": "2022-03-22", "last_sale": "2022-03-22"}}, {"type": "Feature", "geometry": {"type": "Point", "coordinates": [2.786113, 48.287886]}, "properties": {"id_parcelle": "773400000B1245", "address": "12 RTE DE FONTAINEBLEAU", "sales": 2, "median_price": 280000.0, "median_price_per_sqm": 2372.8813559322034, "median_rooms": 5.0, "first_sale": "2024-01-23", "last_sale": "2024-01-23"}}, {"type": "Feature", "geometry": {"type": "Point", "coordinates": [2.77963, 48.299512]}, "properties": {"id_parcelle": "773400000C1044", "address": "14 RUE DE CUGNY", "sales": 2, "median_price": 205000.0, "median_price_per_sqm": 1453.900709219858, "median_rooms": 4.0, "first_sale": "2024-12-26", "last_sale": "2024-12-26"}}, {"type": "Feature", "geometry": {"type": "Point", "coordinates": [2.791426, 48.284192]}, "properties": {"id_parcelle": "773400000D0010", "address": "17 RUE GRANDE", "sales": 2, "median_price": 507000.0, "median_price_per_sqm": 2547.738693467337, "median_rooms": 3.0, "first_sale": "2023-02-17", "last_sale": "2023-02-17"}}, {"type": "Feature", "geometry": {"type": "Point", "coordinates": [2.7793, 48.298003]}, "properties": {"id_parcelle": "773400000C0963", "address": "LA MIVOIE", "sales": 2, "median_price": 135000.0, "median_price_per_sqm": null, "median_rooms": null, "first_sale": "2021-12-29", "last_sale": "2022-04-13"}}, {"type": "Feature", "geometry": {"type": "Point", "coordinates": [2.775784, 48.293147]}, "properties": {"id_parcelle": "773400000B1253", "address": "7 RUE DE CHERELLES", "sales": 2, "median_price": 170000.0, "median_price_per_sqm": 2833.3333333333335, "median_rooms": 1.0, "first_sale": "2022-07-29", "last_sale": "2022-07-29"}}, {"type": "Feature", "geometry": {"type": "Point", "coordinates": [2.797113, 48.279571]}, "properties": {"id_parcelle": "773400000D0138", "address": "LA PRAIRIE DE NONVILLE", "sales": 2, "median_price": 7186.6, "median_price_per_sqm": null, "median_rooms": null, "first_sale": "2023-07-04", "last_sale": "2024-11-26"}}, {"type": "Feature", "geometry": {"type": "Point", "coordinates": [2.791804, 48.284554]}, "properties": {"id_parcelle": "773400000D0018", "address": "14 RUE GRANDE", "sales": 2, "median_price": 295000.0, "median_price_per_sqm": 3041.237113402062, "median_rooms": 1.5, "first_sale": "2021-07-08", "last_sale": "2021-07-08"}}, {"type": "Feature", "geometry": {"type": "Point", "coordinates": [2.795618, 48.279185]}, "properties": {"id_parcelle": "773400000D0149", "address": "LA PRAIRIE DE NONVILLE", "sales": 2, "median_price": 7186.6, "median_price_per_sqm": null, "median_rooms": null, "first_sale": "2023-07-04", "last_sale": "2024-11-26"}}, {"type": "Feature", "geometry": {"type": "Point", "coordinates": [2.780589, 48.290675]}, "properties": {"id_parcelle": "773400000B0946", "address": "PROCHE LA PRAIRIE DU LANDY", "sales": 2, "median_price": 262600.0, "median_price_per_sqm": null, "median_rooms": null, "first_sale": "2022-01-14", "last_sale": "2022-01-14"}}, {"type": "Feature", "geometry": {"type": "Point", "coordinates": [2.776351, 48.293509]}, "properties": {"id_parcelle": "773400000B1008", "address": "22 RUE DE CHERELLES", "sales": 2, "median_price": 559000.0, "median_price_per_sqm": 3140.449438202247, "median_rooms": 6.0, "first_sale": "2023-02-22", "last_sale": "2023-02-22"}}, {"type": "Feature", "geometry": {"type": "Point", "coordinates": [2.784039, 48.289641]}, "properties": {"id_parcelle": "773400000B0934", "address": "42 RTE DE FONTAINEBLEAU", "sales": 2, "median_price": 341500.0, "median_price_per_sqm": 1769.4300518134714, "median_rooms": 6.0, "first_sale": "2023-01-31", "last_sale": "2023-01-31"}}, {"type": "Feature", "geometry": {"type": "Point", "coordinates": [2.773449, 48.299755]}, "properties": {"id_parcelle": "773400000B0928", "address": "10 RUE DE LA SOURCE", "sales": 2, "median_price": 290000.0, "median_price_per_sqm": 3372.093023255814, "median_rooms": 4.0, "first_sale": "2021-08-26", "last_sale": "2021-08-26"}}, {"type": "Feature", "geometry": {"type": "Point", "coordinates": [2.773254, 48.299687]}, "properties": {"id_parcelle": "773400000B0929", "address": "LA COUTIERE", "sales": 2, "median_price": 290000.0, "median_price_per_sqm": null, "median_rooms": null, "first_sale": "2021-08-26", "last_sale": "2021-08-26"}}, {"type": "Feature", "geometry": {"type": "Point", "coordinates": [2.789931, 48.285441]}, "properties": {"id_parcelle": "773400000D0254", "address": "32 RUE GRANDE", "sales": 2, "median_price": 315000.0, "median_price_per_sqm": 2368.4210526315787, "median_rooms": 6.0, "first_sale": "2021-07-26", "last_sale": "2021-07-26"}}, {"type": "Feature", "geometry": {"type": "Point", "coordinates": [2.790316, 48.285283]}, "properties": {"id_parcelle": "773400000D0252", "address": "30 RUE GRANDE", "sales": 2, "median_price": 172000.0, "median_price_per_sqm": 2819.6721311475408, "median_rooms": 3.0, "first_sale": "2021-11-26", "last_sale": "2021-11-26"}}, {"type": "Feature", "geometry": {"type": "Point", "coordinates": [2.791577, 48.288077]}, "properties": {"id_parcelle": "773400000D0236", "address": "LA NOSAYE", "sales": 2, "median_price": 508000.0, "median_price_per_sqm": null, "median_rooms": null, "first_sale": "2021-10-29", "last_sale": "2021-10-29"}}, {"type": "Feature", "geometry": {"type": "Point", "coordinates": [2.795293, 48.278874]}, "properties": {"id_parcelle": "773400000D0244", "address": "LA PRAIRIE DE NONVILLE", "sales": 2, "median_price": 7186.6, "median_price_per_sqm": null, "median_rooms": null, "first_sale": "2023-07-04", "last_sale": "2024-11-26"}}, {"type": "Feature", "geometry": {"type": "Point", "coordinates": [2.795368, 48.279111]}, "properties": {"id_parcelle": "773400000D0150", "address": "LA PRAIRIE DE NONVILLE", "sales": 2, "median_price": 7186.6, "median_price_per_sqm": null, "median_rooms": null, "first_sale": "2023-07-04", "last_sale": "2024-11-26"}}, {"type": "Feature", "geometry": {"type": "Point", "coordinates": [2.791522, 48.283716]}, "properties": {"id_parcelle": "773400000D0308", "address": "15 RUE GRANDE", "sales": 2, "median_price": 233000.0, "median_price_per_sqm": 1346.820809248555, "median_rooms": 6.0, "first_sale": "2021-04-30", "last_sale": "2021-04-30"}}, {"type": "Feature", "geometry": {"type": "Point", "coordinates": [2.793466, 48.281291]}, "properties": {"id_parcelle": "773400000D0268", "address": "6 RUE DE LAUNOY", "sales": 2, "median_price": 156000.0, "median_price_per_sqm": 1485.7142857142858, "median_rooms": 2.5, "first_sale": "2025-04-23", "last_sale": "2025-04-23"}}, {"type": "Feature", "geometry": {"type": "Point", "coordinates": [2.791452, 48.288458]}, "properties": {"id_parcelle": "773400000D0292", "address": "LA NOSAYE", "sales": 2, "median_price": 508000.0, "median_price_per_sqm": null, "median_rooms": null, "first_sale": "2021-10-29", "last_sale": "2021-10-29"}}, {"type": "Feature", "geometry": {"type": "Point", "coordinates": [2.79319, 48.283305]}, "properties": {"id_parcelle": "773400000D0361", "address": "4 RUE GRANDE", "sales": 2, "median_price": 206000.0, "median_price_per_sqm": 2263.736263736264, "median_rooms": 2.0, "first_sale": "2024-10-11", "last_sale": "2024-10-11"}}, {"type": "Feature", "geometry": {"type": "Point", "coordinates": [2.792298, 48.288375]}, "properties": {"id_parcelle": "773400000D0371", "address": "5140 LA NOSAYE", "sales": 2, "median_price": 508000.0, "median_price_per_sqm": 4618.181818181818, "median_rooms": 1.0, "first_sale": "2021-10-29", "last_sale": "2021-10-29"}}, {"type": "Feature", "geometry": {"type": "Point", "coordinates": [2.776859, 48.276071]}, "properties": {"id_parcelle": "773400000E0220", "address": "RTE DE NEMOURS", "sales": 2, "median_price": 2077.4, "median_price_per_sqm": null, "median_rooms": null, "first_sale": "2024-05-30", "last_sale": "2024-05-30"}}, {"type": "Feature", "geometry": {"type": "Point", "coordinates": [2.779535, 48.283281]}, "properties": {"id_parcelle": "773400000F0524", "address": "LE MOCQUEBARIL", "sales": 2, "median_price": 5655.0, "median_price_per_sqm": null, "median_rooms": null, "first_sale": "2021-10-21", "last_sale": "2024-01-26"}}, {"type": "Feature", "geometry": {"type": "Point", "coordinates": [2.755528, 48.286729]}, "properties": {"id_parcelle": "77340000ZB0022", "address": "LES CHERELLES", "sales": 2, "median_price": 668000.0, "median_price_per_sqm": null, "median_rooms": null, "first_sale": "2025-12-31", "last_sale": "2025-12-31"}}, {"type": "Feature", "geometry": {"type": "Point", "coordinates": [2.756546, 48.286436]}, "properties": {"id_parcelle": "77340000ZB0023", "address": "LES CHERELLES", "sales": 2, "median_price": 668000.0, "median_price_per_sqm": null, "median_rooms": null, "first_sale": "2025-12-31", "last_sale": "2025-12-31"}}, {"type": "Feature", "geometry": {"type": "Point", "coordinates": [2.756838, 48.287013]}, "properties": {"id_parcelle": "77340000ZB0024", "address": "LES CHERELLES", "sales": 2, "median_price": 254058.0, "median_price_per_sqm": null, "median_rooms": null, "first_sale": "2025-12-31", "last_sale": "2025-12-31"}}, {"type": "Feature", "geometry": {"type": "Point", "coordinates": [2.790103, 48.28537]}, "properties": {"id_parcelle": "773400000D0265", "address": "LA TOURNELLE", "sales": 2, "median_price": 315000.0, "median_price_per_sqm": null, "median_rooms": null, "first_sale": "2021-07-26", "last_sale": "2021-07-26"}}, {"type": "Feature", "geometry": {"type": "Point", "coordinates": [2.757735, 48.280459]}, "properties": {"id_parcelle": "77340000ZB0060", "address": "LES GRANDS BOIS", "sales": 2, "median_price": 668000.0, "median_price_per_sqm": null, "median_rooms": null, "first_sale": "2025-12-31", "last_sale": "2025-12-31"}}, {"type": "Feature", "geometry": {"type": "Point", "coordinates": [2.753826, 48.279381]}, "properties": {"id_parcelle": "77340000ZB0067", "address": "LES PETITS GRANDS BOIS", "sales": 2, "median_price": 668000.0, "median_price_per_sqm": null, "median_rooms": null, "first_sale": "2025-12-31", "last_sale": "2025-12-31"}}, {"type": "Feature", "geometry": {"type": "Point", "coordinates": [2.749075, 48.281951]}, "properties": {"id_parcelle": "77340000ZB0076", "address": "LA PIECE A BRAY", "sales": 2, "median_price": 254058.0, "median_price_per_sqm": null, "median_rooms": null, "first_sale": "2025-12-31", "last_sale": "2025-12-31"}}, {"type": "Feature", "geometry": {"type": "Point", "coordinates": [2.748767, 48.282071]}, "properties": {"id_parcelle": "77340000ZB0075", "address": "LA PIECE A BRAY", "sales": 2, "median_price": 668000.0, "median_price_per_sqm": null, "median_rooms": null, "first_sale": "2025-12-31", "last_sale": "2025-12-31"}}, {"type": "Feature", "geometry": {"type": "Point", "coordinates": [2.751397, 48.282519]}, "properties": {"id_parcelle": "77340000ZB0080", "address": "LA PIECE A BRAY", "sales": 2, "median_price": 668000.0, "median_price_per_sqm": null, "median_rooms": null, "first_sale": "2025-12-31", "last_sale": "2025-12-31"}}, {"type": "Feature", "geometry": {"type": "Point", "coordinates": [2.759364, 48.278765]}, "properties": {"id_parcelle": "77340000ZC0003", "address": "LA FONTAINE DE SAUSSEAU", "sales": 2, "median_price": 254058.0, "median_price_per_sqm": null, "median_rooms": null, "first_sale": "2025-12-31", "last_sale": "2025-12-31"}}, {"type": "Feature", "geometry": {"type": "Point", "coordinates": [2.760853, 48.276951]}, "properties": {"id_parcelle": "77340000ZC0027", "address": "LA POINTE DU SAUSSEAU", "sales": 2, "median_price": 668000.0, "median_price_per_sqm": null, "median_rooms": null, "first_sale": "2025-12-31", "last_sale": "2025-12-31"}}, {"type": "Feature", "geometry": {"type": "Point", "coordinates": [2.749326, 48.281984]}, "properties": {"id_parcelle": "77340000ZB0077", "address": "LA PIECE A BRAY", "sales": 2, "median_price": 254058.0, "median_price_per_sqm": null, "median_rooms": null, "first_sale": "2025-12-31", "last_sale": "2025-12-31"}}, {"type": "Feature", "geometry": {"type": "Point", "coordinates": [2.770879, 48.278591]}, "properties": {"id_parcelle": "77340000ZD0024", "address": "LE SAUSSEAU", "sales": 2, "median_price": 90138.0, "median_price_per_sqm": null, "median_rooms": null, "first_sale": "2021-02-26", "last_sale": "2021-02-26"}}, {"type": "Feature", "geometry": {"type": "Point", "coordinates": [2.789419, 48.284973]}, "properties": {"id_parcelle": "77340000ZE0029", "address": "29 RUE GRANDE", "sales": 2, "median_price": 180000.0, "median_price_per_sqm": 2000.0, "median_rooms": 6.0, "first_sale": "2021-12-21", "last_sale": "2021-12-21"}}, {"type": "Feature", "geometry": {"type": "Point", "coordinates": [2.789557, 48.284916]}, "properties": {"id_parcelle": "77340000ZE0030", "address": "PROCHE LES GARENNES", "sales": 2, "median_price": 180000.0, "median_price_per_sqm": null, "median_rooms": null, "first_sale": "2021-12-21", "last_sale": "2021-12-21"}}, {"type": "Feature", "geometry": {"type": "Point", "coordinates": [2.789677, 48.284867]}, "properties": {"id_parcelle": "77340000ZE0031", "address": "27 RUE GRANDE", "sales": 2, "median_price": 192000.0, "median_price_per_sqm": 2704.225352112676, "median_rooms": 4.0, "first_sale": "2022-09-29", "last_sale": "2022-09-29"}}, {"type": "Feature", "geometry": {"type": "Point", "coordinates": [2.789829, 48.284804]}, "properties": {"id_parcelle": "77340000ZE0032", "address": "PROCHE LES GARENNES", "sales": 2, "median_price": 192000.0, "median_price_per_sqm": null, "median_rooms": null, "first_sale": "2022-09-29", "last_sale": "2022-09-29"}}, {"type": "Feature", "geometry": {"type": "Point", "coordinates": [2.787353, 48.285883]}, "properties": {"id_parcelle": "77340000ZE0045", "address": "45 RUE GRANDE", "sales": 2, "median_price": 316000.0, "median_price_per_sqm": 3590.909090909091, "median_rooms": 4.0, "first_sale": "2022-11-21", "last_sale": "2022-11-21"}}, {"type": "Feature", "geometry": {"type": "Point", "coordinates": [2.787125, 48.285974]}, "properties": {"id_parcelle": "77340000ZE0046", "address": "47 RUE GRANDE", "sales": 2, "median_price": 246895.0, "median_price_per_sqm": 2184.9115044247787, "median_rooms": 6.0, "first_sale": "2021-08-06", "last_sale": "2021-08-06"}}, {"type": "Feature", "geometry": {"type": "Point", "coordinates": [2.785688, 48.294667]}, "properties": {"id_parcelle": "77340000ZI0008", "address": "LA VALLEE DE CHAUVILLE", "sales": 2, "median_price": 1000.0, "median_price_per_sqm": null, "median_rooms": null, "first_sale": "2021-11-26", "last_sale": "2021-11-26"}}]}