{"type": "FeatureCollection", "features": [{"type": "Feature", "geometry": {"type": "Point", "coordinates": [2.863347, 48.650214]}, "properties": {"id_parcelle": "77007000AC0261", "address": "27 RUE DES GRANDS SAULES", "sales": 8, "median_price": 210000.0, "median_price_per_sqm": 2100.0, "median_rooms": 0.0, "first_sale": "2022-01-25", "last_sale": "2022-01-25"}}, {"type": "Feature", "geometry": {"type": "Point", "coordinates": [2.869529, 48.656832]}, "properties": {"id_parcelle": "77007000AB0081", "address": "LES BROSSES", "sales": 6, "median_price": 387800.245, "median_price_per_sqm": null, "median_rooms": null, "first_sale": "2025-12-18", "last_sale": "2025-12-22"}}, {"type": "Feature", "geometry": {"type": "Point", "coordinates": [2.8674, 48.655332]}, "properties": {"id_parcelle": "77007000AB0207", "address": "5 RUE DE LA VALLEE", "sales": 6, "median_price": 283000.0, "median_price_per_sqm": 1886.6666666666667, "median_rooms": 3.0, "first_sale": "2025-07-11", "last_sale": "2025-07-11"}}, {"type": "Feature", "geometry": {"type": "Point", "coordinates": [2.869348, 48.656937]}, "properties": {"id_parcelle": "77007000AB0222", "address": "LES BROSSES", "sales": 4, "median_price": 387800.245, "median_price_per_sqm": null, "median_rooms": null, "first_sale": "2025-12-18", "last_sale": "2025-12-22"}}, {"type": "Feature", "geometry": {"type": "Point", "coordinates": [2.874931, 48.651973]}, "properties": {"id_parcelle": "770070000A0289", "address": "MONTCOUVENT", "sales": 3, "median_price": 14000.0, "median_price_per_sqm": null, "median_rooms": null, "first_sale": "2024-04-30", "last_sale": "2025-12-22"}}, {"type": "Feature", "geometry": {"type": "Point", "coordinates": [2.875127, 48.652409]}, "properties": {"id_parcelle": "770070000A0291", "address": "MONTCOUVENT", "sales": 3, "median_price": 14000.0, "median_price_per_sqm": null, "median_rooms": null, "first_sale": "2024-04-30", "last_sale": "2025-12-22"}}, {"type": "Feature", "geometry": {"type": "Point", "coordinates": [2.86828, 48.658883]}, "properties": {"id_parcelle": "770070000C0023", "address": "LES BROSSES", "sales": 3, "median_price": 14000.0, "median_price_per_sqm": null, "median_rooms": null, "first_sale": "2024-04-30", "last_sale": "2025-12-22"}}, {"type": "Feature", "geometry": {"type": "Point", "coordinates": [2.868841, 48.659212]}, "properties": {"id_parcelle": "770070000C0027", "address": "LES BROSSES", "sales": 3, "median_price": 14000.0, "median_price_per_sqm": null, "median_rooms": null, "first_sale": "2024-04-30", "last_sale": "2025-12-22"}}, {"type": "Feature", "geometry": {"type": "Point", "coordinates": [2.868708, 48.659489]}, "properties": {"id_parcelle": "770070000C0014", "address": "LES BROSSES", "sales": 3, "median_price": 14000.0, "median_price_per_sqm": null, "median_rooms": null, "first_sale": "2024-04-30", "last_sale": "2025-12-22"}}, {"type": "Feature", "geometry": {"type": "Point", "coordinates": [2.867799, 48.658511]}, "properties": {"id_parcelle": "770070000C0015", "address": "LES BROSSES", "sales": 3, "median_price": 14000.0, "median_price_per_sqm": null, "median_rooms": null, "first_sale": "2024-04-30", "last_sale": "2025-12-22"}}, {"type": "Feature", "geometry": {"type": "Point", "coordinates": [2.868843, 48.658649]}, "properties": {"id_parcelle": "770070000C0037", "address": "LES BROSSES", "sales": 3, "median_price": 14000.0, "median_price_per_sqm": null, "median_rooms": null, "first_sale": "2024-04-30", "last_sale": "2025-12-22"}}, {"type": "Feature", "geometry": {"type": "Point", "coordinates": [2.866915, 48.659383]}, "properties": {"id_parcelle": "770070000C0112", "address": "LES BROSSES", "sales": 3, "median_price": 14000.0, "median_price_per_sqm": null, "median_rooms": null, "first_sale": "2024-04-30", "last_sale": "2025-12-22"}}, {"type": "Feature", "geometry": {"type": "Point", "coordinates": [2.873495, 48.654751]}, "properties": {"id_parcelle": "770070000A0358", "address": "ALL DE MONTCOUVENT", "sales": 3, "median_price": 14000.0, "median_price_per_sqm": null, "median_rooms": null, "first_sale": "2024-04-30", "last_sale": "2025-12-22"}}, {"type": "Feature", "geometry": {"type": "Point", "coordinates": [2.873504, 48.654495]}, "properties": {"id_parcelle": "770070000A0347", "address": "ALL DE MONTCOUVENT", "sales": 3, "median_price": 14000.0, "median_price_per_sqm": null, "median_rooms": null, "first_sale": "2024-04-30", "last_sale": "2025-12-22"}}, {"type": "Feature", "geometry": {"type": "Point", "coordinates": [2.875235, 48.653927]}, "properties": {"id_parcelle": "770070000A0307", "address": "SAINT-JACQUES", "sales": 3, "median_price": 14000.0, "median_price_per_sqm": null, "median_rooms": null, "first_sale": "2024-04-30", "last_sale": "2025-12-22"}}, {"type": "Feature", "geometry": {"type": "Point", "coordinates": [2.874964, 48.653791]}, "properties": {"id_parcelle": "770070000A0308", "address": "SAINT-JACQUES", "sales": 3, "median_price": 14000.0, "median_price_per_sqm": null, "median_rooms": null, "first_sale": "2024-04-30", "last_sale": "2025-12-22"}}, {"type": "Feature", "geometry": {"type": "Point", "coordinates": [2.867827, 48.659379]}, "properties": {"id_parcelle": "770070000C0106", "address": "LES BROSSES", "sales": 2, "median_price": 387800.245, "median_price_per_sqm": null, "median_rooms": null, "first_sale": "2025-12-18", "last_sale": "2025-12-22"}}, {"type": "Feature", "geometry": {"type": "Point", "coordinates": [2.867862, 48.659221]}, "properties": {"id_parcelle": "770070000C0105", "address": "LES BROSSES", "sales": 2, "median_price": 387800.245, "median_price_per_sqm": null, "median_rooms": null, "first_sale": "2025-12-18", "last_sale": "2025-12-22"}}, {"type": "Feature", "geometry": {"type": "Point", "coordinates": [2.869007, 48.657999]}, "properties": {"id_parcelle": "770070000C0086", "address": "LES BROSSES", "sales": 2, "median_price": 387800.245, "median_price_per_sqm": null, "median_rooms": null, "first_sale": "2025-12-18", "last_sale": "2025-12-22"}}, {"type": "Feature", "geometry": {"type": "Point", "coordinates": [2.867536, 48.658554]}, "properties": {"id_parcelle": "770070000C0098", "address": "LES BROSSES", "sales": 2, "median_price": 371636.0, "median_price_per_sqm": null, "median_rooms": null, "first_sale": "2024-01-30", "last_sale": "2025-12-22"}}, {"type": "Feature", "geometry": {"type": "Point", "coordinates": [2.87489, 48.654302]}, "properties": {"id_parcelle": "770070000A0323", "address": "SAINT-JACQUES", "sales": 2, "median_price": 740960.0, "median_price_per_sqm": null, "median_rooms": null, "first_sale": "2025-12-22", "last_sale": "2025-12-22"}}, {"type": "Feature", "geometry": {"type": "Point", "coordinates": [2.874898, 48.654196]}, "properties": {"id_parcelle": "770070000A0320", "address": "SAINT-JACQUES", "sales": 2, "median_price": 740960.0, "median_price_per_sqm": null, "median_rooms": null, "first_sale": "2025-12-22", "last_sale": "2025-12-22"}}, {"type": "Feature", "geometry": {"type": "Point", "coordinates": [2.862577, 48.655271]}, "properties": {"id_parcelle": "770070000C0202", "address": "LA VALLEE", "sales": 2, "median_price": 39076.009999999995, "median_price_per_sqm": null, "median_rooms": null, "first_sale": "2025-12-18", "last_sale": "2025-12-22"}}, {"type": "Feature", "geometry": {"type": "Point", "coordinates": [2.867004, 48.659304]}, "properties": {"id_parcelle": "770070000C0111", "address": "LES BROSSES", "sales": 2, "median_price": 371664.485, "median_price_per_sqm": null, "median_rooms": null, "first_sale": "2025-12-18", "last_sale": "2025-12-22"}}, {"type": "Feature", "geometry": {"type": "Point", "coordinates": [2.867579, 48.659459]}, "properties": {"id_parcelle": "770070000C0108", "address": "LES BROSSES", "sales": 2, "median_price": 387800.245, "median_price_per_sqm": null, "median_rooms": null, "first_sale": "2025-12-18", "last_sale": "2025-12-22"}}, {"type": "Feature", "geometry": {"type": "Point", "coordinates": [2.867587, 48.659348]}, "properties": {"id_parcelle": "770070000C0107", "address": "LES BROSSES", "sales": 2, "median_price": 387800.245, "median_price_per_sqm": null, "median_rooms": null, "first_sale": "2025-12-18", "last_sale": "2025-12-22"}}, {"type": "Feature", "geometry": {"type": "Point", "coordinates": [2.862908, 48.655165]}, "properties": {"id_parcelle": "770070000C0206", "address": "LA VALLEE", "sales": 2, "median_price": 39076.009999999995, "median_price_per_sqm": null, "median_rooms": null, "first_sale": "2025-12-18", "last_sale": "2025-12-22"}}, {"type": "Feature", "geometry": {"type": "Point", "coordinates": [2.863126, 48.655097]}, "properties": {"id_parcelle": "770070000C0208", "address": "LA VALLEE", "sales": 2, "median_price": 39076.009999999995, "median_price_per_sqm": null, "median_rooms": null, "first_sale": "2025-12-18", "last_sale": "2025-12-22"}}, {"type": "Feature", "geometry": {"type": "Point", "coordinates": [2.863732, 48.655344]}, "properties": {"id_parcelle": "770070000C0211", "address": "LA VALLEE", "sales": 2, "median_price": 39076.009999999995, "median_price_per_sqm": null, "median_rooms": null, "first_sale": "2025-12-18", "last_sale": "2025-12-22"}}, {"type": "Feature", "geometry": {"type": "Point", "coordinates": [2.863786, 48.655325]}, "properties": {"id_parcelle": "770070000C0212", "address": "LA VALLEE", "sales": 2, "median_price": 39076.009999999995, "median_price_per_sqm": null, "median_rooms": null, "first_sale": "2025-12-18", "last_sale": "2025-12-22"}}, {"type": "Feature", "geometry": {"type": "Point", "coordinates": [2.861967, 48.653973]}, "properties": {"id_parcelle": "770070000C0310", "address": "LES GOUGES", "sales": 2, "median_price": 39076.009999999995, "median_price_per_sqm": null, "median_rooms": null, "first_sale": "2025-12-18", "last_sale": "2025-12-22"}}, {"type": "Feature", "geometry": {"type": "Point", "coordinates": [2.862096, 48.654525]}, "properties": {"id_parcelle": "770070000C0315", "address": "LES GOUGES", "sales": 2, "median_price": 39076.009999999995, "median_price_per_sqm": null, "median_rooms": null, "first_sale": "2025-12-18", "last_sale": "2025-12-22"}}, {"type": "Feature", "geometry": {"type": "Point", "coordinates": [2.862232, 48.654535]}, "properties": {"id_parcelle": "770070000C0316", "address": "LES GOUGES", "sales": 2, "median_price": 39076.009999999995, "median_price_per_sqm": null, "median_rooms": null, "first_sale": "2025-12-18", "last_sale": "2025-12-22"}}, {"type": "Feature", "geometry": {"type": "Point", "coordinates": [2.866852, 48.656704]}, "properties": {"id_parcelle": "77007000AB0058", "address": "ALL PETIT BOIS", "sales": 2, "median_price": 387800.245, "median_price_per_sqm": null, "median_rooms": null, "first_sale": "2025-12-18", "last_sale": "2025-12-22"}}, {"type": "Feature", "geometry": {"type": "Point", "coordinates": [2.863829, 48.655309]}, "properties": {"id_parcelle": "770070000C0213", "address": "LA VALLEE", "sales": 2, "median_price": 39076.009999999995, "median_price_per_sqm": null, "median_rooms": null, "first_sale": "2025-12-18", "last_sale": "2025-12-22"}}, {"type": "Feature", "geometry": {"type": "Point", "coordinates": [2.86397, 48.655258]}, "properties": {"id_parcelle": "770070000C0216", "address": "LA VALLEE", "sales": 2, "median_price": 39076.009999999995, "median_price_per_sqm": null, "median_rooms": null, "first_sale": "2025-12-18", "last_sale": "2025-12-22"}}, {"type": "Feature", "geometry": {"type": "Point", "coordinates": [2.864187, 48.655179]}, "properties": {"id_parcelle": "770070000C0218", "address": "LA VALLEE", "sales": 2, "median_price": 39076.009999999995, "median_price_per_sqm": null, "median_rooms": null, "first_sale": "2025-12-18", "last_sale": "2025-12-22"}}, {"type": "Feature", "geometry": {"type": "Point", "coordinates": [2.864447, 48.655085]}, "properties": {"id_parcelle": "770070000C0221", "address": "LA VALLEE", "sales": 2, "median_price": 39076.009999999995, "median_price_per_sqm": null, "median_rooms": null, "first_sale": "2025-12-18", "last_sale": "2025-12-22"}}, {"type": "Feature", "geometry": {"type": "Point", "coordinates": [2.869303, 48.656997]}, "properties": {"id_parcelle": "77007000AB0080", "address": "LES BROSSES", "sales": 2, "median_price": 372730.0, "median_price_per_sqm": null, "median_rooms": null, "first_sale": "2025-12-18", "last_sale": "2025-12-22"}}, {"type": "Feature", "geometry": {"type": "Point", "coordinates": [2.86936, 48.657135]}, "properties": {"id_parcelle": "77007000AB0079", "address": "LES BROSSES", "sales": 2, "median_price": 372730.0, "median_price_per_sqm": null, "median_rooms": null, "first_sale": "2025-12-18", "last_sale": "2025-12-22"}}, {"type": "Feature", "geometry": {"type": "Point", "coordinates": [2.867884, 48.656239]}, "properties": {"id_parcelle": "77007000AB0064", "address": "ALL PETIT BOIS", "sales": 2, "median_price": 387800.245, "median_price_per_sqm": null, "median_rooms": null, "first_sale": "2025-12-18", "last_sale": "2025-12-22"}}, {"type": "Feature", "geometry": {"type": "Point", "coordinates": [2.867731, 48.656317]}, "properties": {"id_parcelle": "77007000AB0062", "address": "ALL PETIT BOIS", "sales": 2, "median_price": 387800.245, "median_price_per_sqm": null, "median_rooms": null, "first_sale": "2025-12-18", "last_sale": "2025-12-22"}}, {"type": "Feature", "geometry": {"type": "Point", "coordinates": [2.868612, 48.653787]}, "properties": {"id_parcelle": "77007000AB0179", "address": "24 RUE ST BON", "sales": 2, "median_price": 289000.0, "median_price_per_sqm": 2700.9345794392525, "median_rooms": 2.0, "first_sale": "2023-04-28", "last_sale": "2023-04-28"}}, {"type": "Feature", "geometry": {"type": "Point", "coordinates": [2.867977, 48.653831]}, "properties": {"id_parcelle": "77007000AB0175", "address": "13 RUE DES ACACIAS", "sales": 2, "median_price": 257600.0, "median_price_per_sqm": 2927.2727272727275, "median_rooms": 2.5, "first_sale": "2023-02-03", "last_sale": "2023-02-03"}}, {"type": "Feature", "geometry": {"type": "Point", "coordinates": [2.86847, 48.656393]}, "properties": {"id_parcelle": "77007000AB0229", "address": "RUE DE L EGALITE", "sales": 2, "median_price": 387800.245, "median_price_per_sqm": null, "median_rooms": null, "first_sale": "2025-12-18", "last_sale": "2025-12-22"}}, {"type": "Feature", "geometry": {"type": "Point", "coordinates": [2.870174, 48.656878]}, "properties": {"id_parcelle": "77007000AB0088", "address": "LES BROSSES", "sales": 2, "median_price": 5500.0, "median_price_per_sqm": null, "median_rooms": null, "first_sale": "2023-12-07", "last_sale": "2025-11-28"}}, {"type": "Feature", "geometry": {"type": "Point", "coordinates": [2.868335, 48.656421]}, "properties": {"id_parcelle": "77007000AB0230", "address": "RUE DE L EGALITE", "sales": 2, "median_price": 387800.245, "median_price_per_sqm": null, "median_rooms": null, "first_sale": "2025-12-18", "last_sale": "2025-12-22"}}, {"type": "Feature", "geometry": {"type": "Point", "coordinates": [2.868824, 48.654424]}, "properties": {"id_parcelle": "77007000AB0272", "address": "18 RUE ST BON", "sales": 2, "median_price": 241000.0, "median_price_per_sqm": 2190.909090909091, "median_rooms": 5.0, "first_sale": "2021-01-26", "last_sale": "2021-01-26"}}, {"type": "Feature", "geometry": {"type": "Point", "coordinates": [2.869146, 48.653573]}, "properties": {"id_parcelle": "77007000AC0081", "address": "6 RUE DU PRESSOIR", "sales": 2, "median_price": 267600.0, "median_price_per_sqm": 3716.6666666666665, "median_rooms": 2.5, "first_sale": "2023-07-25", "last_sale": "2023-07-25"}}, {"type": "Feature", "geometry": {"type": "Point", "coordinates": [2.868028, 48.653084]}, "properties": {"id_parcelle": "77007000AC0068", "address": "34 RUE ST BON", "sales": 2, "median_price": 135000.0, "median_price_per_sqm": 2109.375, "median_rooms": 1.0, "first_sale": "2022-10-05", "last_sale": "2022-10-05"}}, {"type": "Feature", "geometry": {"type": "Point", "coordinates": [2.869181, 48.653619]}, "properties": {"id_parcelle": "77007000AC0082", "address": "6 RUE DU PRESSOIR", "sales": 2, "median_price": 133800.5, "median_price_per_sqm": null, "median_rooms": null, "first_sale": "2023-07-25", "last_sale": "2023-07-25"}}, {"type": "Feature", "geometry": {"type": "Point", "coordinates": [2.870302, 48.650088]}, "properties": {"id_parcelle": "77007000AC0124", "address": "23 RUE DE LA TOURELLE", "sales": 2, "median_price": 350000.0, "median_price_per_sqm": 3333.3333333333335, "median_rooms": 5.0, "first_sale": "2023-04-28", "last_sale": "2023-04-28"}}, {"type": "Feature", "geometry": {"type": "Point", "coordinates": [2.868579, 48.652531]}, "properties": {"id_parcelle": "77007000AC0217", "address": "17 RUE DU PRESSOIR", "sales": 2, "median_price": 269000.0, "median_price_per_sqm": 2561.904761904762, "median_rooms": 2.0, "first_sale": "2025-08-20", "last_sale": "2025-08-20"}}, {"type": "Feature", "geometry": {"type": "Point", "coordinates": [2.866129, 48.651716]}, "properties": {"id_parcelle": "77007000AC0267", "address": "11 RUE DES GRANDS SAULES", "sales": 2, "median_price": 254000.0, "median_price_per_sqm": null, "median_rooms": null, "first_sale": "2022-03-15", "last_sale": "2022-03-15"}}]}