{"type": "FeatureCollection", "features": [{"type": "Feature", "geometry": {"type": "Point", "coordinates": [3.2983075, 48.428671]}, "properties": {"street_name": "CHAUMARD", "sales": 18, "sales_appt": 0, "sales_maison": 2, "median_price": 43000.0, "median_price_per_sqm": 2222.222222222222, "turnover_score": 100.0, "turnover_rank": 1, "first_year": 2021, "last_year": 2025, "years_active": 5}}, {"type": "Feature", "geometry": {"type": "Point", "coordinates": [3.3092705000000002, 48.407406]}, "properties": {"street_name": "VILLENAUXE LA PETITE", "sales": 18, "sales_appt": 0, "sales_maison": 0, "median_price": 117000.0, "median_price_per_sqm": null, "turnover_score": 100.0, "turnover_rank": 1, "first_year": 2021, "last_year": 2025, "years_active": 5}}, {"type": "Feature", "geometry": {"type": "Point", "coordinates": [3.307336, 48.407202]}, "properties": {"street_name": "RUE DES MARDELLES", "sales": 17, "sales_appt": 0, "sales_maison": 10, "median_price": 166000.0, "median_price_per_sqm": 2007.645903479237, "turnover_score": 94.4, "turnover_rank": 2, "first_year": 2021, "last_year": 2025, "years_active": 5}}, {"type": "Feature", "geometry": {"type": "Point", "coordinates": [3.296813, 48.3950985]}, "properties": {"street_name": "RUE DE VILLIERS", "sales": 16, "sales_appt": 0, "sales_maison": 8, "median_price": 227500.0, "median_price_per_sqm": 2184.6715328467153, "turnover_score": 88.9, "turnover_rank": 3, "first_year": 2021, "last_year": 2023, "years_active": 3}}, {"type": "Feature", "geometry": {"type": "Point", "coordinates": [3.302822, 48.4290585]}, "properties": {"street_name": "LE PETIT ETANG", "sales": 10, "sales_appt": 0, "sales_maison": 6, "median_price": 58300.0, "median_price_per_sqm": 2727.2727272727275, "turnover_score": 55.6, "turnover_rank": 4, "first_year": 2021, "last_year": 2024, "years_active": 2}}, {"type": "Feature", "geometry": {"type": "Point", "coordinates": [3.306816, 48.429806]}, "properties": {"street_name": "CHE DU PORT DE TOUSSACQ", "sales": 10, "sales_appt": 0, "sales_maison": 5, "median_price": 152800.0, "median_price_per_sqm": 3638.095238095238, "turnover_score": 55.6, "turnover_rank": 4, "first_year": 2022, "last_year": 2025, "years_active": 2}}, {"type": "Feature", "geometry": {"type": "Point", "coordinates": [3.310607, 48.411724]}, "properties": {"street_name": "RUE GRANDE", "sales": 8, "sales_appt": 0, "sales_maison": 8, "median_price": 181750.0, "median_price_per_sqm": 1654.9405878674172, "turnover_score": 44.4, "turnover_rank": 5, "first_year": 2021, "last_year": 2025, "years_active": 4}}, {"type": "Feature", "geometry": {"type": "Point", "coordinates": [3.294493, 48.392396500000004]}, "properties": {"street_name": "SIBOULARD", "sales": 8, "sales_appt": 0, "sales_maison": 0, "median_price": 230000.0, "median_price_per_sqm": null, "turnover_score": 44.4, "turnover_rank": 5, "first_year": 2021, "last_year": 2021, "years_active": 1}}, {"type": "Feature", "geometry": {"type": "Point", "coordinates": [3.315817, 48.4051825]}, "properties": {"street_name": "BEAUREGARD", "sales": 6, "sales_appt": 0, "sales_maison": 0, "median_price": 221000.0, "median_price_per_sqm": null, "turnover_score": 33.3, "turnover_rank": 6, "first_year": 2021, "last_year": 2021, "years_active": 1}}, {"type": "Feature", "geometry": {"type": "Point", "coordinates": [3.316181, 48.392011999999994]}, "properties": {"street_name": "LE PETIT CHAOUSSY", "sales": 6, "sales_appt": 0, "sales_maison": 0, "median_price": 133480.0, "median_price_per_sqm": null, "turnover_score": 33.3, "turnover_rank": 6, "first_year": 2022, "last_year": 2022, "years_active": 1}}, {"type": "Feature", "geometry": {"type": "Point", "coordinates": [3.310136, 48.408489]}, "properties": {"street_name": "RUE DU VERGER", "sales": 5, "sales_appt": 2, "sales_maison": 0, "median_price": 199249.0, "median_price_per_sqm": 2549.2611459968603, "turnover_score": 27.8, "turnover_rank": 7, "first_year": 2024, "last_year": 2024, "years_active": 1}}, {"type": "Feature", "geometry": {"type": "Point", "coordinates": [3.313471, 48.42991]}, "properties": {"street_name": "TOUSSAC", "sales": 5, "sales_appt": 0, "sales_maison": 0, "median_price": 30000.0, "median_price_per_sqm": null, "turnover_score": 27.8, "turnover_rank": 7, "first_year": 2022, "last_year": 2025, "years_active": 2}}, {"type": "Feature", "geometry": {"type": "Point", "coordinates": [3.312913, 48.4107585]}, "properties": {"street_name": "LE CHEMIN DE LA LIMOUSINE", "sales": 4, "sales_appt": 0, "sales_maison": 0, "median_price": 2500.0, "median_price_per_sqm": null, "turnover_score": 22.2, "turnover_rank": 8, "first_year": 2021, "last_year": 2022, "years_active": 2}}, {"type": "Feature", "geometry": {"type": "Point", "coordinates": [3.310004, 48.403671]}, "properties": {"street_name": "RTE DE BRAY", "sales": 4, "sales_appt": 0, "sales_maison": 2, "median_price": 176500.0, "median_price_per_sqm": 1478.0854430379745, "turnover_score": 22.2, "turnover_rank": 8, "first_year": 2021, "last_year": 2023, "years_active": 2}}, {"type": "Feature", "geometry": {"type": "Point", "coordinates": [3.315392, 48.405391]}, "properties": {"street_name": "RUE DE BEAUREGARD", "sales": 4, "sales_appt": 0, "sales_maison": 2, "median_price": 221000.0, "median_price_per_sqm": 2813.6574074074074, "turnover_score": 22.2, "turnover_rank": 8, "first_year": 2021, "last_year": 2021, "years_active": 1}}, {"type": "Feature", "geometry": {"type": "Point", "coordinates": [3.300652, 48.427776]}, "properties": {"street_name": "LE MOULIN DE HAUTS FOSSES", "sales": 3, "sales_appt": 0, "sales_maison": 1, "median_price": 125000.0, "median_price_per_sqm": 494.0711462450593, "turnover_score": 16.7, "turnover_rank": 9, "first_year": 2021, "last_year": 2021, "years_active": 1}}, {"type": "Feature", "geometry": {"type": "Point", "coordinates": [3.31961, 48.40623]}, "properties": {"street_name": "LES POTEREAUX", "sales": 3, "sales_appt": 0, "sales_maison": 0, "median_price": 196500.0, "median_price_per_sqm": null, "turnover_score": 16.7, "turnover_rank": 9, "first_year": 2022, "last_year": 2022, "years_active": 1}}, {"type": "Feature", "geometry": {"type": "Point", "coordinates": [3.322009, 48.400224]}, "properties": {"street_name": "LES RANGES", "sales": 3, "sales_appt": 0, "sales_maison": 0, "median_price": 196500.0, "median_price_per_sqm": null, "turnover_score": 16.7, "turnover_rank": 9, "first_year": 2022, "last_year": 2022, "years_active": 1}}, {"type": "Feature", "geometry": {"type": "Point", "coordinates": [3.332837, 48.421288]}, "properties": {"street_name": "VERNOY", "sales": 3, "sales_appt": 0, "sales_maison": 0, "median_price": 90000.0, "median_price_per_sqm": null, "turnover_score": 16.7, "turnover_rank": 9, "first_year": 2022, "last_year": 2022, "years_active": 1}}, {"type": "Feature", "geometry": {"type": "Point", "coordinates": [3.287374, 48.39167]}, "properties": {"street_name": "LA HAIE D ANE", "sales": 3, "sales_appt": 0, "sales_maison": 0, "median_price": 3467.45, "median_price_per_sqm": null, "turnover_score": 16.7, "turnover_rank": 9, "first_year": 2022, "last_year": 2023, "years_active": 2}}, {"type": "Feature", "geometry": {"type": "Point", "coordinates": [3.30756, 48.410221]}, "properties": {"street_name": "RUE DES PATURES", "sales": 3, "sales_appt": 0, "sales_maison": 2, "median_price": 105000.0, "median_price_per_sqm": 1186.9259032455602, "turnover_score": 16.7, "turnover_rank": 9, "first_year": 2024, "last_year": 2024, "years_active": 1}}, {"type": "Feature", "geometry": {"type": "Point", "coordinates": [3.333142, 48.420628]}, "properties": {"street_name": "RUE DE PASSY", "sales": 3, "sales_appt": 0, "sales_maison": 2, "median_price": 160000.0, "median_price_per_sqm": 1490.7407407407409, "turnover_score": 16.7, "turnover_rank": 9, "first_year": 2022, "last_year": 2022, "years_active": 1}}, {"type": "Feature", "geometry": {"type": "Point", "coordinates": [3.308147, 48.402431]}, "properties": {"street_name": "LES PRES DE COMPIGNY", "sales": 3, "sales_appt": 0, "sales_maison": 0, "median_price": 3467.45, "median_price_per_sqm": null, "turnover_score": 16.7, "turnover_rank": 9, "first_year": 2022, "last_year": 2022, "years_active": 1}}, {"type": "Feature", "geometry": {"type": "Point", "coordinates": [3.296438, 48.380372]}, "properties": {"street_name": "LES ECREVISSIERS", "sales": 2, "sales_appt": 0, "sales_maison": 0, "median_price": 216315.0, "median_price_per_sqm": null, "turnover_score": 11.1, "turnover_rank": 10, "first_year": 2022, "last_year": 2022, "years_active": 1}}, {"type": "Feature", "geometry": {"type": "Point", "coordinates": [3.3101089999999997, 48.4106295]}, "properties": {"street_name": "RUE COUVERTE", "sales": 2, "sales_appt": 0, "sales_maison": 2, "median_price": 99500.0, "median_price_per_sqm": 1568.3783783783783, "turnover_score": 11.1, "turnover_rank": 10, "first_year": 2021, "last_year": 2025, "years_active": 2}}, {"type": "Feature", "geometry": {"type": "Point", "coordinates": [3.2988465, 48.4006485]}, "properties": {"street_name": "LE BEIGNON", "sales": 2, "sales_appt": 0, "sales_maison": 0, "median_price": 196500.0, "median_price_per_sqm": null, "turnover_score": 11.1, "turnover_rank": 10, "first_year": 2022, "last_year": 2022, "years_active": 1}}, {"type": "Feature", "geometry": {"type": "Point", "coordinates": [3.297969, 48.4119215]}, "properties": {"street_name": "JUCHE COQ", "sales": 2, "sales_appt": 0, "sales_maison": 0, "median_price": 164990.0, "median_price_per_sqm": null, "turnover_score": 11.1, "turnover_rank": 10, "first_year": 2022, "last_year": 2022, "years_active": 1}}, {"type": "Feature", "geometry": {"type": "Point", "coordinates": [3.323262, 48.380512]}, "properties": {"street_name": "LES PETIT ECHARS", "sales": 2, "sales_appt": 0, "sales_maison": 0, "median_price": 196500.0, "median_price_per_sqm": null, "turnover_score": 11.1, "turnover_rank": 10, "first_year": 2022, "last_year": 2022, "years_active": 1}}, {"type": "Feature", "geometry": {"type": "Point", "coordinates": [3.33312, 48.394995]}, "properties": {"street_name": "VAUROGNON", "sales": 2, "sales_appt": 0, "sales_maison": 0, "median_price": 216315.0, "median_price_per_sqm": null, "turnover_score": 11.1, "turnover_rank": 10, "first_year": 2022, "last_year": 2022, "years_active": 1}}, {"type": "Feature", "geometry": {"type": "Point", "coordinates": [3.334612, 48.400082]}, "properties": {"street_name": "RUE DE BRIOTTE", "sales": 2, "sales_appt": 0, "sales_maison": 0, "median_price": 46000.0, "median_price_per_sqm": 40.38630377524144, "turnover_score": 11.1, "turnover_rank": 10, "first_year": 2022, "last_year": 2022, "years_active": 1}}, {"type": "Feature", "geometry": {"type": "Point", "coordinates": [3.3129015, 48.406422]}, "properties": {"street_name": "RUE DU CHATEAU D EAU", "sales": 2, "sales_appt": 0, "sales_maison": 2, "median_price": 166000.0, "median_price_per_sqm": 2094.2307692307695, "turnover_score": 11.1, "turnover_rank": 10, "first_year": 2022, "last_year": 2023, "years_active": 2}}, {"type": "Feature", "geometry": {"type": "Point", "coordinates": [3.3071885, 48.4124125]}, "properties": {"street_name": "LES PRES DE COURTILAT", "sales": 2, "sales_appt": 0, "sales_maison": 0, "median_price": 100250.0, "median_price_per_sqm": null, "turnover_score": 11.1, "turnover_rank": 10, "first_year": 2022, "last_year": 2022, "years_active": 1}}, {"type": "Feature", "geometry": {"type": "Point", "coordinates": [3.333606, 48.398401]}, "properties": {"street_name": "BRIOTTE", "sales": 1, "sales_appt": 0, "sales_maison": 0, "median_price": 216315.0, "median_price_per_sqm": null, "turnover_score": 5.6, "turnover_rank": 11, "first_year": 2022, "last_year": 2022, "years_active": 1}}, {"type": "Feature", "geometry": {"type": "Point", "coordinates": [3.290423, 48.404181]}, "properties": {"street_name": "LE CHAMP FETU", "sales": 1, "sales_appt": 0, "sales_maison": 0, "median_price": 80382.5, "median_price_per_sqm": null, "turnover_score": 5.6, "turnover_rank": 11, "first_year": 2023, "last_year": 2023, "years_active": 1}}, {"type": "Feature", "geometry": {"type": "Point", "coordinates": [3.309442, 48.413784]}, "properties": {"street_name": "LA COUR BRULEE", "sales": 1, "sales_appt": 0, "sales_maison": 0, "median_price": 133480.0, "median_price_per_sqm": null, "turnover_score": 5.6, "turnover_rank": 11, "first_year": 2022, "last_year": 2022, "years_active": 1}}, {"type": "Feature", "geometry": {"type": "Point", "coordinates": [3.314241, 48.387145]}, "properties": {"street_name": "CHARCON", "sales": 1, "sales_appt": 0, "sales_maison": 0, "median_price": 196500.0, "median_price_per_sqm": null, "turnover_score": 5.6, "turnover_rank": 11, "first_year": 2022, "last_year": 2022, "years_active": 1}}, {"type": "Feature", "geometry": {"type": "Point", "coordinates": [3.297358, 48.378791]}, "properties": {"street_name": "LE CHAPITRE DE VILLIERS", "sales": 1, "sales_appt": 0, "sales_maison": 0, "median_price": 216315.0, "median_price_per_sqm": null, "turnover_score": 5.6, "turnover_rank": 11, "first_year": 2022, "last_year": 2022, "years_active": 1}}, {"type": "Feature", "geometry": {"type": "Point", "coordinates": [3.30818, 48.378982]}, "properties": {"street_name": "POINTE DU BOIS GRAVIER", "sales": 1, "sales_appt": 0, "sales_maison": 0, "median_price": 50000.0, "median_price_per_sqm": null, "turnover_score": 5.6, "turnover_rank": 11, "first_year": 2025, "last_year": 2025, "years_active": 1}}, {"type": "Feature", "geometry": {"type": "Point", "coordinates": [3.324237, 48.378869]}, "properties": {"street_name": "LES GRANDS ECHARS", "sales": 1, "sales_appt": 0, "sales_maison": 0, "median_price": 216315.0, "median_price_per_sqm": null, "turnover_score": 5.6, "turnover_rank": 11, "first_year": 2022, "last_year": 2022, "years_active": 1}}, {"type": "Feature", "geometry": {"type": "Point", "coordinates": [3.30147, 48.379954]}, "properties": {"street_name": "MOCQUEPANIER", "sales": 1, "sales_appt": 0, "sales_maison": 0, "median_price": 50000.0, "median_price_per_sqm": null, "turnover_score": 5.6, "turnover_rank": 11, "first_year": 2025, "last_year": 2025, "years_active": 1}}, {"type": "Feature", "geometry": {"type": "Point", "coordinates": [3.288305, 48.396788]}, "properties": {"street_name": "LE PETIT BLEINE", "sales": 1, "sales_appt": 0, "sales_maison": 0, "median_price": 216315.0, "median_price_per_sqm": null, "turnover_score": 5.6, "turnover_rank": 11, "first_year": 2022, "last_year": 2022, "years_active": 1}}, {"type": "Feature", "geometry": {"type": "Point", "coordinates": [3.331266, 48.38251]}, "properties": {"street_name": "LES 36 ARPENTS", "sales": 1, "sales_appt": 0, "sales_maison": 0, "median_price": 216315.0, "median_price_per_sqm": null, "turnover_score": 5.6, "turnover_rank": 11, "first_year": 2022, "last_year": 2022, "years_active": 1}}, {"type": "Feature", "geometry": {"type": "Point", "coordinates": [3.336473, 48.420389]}, "properties": {"street_name": "LES BOIS DE VERNOY", "sales": 1, "sales_appt": 0, "sales_maison": 0, "median_price": 500.0, "median_price_per_sqm": null, "turnover_score": 5.6, "turnover_rank": 11, "first_year": 2021, "last_year": 2021, "years_active": 1}}, {"type": "Feature", "geometry": {"type": "Point", "coordinates": [3.313358, 48.41707]}, "properties": {"street_name": "LES CHAMPS BRONCEAUX", "sales": 1, "sales_appt": 0, "sales_maison": 0, "median_price": 133480.0, "median_price_per_sqm": null, "turnover_score": 5.6, "turnover_rank": 11, "first_year": 2022, "last_year": 2022, "years_active": 1}}]}