{"type": "FeatureCollection", "features": [{"type": "Feature", "geometry": {"type": "Point", "coordinates": [2.549169, 48.496908]}, "properties": {"street_name": "RUE DE LA TERRE AUX MOINES", "sales": 21, "sales_appt": 0, "sales_maison": 10, "median_price": 450000.0, "median_price_per_sqm": 2892.801609848485, "turnover_score": 100.0, "turnover_rank": 1, "first_year": 2021, "last_year": 2023, "years_active": 3}}, {"type": "Feature", "geometry": {"type": "Point", "coordinates": [2.544079, 48.494669]}, "properties": {"street_name": "RUE D ETRELLES", "sales": 20, "sales_appt": 0, "sales_maison": 11, "median_price": 414000.0, "median_price_per_sqm": 3171.4285714285716, "turnover_score": 95.2, "turnover_rank": 2, "first_year": 2021, "last_year": 2025, "years_active": 4}}, {"type": "Feature", "geometry": {"type": "Point", "coordinates": [2.547363, 48.496288]}, "properties": {"street_name": "SAINT SAUVEUR", "sales": 18, "sales_appt": 0, "sales_maison": 0, "median_price": 286000.0, "median_price_per_sqm": null, "turnover_score": 85.7, "turnover_rank": 3, "first_year": 2021, "last_year": 2025, "years_active": 5}}, {"type": "Feature", "geometry": {"type": "Point", "coordinates": [2.5330690000000002, 48.502948]}, "properties": {"street_name": "BRINVILLE", "sales": 14, "sales_appt": 0, "sales_maison": 0, "median_price": 395000.0, "median_price_per_sqm": null, "turnover_score": 66.7, "turnover_rank": 4, "first_year": 2021, "last_year": 2025, "years_active": 4}}, {"type": "Feature", "geometry": {"type": "Point", "coordinates": [2.529431, 48.504149]}, "properties": {"street_name": "RUE DES FONTAINES", "sales": 12, "sales_appt": 0, "sales_maison": 6, "median_price": 519000.0, "median_price_per_sqm": 3903.6, "turnover_score": 57.1, "turnover_rank": 5, "first_year": 2021, "last_year": 2025, "years_active": 4}}, {"type": "Feature", "geometry": {"type": "Point", "coordinates": [2.53263, 48.503557]}, "properties": {"street_name": "VC DU PRESSOIR", "sales": 10, "sales_appt": 0, "sales_maison": 2, "median_price": 321000.0, "median_price_per_sqm": 3007.0564516129034, "turnover_score": 47.6, "turnover_rank": 6, "first_year": 2022, "last_year": 2024, "years_active": 2}}, {"type": "Feature", "geometry": {"type": "Point", "coordinates": [2.529525, 48.503585]}, "properties": {"street_name": "LE COURTIL BAUDET", "sales": 9, "sales_appt": 0, "sales_maison": 0, "median_price": 385000.0, "median_price_per_sqm": null, "turnover_score": 42.9, "turnover_rank": 7, "first_year": 2021, "last_year": 2025, "years_active": 4}}, {"type": "Feature", "geometry": {"type": "Point", "coordinates": [2.530569, 48.505337]}, "properties": {"street_name": "RUE DU BOIS ROUGE", "sales": 9, "sales_appt": 0, "sales_maison": 8, "median_price": 380000.0, "median_price_per_sqm": 2297.337278106509, "turnover_score": 42.9, "turnover_rank": 7, "first_year": 2021, "last_year": 2024, "years_active": 3}}, {"type": "Feature", "geometry": {"type": "Point", "coordinates": [2.540035, 48.49547]}, "properties": {"street_name": "L ORME LEGER", "sales": 9, "sales_appt": 0, "sales_maison": 0, "median_price": 240000.0, "median_price_per_sqm": null, "turnover_score": 42.9, "turnover_rank": 7, "first_year": 2024, "last_year": 2025, "years_active": 2}}, {"type": "Feature", "geometry": {"type": "Point", "coordinates": [2.534624, 48.50542]}, "properties": {"street_name": "RUE DE MONTGERMONT", "sales": 9, "sales_appt": 3, "sales_maison": 5, "median_price": 359241.72, "median_price_per_sqm": 3094.7712418300653, "turnover_score": 42.9, "turnover_rank": 7, "first_year": 2021, "last_year": 2025, "years_active": 5}}, {"type": "Feature", "geometry": {"type": "Point", "coordinates": [2.5492625, 48.4920905]}, "properties": {"street_name": "LES DINES CHEVRES", "sales": 8, "sales_appt": 0, "sales_maison": 0, "median_price": 18000.0, "median_price_per_sqm": null, "turnover_score": 38.1, "turnover_rank": 8, "first_year": 2022, "last_year": 2025, "years_active": 4}}, {"type": "Feature", "geometry": {"type": "Point", "coordinates": [2.537888, 48.505643]}, "properties": {"street_name": "VC RES DE MONTGERMONT", "sales": 8, "sales_appt": 0, "sales_maison": 6, "median_price": 530830.0, "median_price_per_sqm": 3473.004761904762, "turnover_score": 38.1, "turnover_rank": 8, "first_year": 2021, "last_year": 2025, "years_active": 4}}, {"type": "Feature", "geometry": {"type": "Point", "coordinates": [2.532924, 48.503409]}, "properties": {"street_name": "RUE DES GRANGES", "sales": 7, "sales_appt": 0, "sales_maison": 4, "median_price": 450000.0, "median_price_per_sqm": 2933.348569157393, "turnover_score": 33.3, "turnover_rank": 9, "first_year": 2021, "last_year": 2025, "years_active": 2}}, {"type": "Feature", "geometry": {"type": "Point", "coordinates": [2.529177, 48.506116]}, "properties": {"street_name": "RUE DU COURTIL BAUDET", "sales": 7, "sales_appt": 0, "sales_maison": 4, "median_price": 369860.0, "median_price_per_sqm": 4038.100365704998, "turnover_score": 33.3, "turnover_rank": 9, "first_year": 2021, "last_year": 2023, "years_active": 3}}, {"type": "Feature", "geometry": {"type": "Point", "coordinates": [2.544072, 48.494165]}, "properties": {"street_name": "ETRELLES", "sales": 7, "sales_appt": 0, "sales_maison": 0, "median_price": 414000.0, "median_price_per_sqm": null, "turnover_score": 33.3, "turnover_rank": 9, "first_year": 2022, "last_year": 2024, "years_active": 3}}, {"type": "Feature", "geometry": {"type": "Point", "coordinates": [2.547974, 48.494924]}, "properties": {"street_name": "LE HAUT DES CORNEILLES", "sales": 6, "sales_appt": 0, "sales_maison": 0, "median_price": 277625.0, "median_price_per_sqm": null, "turnover_score": 28.6, "turnover_rank": 10, "first_year": 2021, "last_year": 2025, "years_active": 4}}, {"type": "Feature", "geometry": {"type": "Point", "coordinates": [2.558921, 48.497958]}, "properties": {"street_name": "LES GUIGNES CHEVRES", "sales": 6, "sales_appt": 0, "sales_maison": 0, "median_price": 306727.5, "median_price_per_sqm": null, "turnover_score": 28.6, "turnover_rank": 10, "first_year": 2022, "last_year": 2025, "years_active": 2}}, {"type": "Feature", "geometry": {"type": "Point", "coordinates": [2.548158, 48.501684]}, "properties": {"street_name": "LES CAILLOUX", "sales": 6, "sales_appt": 0, "sales_maison": 0, "median_price": 92200.0, "median_price_per_sqm": null, "turnover_score": 28.6, "turnover_rank": 10, "first_year": 2025, "last_year": 2025, "years_active": 1}}, {"type": "Feature", "geometry": {"type": "Point", "coordinates": [2.529496, 48.502289]}, "properties": {"street_name": "RUE DES CLOSEAUX", "sales": 5, "sales_appt": 0, "sales_maison": 3, "median_price": 680000.0, "median_price_per_sqm": 3777.777777777778, "turnover_score": 23.8, "turnover_rank": 11, "first_year": 2022, "last_year": 2025, "years_active": 2}}, {"type": "Feature", "geometry": {"type": "Point", "coordinates": [2.528283, 48.501678]}, "properties": {"street_name": "RUE DES VALLEES", "sales": 5, "sales_appt": 0, "sales_maison": 3, "median_price": 830000.0, "median_price_per_sqm": 2907.2847682119204, "turnover_score": 23.8, "turnover_rank": 11, "first_year": 2023, "last_year": 2025, "years_active": 2}}, {"type": "Feature", "geometry": {"type": "Point", "coordinates": [2.5280535, 48.501453999999995]}, "properties": {"street_name": "DERRIERE LES JARDINS", "sales": 4, "sales_appt": 0, "sales_maison": 0, "median_price": 830000.0, "median_price_per_sqm": null, "turnover_score": 19.0, "turnover_rank": 12, "first_year": 2023, "last_year": 2023, "years_active": 1}}, {"type": "Feature", "geometry": {"type": "Point", "coordinates": [2.5373390000000002, 48.5010945]}, "properties": {"street_name": "RUE DU CHEMIN VERT", "sales": 4, "sales_appt": 0, "sales_maison": 2, "median_price": 375750.0, "median_price_per_sqm": 3274.9731471535983, "turnover_score": 19.0, "turnover_rank": 12, "first_year": 2021, "last_year": 2023, "years_active": 2}}, {"type": "Feature", "geometry": {"type": "Point", "coordinates": [2.548059, 48.499256]}, "properties": {"street_name": "RUE DES BIBANCONS", "sales": 4, "sales_appt": 0, "sales_maison": 2, "median_price": 575000.0, "median_price_per_sqm": 2625.5707762557076, "turnover_score": 19.0, "turnover_rank": 12, "first_year": 2025, "last_year": 2025, "years_active": 1}}, {"type": "Feature", "geometry": {"type": "Point", "coordinates": [2.549409, 48.499812]}, "properties": {"street_name": "RUE DES AJONCS", "sales": 3, "sales_appt": 0, "sales_maison": 3, "median_price": 300000.0, "median_price_per_sqm": 3750.0, "turnover_score": 14.3, "turnover_rank": 13, "first_year": 2023, "last_year": 2025, "years_active": 2}}, {"type": "Feature", "geometry": {"type": "Point", "coordinates": [2.552853, 48.501756]}, "properties": {"street_name": "LES MOLIERES", "sales": 3, "sales_appt": 0, "sales_maison": 0, "median_price": 11178.0, "median_price_per_sqm": null, "turnover_score": 14.3, "turnover_rank": 13, "first_year": 2024, "last_year": 2025, "years_active": 2}}, {"type": "Feature", "geometry": {"type": "Point", "coordinates": [2.548635, 48.495029]}, "properties": {"street_name": "RUE DES MARNIERES", "sales": 3, "sales_appt": 0, "sales_maison": 0, "median_price": 370000.0, "median_price_per_sqm": null, "turnover_score": 14.3, "turnover_rank": 13, "first_year": 2022, "last_year": 2025, "years_active": 2}}, {"type": "Feature", "geometry": {"type": "Point", "coordinates": [2.550472, 48.500301]}, "properties": {"street_name": "RUE DES GRANDES HAIES", "sales": 3, "sales_appt": 0, "sales_maison": 2, "median_price": 390000.0, "median_price_per_sqm": 4354.545454545454, "turnover_score": 14.3, "turnover_rank": 13, "first_year": 2021, "last_year": 2023, "years_active": 2}}, {"type": "Feature", "geometry": {"type": "Point", "coordinates": [2.534655, 48.5059045]}, "properties": {"street_name": "CHATEAU VERT", "sales": 2, "sales_appt": 0, "sales_maison": 0, "median_price": 765650.0, "median_price_per_sqm": null, "turnover_score": 9.5, "turnover_rank": 14, "first_year": 2023, "last_year": 2025, "years_active": 2}}, {"type": "Feature", "geometry": {"type": "Point", "coordinates": [2.544045, 48.495694]}, "properties": {"street_name": "IMP D ETRELLES", "sales": 2, "sales_appt": 0, "sales_maison": 1, "median_price": 731850.0, "median_price_per_sqm": 5461.567164179104, "turnover_score": 9.5, "turnover_rank": 14, "first_year": 2023, "last_year": 2023, "years_active": 1}}, {"type": "Feature", "geometry": {"type": "Point", "coordinates": [2.5507299999999997, 48.494937]}, "properties": {"street_name": "RUE DES DIMES CHEVRES", "sales": 2, "sales_appt": 0, "sales_maison": 1, "median_price": 90000.0, "median_price_per_sqm": 2250.0, "turnover_score": 9.5, "turnover_rank": 14, "first_year": 2023, "last_year": 2023, "years_active": 1}}, {"type": "Feature", "geometry": {"type": "Point", "coordinates": [2.5462605, 48.5005735]}, "properties": {"street_name": "LES BIBANCONS", "sales": 2, "sales_appt": 0, "sales_maison": 0, "median_price": 92200.0, "median_price_per_sqm": null, "turnover_score": 9.5, "turnover_rank": 14, "first_year": 2025, "last_year": 2025, "years_active": 1}}, {"type": "Feature", "geometry": {"type": "Point", "coordinates": [2.545357, 48.497892]}, "properties": {"street_name": "RUE DE LA BRETONNIERE", "sales": 2, "sales_appt": 0, "sales_maison": 2, "median_price": 567000.0, "median_price_per_sqm": 2362.5, "turnover_score": 9.5, "turnover_rank": 14, "first_year": 2023, "last_year": 2023, "years_active": 1}}, {"type": "Feature", "geometry": {"type": "Point", "coordinates": [2.5488535, 48.4954295]}, "properties": {"street_name": "RUE DE LA FONTAINE ST MARTIN", "sales": 2, "sales_appt": 0, "sales_maison": 0, "median_price": 100.0, "median_price_per_sqm": null, "turnover_score": 9.5, "turnover_rank": 14, "first_year": 2023, "last_year": 2023, "years_active": 1}}, {"type": "Feature", "geometry": {"type": "Point", "coordinates": [2.5220615000000004, 48.5041765]}, "properties": {"street_name": "LES BUTTES", "sales": 2, "sales_appt": 0, "sales_maison": 0, "median_price": 10000.0, "median_price_per_sqm": null, "turnover_score": 9.5, "turnover_rank": 14, "first_year": 2022, "last_year": 2025, "years_active": 2}}, {"type": "Feature", "geometry": {"type": "Point", "coordinates": [2.535649, 48.504101]}, "properties": {"street_name": "CHE RURAL PLANCHE COUTANT", "sales": 1, "sales_appt": 0, "sales_maison": 1, "median_price": 475238.0, "median_price_per_sqm": 3494.3970588235293, "turnover_score": 4.8, "turnover_rank": 15, "first_year": 2021, "last_year": 2021, "years_active": 1}}, {"type": "Feature", "geometry": {"type": "Point", "coordinates": [2.527378, 48.502471]}, "properties": {"street_name": "RUE DE LA MARE A CHAUVET", "sales": 1, "sales_appt": 0, "sales_maison": 0, "median_price": 18500.0, "median_price_per_sqm": null, "turnover_score": 4.8, "turnover_rank": 15, "first_year": 2021, "last_year": 2021, "years_active": 1}}, {"type": "Feature", "geometry": {"type": "Point", "coordinates": [2.511226, 48.487621]}, "properties": {"street_name": "LES FONTAINES NORD", "sales": 1, "sales_appt": 0, "sales_maison": 0, "median_price": 800.84, "median_price_per_sqm": null, "turnover_score": 4.8, "turnover_rank": 15, "first_year": 2021, "last_year": 2021, "years_active": 1}}, {"type": "Feature", "geometry": {"type": "Point", "coordinates": [2.545746, 48.493143]}, "properties": {"street_name": "LES CORNEILLES", "sales": 1, "sales_appt": 0, "sales_maison": 0, "median_price": 22500.0, "median_price_per_sqm": null, "turnover_score": 4.8, "turnover_rank": 15, "first_year": 2025, "last_year": 2025, "years_active": 1}}, {"type": "Feature", "geometry": {"type": "Point", "coordinates": [2.545742, 48.497427]}, "properties": {"street_name": "RUE DE L EGLISE", "sales": 1, "sales_appt": 0, "sales_maison": 1, "median_price": 430000.0, "median_price_per_sqm": 4479.166666666667, "turnover_score": 4.8, "turnover_rank": 15, "first_year": 2021, "last_year": 2021, "years_active": 1}}, {"type": "Feature", "geometry": {"type": "Point", "coordinates": [2.53583, 48.498032]}, "properties": {"street_name": "LES TERRES MENUES", "sales": 1, "sales_appt": 0, "sales_maison": 0, "median_price": 515.0, "median_price_per_sqm": null, "turnover_score": 4.8, "turnover_rank": 15, "first_year": 2024, "last_year": 2024, "years_active": 1}}, {"type": "Feature", "geometry": {"type": "Point", "coordinates": [2.534061, 48.502873]}, "properties": {"street_name": "SEN DES VIGNES", "sales": 1, "sales_appt": 0, "sales_maison": 1, "median_price": 230000.0, "median_price_per_sqm": 1464.968152866242, "turnover_score": 4.8, "turnover_rank": 15, "first_year": 2021, "last_year": 2021, "years_active": 1}}]}