{"type": "FeatureCollection", "features": [{"type": "Feature", "geometry": {"type": "Polygon", "coordinates": [[[2.872059, 48.943827], [2.87142, 48.943267], [2.870777, 48.942766], [2.870063, 48.942149], [2.869201, 48.941439], [2.868473, 48.940908], [2.866878, 48.939681], [2.866041, 48.939019], [2.865199, 48.938403], [2.864337, 48.937784], [2.863243, 48.937067], [2.86196, 48.936182], [2.861202, 48.935558], [2.86021, 48.934781], [2.859453, 48.934036], [2.858765, 48.933316], [2.858244, 48.932716], [2.858025, 48.932318], [2.857263, 48.931314], [2.856714, 48.930723], [2.856036, 48.929973], [2.855706, 48.92952], [2.855254, 48.928966], [2.854541, 48.928071], [2.854275, 48.927713], [2.853854, 48.927083], [2.853712, 48.926907], [2.853067, 48.926214], [2.852693, 48.925868], [2.851882, 48.924992], [2.851552, 48.9246], [2.851394, 48.924322], [2.851039, 48.924433], [2.849675, 48.9248], [2.848899, 48.925081], [2.845461, 48.926268], [2.842698, 48.927207], [2.842684, 48.927236], [2.839914, 48.928126], [2.840025, 48.928364], [2.839582, 48.928531], [2.836933, 48.929557], [2.8362, 48.929802], [2.835556, 48.929979], [2.833734, 48.930744], [2.833637, 48.930804], [2.832809, 48.931535], [2.830144, 48.933712], [2.83114, 48.934343], [2.83172, 48.934728], [2.832251, 48.935102], [2.83278, 48.935501], [2.833172, 48.935835], [2.832492, 48.936325], [2.831572, 48.936962], [2.831236, 48.937216], [2.830105, 48.938213], [2.829718, 48.938547], [2.829318, 48.938981], [2.829027, 48.939334], [2.828701, 48.939665], [2.828206, 48.940047], [2.828004, 48.940281], [2.827615, 48.940861], [2.827323, 48.941376], [2.827046, 48.941909], [2.826807, 48.9424], [2.826648, 48.942785], [2.826451, 48.943343], [2.826174, 48.944352], [2.826108, 48.944795], [2.826115, 48.945135], [2.826119, 48.945242], [2.826311, 48.945279], [2.827566, 48.945567], [2.830039, 48.94616], [2.831072, 48.946403], [2.831716, 48.946678], [2.834126, 48.947692], [2.834181, 48.947747], [2.834757, 48.948064], [2.834944, 48.948127], [2.836442, 48.948448], [2.837297, 48.948656], [2.837743, 48.948791], [2.838673, 48.949187], [2.839977, 48.949769], [2.840248, 48.949865], [2.841014, 48.9502], [2.844083, 48.95149], [2.844432, 48.951644], [2.844955, 48.951653], [2.845954, 48.951725], [2.846527, 48.951736], [2.847636, 48.951661], [2.847957, 48.951674], [2.848416, 48.951731], [2.848855, 48.951741], [2.849233, 48.951723], [2.84965, 48.951728], [2.84989, 48.951768], [2.849965, 48.951833], [2.850281, 48.95195], [2.850943, 48.95208], [2.852022, 48.952173], [2.854114, 48.952583], [2.854773, 48.952724], [2.856019, 48.953016], [2.856263, 48.953064], [2.856532, 48.953162], [2.856806, 48.953208], [2.85702, 48.953281], [2.858012, 48.953536], [2.858473, 48.953639], [2.858689, 48.953661], [2.860354, 48.954068], [2.860886, 48.954231], [2.861715, 48.954545], [2.862359, 48.954804], [2.862487, 48.954876], [2.862824, 48.954984], [2.86322, 48.95515], [2.864514, 48.955566], [2.864571, 48.955751], [2.86674, 48.955506], [2.867217, 48.955579], [2.867579, 48.955567], [2.867869, 48.955582], [2.868911, 48.955731], [2.869668, 48.955821], [2.871515, 48.956386], [2.872453, 48.956893], [2.872536, 48.956891], [2.872697, 48.95626], [2.872814, 48.955857], [2.872805, 48.955445], [2.872729, 48.955092], [2.872608, 48.954898], [2.872031, 48.954547], [2.872273, 48.953849], [2.872373, 48.953661], [2.87245, 48.953613], [2.872875, 48.953546], [2.873747, 48.953475], [2.873779, 48.953421], [2.874576, 48.953473], [2.874721, 48.95301], [2.874892, 48.952653], [2.874925, 48.952464], [2.875016, 48.952325], [2.875231, 48.952136], [2.875384, 48.95196], [2.875731, 48.951735], [2.876266, 48.951484], [2.876548, 48.951061], [2.876653, 48.950969], [2.8769, 48.950526], [2.877095, 48.950036], [2.877109, 48.949637], [2.877069, 48.949444], [2.876962, 48.949254], [2.876763, 48.949009], [2.876549, 48.948796], [2.876303, 48.948498], [2.875593, 48.947771], [2.87511, 48.947352], [2.874674, 48.946947], [2.874369, 48.946614], [2.874072, 48.946242], [2.873856, 48.945932], [2.873501, 48.945492], [2.873188, 48.94507], [2.872834, 48.944648], [2.872059, 48.943827]]]}, "properties": {"code_iris": "775130000", "nom_iris": "Villenoy (commune entière)", "type_iris": "Z", "lat": 48.9406, "lng": 2.8516, "dvf_sales_total": 1241, "dvf_sales_appt": 0, "dvf_sales_maison": 0, "dvf_median_price": 292000.0, "dvf_median_ppsqm": 3729.7297297297296, "dvf_by_year": "[{\"year\": 2021, \"sales\": 226, \"median_price\": 191700.0}, {\"year\": 2022, \"sales\": 231, \"median_price\": 230000.0}, {\"year\": 2023, \"sales\": 130, \"median_price\": 207000.0}, {\"year\": 2024, \"sales\": 151, \"median_price\": 170000.0}, {\"year\": 2025, \"sales\": 503, \"median_price\": 12885505.94}]", "population": 5127, "n_log": null, "n_rp": null, "pct_proprio": null, "pct_hlm": null, "pct_appart": null, "pct_cadres": null, "pct_bac5p": null, "pct_etrangers": null, "pct_0_14": null, "pct_65p": null, "bpe_total": null, "bpe_commerces": null, "bpe_enseignement": null, "bpe_sante": null, "dpe": null, "attractivity_score": null, "rank_attractivity_score": null, "rank_total_attractivity_score": 1, "commune_avg": null, "is_stub": true}}]}