{"type": "FeatureCollection", "features": [{"type": "Feature", "geometry": {"type": "Polygon", "coordinates": [[[2.73074, 48.323403], [2.730338, 48.323422], [2.729609, 48.323424], [2.728854, 48.323354], [2.726911, 48.323019], [2.725527, 48.322735], [2.725343, 48.322664], [2.725017, 48.322378], [2.724691, 48.321966], [2.724338, 48.321661], [2.723778, 48.321507], [2.723095, 48.321269], [2.721366, 48.320718], [2.720339, 48.320451], [2.719449, 48.320274], [2.717396, 48.319849], [2.716802, 48.319762], [2.716289, 48.319763], [2.715616, 48.319819], [2.714294, 48.31977], [2.713648, 48.319772], [2.713459, 48.31979], [2.713163, 48.31972], [2.712544, 48.319901], [2.712355, 48.320063], [2.712034, 48.32019], [2.711388, 48.320372], [2.710391, 48.320555], [2.709961, 48.320611], [2.709664, 48.320612], [2.708799, 48.320542], [2.70818, 48.32058], [2.707534, 48.320708], [2.706941, 48.320728], [2.706293, 48.32055], [2.705995, 48.320443], [2.705617, 48.320354], [2.704997, 48.320266], [2.704079, 48.320179], [2.703001, 48.320183], [2.702542, 48.320167], [2.701247, 48.320009], [2.700927, 48.319916], [2.699526, 48.320061], [2.699248, 48.320066], [2.699248, 48.319977], [2.698899, 48.319984], [2.698579, 48.319842], [2.698441, 48.319748], [2.697939, 48.319504], [2.697695, 48.319876], [2.697139, 48.319685], [2.696633, 48.319847], [2.696355, 48.320071], [2.69602, 48.320292], [2.695652, 48.320497], [2.695143, 48.320754], [2.693774, 48.321473], [2.693217, 48.321749], [2.692364, 48.322124], [2.69182, 48.322336], [2.690991, 48.322627], [2.68893, 48.323264], [2.688104, 48.323561], [2.687578, 48.323772], [2.686909, 48.324189], [2.686678, 48.324613], [2.68638, 48.324789], [2.685773, 48.325115], [2.683655, 48.326175], [2.683122, 48.326417], [2.682391, 48.326804], [2.679801, 48.328239], [2.678891, 48.328663], [2.678685, 48.328769], [2.677865, 48.329316], [2.677337, 48.329405], [2.676838, 48.329573], [2.67675, 48.329637], [2.676144, 48.329968], [2.675825, 48.330293], [2.674997, 48.330777], [2.674805, 48.330874], [2.674288, 48.331078], [2.672921, 48.331604], [2.672611, 48.331689], [2.67209, 48.331945], [2.671641, 48.332118], [2.671155, 48.332261], [2.670778, 48.332352], [2.670797, 48.332935], [2.670779, 48.3332], [2.670687, 48.333297], [2.67038, 48.333739], [2.6701, 48.3341], [2.669898, 48.334274], [2.669732, 48.334461], [2.66895, 48.33546], [2.668467, 48.336062], [2.667998, 48.336575], [2.667832, 48.3368], [2.667334, 48.337269], [2.666735, 48.338046], [2.666396, 48.338586], [2.666236, 48.338784], [2.666048, 48.339484], [2.66578, 48.340396], [2.665613, 48.341004], [2.66601, 48.34142], [2.667118, 48.342426], [2.66765, 48.342524], [2.667865, 48.342608], [2.667948, 48.342838], [2.667942, 48.343297], [2.668071, 48.343667], [2.668463, 48.343625], [2.668591, 48.343793], [2.66952, 48.345307], [2.669649, 48.345528], [2.670308, 48.345251], [2.671148, 48.344994], [2.671457, 48.34494], [2.67196, 48.34492], [2.673404, 48.344904], [2.673724, 48.344886], [2.674411, 48.344897], [2.675178, 48.344988], [2.676361, 48.34525], [2.676454, 48.345304], [2.677105, 48.345327], [2.677584, 48.345244], [2.677934, 48.345245], [2.678919, 48.345311], [2.679763, 48.345394], [2.680456, 48.345515], [2.681593, 48.345506], [2.681834, 48.345472], [2.682235, 48.34547], [2.682468, 48.345512], [2.683255, 48.345573], [2.683448, 48.345552], [2.684413, 48.345629], [2.685036, 48.345625], [2.68604, 48.345647], [2.686952, 48.345717], [2.687152, 48.34569], [2.687762, 48.345731], [2.688149, 48.345725], [2.688982, 48.345753], [2.689472, 48.345784], [2.690096, 48.345847], [2.690588, 48.345945], [2.691006, 48.345952], [2.691808, 48.34599], [2.693589, 48.346035], [2.694382, 48.34602], [2.694661, 48.346], [2.694919, 48.346188], [2.695128, 48.346205], [2.695997, 48.346231], [2.696796, 48.346974], [2.697003, 48.347112], [2.697421, 48.347458], [2.698535, 48.347805], [2.698765, 48.347545], [2.698876, 48.347458], [2.699047, 48.347456], [2.699597, 48.34738], [2.699887, 48.3474], [2.700392, 48.347608], [2.700753, 48.347708], [2.701573, 48.347822], [2.702186, 48.347606], [2.702049, 48.347004], [2.702132, 48.346624], [2.702346, 48.346588], [2.702642, 48.346377], [2.703177, 48.346254], [2.704263, 48.346183], [2.704825, 48.346174], [2.705002, 48.346273], [2.706194, 48.346209], [2.706424, 48.346072], [2.706673, 48.346195], [2.70718, 48.346516], [2.707466, 48.346648], [2.706831, 48.346951], [2.707053, 48.347108], [2.707444, 48.346986], [2.70771, 48.34719], [2.708236, 48.346935], [2.709646, 48.348082], [2.709724, 48.348161], [2.709319, 48.348385], [2.709558, 48.348562], [2.709856, 48.348389], [2.71021, 48.348884], [2.71086, 48.349753], [2.711379, 48.35054], [2.711929, 48.351305], [2.712413, 48.352044], [2.712454, 48.352077], [2.712502, 48.352412], [2.71245, 48.352704], [2.711826, 48.352903], [2.711832, 48.353334], [2.712461, 48.353274], [2.712832, 48.353322], [2.713287, 48.353428], [2.714506, 48.353351], [2.715016, 48.353299], [2.716039, 48.353174], [2.716042, 48.35363], [2.717039, 48.353488], [2.71767, 48.353379], [2.718285, 48.353237], [2.718338, 48.353206], [2.718931, 48.353108], [2.720239, 48.352877], [2.720211, 48.35189], [2.720165, 48.349885], [2.721481, 48.348697], [2.721847, 48.347307], [2.721966, 48.347118], [2.721911, 48.347007], [2.722657, 48.344446], [2.722884, 48.343633], [2.723184, 48.342614], [2.723202, 48.342507], [2.723453, 48.342497], [2.723593, 48.341403], [2.723614, 48.341396], [2.723756, 48.340053], [2.724007, 48.340085], [2.723982, 48.339992], [2.723714, 48.339851], [2.722906, 48.339481], [2.722442, 48.339303], [2.722781, 48.339105], [2.723037, 48.338801], [2.723356, 48.33836], [2.723508, 48.33818], [2.723749, 48.337807], [2.724147, 48.337068], [2.724432, 48.33668], [2.724764, 48.33618], [2.725248, 48.335305], [2.725492, 48.334827], [2.72552, 48.334669], [2.725342, 48.334684], [2.724876, 48.334658], [2.72476, 48.334577], [2.724748, 48.334475], [2.725031, 48.333729], [2.725079, 48.333559], [2.725255, 48.333174], [2.725641, 48.332397], [2.72591, 48.331933], [2.726377, 48.331003], [2.726643, 48.330373], [2.726751, 48.330169], [2.726908, 48.329723], [2.726994, 48.329393], [2.727089, 48.32921], [2.727394, 48.328839], [2.727683, 48.328361], [2.728043, 48.327793], [2.728042, 48.327747], [2.728295, 48.327475], [2.728486, 48.327361], [2.728531, 48.327228], [2.729329, 48.326097], [2.729265, 48.326113], [2.729897, 48.325241], [2.73074, 48.323403]]]}, "properties": {"code_iris": "770480000", "nom_iris": "Bourron-Marlotte (commune entière)", "type_iris": "Z", "lat": 48.3366, "lng": 2.6982, "dvf_sales_total": 920, "dvf_sales_appt": 0, "dvf_sales_maison": 0, "dvf_median_price": 300000.0, "dvf_median_ppsqm": 3800.0, "dvf_by_year": "[{\"year\": 2021, \"sales\": 171, \"median_price\": 364000.0}, {\"year\": 2022, \"sales\": 226, \"median_price\": 340000.0}, {\"year\": 2023, \"sales\": 174, \"median_price\": 290000.0}, {\"year\": 2024, \"sales\": 168, \"median_price\": 242500.0}, {\"year\": 2025, \"sales\": 181, \"median_price\": 286000.0}]", "population": 2774, "n_log": null, "n_rp": null, "pct_proprio": null, "pct_hlm": null, "pct_appart": null, "pct_cadres": null, "pct_bac5p": null, "pct_etrangers": null, "pct_0_14": null, "pct_65p": null, "bpe_total": null, "bpe_commerces": null, "bpe_enseignement": null, "bpe_sante": null, "dpe": null, "attractivity_score": null, "rank_attractivity_score": null, "rank_total_attractivity_score": 1, "commune_avg": null, "is_stub": true}}]}