{"type": "FeatureCollection", "features": [{"type": "Feature", "geometry": {"type": "Point", "coordinates": [2.711769, 48.657135]}, "properties": {"id_parcelle": "774570000D0642", "address": "5000 RUE DU 8 MAI 1945", "sales": 16, "median_price": 135500.0, "median_price_per_sqm": 2687.2340425531916, "median_rooms": 0.0, "first_sale": "2021-02-26", "last_sale": "2025-07-31"}}, {"type": "Feature", "geometry": {"type": "Point", "coordinates": [2.723592, 48.656051]}, "properties": {"id_parcelle": "774570000C0711", "address": "16 RUE DE MONT", "sales": 8, "median_price": 334000.0, "median_price_per_sqm": 2629.9212598425197, "median_rooms": 2.5, "first_sale": "2025-06-16", "last_sale": "2025-06-16"}}, {"type": "Feature", "geometry": {"type": "Point", "coordinates": [2.714338, 48.656615]}, "properties": {"id_parcelle": "774570000D0598", "address": "6 RUE DE BARNEAU", "sales": 8, "median_price": 204000.0, "median_price_per_sqm": 1785.7142857142858, "median_rooms": 0.0, "first_sale": "2021-01-29", "last_sale": "2024-11-21"}}, {"type": "Feature", "geometry": {"type": "Point", "coordinates": [2.715, 48.656718]}, "properties": {"id_parcelle": "774570000D0668", "address": "11 RUE DE BARNEAU", "sales": 7, "median_price": 191426.17, "median_price_per_sqm": 2774.29231884058, "median_rooms": 0.0, "first_sale": "2021-05-26", "last_sale": "2025-05-26"}}, {"type": "Feature", "geometry": {"type": "Point", "coordinates": [2.71122, 48.657592]}, "properties": {"id_parcelle": "77457000ZH0190", "address": "1 GRANDE RUE", "sales": 6, "median_price": 237000.0, "median_price_per_sqm": 2788.235294117647, "median_rooms": 0.0, "first_sale": "2025-12-23", "last_sale": "2025-12-23"}}, {"type": "Feature", "geometry": {"type": "Point", "coordinates": [2.719854, 48.657496]}, "properties": {"id_parcelle": "774570000C1534", "address": "2 RLE DU GRAND PERRE", "sales": 6, "median_price": 350000.0, "median_price_per_sqm": 4166.666666666667, "median_rooms": 0.0, "first_sale": "2022-09-07", "last_sale": "2022-09-07"}}, {"type": "Feature", "geometry": {"type": "Point", "coordinates": [2.714542, 48.656256]}, "properties": {"id_parcelle": "774570000D0772", "address": "14 RUE DE BARNEAU", "sales": 5, "median_price": 148000.0, "median_price_per_sqm": 3333.3333333333335, "median_rooms": 1.0, "first_sale": "2023-09-26", "last_sale": "2025-07-01"}}, {"type": "Feature", "geometry": {"type": "Point", "coordinates": [2.714546, 48.656173]}, "properties": {"id_parcelle": "774570000D0779", "address": "RUE DE BARNEAU", "sales": 4, "median_price": 166500.0, "median_price_per_sqm": null, "median_rooms": null, "first_sale": "2023-02-24", "last_sale": "2025-07-01"}}, {"type": "Feature", "geometry": {"type": "Point", "coordinates": [2.713837, 48.652276]}, "properties": {"id_parcelle": "774570000C1289", "address": "37 RUE DE BARNEAU", "sales": 4, "median_price": 280000.0, "median_price_per_sqm": 2947.3684210526317, "median_rooms": 2.0, "first_sale": "2024-12-19", "last_sale": "2024-12-19"}}, {"type": "Feature", "geometry": {"type": "Point", "coordinates": [2.726003, 48.654844]}, "properties": {"id_parcelle": "774570000B1372", "address": "89 CHE DE MONT", "sales": 4, "median_price": 265500.0, "median_price_per_sqm": 5689.285714285714, "median_rooms": 2.5, "first_sale": "2022-09-20", "last_sale": "2022-09-20"}}, {"type": "Feature", "geometry": {"type": "Point", "coordinates": [2.715069, 48.658064]}, "properties": {"id_parcelle": "774570000D0528", "address": "23 RUE GRANDE", "sales": 4, "median_price": 145000.0, "median_price_per_sqm": 3487.1794871794873, "median_rooms": 2.0, "first_sale": "2021-04-19", "last_sale": "2025-12-30"}}, {"type": "Feature", "geometry": {"type": "Point", "coordinates": [2.714976, 48.65651]}, "properties": {"id_parcelle": "774570000D0669", "address": "15 RUE DE BARNEAU", "sales": 4, "median_price": 196000.0, "median_price_per_sqm": 2618.4210526315787, "median_rooms": 1.5, "first_sale": "2021-11-30", "last_sale": "2024-06-25"}}, {"type": "Feature", "geometry": {"type": "Point", "coordinates": [2.714037, 48.65338]}, "properties": {"id_parcelle": "774570000C1267", "address": "27 RUE DE BARNEAU", "sales": 4, "median_price": 384514.78, "median_price_per_sqm": 2827.3145588235293, "median_rooms": 5.0, "first_sale": "2021-01-29", "last_sale": "2022-05-13"}}, {"type": "Feature", "geometry": {"type": "Point", "coordinates": [2.710585, 48.654383]}, "properties": {"id_parcelle": "774570000C1697", "address": "15 RUE DU HAUT DES PLANTES", "sales": 4, "median_price": 217500.0, "median_price_per_sqm": 3398.4375, "median_rooms": 1.0, "first_sale": "2023-06-28", "last_sale": "2023-07-21"}}, {"type": "Feature", "geometry": {"type": "Point", "coordinates": [2.713618, 48.653574]}, "properties": {"id_parcelle": "774570000C1135", "address": "27 RUE DE BARNEAU", "sales": 4, "median_price": 215760.0, "median_price_per_sqm": 2876.8, "median_rooms": 1.5, "first_sale": "2023-09-06", "last_sale": "2023-09-06"}}, {"type": "Feature", "geometry": {"type": "Point", "coordinates": [2.723767, 48.65902]}, "properties": {"id_parcelle": "77457000ZI0046", "address": "23 RUE DES ETARDS", "sales": 4, "median_price": 600000.0, "median_price_per_sqm": 3108.8082901554403, "median_rooms": 4.0, "first_sale": "2022-12-16", "last_sale": "2022-12-16"}}, {"type": "Feature", "geometry": {"type": "Point", "coordinates": [2.71125, 48.65534]}, "properties": {"id_parcelle": "77457000ZH0124", "address": "13 RUE DU 8 MAI 1945", "sales": 4, "median_price": 528000.0, "median_price_per_sqm": 7542.857142857143, "median_rooms": 1.5, "first_sale": "2023-07-26", "last_sale": "2023-07-26"}}, {"type": "Feature", "geometry": {"type": "Point", "coordinates": [2.714378, 48.656465]}, "properties": {"id_parcelle": "774570000D0335", "address": "SOLERS", "sales": 3, "median_price": 135000.0, "median_price_per_sqm": null, "median_rooms": null, "first_sale": "2021-09-24", "last_sale": "2023-07-06"}}, {"type": "Feature", "geometry": {"type": "Point", "coordinates": [2.718115, 48.658946]}, "properties": {"id_parcelle": "774570000D0170", "address": "53 GRANDE RUE", "sales": 3, "median_price": 369000.0, "median_price_per_sqm": 4804.391371340524, "median_rooms": 2.0, "first_sale": "2025-11-28", "last_sale": "2025-11-28"}}, {"type": "Feature", "geometry": {"type": "Point", "coordinates": [2.708725, 48.654264]}, "properties": {"id_parcelle": "774570000C1674", "address": "25 CHE DU HAUT DES PLANTES", "sales": 3, "median_price": 159500.0, "median_price_per_sqm": 2155.4054054054054, "median_rooms": 0.0, "first_sale": "2022-09-27", "last_sale": "2022-09-27"}}, {"type": "Feature", "geometry": {"type": "Point", "coordinates": [2.711773, 48.654104]}, "properties": {"id_parcelle": "774570000C1569", "address": "11 RUE DU HAUT DES PLANTES", "sales": 3, "median_price": 280000.0, "median_price_per_sqm": 3085.714285714286, "median_rooms": 4.0, "first_sale": "2023-09-29", "last_sale": "2025-11-05"}}, {"type": "Feature", "geometry": {"type": "Point", "coordinates": [2.710634, 48.658092]}, "properties": {"id_parcelle": "77457000ZH0201", "address": "1 RUE GRANDE", "sales": 3, "median_price": 160000.0, "median_price_per_sqm": null, "median_rooms": null, "first_sale": "2021-01-06", "last_sale": "2023-07-06"}}, {"type": "Feature", "geometry": {"type": "Point", "coordinates": [2.710516, 48.658249]}, "properties": {"id_parcelle": "77457000ZH0199", "address": "1 LA BOUGUENELLE", "sales": 3, "median_price": 160000.0, "median_price_per_sqm": 3300.0, "median_rooms": 4.0, "first_sale": "2021-01-06", "last_sale": "2023-07-06"}}, {"type": "Feature", "geometry": {"type": "Point", "coordinates": [2.710078, 48.652776]}, "properties": {"id_parcelle": "774570000C1529", "address": "26 CHE DU BAS DES PLANTES", "sales": 3, "median_price": 272000.0, "median_price_per_sqm": 2266.6666666666665, "median_rooms": 4.0, "first_sale": "2024-07-05", "last_sale": "2024-07-05"}}, {"type": "Feature", "geometry": {"type": "Point", "coordinates": [2.724678, 48.656532]}, "properties": {"id_parcelle": "774570000B0107", "address": "LA FOSSE SECRETAIN", "sales": 2, "median_price": 62750.0, "median_price_per_sqm": null, "median_rooms": null, "first_sale": "2021-04-06", "last_sale": "2021-11-05"}}, {"type": "Feature", "geometry": {"type": "Point", "coordinates": [2.728841, 48.654403]}, "properties": {"id_parcelle": "774570000B1418", "address": "5001 LUMEAU", "sales": 2, "median_price": 120000.0, "median_price_per_sqm": 1000.0, "median_rooms": 4.0, "first_sale": "2021-10-14", "last_sale": "2021-10-14"}}, {"type": "Feature", "geometry": {"type": "Point", "coordinates": [2.726414, 48.653265]}, "properties": {"id_parcelle": "774570000B1371", "address": "148 RUE DE MONT", "sales": 2, "median_price": 155000.0, "median_price_per_sqm": 2818.181818181818, "median_rooms": 1.5, "first_sale": "2025-01-06", "last_sale": "2025-01-06"}}, {"type": "Feature", "geometry": {"type": "Point", "coordinates": [2.724943, 48.655994]}, "properties": {"id_parcelle": "774570000B1229", "address": "5005 CHE DE MONT", "sales": 2, "median_price": 300000.0, "median_price_per_sqm": 3260.8695652173915, "median_rooms": 2.5, "first_sale": "2023-07-19", "last_sale": "2023-07-19"}}, {"type": "Feature", "geometry": {"type": "Point", "coordinates": [2.714069, 48.654145]}, "properties": {"id_parcelle": "774570000C1276", "address": "21 RUE DE BARNEAU", "sales": 2, "median_price": 329275.0, "median_price_per_sqm": 3658.6111111111113, "median_rooms": 5.0, "first_sale": "2021-06-01", "last_sale": "2025-11-17"}}, {"type": "Feature", "geometry": {"type": "Point", "coordinates": [2.721059, 48.657066]}, "properties": {"id_parcelle": "774570000C1471", "address": "4 RUE DU MARIA VALLA", "sales": 2, "median_price": 407000.0, "median_price_per_sqm": 2273.7430167597763, "median_rooms": 6.0, "first_sale": "2021-07-12", "last_sale": "2021-07-12"}}, {"type": "Feature", "geometry": {"type": "Point", "coordinates": [2.711044, 48.652356]}, "properties": {"id_parcelle": "774570000C1470", "address": "18 CHE DU BAS DES PLANTES", "sales": 2, "median_price": 265000.0, "median_price_per_sqm": 2387.387387387387, "median_rooms": 6.0, "first_sale": "2025-09-23", "last_sale": "2025-09-23"}}, {"type": "Feature", "geometry": {"type": "Point", "coordinates": [2.724424, 48.655416]}, "properties": {"id_parcelle": "774570000C1418", "address": "22 CHE DE MONT", "sales": 2, "median_price": 445000.0, "median_price_per_sqm": 3973.214285714286, "median_rooms": 4.0, "first_sale": "2022-06-22", "last_sale": "2022-06-22"}}, {"type": "Feature", "geometry": {"type": "Point", "coordinates": [2.723697, 48.655944]}, "properties": {"id_parcelle": "774570000C0712", "address": "LES MARNIERES", "sales": 2, "median_price": 334000.0, "median_price_per_sqm": null, "median_rooms": null, "first_sale": "2025-06-16", "last_sale": "2025-06-16"}}, {"type": "Feature", "geometry": {"type": "Point", "coordinates": [2.723652, 48.656284]}, "properties": {"id_parcelle": "774570000C0708", "address": "LES MARNIERES", "sales": 2, "median_price": 334000.0, "median_price_per_sqm": null, "median_rooms": null, "first_sale": "2025-06-16", "last_sale": "2025-06-16"}}, {"type": "Feature", "geometry": {"type": "Point", "coordinates": [2.714745, 48.653386]}, "properties": {"id_parcelle": "774570000C0266", "address": "LE HAUT TANNERET", "sales": 2, "median_price": 384514.78, "median_price_per_sqm": null, "median_rooms": null, "first_sale": "2021-01-29", "last_sale": "2022-05-13"}}, {"type": "Feature", "geometry": {"type": "Point", "coordinates": [2.723405, 48.656009]}, "properties": {"id_parcelle": "774570000C0706", "address": "LES MARNIERES", "sales": 2, "median_price": 334000.0, "median_price_per_sqm": null, "median_rooms": null, "first_sale": "2025-06-16", "last_sale": "2025-06-16"}}, {"type": "Feature", "geometry": {"type": "Point", "coordinates": [2.723321, 48.656006]}, "properties": {"id_parcelle": "774570000C0705", "address": "LES MARNIERES", "sales": 2, "median_price": 334000.0, "median_price_per_sqm": null, "median_rooms": null, "first_sale": "2025-06-16", "last_sale": "2025-06-16"}}, {"type": "Feature", "geometry": {"type": "Point", "coordinates": [2.71954, 48.659739]}, "properties": {"id_parcelle": "774570000D0370", "address": "71 RUE GRANDE", "sales": 2, "median_price": 278000.0, "median_price_per_sqm": 3349.397590361446, "median_rooms": 5.0, "first_sale": "2021-02-09", "last_sale": "2021-02-09"}}, {"type": "Feature", "geometry": {"type": "Point", "coordinates": [2.716892, 48.657514]}, "properties": {"id_parcelle": "774570000D0069", "address": "13 RUE DE LA TOURNELLE", "sales": 2, "median_price": 263000.0, "median_price_per_sqm": 4534.482758620689, "median_rooms": 1.5, "first_sale": "2023-05-24", "last_sale": "2023-05-24"}}, {"type": "Feature", "geometry": {"type": "Point", "coordinates": [2.71056, 48.65473]}, "properties": {"id_parcelle": "774570000C1700", "address": "15 RUE DU HAUT DES PLANTES", "sales": 2, "median_price": 214000.0, "median_price_per_sqm": null, "median_rooms": null, "first_sale": "2023-06-28", "last_sale": "2024-04-05"}}, {"type": "Feature", "geometry": {"type": "Point", "coordinates": [2.714599, 48.656472]}, "properties": {"id_parcelle": "774570000D0039", "address": "8 RUE DE BARNEAU", "sales": 2, "median_price": 135000.0, "median_price_per_sqm": 3375.0, "median_rooms": 1.0, "first_sale": "2021-09-24", "last_sale": "2021-09-24"}}, {"type": "Feature", "geometry": {"type": "Point", "coordinates": [2.710746, 48.65435]}, "properties": {"id_parcelle": "774570000C1699", "address": "15 RUE DU HAUT DES PLANTES", "sales": 2, "median_price": 214750.0, "median_price_per_sqm": null, "median_rooms": null, "first_sale": "2023-06-28", "last_sale": "2023-12-20"}}, {"type": "Feature", "geometry": {"type": "Point", "coordinates": [2.710421, 48.654326]}, "properties": {"id_parcelle": "774570000C1698", "address": "15 RUE DU HAUT DES PLANTES", "sales": 2, "median_price": 214000.0, "median_price_per_sqm": null, "median_rooms": null, "first_sale": "2023-06-28", "last_sale": "2024-04-05"}}, {"type": "Feature", "geometry": {"type": "Point", "coordinates": [2.71276, 48.652851]}, "properties": {"id_parcelle": "774570000C1625", "address": "3 CHE DU MILIEU DES PLANTES", "sales": 2, "median_price": 365850.0, "median_price_per_sqm": 2632.0143884892086, "median_rooms": 3.0, "first_sale": "2025-06-26", "last_sale": "2025-06-26"}}, {"type": "Feature", "geometry": {"type": "Point", "coordinates": [2.709506, 48.654029]}, "properties": {"id_parcelle": "774570000C1694", "address": "21 CHE DU HAUT DES PLANTES", "sales": 2, "median_price": 160000.0, "median_price_per_sqm": 5333.333333333333, "median_rooms": 1.0, "first_sale": "2023-06-05", "last_sale": "2023-06-05"}}, {"type": "Feature", "geometry": {"type": "Point", "coordinates": [2.721689, 48.657273]}, "properties": {"id_parcelle": "774570000C1485", "address": "8 RUE DU MARIA VALLA", "sales": 2, "median_price": 341500.0, "median_price_per_sqm": 4268.75, "median_rooms": 4.0, "first_sale": "2022-10-28", "last_sale": "2022-10-28"}}, {"type": "Feature", "geometry": {"type": "Point", "coordinates": [2.72377, 48.656297]}, "properties": {"id_parcelle": "774570000C0710", "address": "LES MARNIERES", "sales": 2, "median_price": 334000.0, "median_price_per_sqm": null, "median_rooms": null, "first_sale": "2025-06-16", "last_sale": "2025-06-16"}}, {"type": "Feature", "geometry": {"type": "Point", "coordinates": [2.723686, 48.656254]}, "properties": {"id_parcelle": "774570000C0709", "address": "LES MARNIERES", "sales": 2, "median_price": 334000.0, "median_price_per_sqm": null, "median_rooms": null, "first_sale": "2025-06-16", "last_sale": "2025-06-16"}}, {"type": "Feature", "geometry": {"type": "Point", "coordinates": [2.711136, 48.653094]}, "properties": {"id_parcelle": "774570000C1274", "address": "11 CHE DU MILIEU DES PLANTES", "sales": 2, "median_price": 208000.0, "median_price_per_sqm": 2418.6046511627906, "median_rooms": 4.0, "first_sale": "2024-02-09", "last_sale": "2024-02-09"}}, {"type": "Feature", "geometry": {"type": "Point", "coordinates": [2.721588, 48.657712]}, "properties": {"id_parcelle": "774570000D0628", "address": "1 RUE DU MARIA VALLA", "sales": 2, "median_price": 370000.0, "median_price_per_sqm": 2890.625, "median_rooms": 6.0, "first_sale": "2023-06-14", "last_sale": "2023-06-14"}}, {"type": "Feature", "geometry": {"type": "Point", "coordinates": [2.723514, 48.658822]}, "properties": {"id_parcelle": "774570000D0636", "address": "21 RUE DES ETARDS", "sales": 2, "median_price": 344000.0, "median_price_per_sqm": 2422.5352112676055, "median_rooms": 2.5, "first_sale": "2022-09-05", "last_sale": "2022-09-05"}}, {"type": "Feature", "geometry": {"type": "Point", "coordinates": [2.715107, 48.658011]}, "properties": {"id_parcelle": "774570000D0526", "address": "21 RUE GRANDE", "sales": 2, "median_price": 155000.0, "median_price_per_sqm": 3039.2156862745096, "median_rooms": 1.5, "first_sale": "2021-04-14", "last_sale": "2021-04-14"}}, {"type": "Feature", "geometry": {"type": "Point", "coordinates": [2.72165, 48.659246]}, "properties": {"id_parcelle": "774570000D0452", "address": "9 RUE DES ETARDS", "sales": 2, "median_price": 310000.0, "median_price_per_sqm": 2296.296296296296, "median_rooms": 4.0, "first_sale": "2022-03-04", "last_sale": "2022-03-04"}}, {"type": "Feature", "geometry": {"type": "Point", "coordinates": [2.71453, 48.65613]}, "properties": {"id_parcelle": "774570000D0777", "address": "RUE DE BARNEAU", "sales": 2, "median_price": 131600.0, "median_price_per_sqm": null, "median_rooms": null, "first_sale": "2023-02-24", "last_sale": "2024-10-29"}}, {"type": "Feature", "geometry": {"type": "Point", "coordinates": [2.714487, 48.656137]}, "properties": {"id_parcelle": "774570000D0776", "address": "RUE DE BARNEAU", "sales": 2, "median_price": 131600.0, "median_price_per_sqm": null, "median_rooms": null, "first_sale": "2023-02-24", "last_sale": "2024-10-29"}}, {"type": "Feature", "geometry": {"type": "Point", "coordinates": [2.714454, 48.656143]}, "properties": {"id_parcelle": "774570000D0775", "address": "RUE DE BARNEAU", "sales": 2, "median_price": 224000.0, "median_price_per_sqm": null, "median_rooms": null, "first_sale": "2023-09-26", "last_sale": "2025-07-01"}}, {"type": "Feature", "geometry": {"type": "Point", "coordinates": [2.71442, 48.656149]}, "properties": {"id_parcelle": "774570000D0774", "address": "RUE DE BARNEAU", "sales": 2, "median_price": 224000.0, "median_price_per_sqm": null, "median_rooms": null, "first_sale": "2023-09-26", "last_sale": "2025-07-01"}}, {"type": "Feature", "geometry": {"type": "Point", "coordinates": [2.714606, 48.656128]}, "properties": {"id_parcelle": "774570000D0773", "address": "RUE DE BARNEAU", "sales": 2, "median_price": 131600.0, "median_price_per_sqm": null, "median_rooms": null, "first_sale": "2023-02-24", "last_sale": "2024-10-29"}}, {"type": "Feature", "geometry": {"type": "Point", "coordinates": [2.711468, 48.654998]}, "properties": {"id_parcelle": "77457000ZH0121", "address": "8 CHE DU HAUT DES PLANTES", "sales": 2, "median_price": 350000.0, "median_price_per_sqm": 2222.222222222222, "median_rooms": 2.0, "first_sale": "2021-03-03", "last_sale": "2021-03-03"}}, {"type": "Feature", "geometry": {"type": "Point", "coordinates": [2.711618, 48.65791]}, "properties": {"id_parcelle": "77457000ZH0011", "address": "5 RUE GRANDE", "sales": 2, "median_price": 320000.0, "median_price_per_sqm": 4507.042253521126, "median_rooms": 2.0, "first_sale": "2021-07-16", "last_sale": "2021-07-16"}}, {"type": "Feature", "geometry": {"type": "Point", "coordinates": [2.711765, 48.657982]}, "properties": {"id_parcelle": "77457000ZH0012", "address": "5 GRANDE RUE", "sales": 2, "median_price": 328500.0, "median_price_per_sqm": 2346.4285714285716, "median_rooms": 6.0, "first_sale": "2025-09-15", "last_sale": "2025-09-15"}}, {"type": "Feature", "geometry": {"type": "Point", "coordinates": [2.711004, 48.658138]}, "properties": {"id_parcelle": "77457000ZH0191", "address": "RUE GRANDE", "sales": 2, "median_price": 117000.0, "median_price_per_sqm": null, "median_rooms": null, "first_sale": "2021-01-06", "last_sale": "2021-07-21"}}, {"type": "Feature", "geometry": {"type": "Point", "coordinates": [2.711468, 48.658054]}, "properties": {"id_parcelle": "77457000ZH0188", "address": "LA BOUGUENELLE", "sales": 2, "median_price": 109000.0, "median_price_per_sqm": null, "median_rooms": null, "first_sale": "2021-01-06", "last_sale": "2021-07-21"}}, {"type": "Feature", "geometry": {"type": "Point", "coordinates": [2.71267, 48.656561]}, "properties": {"id_parcelle": "77457000ZH0092", "address": "30 RUE DU CHAMP AU MAIGRE", "sales": 2, "median_price": 349000.0, "median_price_per_sqm": 3388.349514563107, "median_rooms": 2.5, "first_sale": "2025-06-13", "last_sale": "2025-06-13"}}, {"type": "Feature", "geometry": {"type": "Point", "coordinates": [2.711208, 48.658337]}, "properties": {"id_parcelle": "77457000ZH0192", "address": "RUE GRANDE", "sales": 2, "median_price": 116500.0, "median_price_per_sqm": null, "median_rooms": null, "first_sale": "2021-01-06", "last_sale": "2021-07-28"}}, {"type": "Feature", "geometry": {"type": "Point", "coordinates": [2.710779, 48.657571]}, "properties": {"id_parcelle": "77457000ZH0200", "address": "1 GR GRANDE RUE", "sales": 2, "median_price": 475000.0, "median_price_per_sqm": 2987.421383647799, "median_rooms": 6.0, "first_sale": "2023-07-12", "last_sale": "2023-07-12"}}, {"type": "Feature", "geometry": {"type": "Point", "coordinates": [2.711341, 48.658235]}, "properties": {"id_parcelle": "77457000ZH0193", "address": "RUE GRANDE", "sales": 2, "median_price": 117000.0, "median_price_per_sqm": null, "median_rooms": null, "first_sale": "2021-01-06", "last_sale": "2021-07-21"}}, {"type": "Feature", "geometry": {"type": "Point", "coordinates": [2.710776, 48.658339]}, "properties": {"id_parcelle": "77457000ZH0202", "address": "1 RUE GRANDE", "sales": 2, "median_price": 146500.0, "median_price_per_sqm": null, "median_rooms": null, "first_sale": "2021-01-06", "last_sale": "2021-08-26"}}, {"type": "Feature", "geometry": {"type": "Point", "coordinates": [2.710926, 48.658272]}, "properties": {"id_parcelle": "77457000ZH0203", "address": "1 RUE GRANDE", "sales": 2, "median_price": 148000.0, "median_price_per_sqm": null, "median_rooms": null, "first_sale": "2021-01-06", "last_sale": "2021-07-21"}}]}