{"type": "FeatureCollection", "features": [{"type": "Feature", "geometry": {"type": "Point", "coordinates": [2.583462, 48.43175]}, "properties": {"id_parcelle": "77425000AD0188", "address": "15 RUE DES PLANTES", "sales": 8, "median_price": 708500.0, "median_price_per_sqm": 3295.3488372093025, "median_rooms": 0.0, "first_sale": "2023-08-18", "last_sale": "2023-08-18"}}, {"type": "Feature", "geometry": {"type": "Point", "coordinates": [2.585935, 48.43138]}, "properties": {"id_parcelle": "77425000AD0041", "address": "2 RUE DES PLANTES", "sales": 5, "median_price": 275000.0, "median_price_per_sqm": 4501.488095238095, "median_rooms": 0.0, "first_sale": "2021-09-29", "last_sale": "2021-09-29"}}, {"type": "Feature", "geometry": {"type": "Point", "coordinates": [2.58503, 48.431811]}, "properties": {"id_parcelle": "77425000AD0355", "address": "1 RUE DES ALLOIRS", "sales": 5, "median_price": 300000.0, "median_price_per_sqm": 1538.4615384615386, "median_rooms": 0.0, "first_sale": "2021-11-23", "last_sale": "2022-11-24"}}, {"type": "Feature", "geometry": {"type": "Point", "coordinates": [2.560499, 48.441319]}, "properties": {"id_parcelle": "77425000AB0103", "address": "19 RUE DE LA VALLEE", "sales": 4, "median_price": 255000.0, "median_price_per_sqm": 4180.327868852459, "median_rooms": 1.5, "first_sale": "2024-06-14", "last_sale": "2024-06-14"}}, {"type": "Feature", "geometry": {"type": "Point", "coordinates": [2.558271, 48.440874]}, "properties": {"id_parcelle": "77425000AB0136", "address": "22 RUE DES SOURCES", "sales": 4, "median_price": 793700.0, "median_price_per_sqm": 3076.3565891472867, "median_rooms": 4.0, "first_sale": "2024-10-16", "last_sale": "2024-10-16"}}, {"type": "Feature", "geometry": {"type": "Point", "coordinates": [2.584702, 48.43195]}, "properties": {"id_parcelle": "77425000AD0199", "address": "2 PAS DU MARCHAIS", "sales": 4, "median_price": 470000.0, "median_price_per_sqm": 7230.7692307692305, "median_rooms": 1.5, "first_sale": "2022-06-16", "last_sale": "2022-06-16"}}, {"type": "Feature", "geometry": {"type": "Point", "coordinates": [2.5613, 48.441284]}, "properties": {"id_parcelle": "77425000AB0149", "address": "4 RUE DE LA VALLEE", "sales": 4, "median_price": 945300.0, "median_price_per_sqm": 2700.8571428571427, "median_rooms": 3.0, "first_sale": "2021-10-01", "last_sale": "2021-10-01"}}, {"type": "Feature", "geometry": {"type": "Point", "coordinates": [2.566389, 48.434783]}, "properties": {"id_parcelle": "77425000AC0152", "address": "272 RUE DU CHAMPART", "sales": 4, "median_price": 370000.0, "median_price_per_sqm": 3162.3931623931626, "median_rooms": 3.0, "first_sale": "2024-07-08", "last_sale": "2024-07-08"}}, {"type": "Feature", "geometry": {"type": "Point", "coordinates": [2.568769, 48.4344]}, "properties": {"id_parcelle": "77425000ZE0149", "address": "29 ALL DE LA MOLETTERIE", "sales": 4, "median_price": 630000.0, "median_price_per_sqm": 17325.0, "median_rooms": 3.0, "first_sale": "2022-12-09", "last_sale": "2022-12-09"}}, {"type": "Feature", "geometry": {"type": "Point", "coordinates": [2.564342, 48.435708]}, "properties": {"id_parcelle": "77425000ZE0276", "address": "13 RUE DES FRANCS BOURGEOIS", "sales": 4, "median_price": 275000.0, "median_price_per_sqm": 3089.887640449438, "median_rooms": 3.0, "first_sale": "2025-04-28", "last_sale": "2025-09-05"}}, {"type": "Feature", "geometry": {"type": "Point", "coordinates": [2.580866, 48.428984]}, "properties": {"id_parcelle": "77425000ZE0105", "address": "27 RUE DE LA LIESSERIE", "sales": 4, "median_price": 566820.0, "median_price_per_sqm": 4048.714285714286, "median_rooms": 1.5, "first_sale": "2025-06-17", "last_sale": "2025-06-17"}}, {"type": "Feature", "geometry": {"type": "Point", "coordinates": [2.586418, 48.432167]}, "properties": {"id_parcelle": "77425000AD0300", "address": "1 RUE DES ALLOIRS", "sales": 4, "median_price": 615000.0, "median_price_per_sqm": 3271.276595744681, "median_rooms": 3.0, "first_sale": "2021-07-05", "last_sale": "2021-07-05"}}, {"type": "Feature", "geometry": {"type": "Point", "coordinates": [2.559522, 48.440258]}, "properties": {"id_parcelle": "77425000AB0023", "address": "14 RUE DES SOURCES", "sales": 4, "median_price": 1400000.0, "median_price_per_sqm": 9965.277777777777, "median_rooms": 1.5, "first_sale": "2022-03-21", "last_sale": "2022-03-21"}}, {"type": "Feature", "geometry": {"type": "Point", "coordinates": [2.568384, 48.434734]}, "properties": {"id_parcelle": "77425000ZE0148", "address": "51 RUE DU CHAMPART", "sales": 4, "median_price": 602500.0, "median_price_per_sqm": 2776.4976958525344, "median_rooms": 3.5, "first_sale": "2022-02-24", "last_sale": "2022-02-24"}}, {"type": "Feature", "geometry": {"type": "Point", "coordinates": [2.564643, 48.435684]}, "properties": {"id_parcelle": "77425000ZE0269", "address": "11 RUE DES FRANCS BOURGEOIS", "sales": 4, "median_price": 405000.0, "median_price_per_sqm": 7211.7706237424545, "median_rooms": 3.5, "first_sale": "2024-11-12", "last_sale": "2024-11-12"}}, {"type": "Feature", "geometry": {"type": "Point", "coordinates": [2.56542, 48.436417]}, "properties": {"id_parcelle": "77425000AC0075", "address": "20 RUE DES FRANCS BOURGEOIS", "sales": 3, "median_price": 381000.0, "median_price_per_sqm": 4762.5, "median_rooms": 0.0, "first_sale": "2025-07-16", "last_sale": "2025-07-16"}}, {"type": "Feature", "geometry": {"type": "Point", "coordinates": [2.567369, 48.437366]}, "properties": {"id_parcelle": "77425000AC0201", "address": "7 RUE DES BRANDONS", "sales": 2, "median_price": 642760.0, "median_price_per_sqm": null, "median_rooms": null, "first_sale": "2021-07-06", "last_sale": "2021-07-23"}}, {"type": "Feature", "geometry": {"type": "Point", "coordinates": [2.584718, 48.432399]}, "properties": {"id_parcelle": "77425000AD0232", "address": "3 PAS DU MARCHAIS", "sales": 2, "median_price": 182000.0, "median_price_per_sqm": 6066.666666666667, "median_rooms": 0.5, "first_sale": "2023-02-02", "last_sale": "2023-02-02"}}, {"type": "Feature", "geometry": {"type": "Point", "coordinates": [2.583414, 48.432316]}, "properties": {"id_parcelle": "77425000AD0201", "address": "12 RUE DES PLANTES", "sales": 2, "median_price": 397000.0, "median_price_per_sqm": 5089.74358974359, "median_rooms": 1.5, "first_sale": "2022-11-30", "last_sale": "2022-11-30"}}, {"type": "Feature", "geometry": {"type": "Point", "coordinates": [2.567014, 48.434935]}, "properties": {"id_parcelle": "77425000AC0159", "address": "235 RUE DU CHAMPART", "sales": 2, "median_price": 462000.0, "median_price_per_sqm": 3666.6666666666665, "median_rooms": 2.5, "first_sale": "2021-07-01", "last_sale": "2021-07-01"}}, {"type": "Feature", "geometry": {"type": "Point", "coordinates": [2.585771, 48.429991]}, "properties": {"id_parcelle": "77425000AD0289", "address": "7 PAS DU MUR A FLOQUET", "sales": 2, "median_price": 564000.0, "median_price_per_sqm": 2000.0, "median_rooms": 7.0, "first_sale": "2025-05-05", "last_sale": "2025-05-05"}}, {"type": "Feature", "geometry": {"type": "Point", "coordinates": [2.563735, 48.435937]}, "properties": {"id_parcelle": "77425000ZE0014", "address": "17 RUE DES FRANCS BOURGEOIS", "sales": 2, "median_price": 300000.0, "median_price_per_sqm": 4166.666666666667, "median_rooms": 3.0, "first_sale": "2021-03-30", "last_sale": "2021-03-30"}}, {"type": "Feature", "geometry": {"type": "Point", "coordinates": [2.591342, 48.429009]}, "properties": {"id_parcelle": "77425000ZD0021", "address": "30 RUE DE LA FORET", "sales": 2, "median_price": 500500.0, "median_price_per_sqm": 3128.125, "median_rooms": 5.0, "first_sale": "2022-06-03", "last_sale": "2022-06-03"}}, {"type": "Feature", "geometry": {"type": "Point", "coordinates": [2.591451, 48.429839]}, "properties": {"id_parcelle": "77425000ZC0264", "address": "33 RUE DE LA FORET", "sales": 2, "median_price": 90000.0, "median_price_per_sqm": 1500.0, "median_rooms": 3.0, "first_sale": "2021-09-27", "last_sale": "2021-09-27"}}, {"type": "Feature", "geometry": {"type": "Point", "coordinates": [2.592243, 48.429375]}, "properties": {"id_parcelle": "77425000ZC0174", "address": "37 RUE DE LA FORET", "sales": 2, "median_price": 629500.0, "median_price_per_sqm": 4662.962962962963, "median_rooms": 6.0, "first_sale": "2023-10-12", "last_sale": "2023-10-12"}}, {"type": "Feature", "geometry": {"type": "Point", "coordinates": [2.587107, 48.437253]}, "properties": {"id_parcelle": "77425000ZC0005", "address": "LES GUILLERONNES", "sales": 2, "median_price": 141646.4, "median_price_per_sqm": null, "median_rooms": null, "first_sale": "2024-07-18", "last_sale": "2024-07-18"}}, {"type": "Feature", "geometry": {"type": "Point", "coordinates": [2.581967, 48.429185]}, "properties": {"id_parcelle": "77425000ZE0099", "address": "22 RUE DES LONGUES RAIES", "sales": 2, "median_price": 355000.0, "median_price_per_sqm": 2382.55033557047, "median_rooms": 6.0, "first_sale": "2021-02-19", "last_sale": "2021-02-19"}}, {"type": "Feature", "geometry": {"type": "Point", "coordinates": [2.582273, 48.42937]}, "properties": {"id_parcelle": "77425000ZE0098", "address": "20 RUE DES LONGUES RAIES", "sales": 2, "median_price": 341500.0, "median_price_per_sqm": 3794.4444444444443, "median_rooms": 5.0, "first_sale": "2021-12-23", "last_sale": "2021-12-23"}}, {"type": "Feature", "geometry": {"type": "Point", "coordinates": [2.564504, 48.436239]}, "properties": {"id_parcelle": "77425000ZE0279", "address": "LE CHEMIN DES ECOLIERS", "sales": 2, "median_price": 275000.0, "median_price_per_sqm": null, "median_rooms": null, "first_sale": "2025-04-28", "last_sale": "2025-09-05"}}]}