{"type": "FeatureCollection", "features": [{"type": "Feature", "geometry": {"type": "Polygon", "coordinates": [[[2.505074, 48.829645], [2.50407, 48.829795], [2.502369, 48.830078], [2.501718, 48.830178], [2.50105, 48.830256], [2.500452, 48.830366], [2.499731, 48.830534], [2.498873, 48.8307], [2.49798, 48.830812], [2.497647, 48.830812], [2.497197, 48.831473], [2.496989, 48.831798], [2.496016, 48.833279], [2.495652, 48.83381], [2.495316, 48.834342], [2.495139, 48.834672], [2.494902, 48.835176], [2.494682, 48.835785], [2.494506, 48.836409], [2.494412, 48.836963], [2.49431, 48.838089], [2.494194, 48.839226], [2.494139, 48.839663], [2.493991, 48.840499], [2.493828, 48.841258], [2.493485, 48.842612], [2.493104, 48.843758], [2.492806, 48.844506], [2.49234, 48.845635], [2.492014, 48.846493], [2.49182, 48.847106], [2.491585, 48.847776], [2.491404, 48.848287], [2.492142, 48.848446], [2.493497, 48.848727], [2.493532, 48.848919], [2.49357, 48.849563], [2.493621, 48.850674], [2.493369, 48.851329], [2.493289, 48.851686], [2.494129, 48.851937], [2.494474, 48.852085], [2.494438, 48.852157], [2.494848, 48.852337], [2.495774, 48.852806], [2.495961, 48.853058], [2.496014, 48.853388], [2.496319, 48.853769], [2.497236, 48.854947], [2.497301, 48.854987], [2.497751, 48.855087], [2.499147, 48.855516], [2.500003, 48.855743], [2.500115, 48.855779], [2.502567, 48.856836], [2.502822, 48.85695], [2.503232, 48.857195], [2.504377, 48.857279], [2.504572, 48.857302], [2.505484, 48.857212], [2.505535, 48.857159], [2.506451, 48.855635], [2.506665, 48.855339], [2.50729, 48.854636], [2.507918, 48.854244], [2.508092, 48.854092], [2.508459, 48.853508], [2.508679, 48.85336], [2.509891, 48.852939], [2.511126, 48.852562], [2.51147, 48.852427], [2.511972, 48.852527], [2.512261, 48.852265], [2.51331, 48.85144], [2.513462, 48.85131], [2.513491, 48.851144], [2.513376, 48.850944], [2.513355, 48.850666], [2.513266, 48.850581], [2.513113, 48.850328], [2.513513, 48.850063], [2.512682, 48.849323], [2.512398, 48.849011], [2.512111, 48.848662], [2.511896, 48.848341], [2.511705, 48.847931], [2.511551, 48.847541], [2.511378, 48.846898], [2.511299, 48.846447], [2.511273, 48.84599], [2.511301, 48.845146], [2.511455, 48.844307], [2.511601, 48.843806], [2.512005, 48.842614], [2.512094, 48.842397], [2.512263, 48.841872], [2.512549, 48.841078], [2.512994, 48.839915], [2.51327, 48.83932], [2.513439, 48.839099], [2.514031, 48.838631], [2.516256, 48.837154], [2.516533, 48.836896], [2.517046, 48.836225], [2.517672, 48.834832], [2.51769, 48.834505], [2.51764, 48.83396], [2.516567, 48.83175], [2.515794, 48.831151], [2.514115, 48.830239], [2.51315, 48.829854], [2.512169, 48.829506], [2.511746, 48.82938], [2.511414, 48.829335], [2.511093, 48.829336], [2.510654, 48.829382], [2.510304, 48.829469], [2.509524, 48.829723], [2.508766, 48.829944], [2.508298, 48.830051], [2.507217, 48.830193], [2.50693, 48.830218], [2.506003, 48.830222], [2.505725, 48.830257], [2.505161, 48.830374], [2.504354, 48.830602], [2.503919, 48.830702], [2.504287, 48.830234], [2.504449, 48.830062], [2.504678, 48.82989], [2.505074, 48.829645]]]}, "properties": {"code_iris": "940580000", "nom_iris": "Le Perreux-sur-Marne (commune entière)", "type_iris": "Z", "lat": 48.8433, "lng": 2.5045, "dvf_sales_total": 7792, "dvf_sales_appt": 0, "dvf_sales_maison": 0, "dvf_median_price": 373800.0, "dvf_median_ppsqm": 6171.875, "dvf_by_year": "[{\"year\": 2021, \"sales\": 1797, \"median_price\": 378800.0}, {\"year\": 2022, \"sales\": 1979, \"median_price\": 398000.0}, {\"year\": 2023, \"sales\": 1472, \"median_price\": 415000.0}, {\"year\": 2024, \"sales\": 1143, \"median_price\": 370000.0}, {\"year\": 2025, \"sales\": 1401, \"median_price\": 325600.0}]", "population": 35260, "n_log": null, "n_rp": null, "pct_proprio": null, "pct_hlm": null, "pct_appart": null, "pct_cadres": null, "pct_bac5p": null, "pct_etrangers": null, "pct_0_14": null, "pct_65p": null, "bpe_total": null, "bpe_commerces": null, "bpe_enseignement": null, "bpe_sante": null, "dpe": null, "attractivity_score": null, "rank_attractivity_score": null, "rank_total_attractivity_score": 1, "commune_avg": null, "is_stub": true}}]}