{"type": "FeatureCollection", "features": [{"type": "Feature", "geometry": {"type": "Point", "coordinates": [2.638534, 49.035703]}, "properties": {"year": 2021, "valeur_fonciere": 650000.0, "type_local": "Local industriel. commercial ou assimilé", "surface_reelle_bati": 350.0, "nombre_pieces_principales": 0.0, "adresse_nom_voie": "RUE DES PRIMEVERES", "price_per_sqm": 1857.142857142857, "date_iso": "2021-01-28", "parcelle": "775110000A0666", "addr_num": "36"}}, {"type": "Feature", "geometry": {"type": "Point", "coordinates": [2.638534, 49.035703]}, "properties": {"year": 2021, "valeur_fonciere": 650000.0, "type_local": "Maison", "surface_reelle_bati": 130.0, "nombre_pieces_principales": 4.0, "adresse_nom_voie": "RUE DES PRIMEVERES", "price_per_sqm": 5000.0, "date_iso": "2021-01-28", "parcelle": "775110000A0666", "addr_num": "36"}}, {"type": "Feature", "geometry": {"type": "Point", "coordinates": [2.641015, 49.03435]}, "properties": {"year": 2021, "valeur_fonciere": 232000.0, "type_local": "Dépendance", "surface_reelle_bati": null, "nombre_pieces_principales": 0.0, "adresse_nom_voie": "RUE DES TILLEULS", "price_per_sqm": null, "date_iso": "2021-02-11", "parcelle": "775110000A0345", "addr_num": "1"}}, {"type": "Feature", "geometry": {"type": "Point", "coordinates": [2.641015, 49.03435]}, "properties": {"year": 2021, "valeur_fonciere": 232000.0, "type_local": "Appartement", "surface_reelle_bati": 55.0, "nombre_pieces_principales": 3.0, "adresse_nom_voie": "RUE DES TILLEULS", "price_per_sqm": 4218.181818181818, "date_iso": "2021-02-11", "parcelle": "775110000A0345", "addr_num": "1"}}, {"type": "Feature", "geometry": {"type": "Point", "coordinates": [2.641015, 49.03435]}, "properties": {"year": 2021, "valeur_fonciere": 120000.0, "type_local": "Appartement", "surface_reelle_bati": 53.0, "nombre_pieces_principales": 3.0, "adresse_nom_voie": "RUE DES TILLEULS", "price_per_sqm": 2264.1509433962265, "date_iso": "2021-03-05", "parcelle": "775110000A0345", "addr_num": "1"}}, {"type": "Feature", "geometry": {"type": "Point", "coordinates": [2.641015, 49.03435]}, "properties": {"year": 2021, "valeur_fonciere": 120000.0, "type_local": "Dépendance", "surface_reelle_bati": null, "nombre_pieces_principales": 0.0, "adresse_nom_voie": "RUE DES TILLEULS", "price_per_sqm": null, "date_iso": "2021-03-05", "parcelle": "775110000A0345", "addr_num": "1"}}, {"type": "Feature", "geometry": {"type": "Point", "coordinates": [2.641015, 49.03435]}, "properties": {"year": 2021, "valeur_fonciere": 120000.0, "type_local": "Dépendance", "surface_reelle_bati": null, "nombre_pieces_principales": 0.0, "adresse_nom_voie": "RUE DES TILLEULS", "price_per_sqm": null, "date_iso": "2021-03-05", "parcelle": "775110000A0345", "addr_num": "1"}}, {"type": "Feature", "geometry": {"type": "Point", "coordinates": [2.641015, 49.03435]}, "properties": {"year": 2021, "valeur_fonciere": 142000.0, "type_local": "Appartement", "surface_reelle_bati": 57.0, "nombre_pieces_principales": 3.0, "adresse_nom_voie": "RUE DES TILLEULS", "price_per_sqm": 2491.2280701754385, "date_iso": "2021-03-19", "parcelle": "775110000A0345", "addr_num": "1"}}, {"type": "Feature", "geometry": {"type": "Point", "coordinates": [2.641015, 49.03435]}, "properties": {"year": 2021, "valeur_fonciere": 142000.0, "type_local": "Dépendance", "surface_reelle_bati": null, "nombre_pieces_principales": 0.0, "adresse_nom_voie": "RUE DES TILLEULS", "price_per_sqm": null, "date_iso": "2021-03-19", "parcelle": "775110000A0345", "addr_num": "1"}}, {"type": "Feature", "geometry": {"type": "Point", "coordinates": [2.641015, 49.03435]}, "properties": {"year": 2021, "valeur_fonciere": 142000.0, "type_local": "Dépendance", "surface_reelle_bati": null, "nombre_pieces_principales": 0.0, "adresse_nom_voie": "RUE DES TILLEULS", "price_per_sqm": null, "date_iso": "2021-03-19", "parcelle": "775110000A0345", "addr_num": "1"}}, {"type": "Feature", "geometry": {"type": "Point", "coordinates": [2.638322, 49.036103]}, "properties": {"year": 2021, "valeur_fonciere": 296000.0, "type_local": "Maison", "surface_reelle_bati": 109.0, "nombre_pieces_principales": 3.0, "adresse_nom_voie": "RUE DES PRIMEVERES", "price_per_sqm": 2715.5963302752293, "date_iso": "2021-03-31", "parcelle": "775110000A0408", "addr_num": "48"}}, {"type": "Feature", "geometry": {"type": "Point", "coordinates": [2.638322, 49.036103]}, "properties": {"year": 2021, "valeur_fonciere": 296000.0, "type_local": "Maison", "surface_reelle_bati": 109.0, "nombre_pieces_principales": 3.0, "adresse_nom_voie": "RUE DES PRIMEVERES", "price_per_sqm": 2715.5963302752293, "date_iso": "2021-03-31", "parcelle": "775110000A0408", "addr_num": "48"}}, {"type": "Feature", "geometry": {"type": "Point", "coordinates": [2.627809, 49.019307]}, "properties": {"year": 2021, "valeur_fonciere": 2110997.5, "type_local": null, "surface_reelle_bati": null, "nombre_pieces_principales": null, "adresse_nom_voie": "LES ROTIS", "price_per_sqm": null, "date_iso": "2021-04-29", "parcelle": "775110000C0093", "addr_num": ""}}, {"type": "Feature", "geometry": {"type": "Point", "coordinates": [2.640898, 49.035029]}, "properties": {"year": 2021, "valeur_fonciere": 95000.0, "type_local": "Maison", "surface_reelle_bati": 112.0, "nombre_pieces_principales": 4.0, "adresse_nom_voie": "COUR PAUL DUFRESNE", "price_per_sqm": 848.2142857142857, "date_iso": "2021-07-01", "parcelle": "775110000A0262", "addr_num": "2"}}, {"type": "Feature", "geometry": {"type": "Point", "coordinates": [2.638014, 49.035724]}, "properties": {"year": 2021, "valeur_fonciere": 146000.0, "type_local": "Dépendance", "surface_reelle_bati": null, "nombre_pieces_principales": 0.0, "adresse_nom_voie": "RUE DES PRIMEVERES", "price_per_sqm": null, "date_iso": "2021-07-15", "parcelle": "775110000A0153", "addr_num": "51"}}, {"type": "Feature", "geometry": {"type": "Point", "coordinates": [2.63792, 49.035546]}, "properties": {"year": 2021, "valeur_fonciere": 146000.0, "type_local": "Dépendance", "surface_reelle_bati": null, "nombre_pieces_principales": 0.0, "adresse_nom_voie": "RUE DES PRIMEVERES", "price_per_sqm": null, "date_iso": "2021-07-15", "parcelle": "775110000A0156", "addr_num": "47"}}, {"type": "Feature", "geometry": {"type": "Point", "coordinates": [2.63792, 49.035546]}, "properties": {"year": 2021, "valeur_fonciere": 146000.0, "type_local": "Maison", "surface_reelle_bati": 75.0, "nombre_pieces_principales": 3.0, "adresse_nom_voie": "RUE DES PRIMEVERES", "price_per_sqm": 1946.6666666666667, "date_iso": "2021-07-15", "parcelle": "775110000A0156", "addr_num": "47"}}, {"type": "Feature", "geometry": {"type": "Point", "coordinates": [2.638271, 49.035762]}, "properties": {"year": 2021, "valeur_fonciere": 283100.0, "type_local": "Maison", "surface_reelle_bati": 142.0, "nombre_pieces_principales": 3.0, "adresse_nom_voie": "RUE DES PRIMEVERES", "price_per_sqm": 1993.661971830986, "date_iso": "2021-07-29", "parcelle": "775110000A0637", "addr_num": "44"}}, {"type": "Feature", "geometry": {"type": "Point", "coordinates": [2.641228, 49.035142]}, "properties": {"year": 2021, "valeur_fonciere": 800000.0, "type_local": "Local industriel. commercial ou assimilé", "surface_reelle_bati": 321.0, "nombre_pieces_principales": 0.0, "adresse_nom_voie": "RUE DE PARIS", "price_per_sqm": 2492.2118380062307, "date_iso": "2021-10-28", "parcelle": "775110000A0724", "addr_num": "28"}}, {"type": "Feature", "geometry": {"type": "Point", "coordinates": [2.641228, 49.035142]}, "properties": {"year": 2021, "valeur_fonciere": 800000.0, "type_local": "Local industriel. commercial ou assimilé", "surface_reelle_bati": 202.0, "nombre_pieces_principales": 0.0, "adresse_nom_voie": "RUE DE PARIS", "price_per_sqm": 3960.3960396039606, "date_iso": "2021-10-28", "parcelle": "775110000A0724", "addr_num": "28"}}, {"type": "Feature", "geometry": {"type": "Point", "coordinates": [2.643362, 49.033823]}, "properties": {"year": 2021, "valeur_fonciere": 232000.0, "type_local": "Dépendance", "surface_reelle_bati": null, "nombre_pieces_principales": 0.0, "adresse_nom_voie": "RUE DES TILLEULS", "price_per_sqm": null, "date_iso": "2021-11-03", "parcelle": "775110000A0728", "addr_num": "7"}}, {"type": "Feature", "geometry": {"type": "Point", "coordinates": [2.643362, 49.033823]}, "properties": {"year": 2021, "valeur_fonciere": 232000.0, "type_local": "Dépendance", "surface_reelle_bati": null, "nombre_pieces_principales": 0.0, "adresse_nom_voie": "RUE DES TILLEULS", "price_per_sqm": null, "date_iso": "2021-11-03", "parcelle": "775110000A0728", "addr_num": "7"}}, {"type": "Feature", "geometry": {"type": "Point", "coordinates": [2.643362, 49.033823]}, "properties": {"year": 2021, "valeur_fonciere": 232000.0, "type_local": "Appartement", "surface_reelle_bati": 79.0, "nombre_pieces_principales": 3.0, "adresse_nom_voie": "RUE DES TILLEULS", "price_per_sqm": 2936.7088607594937, "date_iso": "2021-11-03", "parcelle": "775110000A0728", "addr_num": "7"}}, {"type": "Feature", "geometry": {"type": "Point", "coordinates": [2.630599, 49.032291]}, "properties": {"year": 2021, "valeur_fonciere": 38000.0, "type_local": null, "surface_reelle_bati": null, "nombre_pieces_principales": null, "adresse_nom_voie": "RUE DE PARIS", "price_per_sqm": null, "date_iso": "2021-11-18", "parcelle": "775110000D0150", "addr_num": ""}}, {"type": "Feature", "geometry": {"type": "Point", "coordinates": [2.650605, 49.032524]}, "properties": {"year": 2021, "valeur_fonciere": 38000.0, "type_local": null, "surface_reelle_bati": null, "nombre_pieces_principales": null, "adresse_nom_voie": "MONTIME", "price_per_sqm": null, "date_iso": "2021-11-18", "parcelle": "77511000ZA0020", "addr_num": ""}}, {"type": "Feature", "geometry": {"type": "Point", "coordinates": [2.650605, 49.032524]}, "properties": {"year": 2021, "valeur_fonciere": 38000.0, "type_local": null, "surface_reelle_bati": null, "nombre_pieces_principales": null, "adresse_nom_voie": "MONTIME", "price_per_sqm": null, "date_iso": "2021-11-18", "parcelle": "77511000ZA0020", "addr_num": ""}}, {"type": "Feature", "geometry": {"type": "Point", "coordinates": [2.638146, 49.035379]}, "properties": {"year": 2021, "valeur_fonciere": 155000.0, "type_local": "Appartement", "surface_reelle_bati": 50.0, "nombre_pieces_principales": 2.0, "adresse_nom_voie": "RUE DES PRIMEVERES", "price_per_sqm": 3100.0, "date_iso": "2021-12-22", "parcelle": "775110000A0739", "addr_num": "43"}}, {"type": "Feature", "geometry": {"type": "Point", "coordinates": [2.638146, 49.035379]}, "properties": {"year": 2021, "valeur_fonciere": 155000.0, "type_local": "Dépendance", "surface_reelle_bati": null, "nombre_pieces_principales": 0.0, "adresse_nom_voie": "RUE DES PRIMEVERES", "price_per_sqm": null, "date_iso": "2021-12-22", "parcelle": "775110000A0739", "addr_num": "43"}}, {"type": "Feature", "geometry": {"type": "Point", "coordinates": [2.640499, 49.033737]}, "properties": {"year": 2022, "valeur_fonciere": 55000.0, "type_local": "Dépendance", "surface_reelle_bati": null, "nombre_pieces_principales": 0.0, "adresse_nom_voie": "RUE DE PARIS", "price_per_sqm": null, "date_iso": "2022-01-31", "parcelle": "775110000A0540", "addr_num": "10"}}, {"type": "Feature", "geometry": {"type": "Point", "coordinates": [2.640908, 49.034905]}, "properties": {"year": 2022, "valeur_fonciere": 420000.0, "type_local": "Appartement", "surface_reelle_bati": 80.0, "nombre_pieces_principales": 4.0, "adresse_nom_voie": "RUE DE PARIS", "price_per_sqm": 5250.0, "date_iso": "2022-01-24", "parcelle": "775110000A0242", "addr_num": "45"}}, {"type": "Feature", "geometry": {"type": "Point", "coordinates": [2.640908, 49.034905]}, "properties": {"year": 2022, "valeur_fonciere": 420000.0, "type_local": "Dépendance", "surface_reelle_bati": null, "nombre_pieces_principales": 0.0, "adresse_nom_voie": "RUE DE PARIS", "price_per_sqm": null, "date_iso": "2022-01-24", "parcelle": "775110000A0242", "addr_num": "45"}}, {"type": "Feature", "geometry": {"type": "Point", "coordinates": [2.640908, 49.034905]}, "properties": {"year": 2022, "valeur_fonciere": 420000.0, "type_local": "Dépendance", "surface_reelle_bati": null, "nombre_pieces_principales": 0.0, "adresse_nom_voie": "RUE DE PARIS", "price_per_sqm": null, "date_iso": "2022-01-24", "parcelle": "775110000A0242", "addr_num": "45"}}, {"type": "Feature", "geometry": {"type": "Point", "coordinates": [2.640908, 49.034905]}, "properties": {"year": 2022, "valeur_fonciere": 420000.0, "type_local": "Appartement", "surface_reelle_bati": 60.0, "nombre_pieces_principales": 3.0, "adresse_nom_voie": "RUE DE PARIS", "price_per_sqm": 7000.0, "date_iso": "2022-01-24", "parcelle": "775110000A0242", "addr_num": "45"}}, {"type": "Feature", "geometry": {"type": "Point", "coordinates": [2.640808, 49.034805]}, "properties": {"year": 2022, "valeur_fonciere": 420000.0, "type_local": "Dépendance", "surface_reelle_bati": null, "nombre_pieces_principales": 0.0, "adresse_nom_voie": "RUE DE PARIS", "price_per_sqm": null, "date_iso": "2022-01-24", "parcelle": "775110000A0246", "addr_num": "5016"}}, {"type": "Feature", "geometry": {"type": "Point", "coordinates": [2.641015, 49.03435]}, "properties": {"year": 2022, "valeur_fonciere": 146500.0, "type_local": "Appartement", "surface_reelle_bati": 58.0, "nombre_pieces_principales": 3.0, "adresse_nom_voie": "RUE DES TILLEULS", "price_per_sqm": 2525.862068965517, "date_iso": "2022-03-09", "parcelle": "775110000A0345", "addr_num": "1"}}, {"type": "Feature", "geometry": {"type": "Point", "coordinates": [2.641015, 49.03435]}, "properties": {"year": 2022, "valeur_fonciere": 146500.0, "type_local": "Dépendance", "surface_reelle_bati": null, "nombre_pieces_principales": 0.0, "adresse_nom_voie": "RUE DES TILLEULS", "price_per_sqm": null, "date_iso": "2022-03-09", "parcelle": "775110000A0345", "addr_num": "1"}}, {"type": "Feature", "geometry": {"type": "Point", "coordinates": [2.641015, 49.03435]}, "properties": {"year": 2022, "valeur_fonciere": 146500.0, "type_local": "Dépendance", "surface_reelle_bati": null, "nombre_pieces_principales": 0.0, "adresse_nom_voie": "RUE DES TILLEULS", "price_per_sqm": null, "date_iso": "2022-03-09", "parcelle": "775110000A0345", "addr_num": "1"}}, {"type": "Feature", "geometry": {"type": "Point", "coordinates": [2.641015, 49.03435]}, "properties": {"year": 2022, "valeur_fonciere": 141000.0, "type_local": "Dépendance", "surface_reelle_bati": null, "nombre_pieces_principales": 0.0, "adresse_nom_voie": "RUE DES TILLEULS", "price_per_sqm": null, "date_iso": "2022-03-04", "parcelle": "775110000A0345", "addr_num": "1"}}, {"type": "Feature", "geometry": {"type": "Point", "coordinates": [2.641015, 49.03435]}, "properties": {"year": 2022, "valeur_fonciere": 141000.0, "type_local": "Appartement", "surface_reelle_bati": 57.0, "nombre_pieces_principales": 3.0, "adresse_nom_voie": "RUE DES TILLEULS", "price_per_sqm": 2473.684210526316, "date_iso": "2022-03-04", "parcelle": "775110000A0345", "addr_num": "1"}}, {"type": "Feature", "geometry": {"type": "Point", "coordinates": [2.641015, 49.03435]}, "properties": {"year": 2022, "valeur_fonciere": 141000.0, "type_local": "Dépendance", "surface_reelle_bati": null, "nombre_pieces_principales": 0.0, "adresse_nom_voie": "RUE DES TILLEULS", "price_per_sqm": null, "date_iso": "2022-03-04", "parcelle": "775110000A0345", "addr_num": "1"}}, {"type": "Feature", "geometry": {"type": "Point", "coordinates": [2.641015, 49.03435]}, "properties": {"year": 2022, "valeur_fonciere": 141000.0, "type_local": "Dépendance", "surface_reelle_bati": null, "nombre_pieces_principales": 0.0, "adresse_nom_voie": "RUE DES TILLEULS", "price_per_sqm": null, "date_iso": "2022-03-04", "parcelle": "775110000A0345", "addr_num": "1"}}, {"type": "Feature", "geometry": {"type": "Point", "coordinates": [2.640019, 49.033746]}, "properties": {"year": 2022, "valeur_fonciere": 170000.0, "type_local": "Maison", "surface_reelle_bati": 70.0, "nombre_pieces_principales": 2.0, "adresse_nom_voie": "COUR JEAN BAPTISTE FEVRE", "price_per_sqm": 2428.5714285714284, "date_iso": "2022-04-14", "parcelle": "775110000A0368", "addr_num": "2"}}, {"type": "Feature", "geometry": {"type": "Point", "coordinates": [2.640109, 49.033804]}, "properties": {"year": 2022, "valeur_fonciere": 181345.0, "type_local": "Dépendance", "surface_reelle_bati": null, "nombre_pieces_principales": 0.0, "adresse_nom_voie": "COUR JEAN BAPTISTE FEVRE", "price_per_sqm": null, "date_iso": "2022-04-15", "parcelle": "775110000A0366", "addr_num": "1"}}, {"type": "Feature", "geometry": {"type": "Point", "coordinates": [2.640109, 49.033804]}, "properties": {"year": 2022, "valeur_fonciere": 181345.0, "type_local": "Maison", "surface_reelle_bati": 73.0, "nombre_pieces_principales": 5.0, "adresse_nom_voie": "COUR JEAN BAPTISTE FEVRE", "price_per_sqm": 2484.178082191781, "date_iso": "2022-04-15", "parcelle": "775110000A0366", "addr_num": "1"}}, {"type": "Feature", "geometry": {"type": "Point", "coordinates": [2.640078, 49.033775]}, "properties": {"year": 2022, "valeur_fonciere": 181345.0, "type_local": null, "surface_reelle_bati": null, "nombre_pieces_principales": null, "adresse_nom_voie": "COUR JEAN BAPTISTE FEVRE", "price_per_sqm": null, "date_iso": "2022-04-15", "parcelle": "775110000A0367", "addr_num": ""}}, {"type": "Feature", "geometry": {"type": "Point", "coordinates": [2.640162, 49.033643]}, "properties": {"year": 2022, "valeur_fonciere": 181345.0, "type_local": null, "surface_reelle_bati": null, "nombre_pieces_principales": null, "adresse_nom_voie": "COUR JEAN BAPTISTE FEVRE", "price_per_sqm": null, "date_iso": "2022-04-15", "parcelle": "775110000A0709", "addr_num": ""}}, {"type": "Feature", "geometry": {"type": "Point", "coordinates": [2.640898, 49.035029]}, "properties": {"year": 2022, "valeur_fonciere": 105000.0, "type_local": "Maison", "surface_reelle_bati": 112.0, "nombre_pieces_principales": 4.0, "adresse_nom_voie": "COUR PAUL DUFRESNE", "price_per_sqm": 937.5, "date_iso": "2022-04-11", "parcelle": "775110000A0262", "addr_num": "2"}}, {"type": "Feature", "geometry": {"type": "Point", "coordinates": [2.638614, 49.033924]}, "properties": {"year": 2022, "valeur_fonciere": 335000.0, "type_local": "Maison", "surface_reelle_bati": 156.0, "nombre_pieces_principales": 4.0, "adresse_nom_voie": "RUE DE PARIS", "price_per_sqm": 2147.4358974358975, "date_iso": "2022-05-16", "parcelle": "775110000A0714", "addr_num": "17"}}, {"type": "Feature", "geometry": {"type": "Point", "coordinates": [2.638683, 49.033858]}, "properties": {"year": 2022, "valeur_fonciere": 335000.0, "type_local": null, "surface_reelle_bati": null, "nombre_pieces_principales": null, "adresse_nom_voie": "RUE DE PARIS", "price_per_sqm": null, "date_iso": "2022-05-16", "parcelle": "775110000A0747", "addr_num": ""}}, {"type": "Feature", "geometry": {"type": "Point", "coordinates": [2.63851, 49.034161]}, "properties": {"year": 2022, "valeur_fonciere": 205000.0, "type_local": null, "surface_reelle_bati": null, "nombre_pieces_principales": null, "adresse_nom_voie": "RUE DES PRIMEVERES", "price_per_sqm": null, "date_iso": "2022-06-10", "parcelle": "775110000A0200", "addr_num": ""}}, {"type": "Feature", "geometry": {"type": "Point", "coordinates": [2.638601, 49.034178]}, "properties": {"year": 2022, "valeur_fonciere": 205000.0, "type_local": "Maison", "surface_reelle_bati": 55.0, "nombre_pieces_principales": 2.0, "adresse_nom_voie": "RUE DES PRIMEVERES", "price_per_sqm": 3727.2727272727275, "date_iso": "2022-06-10", "parcelle": "775110000A0201", "addr_num": "5"}}, {"type": "Feature", "geometry": {"type": "Point", "coordinates": [2.638361, 49.034204]}, "properties": {"year": 2022, "valeur_fonciere": 205000.0, "type_local": null, "surface_reelle_bati": null, "nombre_pieces_principales": null, "adresse_nom_voie": "RUE D ENFER", "price_per_sqm": null, "date_iso": "2022-06-10", "parcelle": "775110000A0418", "addr_num": ""}}, {"type": "Feature", "geometry": {"type": "Point", "coordinates": [2.638369, 49.034184]}, "properties": {"year": 2022, "valeur_fonciere": 205000.0, "type_local": null, "surface_reelle_bati": null, "nombre_pieces_principales": null, "adresse_nom_voie": "RUE D ENFER", "price_per_sqm": null, "date_iso": "2022-06-10", "parcelle": "775110000A0419", "addr_num": ""}}, {"type": "Feature", "geometry": {"type": "Point", "coordinates": [2.638377, 49.034143]}, "properties": {"year": 2022, "valeur_fonciere": 205000.0, "type_local": null, "surface_reelle_bati": null, "nombre_pieces_principales": null, "adresse_nom_voie": "RUE D ENFER", "price_per_sqm": null, "date_iso": "2022-06-10", "parcelle": "775110000A0420", "addr_num": ""}}, {"type": "Feature", "geometry": {"type": "Point", "coordinates": [2.641112, 49.034332]}, "properties": {"year": 2022, "valeur_fonciere": 850.0, "type_local": null, "surface_reelle_bati": null, "nombre_pieces_principales": null, "adresse_nom_voie": "RUE DE L EGLISE", "price_per_sqm": null, "date_iso": "2022-06-09", "parcelle": "775110000A0340", "addr_num": ""}}, {"type": "Feature", "geometry": {"type": "Point", "coordinates": [2.642052, 49.035974]}, "properties": {"year": 2022, "valeur_fonciere": 115000.0, "type_local": null, "surface_reelle_bati": null, "nombre_pieces_principales": null, "adresse_nom_voie": "RUE DE PARIS", "price_per_sqm": null, "date_iso": "2022-06-16", "parcelle": "775110000A0752", "addr_num": "61"}}, {"type": "Feature", "geometry": {"type": "Point", "coordinates": [2.640421, 49.035367]}, "properties": {"year": 2022, "valeur_fonciere": 303880.0, "type_local": "Maison", "surface_reelle_bati": 98.0, "nombre_pieces_principales": 4.0, "adresse_nom_voie": "RUE DES ROSIERS", "price_per_sqm": 3100.816326530612, "date_iso": "2022-06-22", "parcelle": "775110000A0270", "addr_num": "7"}}, {"type": "Feature", "geometry": {"type": "Point", "coordinates": [2.638663, 49.034284]}, "properties": {"year": 2022, "valeur_fonciere": 260000.0, "type_local": "Maison", "surface_reelle_bati": 86.0, "nombre_pieces_principales": 3.0, "adresse_nom_voie": "RUE DES PRIMEVERES", "price_per_sqm": 3023.2558139534885, "date_iso": "2022-07-20", "parcelle": "775110000A0203", "addr_num": "13"}}, {"type": "Feature", "geometry": {"type": "Point", "coordinates": [2.638752, 49.034261]}, "properties": {"year": 2022, "valeur_fonciere": 260000.0, "type_local": null, "surface_reelle_bati": null, "nombre_pieces_principales": null, "adresse_nom_voie": "RUE DES PRIMEVERES", "price_per_sqm": null, "date_iso": "2022-07-20", "parcelle": "775110000A0204", "addr_num": ""}}, {"type": "Feature", "geometry": {"type": "Point", "coordinates": [2.637915, 49.034266]}, "properties": {"year": 2022, "valeur_fonciere": 260000.0, "type_local": null, "surface_reelle_bati": null, "nombre_pieces_principales": null, "adresse_nom_voie": "RUE DES PRIMEVERES", "price_per_sqm": null, "date_iso": "2022-07-20", "parcelle": "775110000A0579", "addr_num": ""}}, {"type": "Feature", "geometry": {"type": "Point", "coordinates": [2.638032, 49.034212]}, "properties": {"year": 2022, "valeur_fonciere": 260000.0, "type_local": null, "surface_reelle_bati": null, "nombre_pieces_principales": null, "adresse_nom_voie": "RUE DES PRIMEVERES", "price_per_sqm": null, "date_iso": "2022-07-20", "parcelle": "775110000A0582", "addr_num": ""}}, {"type": "Feature", "geometry": {"type": "Point", "coordinates": [2.637858, 49.03575]}, "properties": {"year": 2022, "valeur_fonciere": 150000.0, "type_local": "Maison", "surface_reelle_bati": 60.0, "nombre_pieces_principales": 3.0, "adresse_nom_voie": "RUE DES PRIMEVERES", "price_per_sqm": 2500.0, "date_iso": "2022-07-28", "parcelle": "775110000A0152", "addr_num": "53"}}, {"type": "Feature", "geometry": {"type": "Point", "coordinates": [2.637709, 49.036082]}, "properties": {"year": 2022, "valeur_fonciere": 100000.0, "type_local": null, "surface_reelle_bati": null, "nombre_pieces_principales": null, "adresse_nom_voie": "RUE DES PRIMEVERES", "price_per_sqm": null, "date_iso": "2022-08-08", "parcelle": "775110000A0147", "addr_num": "61"}}, {"type": "Feature", "geometry": {"type": "Point", "coordinates": [2.643362, 49.033823]}, "properties": {"year": 2022, "valeur_fonciere": 128000.0, "type_local": "Dépendance", "surface_reelle_bati": null, "nombre_pieces_principales": 0.0, "adresse_nom_voie": "RUE DES TILLEULS", "price_per_sqm": null, "date_iso": "2022-09-05", "parcelle": "775110000A0728", "addr_num": "7"}}, {"type": "Feature", "geometry": {"type": "Point", "coordinates": [2.643362, 49.033823]}, "properties": {"year": 2022, "valeur_fonciere": 128000.0, "type_local": "Dépendance", "surface_reelle_bati": null, "nombre_pieces_principales": 0.0, "adresse_nom_voie": "RUE DES TILLEULS", "price_per_sqm": null, "date_iso": "2022-09-05", "parcelle": "775110000A0728", "addr_num": "7"}}, {"type": "Feature", "geometry": {"type": "Point", "coordinates": [2.643362, 49.033823]}, "properties": {"year": 2022, "valeur_fonciere": 128000.0, "type_local": "Appartement", "surface_reelle_bati": 35.0, "nombre_pieces_principales": 1.0, "adresse_nom_voie": "RUE DES TILLEULS", "price_per_sqm": 3657.1428571428573, "date_iso": "2022-09-05", "parcelle": "775110000A0728", "addr_num": "7"}}, {"type": "Feature", "geometry": {"type": "Point", "coordinates": [2.641228, 49.035142]}, "properties": {"year": 2022, "valeur_fonciere": 72000.0, "type_local": "Appartement", "surface_reelle_bati": 21.0, "nombre_pieces_principales": 1.0, "adresse_nom_voie": "RUE DE PARIS", "price_per_sqm": 3428.5714285714284, "date_iso": "2022-10-12", "parcelle": "775110000A0724", "addr_num": "24"}}, {"type": "Feature", "geometry": {"type": "Point", "coordinates": [2.641228, 49.035142]}, "properties": {"year": 2022, "valeur_fonciere": 72000.0, "type_local": "Dépendance", "surface_reelle_bati": null, "nombre_pieces_principales": 0.0, "adresse_nom_voie": "RUE DE PARIS", "price_per_sqm": null, "date_iso": "2022-10-12", "parcelle": "775110000A0724", "addr_num": "28"}}, {"type": "Feature", "geometry": {"type": "Point", "coordinates": [2.640684, 49.034966]}, "properties": {"year": 2022, "valeur_fonciere": 35000.0, "type_local": "Dépendance", "surface_reelle_bati": null, "nombre_pieces_principales": 0.0, "adresse_nom_voie": "COUR PAUL DUFRESNE", "price_per_sqm": null, "date_iso": "2022-12-14", "parcelle": "775110000A0257", "addr_num": "1"}}, {"type": "Feature", "geometry": {"type": "Point", "coordinates": [2.640684, 49.034966]}, "properties": {"year": 2022, "valeur_fonciere": 35000.0, "type_local": "Dépendance", "surface_reelle_bati": null, "nombre_pieces_principales": 0.0, "adresse_nom_voie": "COUR PAUL DUFRESNE", "price_per_sqm": null, "date_iso": "2022-12-14", "parcelle": "775110000A0257", "addr_num": "1"}}, {"type": "Feature", "geometry": {"type": "Point", "coordinates": [2.640797, 49.035014]}, "properties": {"year": 2022, "valeur_fonciere": 35000.0, "type_local": null, "surface_reelle_bati": null, "nombre_pieces_principales": null, "adresse_nom_voie": "LES CARNEAUX", "price_per_sqm": null, "date_iso": "2022-12-14", "parcelle": "775110000A0260", "addr_num": ""}}, {"type": "Feature", "geometry": {"type": "Point", "coordinates": [2.634122, 49.032022]}, "properties": {"year": 2022, "valeur_fonciere": 449000.0, "type_local": null, "surface_reelle_bati": null, "nombre_pieces_principales": null, "adresse_nom_voie": "RUE DE PARIS", "price_per_sqm": null, "date_iso": "2022-12-22", "parcelle": "775110000C0172", "addr_num": "2"}}, {"type": "Feature", "geometry": {"type": "Point", "coordinates": [2.634234, 49.031715]}, "properties": {"year": 2022, "valeur_fonciere": 449000.0, "type_local": null, "surface_reelle_bati": null, "nombre_pieces_principales": null, "adresse_nom_voie": "RUE DE PARIS", "price_per_sqm": null, "date_iso": "2022-12-22", "parcelle": "775110000C0174", "addr_num": "2"}}, {"type": "Feature", "geometry": {"type": "Point", "coordinates": [2.640996, 49.034819]}, "properties": {"year": 2022, "valeur_fonciere": 82000.0, "type_local": "Appartement", "surface_reelle_bati": 23.0, "nombre_pieces_principales": 2.0, "adresse_nom_voie": "RUE DE PARIS", "price_per_sqm": 3565.217391304348, "date_iso": "2022-12-23", "parcelle": "775110000A0569", "addr_num": "43"}}, {"type": "Feature", "geometry": {"type": "Point", "coordinates": [2.640345, 49.035493]}, "properties": {"year": 2023, "valeur_fonciere": 290000.0, "type_local": "Dépendance", "surface_reelle_bati": null, "nombre_pieces_principales": 0.0, "adresse_nom_voie": "RUE DES ROSIERS", "price_per_sqm": null, "date_iso": "2023-01-11", "parcelle": "775110000A0271", "addr_num": "9"}}, {"type": "Feature", "geometry": {"type": "Point", "coordinates": [2.640345, 49.035493]}, "properties": {"year": 2023, "valeur_fonciere": 290000.0, "type_local": "Dépendance", "surface_reelle_bati": null, "nombre_pieces_principales": 0.0, "adresse_nom_voie": "RUE DES ROSIERS", "price_per_sqm": null, "date_iso": "2023-01-11", "parcelle": "775110000A0271", "addr_num": "9"}}, {"type": "Feature", "geometry": {"type": "Point", "coordinates": [2.634122, 49.032022]}, "properties": {"year": 2023, "valeur_fonciere": 1125000.0, "type_local": null, "surface_reelle_bati": null, "nombre_pieces_principales": null, "adresse_nom_voie": "RUE DE PARIS", "price_per_sqm": null, "date_iso": "2023-01-18", "parcelle": "775110000C0172", "addr_num": "2"}}, {"type": "Feature", "geometry": {"type": "Point", "coordinates": [2.634234, 49.031715]}, "properties": {"year": 2023, "valeur_fonciere": 1125000.0, "type_local": null, "surface_reelle_bati": null, "nombre_pieces_principales": null, "adresse_nom_voie": "RUE DE PARIS", "price_per_sqm": null, "date_iso": "2023-01-18", "parcelle": "775110000C0174", "addr_num": "2"}}, {"type": "Feature", "geometry": {"type": "Point", "coordinates": [2.640684, 49.034966]}, "properties": {"year": 2023, "valeur_fonciere": 15000.0, "type_local": "Dépendance", "surface_reelle_bati": null, "nombre_pieces_principales": 0.0, "adresse_nom_voie": "COUR PAUL DUFRESNE", "price_per_sqm": null, "date_iso": "2023-02-13", "parcelle": "775110000A0257", "addr_num": "1"}}, {"type": "Feature", "geometry": {"type": "Point", "coordinates": [2.640797, 49.035014]}, "properties": {"year": 2023, "valeur_fonciere": 15000.0, "type_local": null, "surface_reelle_bati": null, "nombre_pieces_principales": null, "adresse_nom_voie": "LES CARNEAUX", "price_per_sqm": null, "date_iso": "2023-02-13", "parcelle": "775110000A0260", "addr_num": ""}}, {"type": "Feature", "geometry": {"type": "Point", "coordinates": [2.640684, 49.034966]}, "properties": {"year": 2023, "valeur_fonciere": 143000.0, "type_local": "Appartement", "surface_reelle_bati": 55.0, "nombre_pieces_principales": 3.0, "adresse_nom_voie": "RUE DE PARIS", "price_per_sqm": 2600.0, "date_iso": "2023-05-15", "parcelle": "775110000A0257", "addr_num": "47"}}, {"type": "Feature", "geometry": {"type": "Point", "coordinates": [2.640684, 49.034966]}, "properties": {"year": 2023, "valeur_fonciere": 143000.0, "type_local": "Dépendance", "surface_reelle_bati": null, "nombre_pieces_principales": 0.0, "adresse_nom_voie": "RUE DE PARIS", "price_per_sqm": null, "date_iso": "2023-05-15", "parcelle": "775110000A0257", "addr_num": "47"}}, {"type": "Feature", "geometry": {"type": "Point", "coordinates": [2.640797, 49.035014]}, "properties": {"year": 2023, "valeur_fonciere": 143000.0, "type_local": null, "surface_reelle_bati": null, "nombre_pieces_principales": null, "adresse_nom_voie": "LES CARNEAUX", "price_per_sqm": null, "date_iso": "2023-05-15", "parcelle": "775110000A0260", "addr_num": ""}}, {"type": "Feature", "geometry": {"type": "Point", "coordinates": [2.640684, 49.034966]}, "properties": {"year": 2023, "valeur_fonciere": 120000.0, "type_local": "Appartement", "surface_reelle_bati": 48.0, "nombre_pieces_principales": 3.0, "adresse_nom_voie": "COUR PAUL DUFRESNE", "price_per_sqm": 2500.0, "date_iso": "2023-05-15", "parcelle": "775110000A0257", "addr_num": "1"}}, {"type": "Feature", "geometry": {"type": "Point", "coordinates": [2.640684, 49.034966]}, "properties": {"year": 2023, "valeur_fonciere": 120000.0, "type_local": "Dépendance", "surface_reelle_bati": null, "nombre_pieces_principales": 0.0, "adresse_nom_voie": "COUR PAUL DUFRESNE", "price_per_sqm": null, "date_iso": "2023-05-15", "parcelle": "775110000A0257", "addr_num": "1"}}, {"type": "Feature", "geometry": {"type": "Point", "coordinates": [2.640797, 49.035014]}, "properties": {"year": 2023, "valeur_fonciere": 120000.0, "type_local": null, "surface_reelle_bati": null, "nombre_pieces_principales": null, "adresse_nom_voie": "LES CARNEAUX", "price_per_sqm": null, "date_iso": "2023-05-15", "parcelle": "775110000A0260", "addr_num": ""}}, {"type": "Feature", "geometry": {"type": "Point", "coordinates": [2.638881, 49.032758]}, "properties": {"year": 2023, "valeur_fonciere": 336000.0, "type_local": "Maison", "surface_reelle_bati": 95.0, "nombre_pieces_principales": 4.0, "adresse_nom_voie": "RUE DES ACACIAS", "price_per_sqm": 3536.842105263158, "date_iso": "2023-05-02", "parcelle": "775110000A0658", "addr_num": "6"}}, {"type": "Feature", "geometry": {"type": "Point", "coordinates": [2.638348, 49.032767]}, "properties": {"year": 2023, "valeur_fonciere": 336000.0, "type_local": null, "surface_reelle_bati": null, "nombre_pieces_principales": null, "adresse_nom_voie": "RUE DES ACACIAS", "price_per_sqm": null, "date_iso": "2023-05-02", "parcelle": "775110000A0700", "addr_num": "6"}}, {"type": "Feature", "geometry": {"type": "Point", "coordinates": [2.638368, 49.032796]}, "properties": {"year": 2023, "valeur_fonciere": 336000.0, "type_local": null, "surface_reelle_bati": null, "nombre_pieces_principales": null, "adresse_nom_voie": "RUE DES ACACIAS", "price_per_sqm": null, "date_iso": "2023-05-02", "parcelle": "775110000A0703", "addr_num": "6"}}, {"type": "Feature", "geometry": {"type": "Point", "coordinates": [2.638534, 49.032805]}, "properties": {"year": 2023, "valeur_fonciere": 336000.0, "type_local": null, "surface_reelle_bati": null, "nombre_pieces_principales": null, "adresse_nom_voie": "RUE DES ACACIAS", "price_per_sqm": null, "date_iso": "2023-05-02", "parcelle": "775110000A0705", "addr_num": "6"}}, {"type": "Feature", "geometry": {"type": "Point", "coordinates": [2.640733, 49.035595]}, "properties": {"year": 2023, "valeur_fonciere": 100000.0, "type_local": null, "surface_reelle_bati": null, "nombre_pieces_principales": null, "adresse_nom_voie": "LA RUE DE MOREMBU", "price_per_sqm": null, "date_iso": "2023-05-10", "parcelle": "775110000A0319", "addr_num": ""}}, {"type": "Feature", "geometry": {"type": "Point", "coordinates": [2.640888, 49.035525]}, "properties": {"year": 2023, "valeur_fonciere": 100000.0, "type_local": null, "surface_reelle_bati": null, "nombre_pieces_principales": null, "adresse_nom_voie": "LA RUE DE MOREMBU", "price_per_sqm": null, "date_iso": "2023-05-10", "parcelle": "775110000A0321", "addr_num": ""}}, {"type": "Feature", "geometry": {"type": "Point", "coordinates": [2.640938, 49.03544]}, "properties": {"year": 2023, "valeur_fonciere": 100000.0, "type_local": null, "surface_reelle_bati": null, "nombre_pieces_principales": null, "adresse_nom_voie": "LA RUE DE MOREMBU", "price_per_sqm": null, "date_iso": "2023-05-10", "parcelle": "775110000A0325", "addr_num": ""}}, {"type": "Feature", "geometry": {"type": "Point", "coordinates": [2.640982, 49.035395]}, "properties": {"year": 2023, "valeur_fonciere": 100000.0, "type_local": "Dépendance", "surface_reelle_bati": null, "nombre_pieces_principales": 0.0, "adresse_nom_voie": "RUE DE PARIS", "price_per_sqm": null, "date_iso": "2023-05-10", "parcelle": "775110000A0326", "addr_num": "49"}}, {"type": "Feature", "geometry": {"type": "Point", "coordinates": [2.640982, 49.035395]}, "properties": {"year": 2023, "valeur_fonciere": 100000.0, "type_local": "Maison", "surface_reelle_bati": 81.0, "nombre_pieces_principales": 4.0, "adresse_nom_voie": "RUE DE PARIS", "price_per_sqm": 1234.567901234568, "date_iso": "2023-05-10", "parcelle": "775110000A0326", "addr_num": "49"}}, {"type": "Feature", "geometry": {"type": "Point", "coordinates": [2.645604, 49.031274]}, "properties": {"year": 2023, "valeur_fonciere": 19000.0, "type_local": null, "surface_reelle_bati": null, "nombre_pieces_principales": null, "adresse_nom_voie": "LE PARC", "price_per_sqm": null, "date_iso": "2023-06-09", "parcelle": "775110000A0429", "addr_num": ""}}, {"type": "Feature", "geometry": {"type": "Point", "coordinates": [2.63926, 49.033997]}, "properties": {"year": 2023, "valeur_fonciere": 279970.0, "type_local": "Maison", "surface_reelle_bati": 97.0, "nombre_pieces_principales": 4.0, "adresse_nom_voie": "RUE DES PRIMEVERES", "price_per_sqm": 2886.2886597938145, "date_iso": "2023-06-28", "parcelle": "775110000A0741", "addr_num": "4"}}, {"type": "Feature", "geometry": {"type": "Point", "coordinates": [2.645076, 49.033991]}, "properties": {"year": 2023, "valeur_fonciere": 75000.0, "type_local": "Dépendance", "surface_reelle_bati": null, "nombre_pieces_principales": 0.0, "adresse_nom_voie": "RUE DES TILLEULS", "price_per_sqm": null, "date_iso": "2023-06-30", "parcelle": "775110000A0432", "addr_num": "7"}}, {"type": "Feature", "geometry": {"type": "Point", "coordinates": [2.645076, 49.033991]}, "properties": {"year": 2023, "valeur_fonciere": 75000.0, "type_local": "Dépendance", "surface_reelle_bati": null, "nombre_pieces_principales": 0.0, "adresse_nom_voie": "RUE DES TILLEULS", "price_per_sqm": null, "date_iso": "2023-06-30", "parcelle": "775110000A0432", "addr_num": "7"}}, {"type": "Feature", "geometry": {"type": "Point", "coordinates": [2.645076, 49.033991]}, "properties": {"year": 2023, "valeur_fonciere": 75000.0, "type_local": "Maison", "surface_reelle_bati": 70.0, "nombre_pieces_principales": 2.0, "adresse_nom_voie": "RUE DES TILLEULS", "price_per_sqm": 1071.4285714285713, "date_iso": "2023-06-30", "parcelle": "775110000A0432", "addr_num": "7"}}, {"type": "Feature", "geometry": {"type": "Point", "coordinates": [2.645076, 49.033991]}, "properties": {"year": 2023, "valeur_fonciere": 75000.0, "type_local": "Dépendance", "surface_reelle_bati": null, "nombre_pieces_principales": 0.0, "adresse_nom_voie": "RUE DES TILLEULS", "price_per_sqm": null, "date_iso": "2023-06-30", "parcelle": "775110000A0432", "addr_num": "7"}}, {"type": "Feature", "geometry": {"type": "Point", "coordinates": [2.645076, 49.033991]}, "properties": {"year": 2023, "valeur_fonciere": 75000.0, "type_local": "Dépendance", "surface_reelle_bati": null, "nombre_pieces_principales": 0.0, "adresse_nom_voie": "RUE DES TILLEULS", "price_per_sqm": null, "date_iso": "2023-06-30", "parcelle": "775110000A0432", "addr_num": "7"}}, {"type": "Feature", "geometry": {"type": "Point", "coordinates": [2.645076, 49.033991]}, "properties": {"year": 2023, "valeur_fonciere": 75000.0, "type_local": "Maison", "surface_reelle_bati": 70.0, "nombre_pieces_principales": 2.0, "adresse_nom_voie": "RUE DES TILLEULS", "price_per_sqm": 1071.4285714285713, "date_iso": "2023-06-30", "parcelle": "775110000A0432", "addr_num": "7"}}, {"type": "Feature", "geometry": {"type": "Point", "coordinates": [2.635064, 49.032254]}, "properties": {"year": 2023, "valeur_fonciere": 1.0, "type_local": "Local industriel. commercial ou assimilé", "surface_reelle_bati": 1010.0, "nombre_pieces_principales": 0.0, "adresse_nom_voie": "RUE DE PARIS", "price_per_sqm": 0.0009900990099009901, "date_iso": "2023-07-17", "parcelle": "775110000C0171", "addr_num": "2"}}, {"type": "Feature", "geometry": {"type": "Point", "coordinates": [2.635064, 49.032254]}, "properties": {"year": 2023, "valeur_fonciere": 1.0, "type_local": "Local industriel. commercial ou assimilé", "surface_reelle_bati": 1010.0, "nombre_pieces_principales": 0.0, "adresse_nom_voie": "RUE DE PARIS", "price_per_sqm": 0.0009900990099009901, "date_iso": "2023-07-17", "parcelle": "775110000C0171", "addr_num": "2"}}, {"type": "Feature", "geometry": {"type": "Point", "coordinates": [2.635199, 49.031802]}, "properties": {"year": 2023, "valeur_fonciere": 1.0, "type_local": null, "surface_reelle_bati": null, "nombre_pieces_principales": null, "adresse_nom_voie": "RUE DE PARIS", "price_per_sqm": null, "date_iso": "2023-07-17", "parcelle": "775110000C0173", "addr_num": "2"}}, {"type": "Feature", "geometry": {"type": "Point", "coordinates": [2.640821, 49.033868]}, "properties": {"year": 2023, "valeur_fonciere": 300000.0, "type_local": "Maison", "surface_reelle_bati": 140.0, "nombre_pieces_principales": 5.0, "adresse_nom_voie": "RUE DES TILLEULS", "price_per_sqm": 2142.8571428571427, "date_iso": "2023-07-27", "parcelle": "775110000A0523", "addr_num": "2"}}, {"type": "Feature", "geometry": {"type": "Point", "coordinates": [2.644141, 49.034738]}, "properties": {"year": 2023, "valeur_fonciere": 40000.0, "type_local": null, "surface_reelle_bati": null, "nombre_pieces_principales": null, "adresse_nom_voie": "LE PARC", "price_per_sqm": null, "date_iso": "2023-08-17", "parcelle": "775110000A0656", "addr_num": ""}}, {"type": "Feature", "geometry": {"type": "Point", "coordinates": [2.642236, 49.035625]}, "properties": {"year": 2023, "valeur_fonciere": 60000.0, "type_local": null, "surface_reelle_bati": null, "nombre_pieces_principales": null, "adresse_nom_voie": "LE PARC", "price_per_sqm": null, "date_iso": "2023-08-17", "parcelle": "775110000A0748", "addr_num": ""}}, {"type": "Feature", "geometry": {"type": "Point", "coordinates": [2.643079, 49.035412]}, "properties": {"year": 2023, "valeur_fonciere": 60000.0, "type_local": null, "surface_reelle_bati": null, "nombre_pieces_principales": null, "adresse_nom_voie": "LE PARC", "price_per_sqm": null, "date_iso": "2023-08-17", "parcelle": "775110000A0749", "addr_num": ""}}, {"type": "Feature", "geometry": {"type": "Point", "coordinates": [2.640797, 49.035014]}, "properties": {"year": 2023, "valeur_fonciere": 270000.0, "type_local": null, "surface_reelle_bati": null, "nombre_pieces_principales": null, "adresse_nom_voie": "LES CARNEAUX", "price_per_sqm": null, "date_iso": "2023-08-17", "parcelle": "775110000A0260", "addr_num": ""}}, {"type": "Feature", "geometry": {"type": "Point", "coordinates": [2.640898, 49.035029]}, "properties": {"year": 2023, "valeur_fonciere": 270000.0, "type_local": "Maison", "surface_reelle_bati": 112.0, "nombre_pieces_principales": 4.0, "adresse_nom_voie": "COUR PAUL DUFRESNE", "price_per_sqm": 2410.714285714286, "date_iso": "2023-08-17", "parcelle": "775110000A0262", "addr_num": "2"}}, {"type": "Feature", "geometry": {"type": "Point", "coordinates": [2.63838, 49.035916]}, "properties": {"year": 2023, "valeur_fonciere": 405000.0, "type_local": "Dépendance", "surface_reelle_bati": null, "nombre_pieces_principales": 0.0, "adresse_nom_voie": "RUE DES PRIMEVERES", "price_per_sqm": null, "date_iso": "2023-09-08", "parcelle": "775110000A0275", "addr_num": "46"}}, {"type": "Feature", "geometry": {"type": "Point", "coordinates": [2.63838, 49.035916]}, "properties": {"year": 2023, "valeur_fonciere": 405000.0, "type_local": "Dépendance", "surface_reelle_bati": null, "nombre_pieces_principales": 0.0, "adresse_nom_voie": "RUE DES PRIMEVERES", "price_per_sqm": null, "date_iso": "2023-09-08", "parcelle": "775110000A0275", "addr_num": "46"}}, {"type": "Feature", "geometry": {"type": "Point", "coordinates": [2.63838, 49.035916]}, "properties": {"year": 2023, "valeur_fonciere": 405000.0, "type_local": "Dépendance", "surface_reelle_bati": null, "nombre_pieces_principales": 0.0, "adresse_nom_voie": "RUE DES PRIMEVERES", "price_per_sqm": null, "date_iso": "2023-09-08", "parcelle": "775110000A0275", "addr_num": "46"}}, {"type": "Feature", "geometry": {"type": "Point", "coordinates": [2.63838, 49.035916]}, "properties": {"year": 2023, "valeur_fonciere": 405000.0, "type_local": "Maison", "surface_reelle_bati": 71.0, "nombre_pieces_principales": 2.0, "adresse_nom_voie": "RUE DES PRIMEVERES", "price_per_sqm": 5704.225352112676, "date_iso": "2023-09-08", "parcelle": "775110000A0275", "addr_num": "46"}}, {"type": "Feature", "geometry": {"type": "Point", "coordinates": [2.63838, 49.035916]}, "properties": {"year": 2023, "valeur_fonciere": 405000.0, "type_local": "Dépendance", "surface_reelle_bati": null, "nombre_pieces_principales": 0.0, "adresse_nom_voie": "RUE DES PRIMEVERES", "price_per_sqm": null, "date_iso": "2023-09-08", "parcelle": "775110000A0275", "addr_num": "46"}}, {"type": "Feature", "geometry": {"type": "Point", "coordinates": [2.63838, 49.035916]}, "properties": {"year": 2023, "valeur_fonciere": 405000.0, "type_local": "Maison", "surface_reelle_bati": 71.0, "nombre_pieces_principales": 2.0, "adresse_nom_voie": "RUE DES PRIMEVERES", "price_per_sqm": 5704.225352112676, "date_iso": "2023-09-08", "parcelle": "775110000A0275", "addr_num": "46"}}, {"type": "Feature", "geometry": {"type": "Point", "coordinates": [2.638111, 49.03593]}, "properties": {"year": 2023, "valeur_fonciere": 405000.0, "type_local": null, "surface_reelle_bati": null, "nombre_pieces_principales": null, "adresse_nom_voie": "RUE DES PRIMEVERES", "price_per_sqm": null, "date_iso": "2023-09-08", "parcelle": "775110000A0276", "addr_num": "46"}}, {"type": "Feature", "geometry": {"type": "Point", "coordinates": [2.638373, 49.036009]}, "properties": {"year": 2023, "valeur_fonciere": 405000.0, "type_local": null, "surface_reelle_bati": null, "nombre_pieces_principales": null, "adresse_nom_voie": "RUE DES PRIMEVERES", "price_per_sqm": null, "date_iso": "2023-09-08", "parcelle": "775110000A0409", "addr_num": "46"}}, {"type": "Feature", "geometry": {"type": "Point", "coordinates": [2.638373, 49.036009]}, "properties": {"year": 2023, "valeur_fonciere": 405000.0, "type_local": null, "surface_reelle_bati": null, "nombre_pieces_principales": null, "adresse_nom_voie": "RUE DES PRIMEVERES", "price_per_sqm": null, "date_iso": "2023-09-08", "parcelle": "775110000A0409", "addr_num": "46"}}, {"type": "Feature", "geometry": {"type": "Point", "coordinates": [2.654382, 49.028044]}, "properties": {"year": 2023, "valeur_fonciere": 56581.7, "type_local": null, "surface_reelle_bati": null, "nombre_pieces_principales": null, "adresse_nom_voie": "LE TEMPOT", "price_per_sqm": null, "date_iso": "2023-10-13", "parcelle": "77511000ZB0008", "addr_num": ""}}, {"type": "Feature", "geometry": {"type": "Point", "coordinates": [2.640755, 49.034922]}, "properties": {"year": 2023, "valeur_fonciere": 600.0, "type_local": null, "surface_reelle_bati": null, "nombre_pieces_principales": null, "adresse_nom_voie": "RUE DE PARIS", "price_per_sqm": null, "date_iso": "2023-11-10", "parcelle": "775110000A0259", "addr_num": ""}}, {"type": "Feature", "geometry": {"type": "Point", "coordinates": [2.640797, 49.035014]}, "properties": {"year": 2023, "valeur_fonciere": 600.0, "type_local": null, "surface_reelle_bati": null, "nombre_pieces_principales": null, "adresse_nom_voie": "LES CARNEAUX", "price_per_sqm": null, "date_iso": "2023-11-10", "parcelle": "775110000A0260", "addr_num": ""}}, {"type": "Feature", "geometry": {"type": "Point", "coordinates": [2.638614, 49.033924]}, "properties": {"year": 2023, "valeur_fonciere": 320000.0, "type_local": "Maison", "surface_reelle_bati": 156.0, "nombre_pieces_principales": 4.0, "adresse_nom_voie": "RUE DE PARIS", "price_per_sqm": 2051.2820512820513, "date_iso": "2023-12-14", "parcelle": "775110000A0714", "addr_num": "17"}}, {"type": "Feature", "geometry": {"type": "Point", "coordinates": [2.638683, 49.033858]}, "properties": {"year": 2023, "valeur_fonciere": 320000.0, "type_local": null, "surface_reelle_bati": null, "nombre_pieces_principales": null, "adresse_nom_voie": "RUE DE PARIS", "price_per_sqm": null, "date_iso": "2023-12-14", "parcelle": "775110000A0747", "addr_num": ""}}, {"type": "Feature", "geometry": {"type": "Point", "coordinates": [2.639232, 49.034093]}, "properties": {"year": 2024, "valeur_fonciere": 1202000.0, "type_local": null, "surface_reelle_bati": null, "nombre_pieces_principales": null, "adresse_nom_voie": "RUE DES PRIMEVERES", "price_per_sqm": null, "date_iso": "2024-03-12", "parcelle": "775110000A0742", "addr_num": "4"}}, {"type": "Feature", "geometry": {"type": "Point", "coordinates": [2.640417, 49.034558]}, "properties": {"year": 2024, "valeur_fonciere": 1202000.0, "type_local": null, "surface_reelle_bati": null, "nombre_pieces_principales": null, "adresse_nom_voie": "RUE DE PARIS", "price_per_sqm": null, "date_iso": "2024-03-12", "parcelle": "775110000A0754", "addr_num": ""}}, {"type": "Feature", "geometry": {"type": "Point", "coordinates": [2.63983, 49.03407]}, "properties": {"year": 2024, "valeur_fonciere": 778000.0, "type_local": null, "surface_reelle_bati": null, "nombre_pieces_principales": null, "adresse_nom_voie": "RUE DE PARIS", "price_per_sqm": null, "date_iso": "2024-03-21", "parcelle": "775110000A0756", "addr_num": "19"}}, {"type": "Feature", "geometry": {"type": "Point", "coordinates": [2.648509, 49.024838]}, "properties": {"year": 2024, "valeur_fonciere": 1604.0, "type_local": null, "surface_reelle_bati": null, "nombre_pieces_principales": null, "adresse_nom_voie": "LE BAS DU MARAIS", "price_per_sqm": null, "date_iso": "2024-03-27", "parcelle": "775110000B0228", "addr_num": ""}}, {"type": "Feature", "geometry": {"type": "Point", "coordinates": [2.631618, 49.034708]}, "properties": {"year": 2024, "valeur_fonciere": 2500.0, "type_local": null, "surface_reelle_bati": null, "nombre_pieces_principales": null, "adresse_nom_voie": "LA FEMME MORTE", "price_per_sqm": null, "date_iso": "2024-04-03", "parcelle": "775110000D0076", "addr_num": ""}}, {"type": "Feature", "geometry": {"type": "Point", "coordinates": [2.638052, 49.035043]}, "properties": {"year": 2024, "valeur_fonciere": 185000.0, "type_local": "Dépendance", "surface_reelle_bati": null, "nombre_pieces_principales": 0.0, "adresse_nom_voie": "COUR ADELE MALINGRE", "price_per_sqm": null, "date_iso": "2024-04-12", "parcelle": "775110000A0168", "addr_num": "6"}}, {"type": "Feature", "geometry": {"type": "Point", "coordinates": [2.638052, 49.035043]}, "properties": {"year": 2024, "valeur_fonciere": 185000.0, "type_local": "Dépendance", "surface_reelle_bati": null, "nombre_pieces_principales": 0.0, "adresse_nom_voie": "COUR ADELE MALINGRE", "price_per_sqm": null, "date_iso": "2024-04-12", "parcelle": "775110000A0168", "addr_num": "6"}}, {"type": "Feature", "geometry": {"type": "Point", "coordinates": [2.638052, 49.035043]}, "properties": {"year": 2024, "valeur_fonciere": 185000.0, "type_local": "Dépendance", "surface_reelle_bati": null, "nombre_pieces_principales": 0.0, "adresse_nom_voie": "COUR ADELE MALINGRE", "price_per_sqm": null, "date_iso": "2024-04-12", "parcelle": "775110000A0168", "addr_num": "6"}}, {"type": "Feature", "geometry": {"type": "Point", "coordinates": [2.638052, 49.035043]}, "properties": {"year": 2024, "valeur_fonciere": 185000.0, "type_local": "Maison", "surface_reelle_bati": 90.0, "nombre_pieces_principales": 4.0, "adresse_nom_voie": "COUR ADELE MALINGRE", "price_per_sqm": 2055.5555555555557, "date_iso": "2024-04-12", "parcelle": "775110000A0168", "addr_num": "6"}}, {"type": "Feature", "geometry": {"type": "Point", "coordinates": [2.638191, 49.035117]}, "properties": {"year": 2024, "valeur_fonciere": 185000.0, "type_local": null, "surface_reelle_bati": null, "nombre_pieces_principales": null, "adresse_nom_voie": "COUR ADELE MALINGRE", "price_per_sqm": null, "date_iso": "2024-04-12", "parcelle": "775110000A0169", "addr_num": "6"}}, {"type": "Feature", "geometry": {"type": "Point", "coordinates": [2.638244, 49.035136]}, "properties": {"year": 2024, "valeur_fonciere": 185000.0, "type_local": null, "surface_reelle_bati": null, "nombre_pieces_principales": null, "adresse_nom_voie": "COUR ADELE MALINGRE", "price_per_sqm": null, "date_iso": "2024-04-12", "parcelle": "775110000A0170", "addr_num": "6"}}, {"type": "Feature", "geometry": {"type": "Point", "coordinates": [2.63807, 49.035002]}, "properties": {"year": 2024, "valeur_fonciere": 185000.0, "type_local": null, "surface_reelle_bati": null, "nombre_pieces_principales": null, "adresse_nom_voie": "COUR ADELE MALINGRE", "price_per_sqm": null, "date_iso": "2024-04-12", "parcelle": "775110000A0173", "addr_num": "6"}}, {"type": "Feature", "geometry": {"type": "Point", "coordinates": [2.638706, 49.035165]}, "properties": {"year": 2024, "valeur_fonciere": 211000.0, "type_local": null, "surface_reelle_bati": null, "nombre_pieces_principales": null, "adresse_nom_voie": "COUR VICTOR ROUSSEAU", "price_per_sqm": null, "date_iso": "2024-10-17", "parcelle": "775110000A0220", "addr_num": ""}}, {"type": "Feature", "geometry": {"type": "Point", "coordinates": [2.638489, 49.035142]}, "properties": {"year": 2024, "valeur_fonciere": 211000.0, "type_local": "Maison", "surface_reelle_bati": 75.0, "nombre_pieces_principales": 4.0, "adresse_nom_voie": "COUR VICTOR ROUSSEAU", "price_per_sqm": 2813.3333333333335, "date_iso": "2024-10-17", "parcelle": "775110000A0221", "addr_num": "6"}}, {"type": "Feature", "geometry": {"type": "Point", "coordinates": [2.648746, 49.021173]}, "properties": {"year": 2024, "valeur_fonciere": 1000000.0, "type_local": null, "surface_reelle_bati": null, "nombre_pieces_principales": null, "adresse_nom_voie": "STAINS", "price_per_sqm": null, "date_iso": "2024-11-29", "parcelle": "775110000B0128", "addr_num": ""}}, {"type": "Feature", "geometry": {"type": "Point", "coordinates": [2.648891, 49.020688]}, "properties": {"year": 2024, "valeur_fonciere": 1000000.0, "type_local": null, "surface_reelle_bati": null, "nombre_pieces_principales": null, "adresse_nom_voie": "STAINS", "price_per_sqm": null, "date_iso": "2024-11-29", "parcelle": "775110000B0129", "addr_num": ""}}, {"type": "Feature", "geometry": {"type": "Point", "coordinates": [2.648312, 49.020375]}, "properties": {"year": 2024, "valeur_fonciere": 1000000.0, "type_local": null, "surface_reelle_bati": null, "nombre_pieces_principales": null, "adresse_nom_voie": "STAINS", "price_per_sqm": null, "date_iso": "2024-11-29", "parcelle": "775110000B0130", "addr_num": ""}}, {"type": "Feature", "geometry": {"type": "Point", "coordinates": [2.64796, 49.020847]}, "properties": {"year": 2024, "valeur_fonciere": 1000000.0, "type_local": null, "surface_reelle_bati": null, "nombre_pieces_principales": null, "adresse_nom_voie": "STAINS", "price_per_sqm": null, "date_iso": "2024-11-29", "parcelle": "775110000B0131", "addr_num": ""}}, {"type": "Feature", "geometry": {"type": "Point", "coordinates": [2.648311, 49.020231]}, "properties": {"year": 2024, "valeur_fonciere": 1000000.0, "type_local": "Local industriel. commercial ou assimilé", "surface_reelle_bati": 200.0, "nombre_pieces_principales": 0.0, "adresse_nom_voie": "RUE DU STAINS", "price_per_sqm": 5000.0, "date_iso": "2024-11-29", "parcelle": "775110000B0266", "addr_num": "17"}}, {"type": "Feature", "geometry": {"type": "Point", "coordinates": [2.648311, 49.020231]}, "properties": {"year": 2024, "valeur_fonciere": 1000000.0, "type_local": "Maison", "surface_reelle_bati": 325.0, "nombre_pieces_principales": 11.0, "adresse_nom_voie": "RUE DU STAINS", "price_per_sqm": 3076.923076923077, "date_iso": "2024-11-29", "parcelle": "775110000B0266", "addr_num": "17"}}, {"type": "Feature", "geometry": {"type": "Point", "coordinates": [2.648311, 49.020231]}, "properties": {"year": 2024, "valeur_fonciere": 1000000.0, "type_local": "Maison", "surface_reelle_bati": 70.0, "nombre_pieces_principales": 3.0, "adresse_nom_voie": "RUE DU STAINS", "price_per_sqm": 14285.714285714286, "date_iso": "2024-11-29", "parcelle": "775110000B0266", "addr_num": "17"}}, {"type": "Feature", "geometry": {"type": "Point", "coordinates": [2.648311, 49.020231]}, "properties": {"year": 2024, "valeur_fonciere": 1000000.0, "type_local": "Maison", "surface_reelle_bati": 22.0, "nombre_pieces_principales": 2.0, "adresse_nom_voie": "RUE DU STAINS", "price_per_sqm": 45454.545454545456, "date_iso": "2024-11-29", "parcelle": "775110000B0266", "addr_num": "17"}}, {"type": "Feature", "geometry": {"type": "Point", "coordinates": [2.648311, 49.020231]}, "properties": {"year": 2024, "valeur_fonciere": 1000000.0, "type_local": "Dépendance", "surface_reelle_bati": null, "nombre_pieces_principales": 0.0, "adresse_nom_voie": "RUE DU STAINS", "price_per_sqm": null, "date_iso": "2024-11-29", "parcelle": "775110000B0266", "addr_num": "17"}}, {"type": "Feature", "geometry": {"type": "Point", "coordinates": [2.648311, 49.020231]}, "properties": {"year": 2024, "valeur_fonciere": 1000000.0, "type_local": "Dépendance", "surface_reelle_bati": null, "nombre_pieces_principales": 0.0, "adresse_nom_voie": "RUE DU STAINS", "price_per_sqm": null, "date_iso": "2024-11-29", "parcelle": "775110000B0266", "addr_num": "17"}}, {"type": "Feature", "geometry": {"type": "Point", "coordinates": [2.648966, 49.020505]}, "properties": {"year": 2024, "valeur_fonciere": 1000000.0, "type_local": null, "surface_reelle_bati": null, "nombre_pieces_principales": null, "adresse_nom_voie": "RUE DU STAINS", "price_per_sqm": null, "date_iso": "2024-11-29", "parcelle": "775110000B0267", "addr_num": ""}}, {"type": "Feature", "geometry": {"type": "Point", "coordinates": [2.647756, 49.020441]}, "properties": {"year": 2024, "valeur_fonciere": 1000000.0, "type_local": null, "surface_reelle_bati": null, "nombre_pieces_principales": null, "adresse_nom_voie": "RUE DU STAINS", "price_per_sqm": null, "date_iso": "2024-11-29", "parcelle": "775110000B0268", "addr_num": ""}}, {"type": "Feature", "geometry": {"type": "Point", "coordinates": [2.649128, 49.02089]}, "properties": {"year": 2024, "valeur_fonciere": 1000000.0, "type_local": null, "surface_reelle_bati": null, "nombre_pieces_principales": null, "adresse_nom_voie": "RUE DU STAINS", "price_per_sqm": null, "date_iso": "2024-11-29", "parcelle": "775110000B0269", "addr_num": ""}}, {"type": "Feature", "geometry": {"type": "Point", "coordinates": [2.648613, 49.021102]}, "properties": {"year": 2024, "valeur_fonciere": 1000000.0, "type_local": null, "surface_reelle_bati": null, "nombre_pieces_principales": null, "adresse_nom_voie": "RUE DU STAINS", "price_per_sqm": null, "date_iso": "2024-11-29", "parcelle": "775110000B0270", "addr_num": ""}}, {"type": "Feature", "geometry": {"type": "Point", "coordinates": [2.648986, 49.020387]}, "properties": {"year": 2024, "valeur_fonciere": 1000000.0, "type_local": "Maison", "surface_reelle_bati": 100.0, "nombre_pieces_principales": 5.0, "adresse_nom_voie": "RUE DU STAINS", "price_per_sqm": 10000.0, "date_iso": "2024-11-29", "parcelle": "775110000B0271", "addr_num": "19"}}, {"type": "Feature", "geometry": {"type": "Point", "coordinates": [2.648986, 49.020387]}, "properties": {"year": 2024, "valeur_fonciere": 1000000.0, "type_local": "Maison", "surface_reelle_bati": 100.0, "nombre_pieces_principales": 5.0, "adresse_nom_voie": "RUE DU STAINS", "price_per_sqm": 10000.0, "date_iso": "2024-11-29", "parcelle": "775110000B0271", "addr_num": "19"}}, {"type": "Feature", "geometry": {"type": "Point", "coordinates": [2.648287, 49.019834]}, "properties": {"year": 2024, "valeur_fonciere": 1000000.0, "type_local": null, "surface_reelle_bati": null, "nombre_pieces_principales": null, "adresse_nom_voie": "RUE DU STAINS", "price_per_sqm": null, "date_iso": "2024-11-29", "parcelle": "775110000B0272", "addr_num": ""}}, {"type": "Feature", "geometry": {"type": "Point", "coordinates": [2.640797, 49.035014]}, "properties": {"year": 2025, "valeur_fonciere": 251108.0, "type_local": null, "surface_reelle_bati": null, "nombre_pieces_principales": null, "adresse_nom_voie": "LES CARNEAUX", "price_per_sqm": null, "date_iso": "2025-03-28", "parcelle": "775110000A0260", "addr_num": ""}}, {"type": "Feature", "geometry": {"type": "Point", "coordinates": [2.640898, 49.035029]}, "properties": {"year": 2025, "valeur_fonciere": 251108.0, "type_local": "Maison", "surface_reelle_bati": 112.0, "nombre_pieces_principales": 4.0, "adresse_nom_voie": "COUR PAUL DUFRESNE", "price_per_sqm": 2242.035714285714, "date_iso": "2025-03-28", "parcelle": "775110000A0262", "addr_num": "2"}}, {"type": "Feature", "geometry": {"type": "Point", "coordinates": [2.641157, 49.03439]}, "properties": {"year": 2025, "valeur_fonciere": 160000.0, "type_local": null, "surface_reelle_bati": null, "nombre_pieces_principales": null, "adresse_nom_voie": "RUE DE L EGLISE", "price_per_sqm": null, "date_iso": "2025-04-09", "parcelle": "775110000A0341", "addr_num": ""}}, {"type": "Feature", "geometry": {"type": "Point", "coordinates": [2.641117, 49.034439]}, "properties": {"year": 2025, "valeur_fonciere": 160000.0, "type_local": "Maison", "surface_reelle_bati": 60.0, "nombre_pieces_principales": 2.0, "adresse_nom_voie": "RUE DE L EGLISE", "price_per_sqm": 2666.6666666666665, "date_iso": "2025-04-09", "parcelle": "775110000A0343", "addr_num": "2"}}, {"type": "Feature", "geometry": {"type": "Point", "coordinates": [2.640996, 49.034819]}, "properties": {"year": 2025, "valeur_fonciere": 80000.0, "type_local": "Dépendance", "surface_reelle_bati": null, "nombre_pieces_principales": 0.0, "adresse_nom_voie": "RUE DE PARIS", "price_per_sqm": null, "date_iso": "2025-03-28", "parcelle": "775110000A0569", "addr_num": "41"}}, {"type": "Feature", "geometry": {"type": "Point", "coordinates": [2.640996, 49.034819]}, "properties": {"year": 2025, "valeur_fonciere": 80000.0, "type_local": "Appartement", "surface_reelle_bati": 27.0, "nombre_pieces_principales": 1.0, "adresse_nom_voie": "RUE DE PARIS", "price_per_sqm": 2962.962962962963, "date_iso": "2025-03-28", "parcelle": "775110000A0569", "addr_num": "41"}}, {"type": "Feature", "geometry": {"type": "Point", "coordinates": [2.641406, 49.03355]}, "properties": {"year": 2025, "valeur_fonciere": 137000.0, "type_local": null, "surface_reelle_bati": null, "nombre_pieces_principales": null, "adresse_nom_voie": "LA TOURNELLE", "price_per_sqm": null, "date_iso": "2025-03-31", "parcelle": "775110000B0044", "addr_num": ""}}, {"type": "Feature", "geometry": {"type": "Point", "coordinates": [2.641368, 49.033439]}, "properties": {"year": 2025, "valeur_fonciere": 137000.0, "type_local": null, "surface_reelle_bati": null, "nombre_pieces_principales": null, "adresse_nom_voie": "LA TOURNELLE", "price_per_sqm": null, "date_iso": "2025-03-31", "parcelle": "775110000B0045", "addr_num": ""}}, {"type": "Feature", "geometry": {"type": "Point", "coordinates": [2.637683, 49.036595]}, "properties": {"year": 2025, "valeur_fonciere": 270000.0, "type_local": "Maison", "surface_reelle_bati": 105.0, "nombre_pieces_principales": 4.0, "adresse_nom_voie": "RUE DES PRIMEVERES", "price_per_sqm": 2571.4285714285716, "date_iso": "2025-05-14", "parcelle": "775110000A0143", "addr_num": "69"}}, {"type": "Feature", "geometry": {"type": "Point", "coordinates": [2.637688, 49.036673]}, "properties": {"year": 2025, "valeur_fonciere": 270000.0, "type_local": null, "surface_reelle_bati": null, "nombre_pieces_principales": null, "adresse_nom_voie": "RUE DES PRIMEVERES", "price_per_sqm": null, "date_iso": "2025-05-14", "parcelle": "775110000A0616", "addr_num": "71"}}, {"type": "Feature", "geometry": {"type": "Point", "coordinates": [2.637654, 49.03646]}, "properties": {"year": 2025, "valeur_fonciere": 270000.0, "type_local": null, "surface_reelle_bati": null, "nombre_pieces_principales": null, "adresse_nom_voie": "RUE DES PRIMEVERES", "price_per_sqm": null, "date_iso": "2025-05-14", "parcelle": "775110000A0617", "addr_num": "67"}}, {"type": "Feature", "geometry": {"type": "Point", "coordinates": [2.640367, 49.033881]}, "properties": {"year": 2025, "valeur_fonciere": 118000.0, "type_local": "Appartement", "surface_reelle_bati": 50.0, "nombre_pieces_principales": 3.0, "adresse_nom_voie": "RUE DE PARIS", "price_per_sqm": 2360.0, "date_iso": "2025-06-04", "parcelle": "775110000A0539", "addr_num": "12"}}, {"type": "Feature", "geometry": {"type": "Point", "coordinates": [2.640421, 49.035367]}, "properties": {"year": 2025, "valeur_fonciere": 297500.0, "type_local": "Maison", "surface_reelle_bati": 98.0, "nombre_pieces_principales": 4.0, "adresse_nom_voie": "RUE DES ROSIERS", "price_per_sqm": 3035.714285714286, "date_iso": "2025-06-19", "parcelle": "775110000A0270", "addr_num": "7"}}, {"type": "Feature", "geometry": {"type": "Point", "coordinates": [2.637994, 49.035089]}, "properties": {"year": 2025, "valeur_fonciere": 275000.0, "type_local": "Maison", "surface_reelle_bati": 120.0, "nombre_pieces_principales": 5.0, "adresse_nom_voie": "RUE DES PRIMEVERES", "price_per_sqm": 2291.6666666666665, "date_iso": "2025-07-03", "parcelle": "775110000A0167", "addr_num": "35"}}, {"type": "Feature", "geometry": {"type": "Point", "coordinates": [2.638271, 49.035762]}, "properties": {"year": 2025, "valeur_fonciere": 315000.0, "type_local": "Maison", "surface_reelle_bati": 142.0, "nombre_pieces_principales": 3.0, "adresse_nom_voie": "RUE DES PRIMEVERES", "price_per_sqm": 2218.3098591549297, "date_iso": "2025-07-02", "parcelle": "775110000A0637", "addr_num": "44"}}, {"type": "Feature", "geometry": {"type": "Point", "coordinates": [2.640996, 49.034819]}, "properties": {"year": 2025, "valeur_fonciere": 140000.0, "type_local": "Appartement", "surface_reelle_bati": 48.0, "nombre_pieces_principales": 2.0, "adresse_nom_voie": "RUE DE PARIS", "price_per_sqm": 2916.6666666666665, "date_iso": "2025-09-05", "parcelle": "775110000A0569", "addr_num": "43"}}, {"type": "Feature", "geometry": {"type": "Point", "coordinates": [2.640996, 49.034819]}, "properties": {"year": 2025, "valeur_fonciere": 140000.0, "type_local": "Dépendance", "surface_reelle_bati": null, "nombre_pieces_principales": 0.0, "adresse_nom_voie": "RUE DE PARIS", "price_per_sqm": null, "date_iso": "2025-09-05", "parcelle": "775110000A0569", "addr_num": "43"}}, {"type": "Feature", "geometry": {"type": "Point", "coordinates": [2.643362, 49.033823]}, "properties": {"year": 2025, "valeur_fonciere": 150000.0, "type_local": "Dépendance", "surface_reelle_bati": null, "nombre_pieces_principales": 0.0, "adresse_nom_voie": "RUE DES TILLEULS", "price_per_sqm": null, "date_iso": "2025-09-08", "parcelle": "775110000A0728", "addr_num": "7"}}, {"type": "Feature", "geometry": {"type": "Point", "coordinates": [2.643362, 49.033823]}, "properties": {"year": 2025, "valeur_fonciere": 150000.0, "type_local": "Appartement", "surface_reelle_bati": 49.0, "nombre_pieces_principales": 2.0, "adresse_nom_voie": "RUE DES TILLEULS", "price_per_sqm": 3061.2244897959185, "date_iso": "2025-09-08", "parcelle": "775110000A0728", "addr_num": "7"}}, {"type": "Feature", "geometry": {"type": "Point", "coordinates": [2.643362, 49.033823]}, "properties": {"year": 2025, "valeur_fonciere": 150000.0, "type_local": "Dépendance", "surface_reelle_bati": null, "nombre_pieces_principales": 0.0, "adresse_nom_voie": "RUE DES TILLEULS", "price_per_sqm": null, "date_iso": "2025-09-08", "parcelle": "775110000A0728", "addr_num": "7"}}, {"type": "Feature", "geometry": {"type": "Point", "coordinates": [2.641228, 49.035142]}, "properties": {"year": 2025, "valeur_fonciere": 87500.0, "type_local": "Appartement", "surface_reelle_bati": 29.0, "nombre_pieces_principales": 1.0, "adresse_nom_voie": "RUE DE PARIS", "price_per_sqm": 3017.2413793103447, "date_iso": "2025-10-08", "parcelle": "775110000A0724", "addr_num": "26"}}, {"type": "Feature", "geometry": {"type": "Point", "coordinates": [2.641228, 49.035142]}, "properties": {"year": 2025, "valeur_fonciere": 87500.0, "type_local": "Dépendance", "surface_reelle_bati": null, "nombre_pieces_principales": 0.0, "adresse_nom_voie": "RUE DE PARIS", "price_per_sqm": null, "date_iso": "2025-10-08", "parcelle": "775110000A0724", "addr_num": "26"}}]}