{"type": "FeatureCollection", "features": [{"type": "Feature", "geometry": {"type": "Point", "coordinates": [2.700296, 48.299359]}, "properties": {"id_parcelle": "77302000AH0004", "address": "6 AV DES PINS", "sales": 16, "median_price": 247000.0, "median_price_per_sqm": 2449.786324786325, "median_rooms": 5.0, "first_sale": "2021-05-20", "last_sale": "2025-06-19"}}, {"type": "Feature", "geometry": {"type": "Point", "coordinates": [2.700602, 48.302644]}, "properties": {"id_parcelle": "77302000AD0097", "address": "2 RUE DE LA MOTTE", "sales": 12, "median_price": 124095.0, "median_price_per_sqm": 2195.4545454545455, "median_rooms": 0.0, "first_sale": "2022-09-29", "last_sale": "2025-09-06"}}, {"type": "Feature", "geometry": {"type": "Point", "coordinates": [2.717963, 48.310991]}, "properties": {"id_parcelle": "77302000AB0571", "address": "5191 CHE DES BORDES", "sales": 12, "median_price": 135000.0, "median_price_per_sqm": 2142.8571428571427, "median_rooms": 0.0, "first_sale": "2023-07-04", "last_sale": "2023-07-04"}}, {"type": "Feature", "geometry": {"type": "Point", "coordinates": [2.717261, 48.311378]}, "properties": {"id_parcelle": "77302000AB0186", "address": "9 CHE DES BORDES", "sales": 8, "median_price": 437000.0, "median_price_per_sqm": 4965.909090909091, "median_rooms": 0.0, "first_sale": "2024-11-04", "last_sale": "2024-11-04"}}, {"type": "Feature", "geometry": {"type": "Point", "coordinates": [2.706161, 48.305949]}, "properties": {"id_parcelle": "77302000AC0860", "address": "56 RTE DE MORET", "sales": 6, "median_price": 260000.0, "median_price_per_sqm": 7325.396825396825, "median_rooms": 0.5, "first_sale": "2021-08-07", "last_sale": "2021-08-07"}}, {"type": "Feature", "geometry": {"type": "Point", "coordinates": [2.704419, 48.302678]}, "properties": {"id_parcelle": "77302000AC0787", "address": "24 RTE DE MORET", "sales": 6, "median_price": 414030.0, "median_price_per_sqm": 2101.6751269035535, "median_rooms": 0.0, "first_sale": "2022-05-25", "last_sale": "2022-05-25"}}, {"type": "Feature", "geometry": {"type": "Point", "coordinates": [2.716561, 48.31104]}, "properties": {"id_parcelle": "77302000AB0621", "address": "3 CHE DES BORDES", "sales": 6, "median_price": 420000.0, "median_price_per_sqm": 2019.2307692307693, "median_rooms": 0.0, "first_sale": "2021-09-02", "last_sale": "2021-09-02"}}, {"type": "Feature", "geometry": {"type": "Point", "coordinates": [2.701411, 48.295245]}, "properties": {"id_parcelle": "77302000AH0228", "address": "32 AV DES ROUGEMONT", "sales": 6, "median_price": 245000.0, "median_price_per_sqm": 2634.4086021505373, "median_rooms": 0.0, "first_sale": "2024-08-08", "last_sale": "2025-12-12"}}, {"type": "Feature", "geometry": {"type": "Point", "coordinates": [2.708494, 48.306583]}, "properties": {"id_parcelle": "77302000AC0355", "address": "MONTCOURT", "sales": 4, "median_price": 400700.0, "median_price_per_sqm": null, "median_rooms": null, "first_sale": "2023-03-17", "last_sale": "2024-08-29"}}, {"type": "Feature", "geometry": {"type": "Point", "coordinates": [2.70749, 48.309019]}, "properties": {"id_parcelle": "77302000AC0635", "address": "149 RUE GRANDE", "sales": 4, "median_price": 234850.0, "median_price_per_sqm": 2500.0, "median_rooms": 4.0, "first_sale": "2021-01-29", "last_sale": "2023-01-31"}}, {"type": "Feature", "geometry": {"type": "Point", "coordinates": [2.703756, 48.305986]}, "properties": {"id_parcelle": "77302000AC0054", "address": "73 RUE GRANDE", "sales": 4, "median_price": 435000.0, "median_price_per_sqm": 2313.2183908045977, "median_rooms": 2.5, "first_sale": "2021-03-26", "last_sale": "2025-02-08"}}, {"type": "Feature", "geometry": {"type": "Point", "coordinates": [2.707687, 48.308707]}, "properties": {"id_parcelle": "77302000AB0077", "address": "2 RUE DE LA BOISSIERE", "sales": 4, "median_price": 98652.5, "median_price_per_sqm": 2192.277777777778, "median_rooms": 1.5, "first_sale": "2021-07-30", "last_sale": "2023-04-04"}}, {"type": "Feature", "geometry": {"type": "Point", "coordinates": [2.712256, 48.310301]}, "properties": {"id_parcelle": "77302000AB0256", "address": "89 RTE DE MORET", "sales": 4, "median_price": 358000.0, "median_price_per_sqm": 3254.5454545454545, "median_rooms": 1.0, "first_sale": "2022-08-31", "last_sale": "2022-08-31"}}, {"type": "Feature", "geometry": {"type": "Point", "coordinates": [2.692837, 48.300404]}, "properties": {"id_parcelle": "773020000A0406", "address": "LE CLOSEAU", "sales": 4, "median_price": 32500.0, "median_price_per_sqm": null, "median_rooms": null, "first_sale": "2021-07-07", "last_sale": "2021-12-17"}}, {"type": "Feature", "geometry": {"type": "Point", "coordinates": [2.697947, 48.30128]}, "properties": {"id_parcelle": "77302000AD0005", "address": "1 RUE GRANDE", "sales": 4, "median_price": 630000.0, "median_price_per_sqm": 10003.378378378378, "median_rooms": 3.0, "first_sale": "2025-07-11", "last_sale": "2025-07-11"}}, {"type": "Feature", "geometry": {"type": "Point", "coordinates": [2.704425, 48.305993]}, "properties": {"id_parcelle": "77302000AC0214", "address": "48 RUE GRANDE", "sales": 4, "median_price": 415350.0, "median_price_per_sqm": 2628.7974683544303, "median_rooms": 0.0, "first_sale": "2024-02-29", "last_sale": "2024-02-29"}}, {"type": "Feature", "geometry": {"type": "Point", "coordinates": [2.708445, 48.306795]}, "properties": {"id_parcelle": "77302000AC0356", "address": "72 RTE DE MORET", "sales": 4, "median_price": 400700.0, "median_price_per_sqm": 2671.3333333333335, "median_rooms": 6.0, "first_sale": "2023-03-17", "last_sale": "2024-08-29"}}, {"type": "Feature", "geometry": {"type": "Point", "coordinates": [2.702652, 48.301292]}, "properties": {"id_parcelle": "77302000AC0576", "address": "3 CHE DES FOSSES", "sales": 4, "median_price": 330000.0, "median_price_per_sqm": 4459.459459459459, "median_rooms": 2.0, "first_sale": "2024-07-19", "last_sale": "2024-07-19"}}, {"type": "Feature", "geometry": {"type": "Point", "coordinates": [2.696141, 48.296406]}, "properties": {"id_parcelle": "77302000AD0104", "address": "7 RES DU CHATEAU", "sales": 4, "median_price": 241000.0, "median_price_per_sqm": 2648.3516483516482, "median_rooms": 2.0, "first_sale": "2022-11-18", "last_sale": "2022-11-18"}}, {"type": "Feature", "geometry": {"type": "Point", "coordinates": [2.696146, 48.295848]}, "properties": {"id_parcelle": "77302000AE0089", "address": "33 RUE DE L EGLISE", "sales": 4, "median_price": 99000.0, "median_price_per_sqm": 838.9830508474577, "median_rooms": 2.5, "first_sale": "2022-11-26", "last_sale": "2022-11-26"}}, {"type": "Feature", "geometry": {"type": "Point", "coordinates": [2.70351, 48.29936]}, "properties": {"id_parcelle": "77302000AH0022", "address": "1 AV DU LAC", "sales": 4, "median_price": 345900.0, "median_price_per_sqm": 3116.2162162162163, "median_rooms": 0.0, "first_sale": "2025-11-29", "last_sale": "2025-11-29"}}, {"type": "Feature", "geometry": {"type": "Point", "coordinates": [2.707948, 48.304889]}, "properties": {"id_parcelle": "77302000AC0820", "address": "7 CHE DES ROCHERS", "sales": 4, "median_price": 410000.0, "median_price_per_sqm": 3014.705882352941, "median_rooms": 2.5, "first_sale": "2023-07-11", "last_sale": "2023-07-11"}}, {"type": "Feature", "geometry": {"type": "Point", "coordinates": [2.699396, 48.300204]}, "properties": {"id_parcelle": "77302000AD0175", "address": "5 RUE DU PARC", "sales": 4, "median_price": 371000.0, "median_price_per_sqm": 1200.0, "median_rooms": 0.0, "first_sale": "2024-04-03", "last_sale": "2024-07-29"}}, {"type": "Feature", "geometry": {"type": "Point", "coordinates": [2.696765, 48.294725]}, "properties": {"id_parcelle": "77302000AE0219", "address": "18 RUE DE L EGLISE", "sales": 3, "median_price": 322922.0, "median_price_per_sqm": 2409.865671641791, "median_rooms": 0.0, "first_sale": "2021-09-17", "last_sale": "2021-09-17"}}, {"type": "Feature", "geometry": {"type": "Point", "coordinates": [2.724825, 48.305453]}, "properties": {"id_parcelle": "77302000ZD0014", "address": "12 FERME DE L'ERABLE", "sales": 3, "median_price": 90000.0, "median_price_per_sqm": 1666.6666666666667, "median_rooms": 0.0, "first_sale": "2022-06-30", "last_sale": "2022-06-30"}}, {"type": "Feature", "geometry": {"type": "Point", "coordinates": [2.70404, 48.295495]}, "properties": {"id_parcelle": "77302000ZA0178", "address": "9 RUE DES CHAMPS", "sales": 3, "median_price": 1272000.0, "median_price_per_sqm": 517.0731707317074, "median_rooms": 0.0, "first_sale": "2022-05-23", "last_sale": "2022-05-23"}}, {"type": "Feature", "geometry": {"type": "Point", "coordinates": [2.707845, 48.306546]}, "properties": {"id_parcelle": "77302000AC0353", "address": "68 RTE DE MORET", "sales": 3, "median_price": 417500.0, "median_price_per_sqm": 5069.642857142857, "median_rooms": 0.0, "first_sale": "2022-03-02", "last_sale": "2022-03-02"}}, {"type": "Feature", "geometry": {"type": "Point", "coordinates": [2.703484, 48.303371]}, "properties": {"id_parcelle": "77302000AC0786", "address": "RTE DE MORET", "sales": 3, "median_price": 372950.0, "median_price_per_sqm": null, "median_rooms": null, "first_sale": "2021-02-26", "last_sale": "2022-05-25"}}, {"type": "Feature", "geometry": {"type": "Point", "coordinates": [2.703238, 48.300959]}, "properties": {"id_parcelle": "77302000AC0656", "address": "7 CHE DES FOSSES", "sales": 3, "median_price": 277000.0, "median_price_per_sqm": 1648.8095238095239, "median_rooms": 0.0, "first_sale": "2023-08-10", "last_sale": "2023-08-10"}}, {"type": "Feature", "geometry": {"type": "Point", "coordinates": [2.697104, 48.296539]}, "properties": {"id_parcelle": "77302000AD0127", "address": "2 RES DU CHATEAU", "sales": 3, "median_price": 344000.0, "median_price_per_sqm": 3822.222222222222, "median_rooms": 0.0, "first_sale": "2023-03-20", "last_sale": "2023-03-20"}}, {"type": "Feature", "geometry": {"type": "Point", "coordinates": [2.711326, 48.30943]}, "properties": {"id_parcelle": "77302000AB0049", "address": "1 CITE TIMBERT", "sales": 3, "median_price": 150000.0, "median_price_per_sqm": 1923.076923076923, "median_rooms": 4.0, "first_sale": "2024-01-04", "last_sale": "2025-12-16"}}, {"type": "Feature", "geometry": {"type": "Point", "coordinates": [2.704627, 48.305005]}, "properties": {"id_parcelle": "77302000AC0319", "address": "40 RTE DE MORET", "sales": 3, "median_price": 222400.0, "median_price_per_sqm": 2138.4615384615386, "median_rooms": 0.0, "first_sale": "2022-04-19", "last_sale": "2022-04-19"}}, {"type": "Feature", "geometry": {"type": "Point", "coordinates": [2.707118, 48.308254]}, "properties": {"id_parcelle": "77302000AC0156", "address": "90 RUE GRANDE", "sales": 3, "median_price": 360000.0, "median_price_per_sqm": 3333.3333333333335, "median_rooms": 0.0, "first_sale": "2024-07-04", "last_sale": "2024-07-04"}}, {"type": "Feature", "geometry": {"type": "Point", "coordinates": [2.707077, 48.306421]}, "properties": {"id_parcelle": "77302000AC0839", "address": "64 RTE DE MORET", "sales": 3, "median_price": 280000.0, "median_price_per_sqm": 2500.0, "median_rooms": 0.0, "first_sale": "2023-12-18", "last_sale": "2023-12-18"}}, {"type": "Feature", "geometry": {"type": "Point", "coordinates": [2.712827, 48.30912]}, "properties": {"id_parcelle": "77302000AB0685", "address": "LES NOUES", "sales": 2, "median_price": 90000.0, "median_price_per_sqm": null, "median_rooms": null, "first_sale": "2022-10-04", "last_sale": "2022-11-04"}}, {"type": "Feature", "geometry": {"type": "Point", "coordinates": [2.713019, 48.309168]}, "properties": {"id_parcelle": "77302000AB0684", "address": "LES NOUES", "sales": 2, "median_price": 87000.0, "median_price_per_sqm": null, "median_rooms": null, "first_sale": "2022-10-04", "last_sale": "2024-04-26"}}, {"type": "Feature", "geometry": {"type": "Point", "coordinates": [2.712843, 48.309134]}, "properties": {"id_parcelle": "77302000AB0682", "address": "LES NOUES", "sales": 2, "median_price": 90000.0, "median_price_per_sqm": null, "median_rooms": null, "first_sale": "2022-10-04", "last_sale": "2022-11-04"}}, {"type": "Feature", "geometry": {"type": "Point", "coordinates": [2.712818, 48.30913]}, "properties": {"id_parcelle": "77302000AB0681", "address": "LES NOUES", "sales": 2, "median_price": 90000.0, "median_price_per_sqm": null, "median_rooms": null, "first_sale": "2022-10-04", "last_sale": "2022-11-04"}}, {"type": "Feature", "geometry": {"type": "Point", "coordinates": [2.713079, 48.3088]}, "properties": {"id_parcelle": "77302000AB0680", "address": "LE CLOSEAU", "sales": 2, "median_price": 90000.0, "median_price_per_sqm": null, "median_rooms": null, "first_sale": "2022-10-04", "last_sale": "2022-11-04"}}, {"type": "Feature", "geometry": {"type": "Point", "coordinates": [2.712878, 48.309066]}, "properties": {"id_parcelle": "77302000AB0689", "address": "LES NOUES", "sales": 2, "median_price": 90000.0, "median_price_per_sqm": null, "median_rooms": null, "first_sale": "2022-10-04", "last_sale": "2022-11-04"}}, {"type": "Feature", "geometry": {"type": "Point", "coordinates": [2.713019, 48.309159]}, "properties": {"id_parcelle": "77302000AB0688", "address": "LES NOUES", "sales": 2, "median_price": 87000.0, "median_price_per_sqm": null, "median_rooms": null, "first_sale": "2022-10-04", "last_sale": "2024-04-26"}}, {"type": "Feature", "geometry": {"type": "Point", "coordinates": [2.712852, 48.309125]}, "properties": {"id_parcelle": "77302000AB0686", "address": "LES NOUES", "sales": 2, "median_price": 90000.0, "median_price_per_sqm": null, "median_rooms": null, "first_sale": "2022-10-04", "last_sale": "2022-11-04"}}, {"type": "Feature", "geometry": {"type": "Point", "coordinates": [2.712839, 48.308949]}, "properties": {"id_parcelle": "77302000AB0676", "address": "LE CLOSEAU", "sales": 2, "median_price": 90000.0, "median_price_per_sqm": null, "median_rooms": null, "first_sale": "2022-10-04", "last_sale": "2022-11-04"}}, {"type": "Feature", "geometry": {"type": "Point", "coordinates": [2.712703, 48.309093]}, "properties": {"id_parcelle": "77302000AB0675", "address": "LE CLOSEAU", "sales": 2, "median_price": 90000.0, "median_price_per_sqm": null, "median_rooms": null, "first_sale": "2022-10-04", "last_sale": "2022-11-04"}}, {"type": "Feature", "geometry": {"type": "Point", "coordinates": [2.708348, 48.308214]}, "properties": {"id_parcelle": "77302000AB0656", "address": "5 RUE DE GREZ", "sales": 2, "median_price": 30000.0, "median_price_per_sqm": null, "median_rooms": 0.0, "first_sale": "2021-07-19", "last_sale": "2021-07-19"}}, {"type": "Feature", "geometry": {"type": "Point", "coordinates": [2.709808, 48.309504]}, "properties": {"id_parcelle": "77302000AB0640", "address": "LA BOISSIERE", "sales": 2, "median_price": 174000.0, "median_price_per_sqm": null, "median_rooms": null, "first_sale": "2022-09-09", "last_sale": "2024-07-23"}}, {"type": "Feature", "geometry": {"type": "Point", "coordinates": [2.714391, 48.310198]}, "properties": {"id_parcelle": "77302000AB0597", "address": "97 RTE DE MORET", "sales": 2, "median_price": 361000.0, "median_price_per_sqm": 2455.78231292517, "median_rooms": 2.5, "first_sale": "2023-07-21", "last_sale": "2023-07-21"}}, {"type": "Feature", "geometry": {"type": "Point", "coordinates": [2.712153, 48.309365]}, "properties": {"id_parcelle": "77302000AB0043", "address": "39 RUE DE LA BOISSIERE", "sales": 2, "median_price": 489000.0, "median_price_per_sqm": 3134.6153846153848, "median_rooms": 3.0, "first_sale": "2023-05-31", "last_sale": "2023-05-31"}}, {"type": "Feature", "geometry": {"type": "Point", "coordinates": [2.716002, 48.310144]}, "properties": {"id_parcelle": "77302000AB0497", "address": "2 RES LA BOISSIERE", "sales": 2, "median_price": 312500.0, "median_price_per_sqm": 3255.2083333333335, "median_rooms": 2.5, "first_sale": "2022-06-11", "last_sale": "2022-06-11"}}, {"type": "Feature", "geometry": {"type": "Point", "coordinates": [2.713341, 48.308644]}, "properties": {"id_parcelle": "77302000AB0487", "address": "9 RES LES NOUES", "sales": 2, "median_price": 302000.0, "median_price_per_sqm": 2126.760563380282, "median_rooms": 3.0, "first_sale": "2021-06-29", "last_sale": "2021-06-29"}}, {"type": "Feature", "geometry": {"type": "Point", "coordinates": [2.71712, 48.311088]}, "properties": {"id_parcelle": "77302000AB0184", "address": "7 CHE DES BORDES", "sales": 2, "median_price": 370000.0, "median_price_per_sqm": 2720.5882352941176, "median_rooms": 7.0, "first_sale": "2021-10-15", "last_sale": "2021-10-15"}}, {"type": "Feature", "geometry": {"type": "Point", "coordinates": [2.717107, 48.311224]}, "properties": {"id_parcelle": "77302000AB0185", "address": "LE PROTESTANT", "sales": 2, "median_price": 370000.0, "median_price_per_sqm": null, "median_rooms": null, "first_sale": "2021-10-15", "last_sale": "2021-10-15"}}, {"type": "Feature", "geometry": {"type": "Point", "coordinates": [2.710044, 48.309348]}, "properties": {"id_parcelle": "77302000AB0019", "address": "23 RUE DE LA BOISSIERE", "sales": 2, "median_price": 213000.0, "median_price_per_sqm": 3328.125, "median_rooms": 1.5, "first_sale": "2022-09-09", "last_sale": "2022-09-09"}}, {"type": "Feature", "geometry": {"type": "Point", "coordinates": [2.710491, 48.308619]}, "properties": {"id_parcelle": "77302000AB0059", "address": "81 RTE DE MORET", "sales": 2, "median_price": 190000.0, "median_price_per_sqm": 2714.285714285714, "median_rooms": 1.5, "first_sale": "2022-04-28", "last_sale": "2022-04-28"}}, {"type": "Feature", "geometry": {"type": "Point", "coordinates": [2.708763, 48.307713]}, "properties": {"id_parcelle": "77302000AB0088", "address": "9 RUE DE GREZ", "sales": 2, "median_price": 88921.8, "median_price_per_sqm": 711.3744, "median_rooms": 3.0, "first_sale": "2024-11-26", "last_sale": "2024-11-26"}}, {"type": "Feature", "geometry": {"type": "Point", "coordinates": [2.712868, 48.309023]}, "properties": {"id_parcelle": "77302000AB0679", "address": "LE CLOSEAU", "sales": 2, "median_price": 90000.0, "median_price_per_sqm": null, "median_rooms": null, "first_sale": "2022-10-04", "last_sale": "2022-11-04"}}, {"type": "Feature", "geometry": {"type": "Point", "coordinates": [2.712763, 48.309107]}, "properties": {"id_parcelle": "77302000AB0678", "address": "LE CLOSEAU", "sales": 2, "median_price": 90000.0, "median_price_per_sqm": null, "median_rooms": null, "first_sale": "2022-10-04", "last_sale": "2022-11-04"}}, {"type": "Feature", "geometry": {"type": "Point", "coordinates": [2.713012, 48.308774]}, "properties": {"id_parcelle": "77302000AB0677", "address": "LE CLOSEAU", "sales": 2, "median_price": 90000.0, "median_price_per_sqm": null, "median_rooms": null, "first_sale": "2022-10-04", "last_sale": "2022-11-04"}}, {"type": "Feature", "geometry": {"type": "Point", "coordinates": [2.706789, 48.307057]}, "properties": {"id_parcelle": "77302000AC0179", "address": "53 RTE DE MORET", "sales": 2, "median_price": 200000.0, "median_price_per_sqm": 2173.913043478261, "median_rooms": 5.0, "first_sale": "2025-09-19", "last_sale": "2025-09-19"}}, {"type": "Feature", "geometry": {"type": "Point", "coordinates": [2.703425, 48.306192]}, "properties": {"id_parcelle": "77302000AC0053", "address": "MONTCOURT", "sales": 2, "median_price": 402500.0, "median_price_per_sqm": null, "median_rooms": null, "first_sale": "2021-03-26", "last_sale": "2025-02-08"}}, {"type": "Feature", "geometry": {"type": "Point", "coordinates": [2.706912, 48.308187]}, "properties": {"id_parcelle": "77302000AC0161", "address": "88 RUE GRANDE", "sales": 2, "median_price": 431250.0, "median_price_per_sqm": 5390.625, "median_rooms": 4.0, "first_sale": "2021-07-02", "last_sale": "2023-09-01"}}, {"type": "Feature", "geometry": {"type": "Point", "coordinates": [2.704231, 48.305397]}, "properties": {"id_parcelle": "77302000AC0219", "address": "31 RTE DE MORET", "sales": 2, "median_price": 348000.0, "median_price_per_sqm": 3026.086956521739, "median_rooms": 2.0, "first_sale": "2021-10-25", "last_sale": "2021-10-25"}}, {"type": "Feature", "geometry": {"type": "Point", "coordinates": [2.713178, 48.30892]}, "properties": {"id_parcelle": "77302000AB0692", "address": "112 LES NOUES", "sales": 2, "median_price": 87000.0, "median_price_per_sqm": null, "median_rooms": null, "first_sale": "2022-10-04", "last_sale": "2024-04-26"}}, {"type": "Feature", "geometry": {"type": "Point", "coordinates": [2.699723, 48.302208]}, "properties": {"id_parcelle": "77302000AD0017", "address": "11 RUE GRANDE", "sales": 2, "median_price": 95000.0, "median_price_per_sqm": 1357.142857142857, "median_rooms": 1.5, "first_sale": "2025-09-05", "last_sale": "2025-09-05"}}, {"type": "Feature", "geometry": {"type": "Point", "coordinates": [2.702891, 48.30545]}, "properties": {"id_parcelle": "77302000AC0899", "address": "63 RUE GRANDE", "sales": 2, "median_price": 320000.0, "median_price_per_sqm": 3047.6190476190477, "median_rooms": 2.0, "first_sale": "2024-11-26", "last_sale": "2024-11-26"}}, {"type": "Feature", "geometry": {"type": "Point", "coordinates": [2.704589, 48.302788]}, "properties": {"id_parcelle": "77302000AC0790", "address": "26 RTE DE MORET", "sales": 2, "median_price": 372950.0, "median_price_per_sqm": 2589.9305555555557, "median_rooms": 5.0, "first_sale": "2021-02-26", "last_sale": "2021-02-26"}}, {"type": "Feature", "geometry": {"type": "Point", "coordinates": [2.704178, 48.302992]}, "properties": {"id_parcelle": "77302000AC0788", "address": "MONTCOURT", "sales": 2, "median_price": 393490.0, "median_price_per_sqm": null, "median_rooms": null, "first_sale": "2021-02-26", "last_sale": "2022-05-25"}}, {"type": "Feature", "geometry": {"type": "Point", "coordinates": [2.709166, 48.306048]}, "properties": {"id_parcelle": "77302000AC0360", "address": "LES MARSAULTS", "sales": 2, "median_price": 400700.0, "median_price_per_sqm": null, "median_rooms": null, "first_sale": "2023-03-17", "last_sale": "2024-08-29"}}, {"type": "Feature", "geometry": {"type": "Point", "coordinates": [2.70648, 48.304558]}, "properties": {"id_parcelle": "77302000AC0420", "address": "10 CHE DES ROCHERS", "sales": 2, "median_price": 317465.0, "median_price_per_sqm": 2088.5855263157896, "median_rooms": 6.0, "first_sale": "2021-03-09", "last_sale": "2021-03-09"}}, {"type": "Feature", "geometry": {"type": "Point", "coordinates": [2.700174, 48.303803]}, "properties": {"id_parcelle": "77302000AC0653", "address": "31 RUE GRANDE", "sales": 2, "median_price": 270000.0, "median_price_per_sqm": 2045.4545454545455, "median_rooms": 7.0, "first_sale": "2021-05-22", "last_sale": "2021-05-22"}}, {"type": "Feature", "geometry": {"type": "Point", "coordinates": [2.713055, 48.308906]}, "properties": {"id_parcelle": "77302000AB0690", "address": "LES NOUES", "sales": 2, "median_price": 90000.0, "median_price_per_sqm": null, "median_rooms": null, "first_sale": "2022-10-04", "last_sale": "2022-11-04"}}, {"type": "Feature", "geometry": {"type": "Point", "coordinates": [2.707156, 48.307966]}, "properties": {"id_parcelle": "77302000AC0160", "address": "MONTCOURT", "sales": 2, "median_price": 431250.0, "median_price_per_sqm": null, "median_rooms": null, "first_sale": "2021-07-02", "last_sale": "2023-09-01"}}, {"type": "Feature", "geometry": {"type": "Point", "coordinates": [2.704567, 48.306656]}, "properties": {"id_parcelle": "77302000AC0074", "address": "95 RUE GRANDE", "sales": 2, "median_price": 215000.0, "median_price_per_sqm": 3741.676755447942, "median_rooms": 0.0, "first_sale": "2023-07-07", "last_sale": "2023-07-07"}}, {"type": "Feature", "geometry": {"type": "Point", "coordinates": [2.7017, 48.304044]}, "properties": {"id_parcelle": "77302000AC0009", "address": "41 RUE GRANDE", "sales": 2, "median_price": 175000.0, "median_price_per_sqm": 2625.0, "median_rooms": 2.5, "first_sale": "2021-10-12", "last_sale": "2021-10-12"}}, {"type": "Feature", "geometry": {"type": "Point", "coordinates": [2.700165, 48.302979]}, "properties": {"id_parcelle": "77302000AD0100", "address": "25 RUE GRANDE", "sales": 2, "median_price": 87000.0, "median_price_per_sqm": 1318.1818181818182, "median_rooms": 1.5, "first_sale": "2025-04-22", "last_sale": "2025-04-22"}}, {"type": "Feature", "geometry": {"type": "Point", "coordinates": [2.695458, 48.296844]}, "properties": {"id_parcelle": "77302000AD0108", "address": "15 RES DU CHATEAU", "sales": 2, "median_price": 340000.0, "median_price_per_sqm": 2833.3333333333335, "median_rooms": 6.0, "first_sale": "2021-06-14", "last_sale": "2021-06-14"}}, {"type": "Feature", "geometry": {"type": "Point", "coordinates": [2.698179, 48.301648]}, "properties": {"id_parcelle": "77302000AD0075", "address": "RUE GRANDE", "sales": 2, "median_price": 280000.0, "median_price_per_sqm": null, "median_rooms": null, "first_sale": "2025-05-28", "last_sale": "2025-05-28"}}, {"type": "Feature", "geometry": {"type": "Point", "coordinates": [2.698082, 48.30158]}, "properties": {"id_parcelle": "77302000AD0088", "address": "1 RUE GRANDE", "sales": 2, "median_price": 280000.0, "median_price_per_sqm": 2800.0, "median_rooms": 4.0, "first_sale": "2025-05-28", "last_sale": "2025-05-28"}}, {"type": "Feature", "geometry": {"type": "Point", "coordinates": [2.699686, 48.301593]}, "properties": {"id_parcelle": "77302000AD0071", "address": "6 RUE GRANDE", "sales": 2, "median_price": 228800.0, "median_price_per_sqm": 3268.5714285714284, "median_rooms": 1.5, "first_sale": "2024-12-04", "last_sale": "2024-12-04"}}, {"type": "Feature", "geometry": {"type": "Point", "coordinates": [2.696781, 48.294615]}, "properties": {"id_parcelle": "77302000AE0217", "address": "16 RUE DE L EGLISE", "sales": 2, "median_price": 280000.0, "median_price_per_sqm": 3218.390804597701, "median_rooms": 4.0, "first_sale": "2022-02-23", "last_sale": "2022-02-23"}}, {"type": "Feature", "geometry": {"type": "Point", "coordinates": [2.693529, 48.290514]}, "properties": {"id_parcelle": "77302000AE0197", "address": "8 CHE DES LARRIS", "sales": 2, "median_price": 353000.0, "median_price_per_sqm": 1838.5416666666667, "median_rooms": 6.0, "first_sale": "2021-07-06", "last_sale": "2021-07-06"}}, {"type": "Feature", "geometry": {"type": "Point", "coordinates": [2.695628, 48.293848]}, "properties": {"id_parcelle": "77302000AE0153", "address": "15 RUE DE L EGLISE", "sales": 2, "median_price": 440000.0, "median_price_per_sqm": 4074.074074074074, "median_rooms": 4.0, "first_sale": "2022-11-25", "last_sale": "2022-11-25"}}, {"type": "Feature", "geometry": {"type": "Point", "coordinates": [2.693992, 48.291142]}, "properties": {"id_parcelle": "77302000AE0021", "address": "4 CHE DES LARRIS", "sales": 2, "median_price": 315000.0, "median_price_per_sqm": 1529.126213592233, "median_rooms": 7.0, "first_sale": "2021-06-03", "last_sale": "2021-06-03"}}, {"type": "Feature", "geometry": {"type": "Point", "coordinates": [2.700993, 48.3018]}, "properties": {"id_parcelle": "77302000AD0138", "address": "9 RES LES JARDINS DE CELINE", "sales": 2, "median_price": 325000.0, "median_price_per_sqm": 3735.632183908046, "median_rooms": 2.0, "first_sale": "2025-03-01", "last_sale": "2025-03-01"}}, {"type": "Feature", "geometry": {"type": "Point", "coordinates": [2.699587, 48.300842]}, "properties": {"id_parcelle": "77302000AD0185", "address": "3 RUE DU PARC", "sales": 2, "median_price": 343400.0, "median_price_per_sqm": 2506.5693430656934, "median_rooms": 2.5, "first_sale": "2025-02-28", "last_sale": "2025-02-28"}}, {"type": "Feature", "geometry": {"type": "Point", "coordinates": [2.703825, 48.298605]}, "properties": {"id_parcelle": "77302000AH0058", "address": "9 AV DES CHATAIGNIERS", "sales": 2, "median_price": 202500.0, "median_price_per_sqm": 2275.2808988764045, "median_rooms": 5.0, "first_sale": "2021-11-06", "last_sale": "2025-12-16"}}, {"type": "Feature", "geometry": {"type": "Point", "coordinates": [2.703354, 48.299236]}, "properties": {"id_parcelle": "77302000AH0023", "address": "3 AV DU LAC", "sales": 2, "median_price": 272000.0, "median_price_per_sqm": 2615.3846153846152, "median_rooms": 2.5, "first_sale": "2024-01-18", "last_sale": "2024-01-18"}}, {"type": "Feature", "geometry": {"type": "Point", "coordinates": [2.699413, 48.296294]}, "properties": {"id_parcelle": "77302000AH0160", "address": "45 AV DU LAC", "sales": 2, "median_price": 194000.0, "median_price_per_sqm": 1813.0841121495328, "median_rooms": 5.0, "first_sale": "2023-05-05", "last_sale": "2023-05-05"}}, {"type": "Feature", "geometry": {"type": "Point", "coordinates": [2.699813, 48.298772]}, "properties": {"id_parcelle": "77302000AH0114", "address": "28 AV DES ACACIAS", "sales": 2, "median_price": 290000.0, "median_price_per_sqm": 2710.2803738317757, "median_rooms": 2.5, "first_sale": "2025-09-09", "last_sale": "2025-09-09"}}, {"type": "Feature", "geometry": {"type": "Point", "coordinates": [2.703888, 48.2978]}, "properties": {"id_parcelle": "77302000AH0074", "address": "4 SQ GUSTAVE COURBET", "sales": 2, "median_price": 245000.0, "median_price_per_sqm": 2752.808988764045, "median_rooms": 2.5, "first_sale": "2025-07-18", "last_sale": "2025-07-18"}}, {"type": "Feature", "geometry": {"type": "Point", "coordinates": [2.70247, 48.296675]}, "properties": {"id_parcelle": "77302000AH0189", "address": "10 AV DES ROUGEMONT", "sales": 2, "median_price": 261418.0, "median_price_per_sqm": 2443.158878504673, "median_rooms": 5.0, "first_sale": "2023-08-04", "last_sale": "2025-02-27"}}, {"type": "Feature", "geometry": {"type": "Point", "coordinates": [2.706345, 48.294347]}, "properties": {"id_parcelle": "77302000ZA0054", "address": "LES PLUMES CHATS", "sales": 2, "median_price": 254058.0, "median_price_per_sqm": null, "median_rooms": null, "first_sale": "2025-12-31", "last_sale": "2025-12-31"}}, {"type": "Feature", "geometry": {"type": "Point", "coordinates": [2.698615, 48.295734]}, "properties": {"id_parcelle": "77302000AH0211", "address": "50 AV DES ROUGEMONT", "sales": 2, "median_price": 215000.0, "median_price_per_sqm": 2311.8279569892475, "median_rooms": 5.0, "first_sale": "2021-03-02", "last_sale": "2021-03-02"}}, {"type": "Feature", "geometry": {"type": "Point", "coordinates": [2.712154, 48.292363]}, "properties": {"id_parcelle": "77302000ZA0073", "address": "LES RIGAUDERIES", "sales": 2, "median_price": 668000.0, "median_price_per_sqm": null, "median_rooms": null, "first_sale": "2025-12-31", "last_sale": "2025-12-31"}}, {"type": "Feature", "geometry": {"type": "Point", "coordinates": [2.710769, 48.295651]}, "properties": {"id_parcelle": "77302000ZA0072", "address": "LES RIGAUDERIES", "sales": 2, "median_price": 668000.0, "median_price_per_sqm": null, "median_rooms": null, "first_sale": "2025-12-31", "last_sale": "2025-12-31"}}]}