{"type": "FeatureCollection", "features": [{"type": "Feature", "geometry": {"type": "Polygon", "coordinates": [[[3.294105, 48.900467], [3.292954, 48.901382], [3.292387, 48.901422], [3.292234, 48.901468], [3.292035, 48.901949], [3.291904, 48.902209], [3.29171, 48.902462], [3.291438, 48.902736], [3.29132, 48.902813], [3.290827, 48.903051], [3.288922, 48.903909], [3.286912, 48.903985], [3.286185, 48.904002], [3.283432, 48.904099], [3.28294, 48.903577], [3.282089, 48.903067], [3.281911, 48.903327], [3.281799, 48.90343], [3.281379, 48.903719], [3.280073, 48.904593], [3.27928, 48.905165], [3.278845, 48.905411], [3.278542, 48.90556], [3.277866, 48.905998], [3.277323, 48.906315], [3.274896, 48.907576], [3.274121, 48.90793], [3.273572, 48.908158], [3.272683, 48.908599], [3.272057, 48.908292], [3.27149, 48.908028], [3.271181, 48.907932], [3.269647, 48.907606], [3.269188, 48.907532], [3.268846, 48.907498], [3.267301, 48.907407], [3.265803, 48.90741], [3.26505, 48.907424], [3.263428, 48.907491], [3.2615, 48.907564], [3.261438, 48.907759], [3.26101, 48.907652], [3.259889, 48.907626], [3.25904, 48.907577], [3.258307, 48.907546], [3.258164, 48.907517], [3.256783, 48.907564], [3.256473, 48.907606], [3.255725, 48.906746], [3.255686, 48.906671], [3.255395, 48.906541], [3.254861, 48.90615], [3.254869, 48.906067], [3.254672, 48.905893], [3.254441, 48.905781], [3.25403, 48.905486], [3.253906, 48.905472], [3.253461, 48.905131], [3.252647, 48.904426], [3.252101, 48.90464], [3.251777, 48.904827], [3.251524, 48.905021], [3.251419, 48.905186], [3.251166, 48.905728], [3.250493, 48.905652], [3.249964, 48.905655], [3.249722, 48.905504], [3.24882, 48.905171], [3.248123, 48.90493], [3.24691, 48.905154], [3.244781, 48.90556], [3.244458, 48.905635], [3.244754, 48.905922], [3.245666, 48.906304], [3.245477, 48.906401], [3.245511, 48.906498], [3.244489, 48.907035], [3.244108, 48.907227], [3.241018, 48.908691], [3.241164, 48.908884], [3.240449, 48.909131], [3.239927, 48.909325], [3.240479, 48.909775], [3.240567, 48.90995], [3.240725, 48.910121], [3.240904, 48.910461], [3.240929, 48.910629], [3.241096, 48.910836], [3.241334, 48.910981], [3.241905, 48.910996], [3.242022, 48.911029], [3.24228, 48.911264], [3.242416, 48.911437], [3.242995, 48.911654], [3.243393, 48.911885], [3.243601, 48.911981], [3.243865, 48.91187], [3.244402, 48.911909], [3.244511, 48.911987], [3.244441, 48.912071], [3.244615, 48.912288], [3.244566, 48.912433], [3.244675, 48.912509], [3.244852, 48.912549], [3.245029, 48.912764], [3.245267, 48.912926], [3.245441, 48.913093], [3.24559, 48.913156], [3.245645, 48.913349], [3.246102, 48.91338], [3.246361, 48.913745], [3.246377, 48.913907], [3.246707, 48.914088], [3.246813, 48.914107], [3.247167, 48.913929], [3.247298, 48.913935], [3.247699, 48.914156], [3.247963, 48.914195], [3.248074, 48.914353], [3.248327, 48.914494], [3.248663, 48.914622], [3.248866, 48.914862], [3.24904, 48.914888], [3.249165, 48.915067], [3.24931, 48.915166], [3.249476, 48.915181], [3.249743, 48.915088], [3.250499, 48.915078], [3.250955, 48.915167], [3.251198, 48.915406], [3.251416, 48.915579], [3.251476, 48.916694], [3.251533, 48.917485], [3.251684, 48.919945], [3.252226, 48.921415], [3.252731, 48.922834], [3.252763, 48.922959], [3.2526, 48.92406], [3.252517, 48.924071], [3.252379, 48.925493], [3.252375, 48.925748], [3.252549, 48.927524], [3.253005, 48.928626], [3.253712, 48.930385], [3.254614, 48.932611], [3.255149, 48.933697], [3.254493, 48.933861], [3.254967, 48.934472], [3.255429, 48.935128], [3.255826, 48.93592], [3.256178, 48.935872], [3.256737, 48.937713], [3.257082, 48.938281], [3.257165, 48.938495], [3.25787, 48.939604], [3.258302, 48.940309], [3.258615, 48.940206], [3.259322, 48.939866], [3.260036, 48.939542], [3.260521, 48.939366], [3.261216, 48.939187], [3.263896, 48.938851], [3.264926, 48.938788], [3.265091, 48.938794], [3.265743, 48.938651], [3.26663, 48.93843], [3.267225, 48.938252], [3.267576, 48.938129], [3.26786, 48.938065], [3.268469, 48.937872], [3.268837, 48.937825], [3.26932, 48.937787], [3.270694, 48.937658], [3.271071, 48.937609], [3.271866, 48.937552], [3.272751, 48.938158], [3.272961, 48.93838], [3.273515, 48.93876], [3.273772, 48.938908], [3.276199, 48.939244], [3.278392, 48.939558], [3.278493, 48.939583], [3.280336, 48.939866], [3.282875, 48.940246], [3.283406, 48.940332], [3.284527, 48.940531], [3.288728, 48.942445], [3.289565, 48.942801], [3.290671, 48.943336], [3.291377, 48.943554], [3.292738, 48.94403], [3.293923, 48.944434], [3.294944, 48.944791], [3.297215, 48.945508], [3.298564, 48.945957], [3.29886, 48.946064], [3.300051, 48.946524], [3.300435, 48.946691], [3.302368, 48.947757], [3.303147, 48.94817], [3.30423, 48.948705], [3.304411, 48.94878], [3.304886, 48.948238], [3.30558, 48.947665], [3.306147, 48.947115], [3.306351, 48.946887], [3.306999, 48.945977], [3.307373, 48.945365], [3.307634, 48.944774], [3.307966, 48.944072], [3.308499, 48.943033], [3.309048, 48.941994], [3.309465, 48.941121], [3.309885, 48.94011], [3.310021, 48.939846], [3.310616, 48.938841], [3.310863, 48.938048], [3.311515, 48.936126], [3.311868, 48.935539], [3.312485, 48.934184], [3.312719, 48.93351], [3.312829, 48.932627], [3.312922, 48.932015], [3.312978, 48.931453], [3.313, 48.931034], [3.313077, 48.930256], [3.313205, 48.929596], [3.313258, 48.929031], [3.31321, 48.928501], [3.31322, 48.927714], [3.31316, 48.926878], [3.313112, 48.926536], [3.313045, 48.92584], [3.312894, 48.924524], [3.312885, 48.924169], [3.313, 48.923567], [3.312991, 48.923294], [3.313067, 48.922621], [3.313124, 48.921946], [3.31326, 48.92125], [3.31261, 48.920669], [3.312205, 48.920268], [3.311378, 48.919383], [3.310639, 48.918471], [3.310195, 48.917949], [3.309365, 48.917061], [3.309045, 48.916694], [3.308524, 48.916065], [3.308159, 48.915653], [3.307653, 48.915135], [3.306695, 48.914254], [3.306436, 48.913169], [3.306228, 48.91254], [3.306121, 48.912466], [3.305599, 48.911832], [3.305534, 48.911653], [3.305655, 48.911147], [3.305584, 48.910648], [3.305256, 48.909621], [3.304909, 48.908631], [3.304338, 48.90837], [3.303682, 48.908052], [3.302516, 48.9075], [3.301663, 48.906241], [3.301636, 48.906131], [3.301714, 48.905382], [3.301619, 48.905053], [3.301525, 48.904829], [3.301, 48.904168], [3.300747, 48.903786], [3.300308, 48.90307], [3.300049, 48.902698], [3.299758, 48.902538], [3.298205, 48.901981], [3.297643, 48.902168], [3.297156, 48.901986], [3.296699, 48.901757], [3.296225, 48.901459], [3.295942, 48.901227], [3.295751, 48.901005], [3.295632, 48.900806], [3.295246, 48.899991], [3.294882, 48.900061], [3.294428, 48.900284], [3.294105, 48.900467]]]}, "properties": {"code_iris": "770240000", "nom_iris": "Bassevelle (commune entière)", "type_iris": "Z", "lat": 48.9244, "lng": 3.2766, "dvf_sales_total": 94, "dvf_sales_appt": 0, "dvf_sales_maison": 0, "dvf_median_price": 247000.0, "dvf_median_ppsqm": 1892.857142857143, "dvf_by_year": "[{\"year\": 2021, \"sales\": 15, \"median_price\": 367000.0}, {\"year\": 2022, \"sales\": 29, \"median_price\": 233000.0}, {\"year\": 2023, \"sales\": 15, \"median_price\": 350000.0}, {\"year\": 2024, \"sales\": 20, \"median_price\": 142500.0}, {\"year\": 2025, \"sales\": 15, \"median_price\": 275000.0}]", "population": 374, "n_log": null, "n_rp": null, "pct_proprio": null, "pct_hlm": null, "pct_appart": null, "pct_cadres": null, "pct_bac5p": null, "pct_etrangers": null, "pct_0_14": null, "pct_65p": null, "bpe_total": null, "bpe_commerces": null, "bpe_enseignement": null, "bpe_sante": null, "dpe": null, "attractivity_score": null, "rank_attractivity_score": null, "rank_total_attractivity_score": 1, "commune_avg": null, "is_stub": true}}]}