{"type": "FeatureCollection", "features": [{"type": "Feature", "geometry": {"type": "Polygon", "coordinates": [[[3.126712, 48.7053], [3.126053, 48.705433], [3.125649, 48.705449], [3.125299, 48.7055], [3.124641, 48.705639], [3.124156, 48.705639], [3.123849, 48.705606], [3.123186, 48.705472], [3.122634, 48.705343], [3.122397, 48.705309], [3.121927, 48.705327], [3.121534, 48.705407], [3.121348, 48.705504], [3.121039, 48.705715], [3.120741, 48.705958], [3.120561, 48.706233], [3.120231, 48.706462], [3.119875, 48.706676], [3.119561, 48.706963], [3.119052, 48.707246], [3.11874, 48.707438], [3.118798, 48.707495], [3.118469, 48.707974], [3.118436, 48.708404], [3.11845, 48.708618], [3.118694, 48.709148], [3.118514, 48.709251], [3.118646, 48.709549], [3.119014, 48.709885], [3.119014, 48.709944], [3.118127, 48.710032], [3.118069, 48.710244], [3.117608, 48.710863], [3.117473, 48.710964], [3.116747, 48.711034], [3.116204, 48.711099], [3.116195, 48.71102], [3.115771, 48.710941], [3.114318, 48.711], [3.112978, 48.711048], [3.113267, 48.711947], [3.113152, 48.712018], [3.112934, 48.712035], [3.112037, 48.712022], [3.111282, 48.711974], [3.111927, 48.713736], [3.111355, 48.713856], [3.110743, 48.713909], [3.110177, 48.713944], [3.109693, 48.713935], [3.109145, 48.713885], [3.10842, 48.713801], [3.107297, 48.713707], [3.107258, 48.7135], [3.107155, 48.713293], [3.106556, 48.713237], [3.1068, 48.716304], [3.107144, 48.72098], [3.107232, 48.722109], [3.107296, 48.723051], [3.107375, 48.724411], [3.107418, 48.725304], [3.107517, 48.727106], [3.107558, 48.727965], [3.107712, 48.730756], [3.10784, 48.732973], [3.107915, 48.734307], [3.108052, 48.736605], [3.108145, 48.73728], [3.108532, 48.738847], [3.108714, 48.739556], [3.108806, 48.739816], [3.109011, 48.740283], [3.110385, 48.743098], [3.111237, 48.744857], [3.111894, 48.746223], [3.111975, 48.746408], [3.112562, 48.747606], [3.112773, 48.747976], [3.11293, 48.748306], [3.113303, 48.749154], [3.113655, 48.749779], [3.113786, 48.750095], [3.114313, 48.751207], [3.114552, 48.751752], [3.11481, 48.752204], [3.115121, 48.752818], [3.115766, 48.754167], [3.116135, 48.754872], [3.116373, 48.755386], [3.11644, 48.755479], [3.116868, 48.756396], [3.11767, 48.758024], [3.118431, 48.759556], [3.11881, 48.76036], [3.119145, 48.761105], [3.119508, 48.761868], [3.120122, 48.761507], [3.120522, 48.761326], [3.121013, 48.76119], [3.121388, 48.761117], [3.123421, 48.760852], [3.123787, 48.760814], [3.124037, 48.760817], [3.124987, 48.760918], [3.126022, 48.76097], [3.126744, 48.761114], [3.127038, 48.761215], [3.127437, 48.761391], [3.127452, 48.761509], [3.127865, 48.761626], [3.127888, 48.761694], [3.128694, 48.761642], [3.128791, 48.761002], [3.129024, 48.760753], [3.129296, 48.760515], [3.130215, 48.759868], [3.130497, 48.75965], [3.131082, 48.75911], [3.131891, 48.759337], [3.132683, 48.75953], [3.132703, 48.759258], [3.132791, 48.758579], [3.132877, 48.757503], [3.132849, 48.757162], [3.132784, 48.756813], [3.13278, 48.755997], [3.132707, 48.755337], [3.132798, 48.754539], [3.132864, 48.754283], [3.133114, 48.754404], [3.133305, 48.754574], [3.133698, 48.754789], [3.133889, 48.754825], [3.134256, 48.754672], [3.13454, 48.75469], [3.1348, 48.754635], [3.134997, 48.754675], [3.135355, 48.754685], [3.135499, 48.754549], [3.136198, 48.754552], [3.136614, 48.75459], [3.137067, 48.754686], [3.1376, 48.754882], [3.139181, 48.755531], [3.139786, 48.755705], [3.140234, 48.755761], [3.141679, 48.75585], [3.141904, 48.756089], [3.142079, 48.756365], [3.142603, 48.75746], [3.142945, 48.758193], [3.143227, 48.758995], [3.14338, 48.759266], [3.143672, 48.759562], [3.144673, 48.76033], [3.145625, 48.76109], [3.146068, 48.76147], [3.146272, 48.761616], [3.146686, 48.761855], [3.147245, 48.762136], [3.147425, 48.76221], [3.147899, 48.762303], [3.148426, 48.762317], [3.148892, 48.762362], [3.149421, 48.76248], [3.149743, 48.762579], [3.1501, 48.762759], [3.150252, 48.762823], [3.150618, 48.762903], [3.151457, 48.763038], [3.152277, 48.763149], [3.153976, 48.763272], [3.155082, 48.763362], [3.155275, 48.76336], [3.155191, 48.76265], [3.155077, 48.761825], [3.155092, 48.761733], [3.155414, 48.761213], [3.15554, 48.760834], [3.155624, 48.759858], [3.157229, 48.758855], [3.158785, 48.757813], [3.159808, 48.757148], [3.160023, 48.75698], [3.160355, 48.75631], [3.160828, 48.755311], [3.159664, 48.754933], [3.159213, 48.754768], [3.158935, 48.754616], [3.158957, 48.754438], [3.159133, 48.753427], [3.159312, 48.752348], [3.159415, 48.751445], [3.159634, 48.751414], [3.159853, 48.751306], [3.15998, 48.75111], [3.160065, 48.750839], [3.160117, 48.75019], [3.160282, 48.750176], [3.160622, 48.75029], [3.161184, 48.750555], [3.161464, 48.750183], [3.161648, 48.750222], [3.161659, 48.749971], [3.161959, 48.74969], [3.162104, 48.749518], [3.162391, 48.749108], [3.16284, 48.749106], [3.164032, 48.748933], [3.165509, 48.748644], [3.166026, 48.748569], [3.166312, 48.748579], [3.166572, 48.748692], [3.167771, 48.749255], [3.169652, 48.750149], [3.17083, 48.750727], [3.171695, 48.750696], [3.171995, 48.750663], [3.172262, 48.750592], [3.172593, 48.750457], [3.172613, 48.750299], [3.172718, 48.749986], [3.173048, 48.749753], [3.173288, 48.749142], [3.173488, 48.74914], [3.173451, 48.748965], [3.173333, 48.748808], [3.172487, 48.748403], [3.172333, 48.748167], [3.17187, 48.747571], [3.17222, 48.74744], [3.172269, 48.747391], [3.172254, 48.747116], [3.172167, 48.746664], [3.172239, 48.746421], [3.172952, 48.745517], [3.171555, 48.745756], [3.171015, 48.745781], [3.171151, 48.745257], [3.171728, 48.743297], [3.172358, 48.741853], [3.172467, 48.741529], [3.172473, 48.741273], [3.17233, 48.741029], [3.171811, 48.740767], [3.170339, 48.739774], [3.169916, 48.739505], [3.169144, 48.739043], [3.168179, 48.738512], [3.16782, 48.738331], [3.167466, 48.738203], [3.166925, 48.738071], [3.165117, 48.737575], [3.16497, 48.737503], [3.164968, 48.737358], [3.165202, 48.737335], [3.165762, 48.73705], [3.16585, 48.736855], [3.16591, 48.736326], [3.163988, 48.73616], [3.165869, 48.734089], [3.165645, 48.733504], [3.165482, 48.733582], [3.165311, 48.733758], [3.165143, 48.733763], [3.164684, 48.733719], [3.164506, 48.73362], [3.164128, 48.733518], [3.163997, 48.733509], [3.163785, 48.733613], [3.163422, 48.733661], [3.163141, 48.733556], [3.162811, 48.733639], [3.162219, 48.733702], [3.162032, 48.733703], [3.161763, 48.733799], [3.161242, 48.733829], [3.161102, 48.733896], [3.160178, 48.734091], [3.159751, 48.734112], [3.159443, 48.73421], [3.15905, 48.734258], [3.158927, 48.73446], [3.158616, 48.734497], [3.158438, 48.734159], [3.158195, 48.733877], [3.158008, 48.73395], [3.157812, 48.733979], [3.157371, 48.733951], [3.157546, 48.733706], [3.157336, 48.732639], [3.157314, 48.732614], [3.156423, 48.731606], [3.155981, 48.731288], [3.156654, 48.730868], [3.156646, 48.730838], [3.157109, 48.730309], [3.157414, 48.730003], [3.157672, 48.729852], [3.158522, 48.729686], [3.158718, 48.729565], [3.158364, 48.729182], [3.157596, 48.728479], [3.156695, 48.727962], [3.155886, 48.727824], [3.155585, 48.727804], [3.155133, 48.727831], [3.153467, 48.728109], [3.153145, 48.727584], [3.153165, 48.72751], [3.15288, 48.727252], [3.152611, 48.726969], [3.152299, 48.726604], [3.152212, 48.726626], [3.151988, 48.726217], [3.1516, 48.72559], [3.151215, 48.724725], [3.150868, 48.723987], [3.150656, 48.72357], [3.150259, 48.723047], [3.150078, 48.722487], [3.149889, 48.722196], [3.149012, 48.721177], [3.148355, 48.719979], [3.148131, 48.719463], [3.147851, 48.718769], [3.14773, 48.718558], [3.147596, 48.718475], [3.147586, 48.718299], [3.147496, 48.717899], [3.147398, 48.717634], [3.147004, 48.716987], [3.146927, 48.716732], [3.147054, 48.716496], [3.148142, 48.716215], [3.149998, 48.715596], [3.15118, 48.715249], [3.150895, 48.714657], [3.150589, 48.713692], [3.15048, 48.713411], [3.150093, 48.712635], [3.148717, 48.712638], [3.148434, 48.712801], [3.148204, 48.712726], [3.148132, 48.712833], [3.147837, 48.712759], [3.147173, 48.712502], [3.146799, 48.712457], [3.146392, 48.712282], [3.146409, 48.712231], [3.144464, 48.711866], [3.144215, 48.711795], [3.143274, 48.711436], [3.143453, 48.711011], [3.143223, 48.710951], [3.143265, 48.710869], [3.142123, 48.710464], [3.141162, 48.710216], [3.139883, 48.709946], [3.13957, 48.7099], [3.138532, 48.709906], [3.137945, 48.709899], [3.137385, 48.709687], [3.136926, 48.709605], [3.136431, 48.709125], [3.136266, 48.708857], [3.135813, 48.708004], [3.135043, 48.708302], [3.134798, 48.708366], [3.134176, 48.708408], [3.133555, 48.708531], [3.133308, 48.708552], [3.133083, 48.708608], [3.133065, 48.708725], [3.132936, 48.708777], [3.132539, 48.70876], [3.130732, 48.708747], [3.130493, 48.708721], [3.130192, 48.708637], [3.129844, 48.708613], [3.129883, 48.70785], [3.129913, 48.706881], [3.129961, 48.70465], [3.130003, 48.70431], [3.13011, 48.703982], [3.130155, 48.703694], [3.130236, 48.702887], [3.130233, 48.702587], [3.130159, 48.7021], [3.12932, 48.702079], [3.129357, 48.702325], [3.128939, 48.703265], [3.128643, 48.703636], [3.128504, 48.703662], [3.128125, 48.703485], [3.127933, 48.703869], [3.127775, 48.70387], [3.127569, 48.70421], [3.127288, 48.704207], [3.127252, 48.704514], [3.127256, 48.70514], [3.126735, 48.705207], [3.126712, 48.7053]]]}, "properties": {"code_iris": "770020000", "nom_iris": "Amillis (commune entière)", "type_iris": "Z", "lat": 48.7327, "lng": 3.14, "dvf_sales_total": 373, "dvf_sales_appt": 0, "dvf_sales_maison": 0, "dvf_median_price": 166000.0, "dvf_median_ppsqm": 2059.822695035461, "dvf_by_year": "[{\"year\": 2021, \"sales\": 45, \"median_price\": 199000.0}, {\"year\": 2022, \"sales\": 103, \"median_price\": 207000.0}, {\"year\": 2023, \"sales\": 69, \"median_price\": 225000.0}, {\"year\": 2024, \"sales\": 90, \"median_price\": 135000.0}, {\"year\": 2025, \"sales\": 66, \"median_price\": 183000.0}]", "population": 830, "n_log": null, "n_rp": null, "pct_proprio": null, "pct_hlm": null, "pct_appart": null, "pct_cadres": null, "pct_bac5p": null, "pct_etrangers": null, "pct_0_14": null, "pct_65p": null, "bpe_total": null, "bpe_commerces": null, "bpe_enseignement": null, "bpe_sante": null, "dpe": null, "attractivity_score": null, "rank_attractivity_score": null, "rank_total_attractivity_score": 1, "commune_avg": null, "is_stub": true}}]}