{"type": "FeatureCollection", "features": [{"type": "Feature", "geometry": {"type": "Point", "coordinates": [3.180846, 48.972632]}, "properties": {"id_parcelle": "772650000C1117", "address": "7 RUE DU CENT TROISIEME R I", "sales": 12, "median_price": 126250.0, "median_price_per_sqm": 2045.0, "median_rooms": 0.0, "first_sale": "2021-12-09", "last_sale": "2025-05-09"}}, {"type": "Feature", "geometry": {"type": "Point", "coordinates": [3.186614, 48.972198]}, "properties": {"id_parcelle": "772650000B0420", "address": "31 RUE DU GENERAL LECLERC", "sales": 6, "median_price": 315000.0, "median_price_per_sqm": 11380.645161290322, "median_rooms": 2.0, "first_sale": "2024-01-18", "last_sale": "2024-01-18"}}, {"type": "Feature", "geometry": {"type": "Point", "coordinates": [3.186624, 48.975604]}, "properties": {"id_parcelle": "77265000ZD0074", "address": "25 RUE DE MESSY", "sales": 6, "median_price": 80000.0, "median_price_per_sqm": 689.6551724137931, "median_rooms": 0.0, "first_sale": "2025-12-17", "last_sale": "2025-12-17"}}, {"type": "Feature", "geometry": {"type": "Point", "coordinates": [3.182078, 48.972235]}, "properties": {"id_parcelle": "772650000C1136", "address": "5 RUE DU CENT TROISIEME R I", "sales": 6, "median_price": 700000.0, "median_price_per_sqm": 11475.409836065573, "median_rooms": 1.0, "first_sale": "2022-09-29", "last_sale": "2022-09-29"}}, {"type": "Feature", "geometry": {"type": "Point", "coordinates": [3.186862, 48.972105]}, "properties": {"id_parcelle": "772650000B0432", "address": "41 RUE DU GENERAL LECLERC", "sales": 6, "median_price": 268000.0, "median_price_per_sqm": 6090.909090909091, "median_rooms": 2.0, "first_sale": "2021-10-20", "last_sale": "2021-10-20"}}, {"type": "Feature", "geometry": {"type": "Point", "coordinates": [3.18624, 48.97269]}, "properties": {"id_parcelle": "772650000B0966", "address": "4 RUE DU CENT QUATRIEME R I", "sales": 5, "median_price": 570000.0, "median_price_per_sqm": 7125.0, "median_rooms": 3.0, "first_sale": "2023-12-20", "last_sale": "2023-12-20"}}, {"type": "Feature", "geometry": {"type": "Point", "coordinates": [3.1861, 48.978962]}, "properties": {"id_parcelle": "77265000ZD0083", "address": "63 RUE DE MESSY", "sales": 4, "median_price": 215720.0, "median_price_per_sqm": 1477.5342465753424, "median_rooms": 4.0, "first_sale": "2025-07-02", "last_sale": "2025-07-02"}}, {"type": "Feature", "geometry": {"type": "Point", "coordinates": [3.186665, 48.974666]}, "properties": {"id_parcelle": "77265000ZD0130", "address": "15 RUE DE MESSY", "sales": 4, "median_price": 262500.0, "median_price_per_sqm": 2386.3636363636365, "median_rooms": 3.0, "first_sale": "2022-03-18", "last_sale": "2022-03-18"}}, {"type": "Feature", "geometry": {"type": "Point", "coordinates": [3.17152, 48.977082]}, "properties": {"id_parcelle": "77265000ZB0121", "address": "11 RUE BELLEVUE", "sales": 4, "median_price": 255000.0, "median_price_per_sqm": 2056.451612903226, "median_rooms": 3.0, "first_sale": "2025-12-08", "last_sale": "2025-12-08"}}, {"type": "Feature", "geometry": {"type": "Point", "coordinates": [3.170984, 48.974262]}, "properties": {"id_parcelle": "77265000ZA0189", "address": "4 RUE BEAUDOIN", "sales": 4, "median_price": 330000.0, "median_price_per_sqm": 2844.8275862068967, "median_rooms": 2.0, "first_sale": "2022-12-19", "last_sale": "2022-12-19"}}, {"type": "Feature", "geometry": {"type": "Point", "coordinates": [3.188569, 48.97499]}, "properties": {"id_parcelle": "772650000B0336", "address": "42 RUE DES JARDINETS", "sales": 4, "median_price": 98500.0, "median_price_per_sqm": null, "median_rooms": 0.0, "first_sale": "2022-05-30", "last_sale": "2024-09-24"}}, {"type": "Feature", "geometry": {"type": "Point", "coordinates": [3.184448, 48.971351]}, "properties": {"id_parcelle": "772650000C1037", "address": "24 ALL COROT", "sales": 4, "median_price": 180500.0, "median_price_per_sqm": 2694.0298507462685, "median_rooms": 1.5, "first_sale": "2024-11-27", "last_sale": "2024-11-27"}}, {"type": "Feature", "geometry": {"type": "Point", "coordinates": [3.178625, 48.97304]}, "properties": {"id_parcelle": "772650000B0797", "address": "18 RUE DU CENT TROISIEME R I", "sales": 4, "median_price": 303575.0, "median_price_per_sqm": 2317.3664122137407, "median_rooms": 5.0, "first_sale": "2021-10-20", "last_sale": "2025-07-15"}}, {"type": "Feature", "geometry": {"type": "Point", "coordinates": [3.188243, 48.972069]}, "properties": {"id_parcelle": "772650000B0525", "address": "25 RUE DU CENT QUATRIEME R I", "sales": 4, "median_price": 390000.0, "median_price_per_sqm": 3536.764705882353, "median_rooms": 0.0, "first_sale": "2023-01-31", "last_sale": "2023-01-31"}}, {"type": "Feature", "geometry": {"type": "Point", "coordinates": [3.184565, 48.96986]}, "properties": {"id_parcelle": "772650000C1098", "address": "4 CHE DES VIGNES", "sales": 4, "median_price": 249000.0, "median_price_per_sqm": 2327.1028037383176, "median_rooms": 3.5, "first_sale": "2023-01-17", "last_sale": "2023-01-17"}}, {"type": "Feature", "geometry": {"type": "Point", "coordinates": [3.169518, 48.976848]}, "properties": {"id_parcelle": "77265000ZA0085", "address": "8 IMP BELLEVUE", "sales": 4, "median_price": 134500.0, "median_price_per_sqm": 1921.4285714285713, "median_rooms": 2.0, "first_sale": "2023-02-08", "last_sale": "2023-02-08"}}, {"type": "Feature", "geometry": {"type": "Point", "coordinates": [3.171788, 48.975344]}, "properties": {"id_parcelle": "772650000D0130", "address": "RUE DU FORT", "sales": 4, "median_price": 192125.0, "median_price_per_sqm": null, "median_rooms": null, "first_sale": "2021-04-19", "last_sale": "2025-03-28"}}, {"type": "Feature", "geometry": {"type": "Point", "coordinates": [3.174994, 48.978006]}, "properties": {"id_parcelle": "772650000E0385", "address": "13 RTE DES BLAZYS", "sales": 4, "median_price": 195000.0, "median_price_per_sqm": 3145.1612903225805, "median_rooms": 1.5, "first_sale": "2024-09-11", "last_sale": "2024-09-11"}}, {"type": "Feature", "geometry": {"type": "Point", "coordinates": [3.177863, 48.972397]}, "properties": {"id_parcelle": "772650000C1044", "address": "9 BOIS DE L HERMITAGE", "sales": 4, "median_price": 375250.0, "median_price_per_sqm": 1954.4270833333333, "median_rooms": 3.0, "first_sale": "2023-05-25", "last_sale": "2023-05-25"}}, {"type": "Feature", "geometry": {"type": "Point", "coordinates": [3.188736, 48.971945]}, "properties": {"id_parcelle": "772650000B0981", "address": "55 RUE DU GENERAL LECLERC", "sales": 4, "median_price": 230000.0, "median_price_per_sqm": 1932.7731092436975, "median_rooms": 2.5, "first_sale": "2021-08-27", "last_sale": "2021-08-27"}}, {"type": "Feature", "geometry": {"type": "Point", "coordinates": [3.190531, 48.971233]}, "properties": {"id_parcelle": "772650000B0931", "address": "61 RUE DU GENERAL LECLERC", "sales": 4, "median_price": 125500.0, "median_price_per_sqm": 2483.5164835164833, "median_rooms": 1.5, "first_sale": "2021-09-28", "last_sale": "2022-03-26"}}, {"type": "Feature", "geometry": {"type": "Point", "coordinates": [3.187696, 48.97827]}, "properties": {"id_parcelle": "772650000B0813", "address": "68 RUE DES JARDINETS", "sales": 4, "median_price": 275000.0, "median_price_per_sqm": 3160.919540229885, "median_rooms": 2.5, "first_sale": "2023-07-07", "last_sale": "2023-07-07"}}, {"type": "Feature", "geometry": {"type": "Point", "coordinates": [3.188059, 48.972349]}, "properties": {"id_parcelle": "772650000B0917", "address": "17 RUE DU CENT QUATRIEME RI", "sales": 3, "median_price": 173000.0, "median_price_per_sqm": null, "median_rooms": 0.0, "first_sale": "2025-05-13", "last_sale": "2025-05-13"}}, {"type": "Feature", "geometry": {"type": "Point", "coordinates": [3.186327, 48.97025]}, "properties": {"id_parcelle": "772650000B0869", "address": "8 RUE DE L EGLISE", "sales": 3, "median_price": 1920000.0, "median_price_per_sqm": 33684.21052631579, "median_rooms": 0.0, "first_sale": "2023-03-02", "last_sale": "2023-03-02"}}, {"type": "Feature", "geometry": {"type": "Point", "coordinates": [3.194387, 48.975377]}, "properties": {"id_parcelle": "77265000ZD0017", "address": "LE BOIS DE L ILE", "sales": 3, "median_price": 114646.0, "median_price_per_sqm": null, "median_rooms": null, "first_sale": "2024-11-14", "last_sale": "2024-11-14"}}, {"type": "Feature", "geometry": {"type": "Point", "coordinates": [3.184694, 48.97253]}, "properties": {"id_parcelle": "772650000B0377", "address": "6 RUE DU GENERAL LECLERC", "sales": 3, "median_price": 295000.0, "median_price_per_sqm": 2107.1428571428573, "median_rooms": 0.0, "first_sale": "2022-07-07", "last_sale": "2022-07-07"}}, {"type": "Feature", "geometry": {"type": "Point", "coordinates": [3.188098, 48.972402]}, "properties": {"id_parcelle": "772650000B0517", "address": "LUZANCY", "sales": 3, "median_price": 140000.0, "median_price_per_sqm": null, "median_rooms": null, "first_sale": "2024-11-25", "last_sale": "2025-06-23"}}, {"type": "Feature", "geometry": {"type": "Point", "coordinates": [3.179658, 48.984684]}, "properties": {"id_parcelle": "772650000E0537", "address": "9001 LA REMISE DE MESSY", "sales": 3, "median_price": 15000.0, "median_price_per_sqm": 33.333333333333336, "median_rooms": 0.0, "first_sale": "2022-05-19", "last_sale": "2022-05-19"}}, {"type": "Feature", "geometry": {"type": "Point", "coordinates": [3.183222, 48.983367]}, "properties": {"id_parcelle": "772650000A0374", "address": "17 RUE ALEXANDRE BOUCHE", "sales": 2, "median_price": 280000.0, "median_price_per_sqm": 2800.0, "median_rooms": 5.0, "first_sale": "2022-08-22", "last_sale": "2022-08-22"}}, {"type": "Feature", "geometry": {"type": "Point", "coordinates": [3.189162, 48.977444]}, "properties": {"id_parcelle": "772650000B0254", "address": "56 RUE DES JARDINETS", "sales": 2, "median_price": 185000.0, "median_price_per_sqm": 1156.25, "median_rooms": 2.0, "first_sale": "2024-07-09", "last_sale": "2024-07-09"}}, {"type": "Feature", "geometry": {"type": "Point", "coordinates": [3.188897, 48.974457]}, "properties": {"id_parcelle": "772650000B0313", "address": "40 RUE DES JARDINETS", "sales": 2, "median_price": 249000.0, "median_price_per_sqm": 2371.4285714285716, "median_rooms": 5.0, "first_sale": "2022-11-03", "last_sale": "2022-11-03"}}, {"type": "Feature", "geometry": {"type": "Point", "coordinates": [3.187422, 48.977912]}, "properties": {"id_parcelle": "772650000B0833", "address": "LES TROUS DES JARDINETS", "sales": 2, "median_price": 2480.0, "median_price_per_sqm": null, "median_rooms": null, "first_sale": "2022-05-03", "last_sale": "2022-09-29"}}, {"type": "Feature", "geometry": {"type": "Point", "coordinates": [3.18857, 48.977983]}, "properties": {"id_parcelle": "772650000B0835", "address": "59 RUE DES JARDINETS", "sales": 2, "median_price": 247000.0, "median_price_per_sqm": 1764.2857142857142, "median_rooms": 5.0, "first_sale": "2021-02-04", "last_sale": "2021-02-04"}}, {"type": "Feature", "geometry": {"type": "Point", "coordinates": [3.188461, 48.972663]}, "properties": {"id_parcelle": "772650000B0506", "address": "12 RUE DES JARDINETS", "sales": 2, "median_price": 167310.0, "median_price_per_sqm": null, "median_rooms": 0.0, "first_sale": "2022-10-12", "last_sale": "2022-10-12"}}, {"type": "Feature", "geometry": {"type": "Point", "coordinates": [3.188379, 48.974971]}, "properties": {"id_parcelle": "772650000B0729", "address": "LA HAIE COUSIN", "sales": 2, "median_price": 98500.0, "median_price_per_sqm": null, "median_rooms": null, "first_sale": "2022-05-30", "last_sale": "2024-09-24"}}, {"type": "Feature", "geometry": {"type": "Point", "coordinates": [3.18679, 48.978113]}, "properties": {"id_parcelle": "772650000B0631", "address": "LE DSU DES TROUS DES JARDI", "sales": 2, "median_price": 2480.0, "median_price_per_sqm": null, "median_rooms": null, "first_sale": "2022-05-03", "last_sale": "2022-09-29"}}, {"type": "Feature", "geometry": {"type": "Point", "coordinates": [3.18831, 48.972731]}, "properties": {"id_parcelle": "772650000B0508", "address": "LUZANCY", "sales": 2, "median_price": 175155.0, "median_price_per_sqm": null, "median_rooms": null, "first_sale": "2022-10-12", "last_sale": "2022-12-28"}}, {"type": "Feature", "geometry": {"type": "Point", "coordinates": [3.186763, 48.97213]}, "properties": {"id_parcelle": "772650000B0431", "address": "39 RUE DU GENERAL LECLERC", "sales": 2, "median_price": 129000.0, "median_price_per_sqm": 1720.0, "median_rooms": 1.5, "first_sale": "2023-11-24", "last_sale": "2023-11-24"}}, {"type": "Feature", "geometry": {"type": "Point", "coordinates": [3.177158, 48.972423]}, "properties": {"id_parcelle": "772650000C1043", "address": "11 BOIS DE L HERMITAGE", "sales": 2, "median_price": 245000.0, "median_price_per_sqm": 1531.25, "median_rooms": 7.0, "first_sale": "2024-11-15", "last_sale": "2024-11-15"}}, {"type": "Feature", "geometry": {"type": "Point", "coordinates": [3.184068, 48.97087]}, "properties": {"id_parcelle": "772650000C1040", "address": "30 ALL COROT", "sales": 2, "median_price": 200000.0, "median_price_per_sqm": 2105.2631578947367, "median_rooms": 4.0, "first_sale": "2023-03-14", "last_sale": "2023-03-14"}}, {"type": "Feature", "geometry": {"type": "Point", "coordinates": [3.186543, 48.96899]}, "properties": {"id_parcelle": "772650000C0222", "address": "LA COLBERDE", "sales": 2, "median_price": 6350.0, "median_price_per_sqm": null, "median_rooms": null, "first_sale": "2021-12-02", "last_sale": "2024-09-26"}}, {"type": "Feature", "geometry": {"type": "Point", "coordinates": [3.186608, 48.969039]}, "properties": {"id_parcelle": "772650000C0221", "address": "LA COLBERDE", "sales": 2, "median_price": 6350.0, "median_price_per_sqm": null, "median_rooms": null, "first_sale": "2021-12-02", "last_sale": "2024-09-26"}}, {"type": "Feature", "geometry": {"type": "Point", "coordinates": [3.18649, 48.969177]}, "properties": {"id_parcelle": "772650000C0218", "address": "LA COLBERDE", "sales": 2, "median_price": 6350.0, "median_price_per_sqm": null, "median_rooms": null, "first_sale": "2021-12-02", "last_sale": "2024-09-26"}}, {"type": "Feature", "geometry": {"type": "Point", "coordinates": [3.186646, 48.969074]}, "properties": {"id_parcelle": "772650000C0220", "address": "LA COLBERDE", "sales": 2, "median_price": 6350.0, "median_price_per_sqm": null, "median_rooms": null, "first_sale": "2021-12-02", "last_sale": "2024-09-26"}}, {"type": "Feature", "geometry": {"type": "Point", "coordinates": [3.186619, 48.969258]}, "properties": {"id_parcelle": "772650000C0217", "address": "LA COLBERDE", "sales": 2, "median_price": 6350.0, "median_price_per_sqm": null, "median_rooms": null, "first_sale": "2021-12-02", "last_sale": "2024-09-26"}}, {"type": "Feature", "geometry": {"type": "Point", "coordinates": [3.180604, 48.973298]}, "properties": {"id_parcelle": "772650000B0955", "address": "8 RUE DU CENT TROISIEME RI", "sales": 2, "median_price": 287000.0, "median_price_per_sqm": 2174.242424242424, "median_rooms": 5.0, "first_sale": "2025-10-23", "last_sale": "2025-10-23"}}, {"type": "Feature", "geometry": {"type": "Point", "coordinates": [3.187534, 48.977727]}, "properties": {"id_parcelle": "772650000B0913", "address": "LES TROUS DES JARDINETS", "sales": 2, "median_price": 2480.0, "median_price_per_sqm": null, "median_rooms": null, "first_sale": "2022-05-03", "last_sale": "2022-09-29"}}, {"type": "Feature", "geometry": {"type": "Point", "coordinates": [3.185976, 48.972852]}, "properties": {"id_parcelle": "772650000B0891", "address": "4 RUE DU CENT QUATRIEME R I", "sales": 2, "median_price": 190000.0, "median_price_per_sqm": 1958.7628865979382, "median_rooms": 2.0, "first_sale": "2024-12-03", "last_sale": "2024-12-03"}}, {"type": "Feature", "geometry": {"type": "Point", "coordinates": [3.187731, 48.977693]}, "properties": {"id_parcelle": "772650000B0915", "address": "LES TROUS DES JARDINETS", "sales": 2, "median_price": 2480.0, "median_price_per_sqm": null, "median_rooms": null, "first_sale": "2022-05-03", "last_sale": "2022-09-29"}}, {"type": "Feature", "geometry": {"type": "Point", "coordinates": [3.188718, 48.973084]}, "properties": {"id_parcelle": "772650000B0788", "address": "LUZANCY", "sales": 2, "median_price": 193000.0, "median_price_per_sqm": null, "median_rooms": null, "first_sale": "2022-09-30", "last_sale": "2023-07-12"}}, {"type": "Feature", "geometry": {"type": "Point", "coordinates": [3.185457, 48.972233]}, "properties": {"id_parcelle": "772650000B0754", "address": "LUZANCY", "sales": 2, "median_price": 168525.0, "median_price_per_sqm": null, "median_rooms": null, "first_sale": "2023-06-23", "last_sale": "2024-11-05"}}, {"type": "Feature", "geometry": {"type": "Point", "coordinates": [3.188453, 48.978345]}, "properties": {"id_parcelle": "772650000B0815", "address": "64 RUE DES JARDINETS", "sales": 2, "median_price": 251000.0, "median_price_per_sqm": 3346.6666666666665, "median_rooms": 4.0, "first_sale": "2022-08-09", "last_sale": "2022-08-09"}}, {"type": "Feature", "geometry": {"type": "Point", "coordinates": [3.17183, 48.974982]}, "properties": {"id_parcelle": "772650000D0115", "address": "COURTARON", "sales": 2, "median_price": 124000.0, "median_price_per_sqm": null, "median_rooms": null, "first_sale": "2021-08-17", "last_sale": "2023-09-13"}}, {"type": "Feature", "geometry": {"type": "Point", "coordinates": [3.184309, 48.970327]}, "properties": {"id_parcelle": "772650000C1091", "address": "2 CHE DES VIGNES", "sales": 2, "median_price": 292000.0, "median_price_per_sqm": 3106.3829787234044, "median_rooms": 4.0, "first_sale": "2022-05-10", "last_sale": "2022-05-10"}}, {"type": "Feature", "geometry": {"type": "Point", "coordinates": [3.172263, 48.975348]}, "properties": {"id_parcelle": "772650000D0162", "address": "2 RUE DU FORT", "sales": 2, "median_price": 75000.0, "median_price_per_sqm": null, "median_rooms": 0.0, "first_sale": "2021-08-17", "last_sale": "2024-10-14"}}, {"type": "Feature", "geometry": {"type": "Point", "coordinates": [3.169736, 48.97561]}, "properties": {"id_parcelle": "772650000D0617", "address": "27 RUE DE LA MARNE", "sales": 2, "median_price": 50000.0, "median_price_per_sqm": null, "median_rooms": 0.0, "first_sale": "2021-07-19", "last_sale": "2021-07-19"}}, {"type": "Feature", "geometry": {"type": "Point", "coordinates": [3.1719, 48.975199]}, "properties": {"id_parcelle": "772650000D0121", "address": "1 RUE DU FORT", "sales": 2, "median_price": 160000.0, "median_price_per_sqm": 1616.1616161616162, "median_rooms": 2.5, "first_sale": "2021-07-13", "last_sale": "2021-07-13"}}, {"type": "Feature", "geometry": {"type": "Point", "coordinates": [3.172022, 48.975403]}, "properties": {"id_parcelle": "772650000D0131", "address": "1 RUE DU FORT", "sales": 2, "median_price": 206625.0, "median_price_per_sqm": 1565.340909090909, "median_rooms": 4.0, "first_sale": "2023-08-04", "last_sale": "2025-03-28"}}, {"type": "Feature", "geometry": {"type": "Point", "coordinates": [3.171801, 48.974836]}, "properties": {"id_parcelle": "772650000D0117", "address": "5 RUE DE LA MARNE", "sales": 2, "median_price": 124000.0, "median_price_per_sqm": 1907.6923076923076, "median_rooms": 3.0, "first_sale": "2021-08-17", "last_sale": "2023-09-13"}}, {"type": "Feature", "geometry": {"type": "Point", "coordinates": [3.186508, 48.969115]}, "properties": {"id_parcelle": "772650000C1079", "address": "LA COLBERDE", "sales": 2, "median_price": 6350.0, "median_price_per_sqm": null, "median_rooms": null, "first_sale": "2021-12-02", "last_sale": "2024-09-26"}}, {"type": "Feature", "geometry": {"type": "Point", "coordinates": [3.179146, 48.963463]}, "properties": {"id_parcelle": "772650000C1047", "address": "5 RUE DE VAUHARLIN", "sales": 2, "median_price": 178500.0, "median_price_per_sqm": 1785.0, "median_rooms": 2.0, "first_sale": "2021-09-24", "last_sale": "2021-09-24"}}, {"type": "Feature", "geometry": {"type": "Point", "coordinates": [3.168589, 48.971946]}, "properties": {"id_parcelle": "77265000ZA0071", "address": "LE DESSUS DE CRANDELIN", "sales": 2, "median_price": 33522.72, "median_price_per_sqm": null, "median_rooms": null, "first_sale": "2024-09-13", "last_sale": "2024-09-13"}}, {"type": "Feature", "geometry": {"type": "Point", "coordinates": [3.172037, 48.976612]}, "properties": {"id_parcelle": "77265000ZB0120", "address": "RUE BELLEVUE", "sales": 2, "median_price": 37050.0, "median_price_per_sqm": null, "median_rooms": null, "first_sale": "2022-03-07", "last_sale": "2024-04-30"}}, {"type": "Feature", "geometry": {"type": "Point", "coordinates": [3.17734, 48.990146]}, "properties": {"id_parcelle": "77265000ZB0009", "address": "LE CHAMP ROND", "sales": 2, "median_price": 11000.0, "median_price_per_sqm": null, "median_rooms": null, "first_sale": "2021-03-03", "last_sale": "2021-03-03"}}, {"type": "Feature", "geometry": {"type": "Point", "coordinates": [3.173196, 48.974915]}, "properties": {"id_parcelle": "77265000ZA0119", "address": "5 RUE DU PUITS BIDON", "sales": 2, "median_price": 253000.0, "median_price_per_sqm": 2073.7704918032787, "median_rooms": 5.0, "first_sale": "2024-01-10", "last_sale": "2024-01-10"}}, {"type": "Feature", "geometry": {"type": "Point", "coordinates": [3.172478, 48.97471]}, "properties": {"id_parcelle": "77265000ZA0178", "address": "2 RUE DU PUITS BIDON", "sales": 2, "median_price": 234000.0, "median_price_per_sqm": 1950.0, "median_rooms": 5.0, "first_sale": "2021-01-19", "last_sale": "2021-01-19"}}, {"type": "Feature", "geometry": {"type": "Point", "coordinates": [3.1839, 48.973718]}, "properties": {"id_parcelle": "77265000ZD0043", "address": "3 RUE DU CENT QUATRIEME R I", "sales": 2, "median_price": 259000.0, "median_price_per_sqm": 3120.4819277108436, "median_rooms": 4.0, "first_sale": "2024-12-03", "last_sale": "2024-12-03"}}, {"type": "Feature", "geometry": {"type": "Point", "coordinates": [3.184307, 48.982915]}, "properties": {"id_parcelle": "77265000ZC0038", "address": "9 RUE ALEXANDRE BOUCHE", "sales": 2, "median_price": 85000.0, "median_price_per_sqm": 1180.5555555555557, "median_rooms": 2.0, "first_sale": "2025-04-29", "last_sale": "2025-04-29"}}, {"type": "Feature", "geometry": {"type": "Point", "coordinates": [3.186066, 48.977281]}, "properties": {"id_parcelle": "77265000ZD0118", "address": "41 RUE DE MESSY", "sales": 2, "median_price": 225000.0, "median_price_per_sqm": 3082.1917808219177, "median_rooms": 3.0, "first_sale": "2023-08-08", "last_sale": "2023-08-08"}}, {"type": "Feature", "geometry": {"type": "Point", "coordinates": [3.179405, 48.969401]}, "properties": {"id_parcelle": "77265000ZE0007", "address": "LA GAILLETTE", "sales": 2, "median_price": 114646.0, "median_price_per_sqm": null, "median_rooms": null, "first_sale": "2024-11-14", "last_sale": "2024-11-14"}}]}