{"type": "FeatureCollection", "features": [{"type": "Feature", "geometry": {"type": "Polygon", "coordinates": [[[2.685227, 48.610732], [2.685251, 48.610476], [2.685383, 48.609756], [2.685522, 48.609457], [2.686377, 48.607797], [2.686582, 48.607383], [2.68678, 48.606914], [2.68689, 48.606607], [2.687018, 48.605929], [2.687034, 48.605534], [2.687024, 48.605157], [2.686965, 48.604801], [2.686825, 48.604378], [2.686268, 48.60342], [2.687599, 48.603117], [2.688706, 48.603647], [2.689193, 48.603858], [2.68963, 48.604022], [2.689944, 48.603578], [2.690159, 48.603633], [2.691361, 48.602249], [2.692242, 48.6027], [2.692347, 48.602703], [2.692698, 48.602901], [2.693973, 48.6017], [2.695031, 48.601729], [2.695283, 48.602019], [2.700093, 48.601649], [2.700474, 48.601618], [2.700415, 48.600576], [2.700918, 48.600567], [2.698638, 48.595932], [2.698922, 48.595874], [2.698535, 48.589352], [2.698463, 48.588219], [2.698445, 48.58763], [2.698409, 48.587003], [2.697019, 48.587702], [2.696207, 48.587695], [2.696106, 48.58761], [2.695769, 48.58508], [2.69572, 48.584758], [2.694193, 48.584904], [2.691308, 48.585201], [2.690787, 48.584079], [2.687835, 48.584395], [2.685805, 48.584608], [2.685222, 48.583696], [2.685087, 48.583467], [2.684883, 48.58348], [2.684411, 48.582616], [2.682527, 48.579097], [2.682363, 48.579078], [2.681796, 48.579124], [2.681666, 48.579224], [2.681524, 48.578912], [2.677007, 48.579564], [2.674538, 48.579918], [2.674349, 48.579347], [2.673508, 48.579406], [2.671265, 48.579586], [2.664632, 48.580112], [2.664486, 48.579563], [2.66446, 48.57928], [2.662357, 48.579532], [2.658687, 48.579968], [2.655584, 48.580237], [2.655431, 48.580245], [2.65663, 48.583521], [2.655505, 48.583652], [2.655105, 48.583665], [2.65369, 48.583565], [2.653684, 48.583614], [2.653646, 48.58762], [2.653195, 48.587674], [2.652026, 48.587788], [2.650835, 48.587951], [2.65167, 48.589761], [2.652459, 48.591486], [2.652335, 48.591506], [2.652377, 48.591619], [2.651837, 48.591706], [2.649177, 48.592105], [2.6481, 48.592287], [2.646517, 48.592623], [2.64603, 48.592758], [2.645803, 48.592848], [2.645258, 48.593122], [2.64461, 48.593475], [2.645386, 48.593981], [2.648041, 48.595595], [2.648384, 48.5958], [2.649319, 48.596391], [2.649595, 48.596601], [2.649662, 48.596696], [2.649852, 48.596811], [2.650043, 48.59719], [2.650319, 48.5979], [2.650511, 48.598248], [2.650981, 48.598905], [2.651515, 48.599571], [2.652488, 48.600878], [2.652679, 48.601122], [2.653246, 48.601781], [2.653593, 48.602209], [2.653879, 48.602661], [2.653861, 48.602726], [2.653302, 48.603765], [2.65289, 48.604473], [2.652627, 48.604839], [2.652443, 48.605042], [2.652158, 48.605229], [2.65168, 48.605457], [2.651399, 48.605614], [2.651075, 48.605932], [2.65113, 48.606105], [2.651382, 48.606733], [2.651801, 48.607664], [2.651889, 48.607908], [2.652346, 48.60941], [2.652548, 48.60999], [2.652736, 48.610737], [2.652645, 48.61155], [2.65273, 48.612046], [2.652919, 48.612791], [2.652804, 48.613497], [2.652289, 48.614685], [2.652302, 48.614729], [2.653502, 48.614853], [2.654245, 48.61488], [2.656332, 48.614861], [2.659079, 48.614848], [2.659727, 48.614795], [2.661443, 48.614589], [2.661685, 48.614546], [2.662257, 48.61451], [2.66331, 48.614521], [2.665392, 48.61454], [2.665696, 48.614534], [2.667059, 48.614538], [2.668529, 48.614507], [2.669614, 48.614478], [2.67066, 48.614488], [2.67183, 48.614622], [2.672003, 48.614482], [2.672151, 48.614429], [2.672547, 48.614448], [2.67277, 48.614513], [2.673357, 48.614753], [2.673769, 48.614797], [2.674393, 48.614717], [2.674215, 48.614325], [2.67397, 48.61433], [2.673923, 48.614213], [2.676322, 48.614097], [2.677618, 48.613814], [2.677697, 48.613545], [2.678738, 48.613258], [2.681572, 48.612304], [2.681598, 48.612273], [2.682693, 48.611901], [2.683249, 48.612701], [2.683873, 48.613433], [2.684431, 48.612874], [2.684761, 48.612419], [2.684923, 48.612104], [2.685004, 48.611879], [2.685111, 48.611478], [2.685227, 48.610732]]]}, "properties": {"code_iris": "773060000", "nom_iris": "Montereau-sur-le-Jard (commune entière)", "type_iris": "Z", "lat": 48.5969, "lng": 2.6728, "dvf_sales_total": 96, "dvf_sales_appt": 0, "dvf_sales_maison": 0, "dvf_median_price": 533750.0, "dvf_median_ppsqm": 3984.375, "dvf_by_year": "[{\"year\": 2021, \"sales\": 24, \"median_price\": 262500.0}, {\"year\": 2022, \"sales\": 8, \"median_price\": 17803678.0}, {\"year\": 2023, \"sales\": 15, \"median_price\": 419500.0}, {\"year\": 2024, \"sales\": 6, \"median_price\": 345250.0}, {\"year\": 2025, \"sales\": 43, \"median_price\": 800000.0}]", "population": 499, "n_log": null, "n_rp": null, "pct_proprio": null, "pct_hlm": null, "pct_appart": null, "pct_cadres": null, "pct_bac5p": null, "pct_etrangers": null, "pct_0_14": null, "pct_65p": null, "bpe_total": null, "bpe_commerces": null, "bpe_enseignement": null, "bpe_sante": null, "dpe": null, "attractivity_score": null, "rank_attractivity_score": null, "rank_total_attractivity_score": 1, "commune_avg": null, "is_stub": true}}]}