{"type": "FeatureCollection", "features": [{"type": "Feature", "geometry": {"type": "Polygon", "coordinates": [[[2.717202, 48.19802], [2.717268, 48.198346], [2.717216, 48.198474], [2.717225, 48.199751], [2.717361, 48.200002], [2.717523, 48.200002], [2.717819, 48.200091], [2.717955, 48.200198], [2.717955, 48.20036], [2.717795, 48.200558], [2.717797, 48.200774], [2.717852, 48.200865], [2.717854, 48.201152], [2.718127, 48.20169], [2.718559, 48.20192], [2.71874, 48.202193], [2.718832, 48.202515], [2.719078, 48.202928], [2.719163, 48.203629], [2.719084, 48.203935], [2.718951, 48.204151], [2.718684, 48.204297], [2.718551, 48.20453], [2.71829, 48.2057], [2.718293, 48.20597], [2.718187, 48.20633], [2.717924, 48.207032], [2.717848, 48.207662], [2.717716, 48.208076], [2.717451, 48.208634], [2.716998, 48.209283], [2.71617, 48.210077], [2.715638, 48.211032], [2.715591, 48.211329], [2.715477, 48.211604], [2.715152, 48.211987], [2.714921, 48.212221], [2.714625, 48.212312], [2.714491, 48.212313], [2.713929, 48.212692], [2.713741, 48.212836], [2.713232, 48.21309], [2.712052, 48.213507], [2.711058, 48.213798], [2.710549, 48.214087], [2.710414, 48.214268], [2.710232, 48.215059], [2.710372, 48.215707], [2.710781, 48.216479], [2.710782, 48.216659], [2.711191, 48.217323], [2.711318, 48.217481], [2.711579, 48.217728], [2.711611, 48.21807], [2.711532, 48.218245], [2.711338, 48.218486], [2.711253, 48.218651], [2.711255, 48.218869], [2.711176, 48.21903], [2.711178, 48.219372], [2.711075, 48.219984], [2.710944, 48.220398], [2.710816, 48.221352], [2.710817, 48.22166], [2.709925, 48.221487], [2.708937, 48.221382], [2.708987, 48.22123], [2.708753, 48.221182], [2.708548, 48.221235], [2.708172, 48.220988], [2.708104, 48.220912], [2.707996, 48.220647], [2.707448, 48.220151], [2.707282, 48.220048], [2.706974, 48.219657], [2.70677, 48.219262], [2.706566, 48.218756], [2.706223, 48.218415], [2.705586, 48.218707], [2.704492, 48.218882], [2.703861, 48.219068], [2.703568, 48.219225], [2.70311, 48.219396], [2.702961, 48.219558], [2.701794, 48.219922], [2.70161, 48.219914], [2.699499, 48.219718], [2.698355, 48.2196], [2.697835, 48.219534], [2.697638, 48.220999], [2.697363, 48.223096], [2.697291, 48.223584], [2.695948, 48.223448], [2.694409, 48.223244], [2.694494, 48.222874], [2.693762, 48.222792], [2.693441, 48.222777], [2.69302, 48.222787], [2.692075, 48.22284], [2.691276, 48.222874], [2.69098, 48.222866], [2.690109, 48.222884], [2.688432, 48.222897], [2.687733, 48.222873], [2.68733, 48.222842], [2.686117, 48.2227], [2.684715, 48.22262], [2.684339, 48.222585], [2.683926, 48.222578], [2.683876, 48.22254], [2.683813, 48.222563], [2.683912, 48.222716], [2.683932, 48.222839], [2.683976, 48.22362], [2.684061, 48.224736], [2.684213, 48.225431], [2.684613, 48.226388], [2.68489, 48.2271], [2.685176, 48.227768], [2.68537, 48.228101], [2.685864, 48.228636], [2.685971, 48.228769], [2.68628, 48.22924], [2.686921, 48.230287], [2.687189, 48.230595], [2.687729, 48.231077], [2.687954, 48.231312], [2.688201, 48.231671], [2.688264, 48.231697], [2.688741, 48.232137], [2.689111, 48.232275], [2.690115, 48.232532], [2.690573, 48.232722], [2.691086, 48.233077], [2.691321, 48.233314], [2.691486, 48.233521], [2.691729, 48.23394], [2.691757, 48.234123], [2.691769, 48.234663], [2.691838, 48.235], [2.691926, 48.235208], [2.692154, 48.235543], [2.692763, 48.236271], [2.693342, 48.236995], [2.693599, 48.237279], [2.693911, 48.237561], [2.695218, 48.238642], [2.696015, 48.239324], [2.696396, 48.239727], [2.696721, 48.239988], [2.69718, 48.240319], [2.69764, 48.240538], [2.698156, 48.240654], [2.699839, 48.240965], [2.700491, 48.241048], [2.701109, 48.241114], [2.70179, 48.241206], [2.701817, 48.241155], [2.702439, 48.241295], [2.702801, 48.241446], [2.703124, 48.241521], [2.703204, 48.241413], [2.703435, 48.241456], [2.705656, 48.241918], [2.705608, 48.242027], [2.706995, 48.242383], [2.707019, 48.242355], [2.707623, 48.24255], [2.707929, 48.242043], [2.708198, 48.241437], [2.708446, 48.240807], [2.708795, 48.239879], [2.709247, 48.238688], [2.709525, 48.237981], [2.709924, 48.236933], [2.710962, 48.23423], [2.711238, 48.233529], [2.711401, 48.233065], [2.711463, 48.232769], [2.711722, 48.230402], [2.711798, 48.229672], [2.711899, 48.228814], [2.711998, 48.227726], [2.712138, 48.226516], [2.712311, 48.225171], [2.712443, 48.224628], [2.712532, 48.224123], [2.712846, 48.222607], [2.713042, 48.221768], [2.713686, 48.218809], [2.713914, 48.217804], [2.714217, 48.216393], [2.714483, 48.215273], [2.715169, 48.215337], [2.715943, 48.215455], [2.716724, 48.215652], [2.717158, 48.215742], [2.717448, 48.215765], [2.718564, 48.215781], [2.719036, 48.215976], [2.719435, 48.216203], [2.719703, 48.216439], [2.719835, 48.216497], [2.720416, 48.216538], [2.721222, 48.216633], [2.721901, 48.216764], [2.722831, 48.216978], [2.723685, 48.217093], [2.724335, 48.217216], [2.725116, 48.217329], [2.725692, 48.217436], [2.726129, 48.217498], [2.726947, 48.217851], [2.727126, 48.21771], [2.728551, 48.217376], [2.729946, 48.215495], [2.730247, 48.215563], [2.732564, 48.212265], [2.732961, 48.212386], [2.733672, 48.211274], [2.734359, 48.210182], [2.734303, 48.210017], [2.73428, 48.209957], [2.733961, 48.209805], [2.732916, 48.209516], [2.731702, 48.209238], [2.730528, 48.208978], [2.730576, 48.208888], [2.730142, 48.208776], [2.728955, 48.208421], [2.728308, 48.20824], [2.727584, 48.208005], [2.727307, 48.207848], [2.726264, 48.207418], [2.725402, 48.207078], [2.725206, 48.207026], [2.72426, 48.206939], [2.724196, 48.206953], [2.723539, 48.20687], [2.722759, 48.206853], [2.722573, 48.206836], [2.722605, 48.206368], [2.722688, 48.205882], [2.722803, 48.205849], [2.72308, 48.205119], [2.722948, 48.205085], [2.723011, 48.204856], [2.72287, 48.20484], [2.723007, 48.204425], [2.722637, 48.204367], [2.722631, 48.204007], [2.722695, 48.204005], [2.722842, 48.20355], [2.722514, 48.203382], [2.722455, 48.203061], [2.722399, 48.20255], [2.722389, 48.202137], [2.722318, 48.201828], [2.722171, 48.201652], [2.721537, 48.201017], [2.721087, 48.200475], [2.720962, 48.200393], [2.720671, 48.200283], [2.7202, 48.199972], [2.717202, 48.19802]]]}, "properties": {"code_iris": "770160000", "nom_iris": "Bagneaux-sur-Loing (commune entière)", "type_iris": "Z", "lat": 48.2206, "lng": 2.708, "dvf_sales_total": 264, "dvf_sales_appt": 0, "dvf_sales_maison": 0, "dvf_median_price": 140000.0, "dvf_median_ppsqm": 1929.216449013615, "dvf_by_year": "[{\"year\": 2021, \"sales\": 60, \"median_price\": 101000.0}, {\"year\": 2022, \"sales\": 96, \"median_price\": 185000.0}, {\"year\": 2023, \"sales\": 40, \"median_price\": 135000.0}, {\"year\": 2024, \"sales\": 19, \"median_price\": 114000.0}, {\"year\": 2025, \"sales\": 49, \"median_price\": 88000.0}]", "population": 1570, "n_log": null, "n_rp": null, "pct_proprio": null, "pct_hlm": null, "pct_appart": null, "pct_cadres": null, "pct_bac5p": null, "pct_etrangers": null, "pct_0_14": null, "pct_65p": null, "bpe_total": null, "bpe_commerces": null, "bpe_enseignement": null, "bpe_sante": null, "dpe": null, "attractivity_score": null, "rank_attractivity_score": null, "rank_total_attractivity_score": 1, "commune_avg": null, "is_stub": true}}]}