{"type": "FeatureCollection", "features": [{"type": "Feature", "geometry": {"type": "Polygon", "coordinates": [[[3.138281, 48.538206], [3.137902, 48.538612], [3.137842, 48.538704], [3.137539, 48.538864], [3.136986, 48.53923], [3.136286, 48.539718], [3.135882, 48.540045], [3.135672, 48.540298], [3.135446, 48.540627], [3.134667, 48.541828], [3.134454, 48.542132], [3.134177, 48.542465], [3.133581, 48.543062], [3.133394, 48.543211], [3.133254, 48.543324], [3.132727, 48.543611], [3.132395, 48.54374], [3.131846, 48.543887], [3.131022, 48.544049], [3.13068, 48.544131], [3.130383, 48.544235], [3.130105, 48.544375], [3.12911, 48.544989], [3.128651, 48.545204], [3.128665, 48.545267], [3.129567, 48.545215], [3.12984, 48.545209], [3.130732, 48.545231], [3.131347, 48.545287], [3.132076, 48.545387], [3.134569, 48.545903], [3.136158, 48.54621], [3.13805, 48.546561], [3.138379, 48.546604], [3.137604, 48.547458], [3.136064, 48.54911], [3.135268, 48.549994], [3.134527, 48.551565], [3.13431, 48.552053], [3.133826, 48.553045], [3.13356, 48.553616], [3.132264, 48.553702], [3.131068, 48.553796], [3.130945, 48.555624], [3.13081, 48.556984], [3.130725, 48.558158], [3.130662, 48.558868], [3.13066, 48.559185], [3.129385, 48.559269], [3.126535, 48.559443], [3.126555, 48.559664], [3.126892, 48.562388], [3.127147, 48.564299], [3.125779, 48.564399], [3.124743, 48.564489], [3.124489, 48.565052], [3.123842, 48.566751], [3.122818, 48.569355], [3.122368, 48.570244], [3.122177, 48.570526], [3.121935, 48.570797], [3.121661, 48.571162], [3.121457, 48.571387], [3.120783, 48.571956], [3.120263, 48.572315], [3.119511, 48.572801], [3.120514, 48.573598], [3.120748, 48.57374], [3.121421, 48.574075], [3.122258, 48.574444], [3.122802, 48.574655], [3.12327, 48.574905], [3.123792, 48.575225], [3.124108, 48.575395], [3.124815, 48.575723], [3.125175, 48.575473], [3.125503, 48.575473], [3.12651, 48.57534], [3.126686, 48.575366], [3.127559, 48.575719], [3.128417, 48.575948], [3.129432, 48.576121], [3.130552, 48.57628], [3.130996, 48.576242], [3.131968, 48.57598], [3.132515, 48.575752], [3.133037, 48.575399], [3.133686, 48.574646], [3.133763, 48.574599], [3.134164, 48.574471], [3.13633, 48.57385], [3.1369, 48.573755], [3.137549, 48.573671], [3.138109, 48.573626], [3.138715, 48.574027], [3.139048, 48.574343], [3.13938, 48.574889], [3.139478, 48.57497], [3.13975, 48.575031], [3.140478, 48.574968], [3.140656, 48.57501], [3.140598, 48.575179], [3.140632, 48.575388], [3.140804, 48.575826], [3.141029, 48.576086], [3.141718, 48.576653], [3.141813, 48.576783], [3.141863, 48.57697], [3.14185, 48.577111], [3.141742, 48.577511], [3.142282, 48.577474], [3.142732, 48.577478], [3.143501, 48.577548], [3.145637, 48.577856], [3.145914, 48.577863], [3.146209, 48.577825], [3.146693, 48.577688], [3.147073, 48.577543], [3.147577, 48.577158], [3.14826, 48.576459], [3.148745, 48.576734], [3.149579, 48.577264], [3.149876, 48.577396], [3.150693, 48.577507], [3.151135, 48.57751], [3.15205, 48.577242], [3.152468, 48.577146], [3.152862, 48.577111], [3.153273, 48.577119], [3.153586, 48.577163], [3.155108, 48.577556], [3.156138, 48.577726], [3.156623, 48.577792], [3.15812, 48.577964], [3.158408, 48.577971], [3.159008, 48.577929], [3.159405, 48.577876], [3.160587, 48.577852], [3.161354, 48.577693], [3.161971, 48.57765], [3.162364, 48.577649], [3.163274, 48.577693], [3.164105, 48.577708], [3.164632, 48.577668], [3.166189, 48.577503], [3.166539, 48.577481], [3.16787, 48.577432], [3.167783, 48.576636], [3.167805, 48.5766], [3.167763, 48.575509], [3.167769, 48.574641], [3.165346, 48.57474], [3.164512, 48.574779], [3.164556, 48.574555], [3.164669, 48.574278], [3.165239, 48.573751], [3.165486, 48.57347], [3.165602, 48.573135], [3.165644, 48.572874], [3.16567, 48.572025], [3.16571, 48.571697], [3.165809, 48.571415], [3.16594, 48.571152], [3.166266, 48.570563], [3.166376, 48.57024], [3.166406, 48.569803], [3.166212, 48.568972], [3.166192, 48.568686], [3.166299, 48.567211], [3.166433, 48.566356], [3.166071, 48.565701], [3.165752, 48.565317], [3.165087, 48.564619], [3.164832, 48.564288], [3.164569, 48.563784], [3.164269, 48.56309], [3.164163, 48.562906], [3.163615, 48.562301], [3.163117, 48.561857], [3.16261, 48.561471], [3.162134, 48.561183], [3.161611, 48.560908], [3.159869, 48.560158], [3.159762, 48.560121], [3.158788, 48.559514], [3.158547, 48.559347], [3.158809, 48.558331], [3.15899, 48.557728], [3.159174, 48.557185], [3.159339, 48.557061], [3.160024, 48.556906], [3.160205, 48.556744], [3.160395, 48.55633], [3.161129, 48.555583], [3.161438, 48.555162], [3.161599, 48.554797], [3.161445, 48.554355], [3.161488, 48.55418], [3.161649, 48.55412], [3.162394, 48.554149], [3.162874, 48.553363], [3.163147, 48.552882], [3.163548, 48.552213], [3.163642, 48.552029], [3.163991, 48.551678], [3.163908, 48.551626], [3.165649, 48.549941], [3.166617, 48.548979], [3.166812, 48.548739], [3.167352, 48.547737], [3.167806, 48.547706], [3.168097, 48.547724], [3.168414, 48.547808], [3.168888, 48.54801], [3.169409, 48.548325], [3.170166, 48.548694], [3.171224, 48.548976], [3.171891, 48.549024], [3.172742, 48.549111], [3.173218, 48.549177], [3.17333, 48.549165], [3.173774, 48.549262], [3.173881, 48.549136], [3.174568, 48.548535], [3.174735, 48.548442], [3.175244, 48.548223], [3.17601, 48.54793], [3.176166, 48.547888], [3.176826, 48.547599], [3.177294, 48.547431], [3.177951, 48.547255], [3.178305, 48.547087], [3.178478, 48.546957], [3.178648, 48.54669], [3.178968, 48.546437], [3.179246, 48.54625], [3.179915, 48.54594], [3.180528, 48.545805], [3.181113, 48.545694], [3.18163, 48.545576], [3.181922, 48.545455], [3.182188, 48.545262], [3.182553, 48.544944], [3.182853, 48.544646], [3.183036, 48.54441], [3.183834, 48.543216], [3.184257, 48.542496], [3.184327, 48.542308], [3.184444, 48.541819], [3.184599, 48.541406], [3.185029, 48.540425], [3.185184, 48.540039], [3.185278, 48.539748], [3.185575, 48.538509], [3.185653, 48.538224], [3.185859, 48.537684], [3.186278, 48.536637], [3.18652, 48.535802], [3.186637, 48.535601], [3.187, 48.535286], [3.186755, 48.53525], [3.18646, 48.535409], [3.186229, 48.53545], [3.185783, 48.535443], [3.185063, 48.535328], [3.184704, 48.535247], [3.1844, 48.535141], [3.184075, 48.53498], [3.183886, 48.53494], [3.183102, 48.534872], [3.182232, 48.534747], [3.182054, 48.53474], [3.181521, 48.534777], [3.181215, 48.534843], [3.181014, 48.534848], [3.180648, 48.534717], [3.180482, 48.534717], [3.180431, 48.534905], [3.180096, 48.534866], [3.179823, 48.534907], [3.179308, 48.534868], [3.178835, 48.53489], [3.178232, 48.534786], [3.177924, 48.534748], [3.17738, 48.534735], [3.176881, 48.534639], [3.176555, 48.534655], [3.175801, 48.534507], [3.175541, 48.534486], [3.174912, 48.534371], [3.174561, 48.534243], [3.174385, 48.534211], [3.173831, 48.534185], [3.173398, 48.53404], [3.173126, 48.533977], [3.172107, 48.533929], [3.17087, 48.533796], [3.170134, 48.533603], [3.168881, 48.533151], [3.16741, 48.532812], [3.166456, 48.532654], [3.164918, 48.532506], [3.163293, 48.532231], [3.162836, 48.532018], [3.162655, 48.531757], [3.16248, 48.531742], [3.162017, 48.531822], [3.161783, 48.531826], [3.161424, 48.531878], [3.160728, 48.53229], [3.16053, 48.532363], [3.160013, 48.532369], [3.159625, 48.532458], [3.159057, 48.532552], [3.158749, 48.532671], [3.15847, 48.532702], [3.158161, 48.532647], [3.157664, 48.532655], [3.157366, 48.532687], [3.156793, 48.532667], [3.156539, 48.532691], [3.156332, 48.532472], [3.156095, 48.532366], [3.155802, 48.532356], [3.15556, 48.532407], [3.155328, 48.53253], [3.155219, 48.532656], [3.155235, 48.532907], [3.155087, 48.532923], [3.154886, 48.532821], [3.154722, 48.532785], [3.154349, 48.532831], [3.153838, 48.532833], [3.153623, 48.53285], [3.154075, 48.534307], [3.15419, 48.534698], [3.153737, 48.534793], [3.150555, 48.535582], [3.149767, 48.535982], [3.150144, 48.536413], [3.149816, 48.536501], [3.149218, 48.536719], [3.148902, 48.536814], [3.147927, 48.536978], [3.147229, 48.53708], [3.146948, 48.537154], [3.146596, 48.537326], [3.145318, 48.537182], [3.144468, 48.537131], [3.143467, 48.537172], [3.142852, 48.537175], [3.142321, 48.537134], [3.142058, 48.537255], [3.141663, 48.5374], [3.138281, 48.538206]]]}, "properties": {"code_iris": "772720000", "nom_iris": "Maison-Rouge (commune entière)", "type_iris": "Z", "lat": 48.5549, "lng": 3.1533, "dvf_sales_total": 245, "dvf_sales_appt": 0, "dvf_sales_maison": 0, "dvf_median_price": 140000.0, "dvf_median_ppsqm": 1989.3617021276596, "dvf_by_year": "[{\"year\": 2021, \"sales\": 67, \"median_price\": 140000.0}, {\"year\": 2022, \"sales\": 50, \"median_price\": 210000.0}, {\"year\": 2023, \"sales\": 46, \"median_price\": 91500.0}, {\"year\": 2024, \"sales\": 29, \"median_price\": 96250.0}, {\"year\": 2025, \"sales\": 53, \"median_price\": 148000.0}]", "population": 880, "n_log": null, "n_rp": null, "pct_proprio": null, "pct_hlm": null, "pct_appart": null, "pct_cadres": null, "pct_bac5p": null, "pct_etrangers": null, "pct_0_14": null, "pct_65p": null, "bpe_total": null, "bpe_commerces": null, "bpe_enseignement": null, "bpe_sante": null, "dpe": null, "attractivity_score": null, "rank_attractivity_score": null, "rank_total_attractivity_score": 1, "commune_avg": null, "is_stub": true}}]}