{"type": "FeatureCollection", "features": [{"type": "Feature", "geometry": {"type": "Point", "coordinates": [2.614417, 48.5706265]}, "properties": {"street_name": "LE PRE DE L'ETANG", "sales": 180, "sales_appt": 0, "sales_maison": 0, "median_price": 334000.0, "median_price_per_sqm": null, "turnover_score": 100.0, "turnover_rank": 1, "first_year": 2021, "last_year": 2025, "years_active": 5}}, {"type": "Feature", "geometry": {"type": "Point", "coordinates": [2.614518, 48.571336]}, "properties": {"street_name": "RUE DES HAIES FLEURIES", "sales": 161, "sales_appt": 0, "sales_maison": 17, "median_price": 338000.0, "median_price_per_sqm": 3224.4897959183672, "turnover_score": 89.4, "turnover_rank": 2, "first_year": 2021, "last_year": 2025, "years_active": 5}}, {"type": "Feature", "geometry": {"type": "Point", "coordinates": [2.615034, 48.564547]}, "properties": {"street_name": "RUE DE LA FERME", "sales": 42, "sales_appt": 14, "sales_maison": 0, "median_price": 173500.0, "median_price_per_sqm": 3483.0573738929534, "turnover_score": 23.3, "turnover_rank": 3, "first_year": 2021, "last_year": 2025, "years_active": 5}}, {"type": "Feature", "geometry": {"type": "Point", "coordinates": [2.612104, 48.56352]}, "properties": {"street_name": "RUE DES ROCHES", "sales": 42, "sales_appt": 7, "sales_maison": 4, "median_price": 140250.0, "median_price_per_sqm": 3356.9182389937105, "turnover_score": 23.3, "turnover_rank": 3, "first_year": 2021, "last_year": 2025, "years_active": 5}}, {"type": "Feature", "geometry": {"type": "Point", "coordinates": [2.611786, 48.572327]}, "properties": {"street_name": "RUE DE LA FOLLE AVOINE", "sales": 41, "sales_appt": 15, "sales_maison": 4, "median_price": 175000.0, "median_price_per_sqm": 3924.864581513192, "turnover_score": 22.8, "turnover_rank": 4, "first_year": 2021, "last_year": 2025, "years_active": 5}}, {"type": "Feature", "geometry": {"type": "Point", "coordinates": [2.61261, 48.573593]}, "properties": {"street_name": "RUE DE L'ORGE", "sales": 38, "sales_appt": 14, "sales_maison": 3, "median_price": 176000.0, "median_price_per_sqm": 3539.344262295082, "turnover_score": 21.1, "turnover_rank": 5, "first_year": 2021, "last_year": 2025, "years_active": 5}}, {"type": "Feature", "geometry": {"type": "Point", "coordinates": [2.6188635, 48.564253]}, "properties": {"street_name": "RUE DE LA BREBIS", "sales": 36, "sales_appt": 0, "sales_maison": 9, "median_price": 222000.0, "median_price_per_sqm": 3214.285714285714, "turnover_score": 20.0, "turnover_rank": 6, "first_year": 2023, "last_year": 2025, "years_active": 3}}, {"type": "Feature", "geometry": {"type": "Point", "coordinates": [2.6214775, 48.5696345]}, "properties": {"street_name": "RUE DE LA BUTTE DU LUET", "sales": 32, "sales_appt": 0, "sales_maison": 28, "median_price": 308000.0, "median_price_per_sqm": 3020.0, "turnover_score": 17.8, "turnover_rank": 7, "first_year": 2021, "last_year": 2025, "years_active": 5}}, {"type": "Feature", "geometry": {"type": "Point", "coordinates": [2.623787, 48.5657165]}, "properties": {"street_name": "RUE DU GRILLON", "sales": 32, "sales_appt": 0, "sales_maison": 17, "median_price": 253000.0, "median_price_per_sqm": 3469.5652173913045, "turnover_score": 17.8, "turnover_rank": 7, "first_year": 2021, "last_year": 2024, "years_active": 4}}, {"type": "Feature", "geometry": {"type": "Point", "coordinates": [2.6179375, 48.5631015]}, "properties": {"street_name": "RUE JOSEPH LESURQUES", "sales": 32, "sales_appt": 0, "sales_maison": 12, "median_price": 120500.0, "median_price_per_sqm": 2988.7640449438204, "turnover_score": 17.8, "turnover_rank": 7, "first_year": 2021, "last_year": 2025, "years_active": 5}}, {"type": "Feature", "geometry": {"type": "Point", "coordinates": [2.614712, 48.565679]}, "properties": {"street_name": "RUE PASTEUR", "sales": 30, "sales_appt": 3, "sales_maison": 7, "median_price": 196000.0, "median_price_per_sqm": 2930.841121495327, "turnover_score": 16.7, "turnover_rank": 8, "first_year": 2021, "last_year": 2025, "years_active": 5}}, {"type": "Feature", "geometry": {"type": "Point", "coordinates": [2.626653, 48.583918]}, "properties": {"street_name": "RUE DU BICHOT", "sales": 26, "sales_appt": 0, "sales_maison": 10, "median_price": 298900.0, "median_price_per_sqm": 3000.0, "turnover_score": 14.4, "turnover_rank": 9, "first_year": 2021, "last_year": 2025, "years_active": 5}}, {"type": "Feature", "geometry": {"type": "Point", "coordinates": [2.654419, 48.570493]}, "properties": {"street_name": "RUE DE LA QUEUE DU LOUP", "sales": 23, "sales_appt": 0, "sales_maison": 6, "median_price": 410000.0, "median_price_per_sqm": 3450.0, "turnover_score": 12.8, "turnover_rank": 10, "first_year": 2021, "last_year": 2025, "years_active": 5}}, {"type": "Feature", "geometry": {"type": "Point", "coordinates": [2.613638, 48.569069]}, "properties": {"street_name": "RUE DE L'ETANG", "sales": 21, "sales_appt": 0, "sales_maison": 2, "median_price": 338000.0, "median_price_per_sqm": 2725.2435064935066, "turnover_score": 11.7, "turnover_rank": 11, "first_year": 2021, "last_year": 2025, "years_active": 5}}, {"type": "Feature", "geometry": {"type": "Point", "coordinates": [2.613288, 48.570604]}, "properties": {"street_name": "RUE DE LA FONTAINE RONDE", "sales": 18, "sales_appt": 0, "sales_maison": 0, "median_price": 334000.0, "median_price_per_sqm": null, "turnover_score": 10.0, "turnover_rank": 12, "first_year": 2021, "last_year": 2025, "years_active": 5}}, {"type": "Feature", "geometry": {"type": "Point", "coordinates": [2.625274, 48.585612]}, "properties": {"street_name": "RUE DE LA BUTTE AUX FONTAINES", "sales": 18, "sales_appt": 1, "sales_maison": 8, "median_price": 200995.0, "median_price_per_sqm": 3471.6742202079445, "turnover_score": 10.0, "turnover_rank": 12, "first_year": 2021, "last_year": 2025, "years_active": 4}}, {"type": "Feature", "geometry": {"type": "Point", "coordinates": [2.619458, 48.568]}, "properties": {"street_name": "RUE DE POUILLY", "sales": 17, "sales_appt": 1, "sales_maison": 4, "median_price": 1540000.0, "median_price_per_sqm": 5269.461077844311, "turnover_score": 9.4, "turnover_rank": 13, "first_year": 2021, "last_year": 2024, "years_active": 3}}, {"type": "Feature", "geometry": {"type": "Point", "coordinates": [2.6314504999999997, 48.584548]}, "properties": {"street_name": "RUE DES BORDES", "sales": 16, "sales_appt": 1, "sales_maison": 4, "median_price": 209000.0, "median_price_per_sqm": 3483.3333333333335, "turnover_score": 8.9, "turnover_rank": 14, "first_year": 2021, "last_year": 2024, "years_active": 3}}, {"type": "Feature", "geometry": {"type": "Point", "coordinates": [2.651181, 48.572493]}, "properties": {"street_name": "RUE DE VOISENON", "sales": 14, "sales_appt": 5, "sales_maison": 0, "median_price": 190000.0, "median_price_per_sqm": 2846.153846153846, "turnover_score": 7.8, "turnover_rank": 15, "first_year": 2021, "last_year": 2025, "years_active": 4}}, {"type": "Feature", "geometry": {"type": "Point", "coordinates": [2.609628, 48.559071]}, "properties": {"street_name": "ALL DES BOIS", "sales": 13, "sales_appt": 1, "sales_maison": 6, "median_price": 233000.0, "median_price_per_sqm": 3620.689655172414, "turnover_score": 7.2, "turnover_rank": 16, "first_year": 2021, "last_year": 2025, "years_active": 5}}, {"type": "Feature", "geometry": {"type": "Point", "coordinates": [2.651097, 48.569873]}, "properties": {"street_name": "RUE DE MONTAIGU", "sales": 12, "sales_appt": 2, "sales_maison": 3, "median_price": 268500.0, "median_price_per_sqm": 2984.251968503937, "turnover_score": 6.7, "turnover_rank": 17, "first_year": 2021, "last_year": 2025, "years_active": 4}}, {"type": "Feature", "geometry": {"type": "Point", "coordinates": [2.6160635, 48.5672775]}, "properties": {"street_name": "RUE DU PRE AUX CANAUX", "sales": 12, "sales_appt": 0, "sales_maison": 11, "median_price": 295000.0, "median_price_per_sqm": 3214.285714285714, "turnover_score": 6.7, "turnover_rank": 17, "first_year": 2021, "last_year": 2025, "years_active": 5}}, {"type": "Feature", "geometry": {"type": "Point", "coordinates": [2.615846, 48.5637765]}, "properties": {"street_name": "RUE PIERRE MENDES FRANCE", "sales": 12, "sales_appt": 0, "sales_maison": 12, "median_price": 256885.0, "median_price_per_sqm": 3152.901234567901, "turnover_score": 6.7, "turnover_rank": 17, "first_year": 2021, "last_year": 2025, "years_active": 5}}, {"type": "Feature", "geometry": {"type": "Point", "coordinates": [2.633246, 48.566929]}, "properties": {"street_name": "AV DE L'EUROPE", "sales": 12, "sales_appt": 2, "sales_maison": 0, "median_price": 1080203.5, "median_price_per_sqm": 1078.8357269393166, "turnover_score": 6.7, "turnover_rank": 17, "first_year": 2021, "last_year": 2025, "years_active": 4}}, {"type": "Feature", "geometry": {"type": "Point", "coordinates": [2.624872, 48.566405]}, "properties": {"street_name": "RUE DES ACACIAS", "sales": 11, "sales_appt": 0, "sales_maison": 6, "median_price": 276000.0, "median_price_per_sqm": 3002.551020408163, "turnover_score": 6.1, "turnover_rank": 18, "first_year": 2021, "last_year": 2023, "years_active": 3}}, {"type": "Feature", "geometry": {"type": "Point", "coordinates": [2.627069, 48.56188]}, "properties": {"street_name": "RUE PHILIPPE AUGUSTE", "sales": 11, "sales_appt": 0, "sales_maison": 9, "median_price": 268000.0, "median_price_per_sqm": 3119.5652173913045, "turnover_score": 6.1, "turnover_rank": 18, "first_year": 2021, "last_year": 2025, "years_active": 3}}, {"type": "Feature", "geometry": {"type": "Point", "coordinates": [2.6251160000000002, 48.5616535]}, "properties": {"street_name": "RUE DES AULNES", "sales": 10, "sales_appt": 0, "sales_maison": 9, "median_price": 283350.0, "median_price_per_sqm": 3132.7433628318586, "turnover_score": 5.6, "turnover_rank": 19, "first_year": 2021, "last_year": 2025, "years_active": 5}}, {"type": "Feature", "geometry": {"type": "Point", "coordinates": [2.6095145, 48.5656325]}, "properties": {"street_name": "RUE DE SEINE PORT", "sales": 10, "sales_appt": 0, "sales_maison": 10, "median_price": 270995.0, "median_price_per_sqm": 2892.4193548387093, "turnover_score": 5.6, "turnover_rank": 19, "first_year": 2022, "last_year": 2025, "years_active": 4}}, {"type": "Feature", "geometry": {"type": "Point", "coordinates": [2.6117525, 48.566487499999994]}, "properties": {"street_name": "RUE D'ORMESSON", "sales": 10, "sales_appt": 0, "sales_maison": 5, "median_price": 232500.0, "median_price_per_sqm": 2861.1111111111113, "turnover_score": 5.6, "turnover_rank": 19, "first_year": 2021, "last_year": 2025, "years_active": 4}}, {"type": "Feature", "geometry": {"type": "Point", "coordinates": [2.636353, 48.568222]}, "properties": {"street_name": "LA FOSSE A COCHON", "sales": 9, "sales_appt": 0, "sales_maison": 0, "median_price": 1200000.0, "median_price_per_sqm": null, "turnover_score": 5.0, "turnover_rank": 20, "first_year": 2021, "last_year": 2025, "years_active": 3}}, {"type": "Feature", "geometry": {"type": "Point", "coordinates": [2.625796, 48.567421]}, "properties": {"street_name": "IMP DES SAULES", "sales": 9, "sales_appt": 0, "sales_maison": 3, "median_price": 235000.0, "median_price_per_sqm": 2764.705882352941, "turnover_score": 5.0, "turnover_rank": 20, "first_year": 2021, "last_year": 2025, "years_active": 3}}, {"type": "Feature", "geometry": {"type": "Point", "coordinates": [2.652691, 48.570549]}, "properties": {"street_name": "RUE DE LA MADELEINE", "sales": 9, "sales_appt": 0, "sales_maison": 2, "median_price": 391185.0, "median_price_per_sqm": 2853.836032388664, "turnover_score": 5.0, "turnover_rank": 20, "first_year": 2022, "last_year": 2025, "years_active": 3}}, {"type": "Feature", "geometry": {"type": "Point", "coordinates": [2.629985, 48.584798]}, "properties": {"street_name": "RUE DU LAVOIR", "sales": 9, "sales_appt": 1, "sales_maison": 2, "median_price": 195000.0, "median_price_per_sqm": 1089.6153846153845, "turnover_score": 5.0, "turnover_rank": 20, "first_year": 2022, "last_year": 2025, "years_active": 3}}, {"type": "Feature", "geometry": {"type": "Point", "coordinates": [2.635922, 48.568807]}, "properties": {"street_name": "RUE PAUL HENRI SPAAK", "sales": 9, "sales_appt": 0, "sales_maison": 0, "median_price": 1550000.0, "median_price_per_sqm": 694.8873469387755, "turnover_score": 5.0, "turnover_rank": 20, "first_year": 2021, "last_year": 2025, "years_active": 4}}, {"type": "Feature", "geometry": {"type": "Point", "coordinates": [2.613395, 48.56734]}, "properties": {"street_name": "RUE DIONET", "sales": 9, "sales_appt": 3, "sales_maison": 2, "median_price": 285000.0, "median_price_per_sqm": 2633.720930232558, "turnover_score": 5.0, "turnover_rank": 20, "first_year": 2021, "last_year": 2024, "years_active": 4}}, {"type": "Feature", "geometry": {"type": "Point", "coordinates": [2.6087005000000003, 48.559191]}, "properties": {"street_name": "ALL DU REVERDI", "sales": 8, "sales_appt": 0, "sales_maison": 7, "median_price": 326970.0, "median_price_per_sqm": 3893.6170212765956, "turnover_score": 4.4, "turnover_rank": 21, "first_year": 2021, "last_year": 2025, "years_active": 4}}, {"type": "Feature", "geometry": {"type": "Point", "coordinates": [2.622627, 48.56559]}, "properties": {"street_name": "LE CHAMP GRILLON", "sales": 7, "sales_appt": 0, "sales_maison": 0, "median_price": 350330.0, "median_price_per_sqm": null, "turnover_score": 3.9, "turnover_rank": 22, "first_year": 2021, "last_year": 2024, "years_active": 3}}, {"type": "Feature", "geometry": {"type": "Point", "coordinates": [2.608498, 48.566728]}, "properties": {"street_name": "RUE KLEBER", "sales": 7, "sales_appt": 0, "sales_maison": 7, "median_price": 280000.0, "median_price_per_sqm": 2777.777777777778, "turnover_score": 3.9, "turnover_rank": 22, "first_year": 2021, "last_year": 2024, "years_active": 4}}, {"type": "Feature", "geometry": {"type": "Point", "coordinates": [2.622379, 48.568591]}, "properties": {"street_name": "RUE DES CORDIERES", "sales": 7, "sales_appt": 0, "sales_maison": 7, "median_price": 305000.0, "median_price_per_sqm": 2925.531914893617, "turnover_score": 3.9, "turnover_rank": 22, "first_year": 2021, "last_year": 2024, "years_active": 4}}, {"type": "Feature", "geometry": {"type": "Point", "coordinates": [2.623565, 48.563771]}, "properties": {"street_name": "ALL IRENE LEZINE", "sales": 7, "sales_appt": 0, "sales_maison": 4, "median_price": 230000.0, "median_price_per_sqm": 3108.653846153846, "turnover_score": 3.9, "turnover_rank": 22, "first_year": 2023, "last_year": 2025, "years_active": 3}}, {"type": "Feature", "geometry": {"type": "Point", "coordinates": [2.632052, 48.586277]}, "properties": {"street_name": "RUE DE VILLAROCHE", "sales": 7, "sales_appt": 0, "sales_maison": 2, "median_price": 264000.0, "median_price_per_sqm": 1927.2727272727273, "turnover_score": 3.9, "turnover_rank": 22, "first_year": 2021, "last_year": 2024, "years_active": 4}}, {"type": "Feature", "geometry": {"type": "Point", "coordinates": [2.638919, 48.584245]}, "properties": {"street_name": "LUTOT", "sales": 6, "sales_appt": 0, "sales_maison": 0, "median_price": 10000.0, "median_price_per_sqm": null, "turnover_score": 3.3, "turnover_rank": 23, "first_year": 2024, "last_year": 2024, "years_active": 1}}, {"type": "Feature", "geometry": {"type": "Point", "coordinates": [2.610677, 48.574419]}, "properties": {"street_name": "RUE DU MAIS", "sales": 6, "sales_appt": 0, "sales_maison": 6, "median_price": 315500.0, "median_price_per_sqm": 3495.588998443176, "turnover_score": 3.3, "turnover_rank": 23, "first_year": 2021, "last_year": 2025, "years_active": 4}}, {"type": "Feature", "geometry": {"type": "Point", "coordinates": [2.629246, 48.561159]}, "properties": {"street_name": "RUE DU MARCHE BUTTON", "sales": 6, "sales_appt": 0, "sales_maison": 6, "median_price": 286500.0, "median_price_per_sqm": 3219.1011235955057, "turnover_score": 3.3, "turnover_rank": 23, "first_year": 2022, "last_year": 2025, "years_active": 3}}, {"type": "Feature", "geometry": {"type": "Point", "coordinates": [2.6166495000000003, 48.5772595]}, "properties": {"street_name": "D 306", "sales": 6, "sales_appt": 0, "sales_maison": 1, "median_price": 2517000.0, "median_price_per_sqm": 2801.530612244898, "turnover_score": 3.3, "turnover_rank": 23, "first_year": 2021, "last_year": 2024, "years_active": 3}}, {"type": "Feature", "geometry": {"type": "Point", "coordinates": [2.619724, 48.562803]}, "properties": {"street_name": "ALL DES ALOUETTES", "sales": 6, "sales_appt": 0, "sales_maison": 6, "median_price": 240000.0, "median_price_per_sqm": 3124.775769745649, "turnover_score": 3.3, "turnover_rank": 23, "first_year": 2021, "last_year": 2024, "years_active": 3}}, {"type": "Feature", "geometry": {"type": "Point", "coordinates": [2.621785, 48.563236]}, "properties": {"street_name": "ALL DU BASSIN", "sales": 6, "sales_appt": 0, "sales_maison": 3, "median_price": 299000.0, "median_price_per_sqm": 3815.7894736842104, "turnover_score": 3.3, "turnover_rank": 23, "first_year": 2022, "last_year": 2023, "years_active": 2}}, {"type": "Feature", "geometry": {"type": "Point", "coordinates": [2.609607, 48.567024]}, "properties": {"street_name": "RUE DE MEAUX", "sales": 6, "sales_appt": 0, "sales_maison": 6, "median_price": 278800.0, "median_price_per_sqm": 2866.1290322580644, "turnover_score": 3.3, "turnover_rank": 23, "first_year": 2022, "last_year": 2025, "years_active": 4}}, {"type": "Feature", "geometry": {"type": "Point", "coordinates": [2.614915, 48.5674585]}, "properties": {"street_name": "RUE DU RUISSEAU", "sales": 6, "sales_appt": 0, "sales_maison": 6, "median_price": 350344.8, "median_price_per_sqm": 2919.54, "turnover_score": 3.3, "turnover_rank": 23, "first_year": 2022, "last_year": 2025, "years_active": 3}}, {"type": "Feature", "geometry": {"type": "Point", "coordinates": [2.612148, 48.571141999999995]}, "properties": {"street_name": "RUE DE L'EPEAUTRE", "sales": 6, "sales_appt": 0, "sales_maison": 5, "median_price": 283325.0, "median_price_per_sqm": 3468.3544303797466, "turnover_score": 3.3, "turnover_rank": 23, "first_year": 2022, "last_year": 2025, "years_active": 4}}, {"type": "Feature", "geometry": {"type": "Point", "coordinates": [2.621189, 48.583174]}, "properties": {"street_name": "LES VIGNES", "sales": 6, "sales_appt": 0, "sales_maison": 0, "median_price": 103774.6, "median_price_per_sqm": null, "turnover_score": 3.3, "turnover_rank": 23, "first_year": 2024, "last_year": 2024, "years_active": 1}}, {"type": "Feature", "geometry": {"type": "Point", "coordinates": [2.610624, 48.564895]}, "properties": {"street_name": "PL DE GRAND VILLAGE", "sales": 6, "sales_appt": 0, "sales_maison": 1, "median_price": 172500.0, "median_price_per_sqm": 3333.0, "turnover_score": 3.3, "turnover_rank": 23, "first_year": 2022, "last_year": 2025, "years_active": 4}}, {"type": "Feature", "geometry": {"type": "Point", "coordinates": [2.610701, 48.565268]}, "properties": {"street_name": "RUE D'URY", "sales": 5, "sales_appt": 0, "sales_maison": 1, "median_price": 172500.0, "median_price_per_sqm": 3410.7751937984494, "turnover_score": 2.8, "turnover_rank": 24, "first_year": 2023, "last_year": 2025, "years_active": 3}}, {"type": "Feature", "geometry": {"type": "Point", "coordinates": [2.620793, 48.578953]}, "properties": {"street_name": "LE BAS DES VIGNES", "sales": 5, "sales_appt": 0, "sales_maison": 0, "median_price": 103774.6, "median_price_per_sqm": null, "turnover_score": 2.8, "turnover_rank": 24, "first_year": 2024, "last_year": 2024, "years_active": 1}}, {"type": "Feature", "geometry": {"type": "Point", "coordinates": [2.636925, 48.569045]}, "properties": {"street_name": "LES BASSES BILLES", "sales": 5, "sales_appt": 0, "sales_maison": 0, "median_price": 540000.0, "median_price_per_sqm": null, "turnover_score": 2.8, "turnover_rank": 24, "first_year": 2021, "last_year": 2025, "years_active": 3}}, {"type": "Feature", "geometry": {"type": "Point", "coordinates": [2.651181, 48.572493]}, "properties": {"street_name": "RTE DE VOISENON", "sales": 5, "sales_appt": 2, "sales_maison": 0, "median_price": 150000.0, "median_price_per_sqm": 3869.2682926829266, "turnover_score": 2.8, "turnover_rank": 24, "first_year": 2021, "last_year": 2022, "years_active": 2}}, {"type": "Feature", "geometry": {"type": "Point", "coordinates": [2.622807, 48.564579]}, "properties": {"street_name": "RUE DE LA PAIX DU PONCEAU", "sales": 5, "sales_appt": 0, "sales_maison": 2, "median_price": 205000.0, "median_price_per_sqm": 2860.663213191303, "turnover_score": 2.8, "turnover_rank": 24, "first_year": 2022, "last_year": 2024, "years_active": 3}}, {"type": "Feature", "geometry": {"type": "Point", "coordinates": [2.613395, 48.566071]}, "properties": {"street_name": "IMP DIONET", "sales": 5, "sales_appt": 0, "sales_maison": 2, "median_price": 87000.0, "median_price_per_sqm": 2268.987341772152, "turnover_score": 2.8, "turnover_rank": 24, "first_year": 2024, "last_year": 2025, "years_active": 2}}, {"type": "Feature", "geometry": {"type": "Point", "coordinates": [2.631025, 48.566711]}, "properties": {"street_name": "LA CAVE", "sales": 5, "sales_appt": 0, "sales_maison": 0, "median_price": 1200000.0, "median_price_per_sqm": null, "turnover_score": 2.8, "turnover_rank": 24, "first_year": 2021, "last_year": 2022, "years_active": 2}}, {"type": "Feature", "geometry": {"type": "Point", "coordinates": [2.630824, 48.586468]}, "properties": {"street_name": "RUE DE LA BICHERE", "sales": 5, "sales_appt": 0, "sales_maison": 2, "median_price": 296000.0, "median_price_per_sqm": 4276.449579831933, "turnover_score": 2.8, "turnover_rank": 24, "first_year": 2022, "last_year": 2024, "years_active": 2}}, {"type": "Feature", "geometry": {"type": "Point", "coordinates": [2.619907, 48.563657]}, "properties": {"street_name": "RUE DE LA VALLEE DE BAILLY", "sales": 5, "sales_appt": 0, "sales_maison": 2, "median_price": 60000.0, "median_price_per_sqm": 1642.857142857143, "turnover_score": 2.8, "turnover_rank": 24, "first_year": 2022, "last_year": 2024, "years_active": 2}}, {"type": "Feature", "geometry": {"type": "Point", "coordinates": [2.63364, 48.56206]}, "properties": {"street_name": "RTE NATIONALE 6", "sales": 4, "sales_appt": 0, "sales_maison": 0, "median_price": 3300000.0, "median_price_per_sqm": 1038.7157695939566, "turnover_score": 2.2, "turnover_rank": 25, "first_year": 2024, "last_year": 2025, "years_active": 2}}, {"type": "Feature", "geometry": {"type": "Point", "coordinates": [2.626251, 48.56268]}, "properties": {"street_name": "MAIL DES TOURNELLES", "sales": 4, "sales_appt": 0, "sales_maison": 4, "median_price": 281125.0, "median_price_per_sqm": 2467.3183958898244, "turnover_score": 2.2, "turnover_rank": 25, "first_year": 2021, "last_year": 2024, "years_active": 3}}, {"type": "Feature", "geometry": {"type": "Point", "coordinates": [2.6165805, 48.571884999999995]}, "properties": {"street_name": "ALL DES PERVENCHES", "sales": 4, "sales_appt": 0, "sales_maison": 4, "median_price": 361202.0, "median_price_per_sqm": 3717.7968253968256, "turnover_score": 2.2, "turnover_rank": 25, "first_year": 2021, "last_year": 2025, "years_active": 2}}, {"type": "Feature", "geometry": {"type": "Point", "coordinates": [2.617692, 48.570548]}, "properties": {"street_name": "ALL DES PRIMEVERES", "sales": 4, "sales_appt": 0, "sales_maison": 4, "median_price": 338376.0, "median_price_per_sqm": 3124.408163265306, "turnover_score": 2.2, "turnover_rank": 25, "first_year": 2021, "last_year": 2025, "years_active": 3}}, {"type": "Feature", "geometry": {"type": "Point", "coordinates": [2.6176285000000004, 48.560761]}, "properties": {"street_name": "RUE DES MARCHES DE BREVIANDE", "sales": 4, "sales_appt": 0, "sales_maison": 2, "median_price": 257250.0, "median_price_per_sqm": 3402.5899912203686, "turnover_score": 2.2, "turnover_rank": 25, "first_year": 2023, "last_year": 2023, "years_active": 1}}, {"type": "Feature", "geometry": {"type": "Point", "coordinates": [2.618608, 48.5691075]}, "properties": {"street_name": "RUE JEAN ROSTAND", "sales": 4, "sales_appt": 0, "sales_maison": 4, "median_price": 279740.0, "median_price_per_sqm": 2799.71082854799, "turnover_score": 2.2, "turnover_rank": 25, "first_year": 2022, "last_year": 2025, "years_active": 3}}, {"type": "Feature", "geometry": {"type": "Point", "coordinates": [2.611196, 48.5752745]}, "properties": {"street_name": "RUE DU MILLET", "sales": 4, "sales_appt": 0, "sales_maison": 4, "median_price": 305000.0, "median_price_per_sqm": 3809.294871794872, "turnover_score": 2.2, "turnover_rank": 25, "first_year": 2022, "last_year": 2025, "years_active": 3}}, {"type": "Feature", "geometry": {"type": "Point", "coordinates": [2.61851, 48.568253999999996]}, "properties": {"street_name": "RUE DU PLAT D'ETAIN", "sales": 4, "sales_appt": 0, "sales_maison": 3, "median_price": 367150.0, "median_price_per_sqm": 2653.846153846154, "turnover_score": 2.2, "turnover_rank": 25, "first_year": 2022, "last_year": 2025, "years_active": 2}}, {"type": "Feature", "geometry": {"type": "Point", "coordinates": [2.627946, 48.5635305]}, "properties": {"street_name": "RUE DE LA PIERRE DECOLLEE", "sales": 4, "sales_appt": 0, "sales_maison": 4, "median_price": 290000.0, "median_price_per_sqm": 2905.8823529411766, "turnover_score": 2.2, "turnover_rank": 25, "first_year": 2022, "last_year": 2023, "years_active": 2}}, {"type": "Feature", "geometry": {"type": "Point", "coordinates": [2.6330995, 48.585453]}, "properties": {"street_name": "RUE DU VERT GAZON", "sales": 4, "sales_appt": 0, "sales_maison": 0, "median_price": 132000.0, "median_price_per_sqm": null, "turnover_score": 2.2, "turnover_rank": 25, "first_year": 2021, "last_year": 2025, "years_active": 3}}, {"type": "Feature", "geometry": {"type": "Point", "coordinates": [2.6109080000000002, 48.566409]}, "properties": {"street_name": "RUE PIERRE LEVEE", "sales": 4, "sales_appt": 0, "sales_maison": 4, "median_price": 232500.0, "median_price_per_sqm": 2452.9411764705883, "turnover_score": 2.2, "turnover_rank": 25, "first_year": 2021, "last_year": 2025, "years_active": 3}}, {"type": "Feature", "geometry": {"type": "Point", "coordinates": [2.6198315, 48.563503]}, "properties": {"street_name": "CHE DE LA VALLEE BAILLY", "sales": 4, "sales_appt": 0, "sales_maison": 2, "median_price": 369000.0, "median_price_per_sqm": 3622.14342001576, "turnover_score": 2.2, "turnover_rank": 25, "first_year": 2021, "last_year": 2023, "years_active": 2}}, {"type": "Feature", "geometry": {"type": "Point", "coordinates": [2.6216530000000002, 48.567443499999996]}, "properties": {"street_name": "RUE DE LA CROIX SAINT PIERRE", "sales": 4, "sales_appt": 0, "sales_maison": 4, "median_price": 369000.0, "median_price_per_sqm": 3064.805366591081, "turnover_score": 2.2, "turnover_rank": 25, "first_year": 2021, "last_year": 2025, "years_active": 2}}, {"type": "Feature", "geometry": {"type": "Point", "coordinates": [2.642803, 48.5640195]}, "properties": {"street_name": "LES CORDIERES", "sales": 4, "sales_appt": 0, "sales_maison": 0, "median_price": 6800.0, "median_price_per_sqm": null, "turnover_score": 2.2, "turnover_rank": 25, "first_year": 2022, "last_year": 2023, "years_active": 2}}, {"type": "Feature", "geometry": {"type": "Point", "coordinates": [2.609142, 48.560226]}, "properties": {"street_name": "ALL DE BREVIANDE", "sales": 3, "sales_appt": 0, "sales_maison": 1, "median_price": 250000.0, "median_price_per_sqm": 2976.190476190476, "turnover_score": 1.7, "turnover_rank": 26, "first_year": 2022, "last_year": 2022, "years_active": 1}}, {"type": "Feature", "geometry": {"type": "Point", "coordinates": [2.607712, 48.557255]}, "properties": {"street_name": "ALL DE LA FAISANDERIE", "sales": 3, "sales_appt": 0, "sales_maison": 3, "median_price": 265000.0, "median_price_per_sqm": 3571.4285714285716, "turnover_score": 1.7, "turnover_rank": 26, "first_year": 2023, "last_year": 2025, "years_active": 3}}, {"type": "Feature", "geometry": {"type": "Point", "coordinates": [2.622147, 48.56292]}, "properties": {"street_name": "IMP DE VIERCY", "sales": 3, "sales_appt": 0, "sales_maison": 3, "median_price": 287300.0, "median_price_per_sqm": 3167.8260869565215, "turnover_score": 1.7, "turnover_rank": 26, "first_year": 2022, "last_year": 2023, "years_active": 2}}, {"type": "Feature", "geometry": {"type": "Point", "coordinates": [2.6127, 48.576887]}, "properties": {"street_name": "LA BUTTE DE LUET", "sales": 3, "sales_appt": 0, "sales_maison": 0, "median_price": 33000.0, "median_price_per_sqm": null, "turnover_score": 1.7, "turnover_rank": 26, "first_year": 2024, "last_year": 2024, "years_active": 1}}, {"type": "Feature", "geometry": {"type": "Point", "coordinates": [2.613391, 48.563068]}, "properties": {"street_name": "IMP DE L'ORMOISE", "sales": 3, "sales_appt": 0, "sales_maison": 3, "median_price": 238000.0, "median_price_per_sqm": 3175.675675675676, "turnover_score": 1.7, "turnover_rank": 26, "first_year": 2021, "last_year": 2024, "years_active": 3}}, {"type": "Feature", "geometry": {"type": "Point", "coordinates": [2.612071, 48.561548]}, "properties": {"street_name": "ALL DE CHENONCEAUX", "sales": 3, "sales_appt": 0, "sales_maison": 3, "median_price": 365000.0, "median_price_per_sqm": 3258.9285714285716, "turnover_score": 1.7, "turnover_rank": 26, "first_year": 2021, "last_year": 2024, "years_active": 2}}, {"type": "Feature", "geometry": {"type": "Point", "coordinates": [2.611998, 48.564691]}, "properties": {"street_name": "RUE DE L'ARC", "sales": 3, "sales_appt": 0, "sales_maison": 1, "median_price": 250000.0, "median_price_per_sqm": 4901.9607843137255, "turnover_score": 1.7, "turnover_rank": 26, "first_year": 2024, "last_year": 2024, "years_active": 1}}, {"type": "Feature", "geometry": {"type": "Point", "coordinates": [2.609573, 48.567544]}, "properties": {"street_name": "RUE DE JOUARRE", "sales": 3, "sales_appt": 0, "sales_maison": 3, "median_price": 294900.0, "median_price_per_sqm": 3493.021505376344, "turnover_score": 1.7, "turnover_rank": 26, "first_year": 2022, "last_year": 2024, "years_active": 2}}, {"type": "Feature", "geometry": {"type": "Point", "coordinates": [2.62018, 48.571573]}, "properties": {"street_name": "LA BUTTE AUX FEVES", "sales": 3, "sales_appt": 0, "sales_maison": 0, "median_price": 233900.0, "median_price_per_sqm": null, "turnover_score": 1.7, "turnover_rank": 26, "first_year": 2022, "last_year": 2024, "years_active": 2}}, {"type": "Feature", "geometry": {"type": "Point", "coordinates": [2.614823, 48.562757]}, "properties": {"street_name": "RUE OLOF PALME", "sales": 3, "sales_appt": 0, "sales_maison": 3, "median_price": 252300.0, "median_price_per_sqm": 2921.2359550561796, "turnover_score": 1.7, "turnover_rank": 26, "first_year": 2021, "last_year": 2025, "years_active": 2}}, {"type": "Feature", "geometry": {"type": "Point", "coordinates": [2.623966, 48.564258]}, "properties": {"street_name": "RUE DORIGNY", "sales": 3, "sales_appt": 0, "sales_maison": 3, "median_price": 226500.0, "median_price_per_sqm": 2787.621359223301, "turnover_score": 1.7, "turnover_rank": 26, "first_year": 2022, "last_year": 2025, "years_active": 3}}, {"type": "Feature", "geometry": {"type": "Point", "coordinates": [2.613051, 48.568579]}, "properties": {"street_name": "RUE DU CLOS DU LOUVRE", "sales": 3, "sales_appt": 0, "sales_maison": 1, "median_price": 298000.0, "median_price_per_sqm": 3274.7252747252746, "turnover_score": 1.7, "turnover_rank": 26, "first_year": 2025, "last_year": 2025, "years_active": 1}}, {"type": "Feature", "geometry": {"type": "Point", "coordinates": [2.619585, 48.572352]}, "properties": {"street_name": "RUE DE LA BUTTE AUX FEVES", "sales": 3, "sales_appt": 0, "sales_maison": 3, "median_price": 328000.0, "median_price_per_sqm": 3517.6470588235293, "turnover_score": 1.7, "turnover_rank": 26, "first_year": 2023, "last_year": 2025, "years_active": 3}}, {"type": "Feature", "geometry": {"type": "Point", "coordinates": [2.624482, 48.566264]}, "properties": {"street_name": "IMP DES TILLEULS", "sales": 3, "sales_appt": 0, "sales_maison": 1, "median_price": 200000.0, "median_price_per_sqm": 3448.2758620689656, "turnover_score": 1.7, "turnover_rank": 26, "first_year": 2024, "last_year": 2024, "years_active": 1}}, {"type": "Feature", "geometry": {"type": "Point", "coordinates": [2.620761, 48.565228]}, "properties": {"street_name": "RUE DES CLOSEAUX", "sales": 3, "sales_appt": 0, "sales_maison": 3, "median_price": 290000.0, "median_price_per_sqm": 3154.7619047619046, "turnover_score": 1.7, "turnover_rank": 26, "first_year": 2021, "last_year": 2025, "years_active": 3}}, {"type": "Feature", "geometry": {"type": "Point", "coordinates": [2.621244, 48.571036]}, "properties": {"street_name": "RUE DES HAUTES BILLES", "sales": 3, "sales_appt": 0, "sales_maison": 3, "median_price": 330000.0, "median_price_per_sqm": 2796.6101694915255, "turnover_score": 1.7, "turnover_rank": 26, "first_year": 2021, "last_year": 2023, "years_active": 3}}, {"type": "Feature", "geometry": {"type": "Point", "coordinates": [2.618583, 48.567379]}, "properties": {"street_name": "RUE DES MOCQUES PANIER", "sales": 3, "sales_appt": 0, "sales_maison": 3, "median_price": 371300.0, "median_price_per_sqm": 3470.0934579439254, "turnover_score": 1.7, "turnover_rank": 26, "first_year": 2022, "last_year": 2023, "years_active": 2}}, {"type": "Feature", "geometry": {"type": "Point", "coordinates": [2.63062, 48.567413]}, "properties": {"street_name": "RUE DE L'EPINET", "sales": 3, "sales_appt": 0, "sales_maison": 0, "median_price": 1170000.0, "median_price_per_sqm": 2025.297619047619, "turnover_score": 1.7, "turnover_rank": 26, "first_year": 2021, "last_year": 2023, "years_active": 2}}, {"type": "Feature", "geometry": {"type": "Point", "coordinates": [2.6324065, 48.5828815]}, "properties": {"street_name": "RUE DES ECOLES", "sales": 2, "sales_appt": 0, "sales_maison": 1, "median_price": 352500.0, "median_price_per_sqm": 2769.230769230769, "turnover_score": 1.1, "turnover_rank": 27, "first_year": 2022, "last_year": 2025, "years_active": 2}}, {"type": "Feature", "geometry": {"type": "Point", "coordinates": [2.6316315, 48.5686815]}, "properties": {"street_name": "ALL DE BOUTIGNY", "sales": 2, "sales_appt": 0, "sales_maison": 0, "median_price": 1690000.0, "median_price_per_sqm": 681.3676875708961, "turnover_score": 1.1, "turnover_rank": 27, "first_year": 2021, "last_year": 2021, "years_active": 1}}, {"type": "Feature", "geometry": {"type": "Point", "coordinates": [2.618256, 48.56999]}, "properties": {"street_name": "ALL DES MYOSOTIS", "sales": 2, "sales_appt": 0, "sales_maison": 2, "median_price": 390000.0, "median_price_per_sqm": 4020.618556701031, "turnover_score": 1.1, "turnover_rank": 27, "first_year": 2024, "last_year": 2024, "years_active": 1}}, {"type": "Feature", "geometry": {"type": "Point", "coordinates": [2.61704, 48.562895]}, "properties": {"street_name": "RUE DU PERICHOIR", "sales": 2, "sales_appt": 0, "sales_maison": 1, "median_price": 250000.0, "median_price_per_sqm": 3164.5569620253164, "turnover_score": 1.1, "turnover_rank": 27, "first_year": 2022, "last_year": 2022, "years_active": 1}}, {"type": "Feature", "geometry": {"type": "Point", "coordinates": [2.6095125, 48.5647035]}, "properties": {"street_name": "RUE DE REAU", "sales": 2, "sales_appt": 0, "sales_maison": 2, "median_price": 240245.0, "median_price_per_sqm": 3413.4663271080926, "turnover_score": 1.1, "turnover_rank": 27, "first_year": 2022, "last_year": 2022, "years_active": 1}}, {"type": "Feature", "geometry": {"type": "Point", "coordinates": [2.6293185, 48.583888]}, "properties": {"street_name": "RUE GRANDE", "sales": 2, "sales_appt": 0, "sales_maison": 2, "median_price": 203000.0, "median_price_per_sqm": 2885.714285714286, "turnover_score": 1.1, "turnover_rank": 27, "first_year": 2021, "last_year": 2021, "years_active": 1}}, {"type": "Feature", "geometry": {"type": "Point", "coordinates": [2.622918, 48.564609]}, "properties": {"street_name": "RUE LOUISE MICHEL", "sales": 2, "sales_appt": 0, "sales_maison": 2, "median_price": 200000.0, "median_price_per_sqm": 2580.752580752581, "turnover_score": 1.1, "turnover_rank": 27, "first_year": 2024, "last_year": 2024, "years_active": 1}}, {"type": "Feature", "geometry": {"type": "Point", "coordinates": [2.6251379999999997, 48.560805]}, "properties": {"street_name": "IMP DU HAUT DES VIGNES", "sales": 2, "sales_appt": 0, "sales_maison": 2, "median_price": 372075.0, "median_price_per_sqm": 3179.102856328798, "turnover_score": 1.1, "turnover_rank": 27, "first_year": 2022, "last_year": 2023, "years_active": 2}}, {"type": "Feature", "geometry": {"type": "Point", "coordinates": [2.6197790000000003, 48.5660615]}, "properties": {"street_name": "RUE SALVADOR ALLENDE", "sales": 2, "sales_appt": 0, "sales_maison": 1, "median_price": 237050.0, "median_price_per_sqm": 3557.0, "turnover_score": 1.1, "turnover_rank": 27, "first_year": 2022, "last_year": 2023, "years_active": 2}}, {"type": "Feature", "geometry": {"type": "Point", "coordinates": [2.629079, 48.588738]}, "properties": {"street_name": "LA BICHERE", "sales": 2, "sales_appt": 0, "sales_maison": 0, "median_price": 95854.0, "median_price_per_sqm": null, "turnover_score": 1.1, "turnover_rank": 27, "first_year": 2024, "last_year": 2024, "years_active": 1}}, {"type": "Feature", "geometry": {"type": "Point", "coordinates": [2.6307985, 48.58437000000001]}, "properties": {"street_name": "LE BOIS A TROIS CORNES", "sales": 2, "sales_appt": 0, "sales_maison": 0, "median_price": 217000.0, "median_price_per_sqm": null, "turnover_score": 1.1, "turnover_rank": 27, "first_year": 2021, "last_year": 2021, "years_active": 1}}, {"type": "Feature", "geometry": {"type": "Point", "coordinates": [2.627122, 48.564863]}, "properties": {"street_name": "AV DU BOIS VERT", "sales": 2, "sales_appt": 0, "sales_maison": 0, "median_price": 132500.0, "median_price_per_sqm": 2272.7272727272725, "turnover_score": 1.1, "turnover_rank": 27, "first_year": 2021, "last_year": 2023, "years_active": 2}}, {"type": "Feature", "geometry": {"type": "Point", "coordinates": [2.6281005, 48.561825]}, "properties": {"street_name": "IMP DE LUTOT", "sales": 2, "sales_appt": 0, "sales_maison": 2, "median_price": 251050.0, "median_price_per_sqm": 2792.786561264822, "turnover_score": 1.1, "turnover_rank": 27, "first_year": 2021, "last_year": 2024, "years_active": 2}}, {"type": "Feature", "geometry": {"type": "Point", "coordinates": [2.6239955000000004, 48.563644499999995]}, "properties": {"street_name": "IMP DORIGNY", "sales": 2, "sales_appt": 0, "sales_maison": 2, "median_price": 228300.0, "median_price_per_sqm": 3003.9473684210525, "turnover_score": 1.1, "turnover_rank": 27, "first_year": 2023, "last_year": 2023, "years_active": 1}}, {"type": "Feature", "geometry": {"type": "Point", "coordinates": [2.6168255, 48.569717499999996]}, "properties": {"street_name": "AV DES LAURIERS ROSES", "sales": 2, "sales_appt": 0, "sales_maison": 2, "median_price": 275245.0, "median_price_per_sqm": 2738.959900990099, "turnover_score": 1.1, "turnover_rank": 27, "first_year": 2021, "last_year": 2022, "years_active": 2}}, {"type": "Feature", "geometry": {"type": "Point", "coordinates": [2.627541, 48.5602285]}, "properties": {"street_name": "IMP DU TERTRE", "sales": 2, "sales_appt": 0, "sales_maison": 2, "median_price": 282920.0, "median_price_per_sqm": 3091.691352126135, "turnover_score": 1.1, "turnover_rank": 27, "first_year": 2021, "last_year": 2023, "years_active": 2}}, {"type": "Feature", "geometry": {"type": "Point", "coordinates": [2.621756, 48.565184]}, "properties": {"street_name": "RUE D'ARENAS DE SAN PEDRO", "sales": 2, "sales_appt": 0, "sales_maison": 2, "median_price": 285000.0, "median_price_per_sqm": 3157.523318605793, "turnover_score": 1.1, "turnover_rank": 27, "first_year": 2021, "last_year": 2023, "years_active": 2}}, {"type": "Feature", "geometry": {"type": "Point", "coordinates": [2.622419, 48.564959]}, "properties": {"street_name": "RUE DE BEAUREPAIRE", "sales": 2, "sales_appt": 0, "sales_maison": 1, "median_price": 270000.0, "median_price_per_sqm": 3214.285714285714, "turnover_score": 1.1, "turnover_rank": 27, "first_year": 2022, "last_year": 2022, "years_active": 1}}, {"type": "Feature", "geometry": {"type": "Point", "coordinates": [2.63191, 48.567627]}, "properties": {"street_name": "RUE DES FOSSES", "sales": 2, "sales_appt": 1, "sales_maison": 0, "median_price": 1200000.0, "median_price_per_sqm": 21655.83874729302, "turnover_score": 1.1, "turnover_rank": 27, "first_year": 2021, "last_year": 2021, "years_active": 1}}, {"type": "Feature", "geometry": {"type": "Point", "coordinates": [2.6269600000000004, 48.5635525]}, "properties": {"street_name": "RUE DE LA PIE D'ANJOU", "sales": 2, "sales_appt": 0, "sales_maison": 2, "median_price": 291000.0, "median_price_per_sqm": 2676.010101010101, "turnover_score": 1.1, "turnover_rank": 27, "first_year": 2021, "last_year": 2021, "years_active": 1}}, {"type": "Feature", "geometry": {"type": "Point", "coordinates": [2.619724, 48.562803]}, "properties": {"street_name": "ALL DES FAUVETTES", "sales": 1, "sales_appt": 0, "sales_maison": 1, "median_price": 260000.0, "median_price_per_sqm": 3132.5301204819275, "turnover_score": 0.6, "turnover_rank": 28, "first_year": 2021, "last_year": 2021, "years_active": 1}}, {"type": "Feature", "geometry": {"type": "Point", "coordinates": [2.610935, 48.561896]}, "properties": {"street_name": "ALL DE BOIS PLAISANCE", "sales": 1, "sales_appt": 0, "sales_maison": 1, "median_price": 325000.0, "median_price_per_sqm": 2777.777777777778, "turnover_score": 0.6, "turnover_rank": 28, "first_year": 2024, "last_year": 2024, "years_active": 1}}, {"type": "Feature", "geometry": {"type": "Point", "coordinates": [2.613003, 48.561951]}, "properties": {"street_name": "ALL DE BEAUGENCY", "sales": 1, "sales_appt": 0, "sales_maison": 1, "median_price": 136400.0, "median_price_per_sqm": 770.6214689265537, "turnover_score": 0.6, "turnover_rank": 28, "first_year": 2024, "last_year": 2024, "years_active": 1}}, {"type": "Feature", "geometry": {"type": "Point", "coordinates": [2.61066, 48.56286]}, "properties": {"street_name": "ALL DE CHAMBORD", "sales": 1, "sales_appt": 0, "sales_maison": 1, "median_price": 394100.0, "median_price_per_sqm": 4192.553191489362, "turnover_score": 0.6, "turnover_rank": 28, "first_year": 2021, "last_year": 2021, "years_active": 1}}, {"type": "Feature", "geometry": {"type": "Point", "coordinates": [2.625187, 48.570695]}, "properties": {"street_name": "ALL ARISTIDE BRIAND", "sales": 1, "sales_appt": 0, "sales_maison": 0, "median_price": 715000.0, "median_price_per_sqm": 510.7142857142857, "turnover_score": 0.6, "turnover_rank": 28, "first_year": 2022, "last_year": 2022, "years_active": 1}}, {"type": "Feature", "geometry": {"type": "Point", "coordinates": [2.650962, 48.570286]}, "properties": {"street_name": "RUE DE LA BOULLERIE", "sales": 1, "sales_appt": 0, "sales_maison": 1, "median_price": 260000.0, "median_price_per_sqm": 2888.8888888888887, "turnover_score": 0.6, "turnover_rank": 28, "first_year": 2022, "last_year": 2022, "years_active": 1}}, {"type": "Feature", "geometry": {"type": "Point", "coordinates": [2.61063, 48.560886]}, "properties": {"street_name": "CHE DE BOISSISE", "sales": 1, "sales_appt": 0, "sales_maison": 1, "median_price": 435000.0, "median_price_per_sqm": 3346.153846153846, "turnover_score": 0.6, "turnover_rank": 28, "first_year": 2023, "last_year": 2023, "years_active": 1}}, {"type": "Feature", "geometry": {"type": "Point", "coordinates": [2.615973, 48.562961]}, "properties": {"street_name": "IMP DE LA FOSSE AU LIN", "sales": 1, "sales_appt": 0, "sales_maison": 1, "median_price": 260000.0, "median_price_per_sqm": 2452.830188679245, "turnover_score": 0.6, "turnover_rank": 28, "first_year": 2021, "last_year": 2021, "years_active": 1}}, {"type": "Feature", "geometry": {"type": "Point", "coordinates": [2.618269, 48.562731]}, "properties": {"street_name": "IMP DES QUATRE MAISONS", "sales": 1, "sales_appt": 0, "sales_maison": 1, "median_price": 278000.0, "median_price_per_sqm": 3309.5238095238096, "turnover_score": 0.6, "turnover_rank": 28, "first_year": 2022, "last_year": 2022, "years_active": 1}}, {"type": "Feature", "geometry": {"type": "Point", "coordinates": [2.626716, 48.560613]}, "properties": {"street_name": "IMP DES PETITS NOYERS", "sales": 1, "sales_appt": 0, "sales_maison": 1, "median_price": 280000.0, "median_price_per_sqm": 4666.666666666667, "turnover_score": 0.6, "turnover_rank": 28, "first_year": 2023, "last_year": 2023, "years_active": 1}}, {"type": "Feature", "geometry": {"type": "Point", "coordinates": [2.624108, 48.561278]}, "properties": {"street_name": "IMP ST PRIX", "sales": 1, "sales_appt": 0, "sales_maison": 1, "median_price": 318000.0, "median_price_per_sqm": 3573.0337078651687, "turnover_score": 0.6, "turnover_rank": 28, "first_year": 2022, "last_year": 2022, "years_active": 1}}, {"type": "Feature", "geometry": {"type": "Point", "coordinates": [2.624369, 48.562667]}, "properties": {"street_name": "IMP DU VERGNE", "sales": 1, "sales_appt": 0, "sales_maison": 1, "median_price": 315000.0, "median_price_per_sqm": 2739.1304347826085, "turnover_score": 0.6, "turnover_rank": 28, "first_year": 2024, "last_year": 2024, "years_active": 1}}, {"type": "Feature", "geometry": {"type": "Point", "coordinates": [2.617107, 48.577344]}, "properties": {"street_name": "LA FONTAINE RONDE", "sales": 1, "sales_appt": 0, "sales_maison": 0, "median_price": 1500000.0, "median_price_per_sqm": 1289.767841788478, "turnover_score": 0.6, "turnover_rank": 28, "first_year": 2024, "last_year": 2024, "years_active": 1}}, {"type": "Feature", "geometry": {"type": "Point", "coordinates": [2.647521, 48.578966]}, "properties": {"street_name": "LA FOSSE DU MERISIER", "sales": 1, "sales_appt": 0, "sales_maison": 0, "median_price": 46537.0, "median_price_per_sqm": null, "turnover_score": 0.6, "turnover_rank": 28, "first_year": 2023, "last_year": 2023, "years_active": 1}}, {"type": "Feature", "geometry": {"type": "Point", "coordinates": [2.623996, 48.586142]}, "properties": {"street_name": "LA PLAINE DE LA MASURE", "sales": 1, "sales_appt": 0, "sales_maison": 0, "median_price": 170000.0, "median_price_per_sqm": null, "turnover_score": 0.6, "turnover_rank": 28, "first_year": 2022, "last_year": 2022, "years_active": 1}}, {"type": "Feature", "geometry": {"type": "Point", "coordinates": [2.618624, 48.565629]}, "properties": {"street_name": "LA RAMONERAIE", "sales": 1, "sales_appt": 0, "sales_maison": 0, "median_price": 226000.0, "median_price_per_sqm": null, "turnover_score": 0.6, "turnover_rank": 28, "first_year": 2021, "last_year": 2021, "years_active": 1}}, {"type": "Feature", "geometry": {"type": "Point", "coordinates": [2.625436, 48.566713]}, "properties": {"street_name": "IMP DES LILAS", "sales": 1, "sales_appt": 0, "sales_maison": 1, "median_price": 215000.0, "median_price_per_sqm": 4134.615384615385, "turnover_score": 0.6, "turnover_rank": 28, "first_year": 2023, "last_year": 2023, "years_active": 1}}, {"type": "Feature", "geometry": {"type": "Point", "coordinates": [2.614048, 48.576743]}, "properties": {"street_name": "LE BAS HUET", "sales": 1, "sales_appt": 0, "sales_maison": 0, "median_price": 838097.56, "median_price_per_sqm": null, "turnover_score": 0.6, "turnover_rank": 28, "first_year": 2021, "last_year": 2021, "years_active": 1}}, {"type": "Feature", "geometry": {"type": "Point", "coordinates": [2.631865, 48.586172]}, "properties": {"street_name": "PL PASTEUR", "sales": 1, "sales_appt": 0, "sales_maison": 1, "median_price": 364920.0, "median_price_per_sqm": 2828.8372093023254, "turnover_score": 0.6, "turnover_rank": 28, "first_year": 2021, "last_year": 2021, "years_active": 1}}, {"type": "Feature", "geometry": {"type": "Point", "coordinates": [2.636749, 48.561041]}, "properties": {"street_name": "RUE ALTIERO SPINELLI", "sales": 1, "sales_appt": 0, "sales_maison": 0, "median_price": 182000.0, "median_price_per_sqm": 2141.176470588235, "turnover_score": 0.6, "turnover_rank": 28, "first_year": 2025, "last_year": 2025, "years_active": 1}}, {"type": "Feature", "geometry": {"type": "Point", "coordinates": [2.614471, 48.563996]}, "properties": {"street_name": "IMP DE LA GRENOUILLERE", "sales": 1, "sales_appt": 0, "sales_maison": 1, "median_price": 206000.0, "median_price_per_sqm": 2575.0, "turnover_score": 0.6, "turnover_rank": 28, "first_year": 2025, "last_year": 2025, "years_active": 1}}, {"type": "Feature", "geometry": {"type": "Point", "coordinates": [2.631583, 48.564991]}, "properties": {"street_name": "IMP DE L EPINET", "sales": 1, "sales_appt": 0, "sales_maison": 0, "median_price": 750000.0, "median_price_per_sqm": 1943.0051813471503, "turnover_score": 0.6, "turnover_rank": 28, "first_year": 2022, "last_year": 2022, "years_active": 1}}, {"type": "Feature", "geometry": {"type": "Point", "coordinates": [2.626617, 48.563821]}, "properties": {"street_name": "RUE DE LA LORIOTTE", "sales": 1, "sales_appt": 0, "sales_maison": 1, "median_price": 295000.0, "median_price_per_sqm": 3352.2727272727275, "turnover_score": 0.6, "turnover_rank": 28, "first_year": 2024, "last_year": 2024, "years_active": 1}}, {"type": "Feature", "geometry": {"type": "Point", "coordinates": [2.610213, 48.562083]}, "properties": {"street_name": "RUE DE MELUN", "sales": 1, "sales_appt": 0, "sales_maison": 0, "median_price": 325000.0, "median_price_per_sqm": null, "turnover_score": 0.6, "turnover_rank": 28, "first_year": 2024, "last_year": 2024, "years_active": 1}}, {"type": "Feature", "geometry": {"type": "Point", "coordinates": [2.609112, 48.565276]}, "properties": {"street_name": "RUE DE TOURNAN", "sales": 1, "sales_appt": 0, "sales_maison": 1, "median_price": 253000.0, "median_price_per_sqm": 2720.430107526882, "turnover_score": 0.6, "turnover_rank": 28, "first_year": 2025, "last_year": 2025, "years_active": 1}}, {"type": "Feature", "geometry": {"type": "Point", "coordinates": [2.627122, 48.564863]}, "properties": {"street_name": "RUE DE LA GAILLARDERIE", "sales": 1, "sales_appt": 1, "sales_maison": 0, "median_price": 140000.0, "median_price_per_sqm": 1917.8082191780823, "turnover_score": 0.6, "turnover_rank": 28, "first_year": 2021, "last_year": 2021, "years_active": 1}}, {"type": "Feature", "geometry": {"type": "Point", "coordinates": [2.631293, 48.582762]}, "properties": {"street_name": "RUE DU BISSON FILLEUL", "sales": 1, "sales_appt": 0, "sales_maison": 1, "median_price": 345000.0, "median_price_per_sqm": 3920.4545454545455, "turnover_score": 0.6, "turnover_rank": 28, "first_year": 2022, "last_year": 2022, "years_active": 1}}, {"type": "Feature", "geometry": {"type": "Point", "coordinates": [2.619015, 48.571257]}, "properties": {"street_name": "RUE DU BALORY", "sales": 1, "sales_appt": 0, "sales_maison": 1, "median_price": 232252.0, "median_price_per_sqm": 3225.722222222222, "turnover_score": 0.6, "turnover_rank": 28, "first_year": 2024, "last_year": 2024, "years_active": 1}}, {"type": "Feature", "geometry": {"type": "Point", "coordinates": [2.623042, 48.564278]}, "properties": {"street_name": "RUE DU CLOS DE BAILLY", "sales": 1, "sales_appt": 0, "sales_maison": 1, "median_price": 244900.0, "median_price_per_sqm": 3180.5194805194806, "turnover_score": 0.6, "turnover_rank": 28, "first_year": 2023, "last_year": 2023, "years_active": 1}}, {"type": "Feature", "geometry": {"type": "Point", "coordinates": [2.618472, 48.565677]}, "properties": {"street_name": "RUE DU BOIS A TROIS CORNES", "sales": 1, "sales_appt": 0, "sales_maison": 1, "median_price": 226000.0, "median_price_per_sqm": 2935.064935064935, "turnover_score": 0.6, "turnover_rank": 28, "first_year": 2021, "last_year": 2021, "years_active": 1}}, {"type": "Feature", "geometry": {"type": "Point", "coordinates": [2.615302, 48.562962]}, "properties": {"street_name": "RUE DU BOIS DU LIEVRE", "sales": 1, "sales_appt": 0, "sales_maison": 1, "median_price": 258000.0, "median_price_per_sqm": 2898.876404494382, "turnover_score": 0.6, "turnover_rank": 28, "first_year": 2024, "last_year": 2024, "years_active": 1}}, {"type": "Feature", "geometry": {"type": "Point", "coordinates": [2.62562, 48.58492]}, "properties": {"street_name": "RUE TRAVERSIERE", "sales": 1, "sales_appt": 0, "sales_maison": 1, "median_price": 250000.0, "median_price_per_sqm": 1666.6666666666667, "turnover_score": 0.6, "turnover_rank": 28, "first_year": 2021, "last_year": 2021, "years_active": 1}}]}