{"type": "FeatureCollection", "features": [{"type": "Feature", "geometry": {"type": "Point", "coordinates": [3.193459, 48.61602]}, "properties": {"street_name": "CHENOISE", "sales": 51, "sales_appt": 0, "sales_maison": 0, "median_price": 159900.0, "median_price_per_sqm": null, "turnover_score": 100.0, "turnover_rank": 1, "first_year": 2021, "last_year": 2025, "years_active": 5}}, {"type": "Feature", "geometry": {"type": "Point", "coordinates": [3.194217, 48.618438]}, "properties": {"street_name": "RUE DE LA FORET", "sales": 24, "sales_appt": 4, "sales_maison": 8, "median_price": 145000.0, "median_price_per_sqm": 1531.25, "turnover_score": 47.1, "turnover_rank": 2, "first_year": 2021, "last_year": 2024, "years_active": 3}}, {"type": "Feature", "geometry": {"type": "Point", "coordinates": [3.173205, 48.597404]}, "properties": {"street_name": "GR GRANDE RUE", "sales": 19, "sales_appt": 0, "sales_maison": 7, "median_price": 244000.0, "median_price_per_sqm": 2384.6153846153848, "turnover_score": 37.3, "turnover_rank": 3, "first_year": 2022, "last_year": 2024, "years_active": 3}}, {"type": "Feature", "geometry": {"type": "Point", "coordinates": [3.1738160000000004, 48.597536000000005]}, "properties": {"street_name": "LE PLESSIS AUX TOURNELLES", "sales": 18, "sales_appt": 0, "sales_maison": 0, "median_price": 224000.0, "median_price_per_sqm": null, "turnover_score": 35.3, "turnover_rank": 4, "first_year": 2021, "last_year": 2025, "years_active": 5}}, {"type": "Feature", "geometry": {"type": "Point", "coordinates": [3.1936425, 48.583381]}, "properties": {"street_name": "CUCHARMOY", "sales": 18, "sales_appt": 0, "sales_maison": 0, "median_price": 282500.0, "median_price_per_sqm": null, "turnover_score": 35.3, "turnover_rank": 4, "first_year": 2021, "last_year": 2025, "years_active": 4}}, {"type": "Feature", "geometry": {"type": "Point", "coordinates": [3.190768, 48.615689]}, "properties": {"street_name": "RUE DIMERESSE", "sales": 15, "sales_appt": 0, "sales_maison": 9, "median_price": 168000.0, "median_price_per_sqm": 2151.923076923077, "turnover_score": 29.4, "turnover_rank": 5, "first_year": 2021, "last_year": 2024, "years_active": 4}}, {"type": "Feature", "geometry": {"type": "Point", "coordinates": [3.190081, 48.61656]}, "properties": {"street_name": "RUE DES MESANGES", "sales": 14, "sales_appt": 0, "sales_maison": 7, "median_price": 220000.0, "median_price_per_sqm": 2381.981981981982, "turnover_score": 27.5, "turnover_rank": 6, "first_year": 2021, "last_year": 2025, "years_active": 4}}, {"type": "Feature", "geometry": {"type": "Point", "coordinates": [3.19341, 48.612669]}, "properties": {"street_name": "FERME DU CHATEAU", "sales": 13, "sales_appt": 0, "sales_maison": 0, "median_price": 1197.0, "median_price_per_sqm": null, "turnover_score": 25.5, "turnover_rank": 7, "first_year": 2023, "last_year": 2024, "years_active": 2}}, {"type": "Feature", "geometry": {"type": "Point", "coordinates": [3.192375, 48.618913]}, "properties": {"street_name": "LE PUYAT", "sales": 11, "sales_appt": 0, "sales_maison": 0, "median_price": 88000.0, "median_price_per_sqm": null, "turnover_score": 21.6, "turnover_rank": 8, "first_year": 2021, "last_year": 2024, "years_active": 3}}, {"type": "Feature", "geometry": {"type": "Point", "coordinates": [3.189895, 48.617686]}, "properties": {"street_name": "RUE DES FAUVETTES", "sales": 9, "sales_appt": 0, "sales_maison": 5, "median_price": 153000.0, "median_price_per_sqm": 1719.1011235955057, "turnover_score": 17.6, "turnover_rank": 9, "first_year": 2022, "last_year": 2025, "years_active": 4}}, {"type": "Feature", "geometry": {"type": "Point", "coordinates": [3.210722, 48.62773]}, "properties": {"street_name": "LES BORDES", "sales": 9, "sales_appt": 0, "sales_maison": 0, "median_price": 188000.0, "median_price_per_sqm": null, "turnover_score": 17.6, "turnover_rank": 9, "first_year": 2024, "last_year": 2024, "years_active": 1}}, {"type": "Feature", "geometry": {"type": "Point", "coordinates": [3.198498, 48.617499]}, "properties": {"street_name": "RUE DE LA PLAINE", "sales": 9, "sales_appt": 0, "sales_maison": 5, "median_price": 200000.0, "median_price_per_sqm": 2439.0243902439024, "turnover_score": 17.6, "turnover_rank": 9, "first_year": 2022, "last_year": 2025, "years_active": 2}}, {"type": "Feature", "geometry": {"type": "Point", "coordinates": [3.196741, 48.616122]}, "properties": {"street_name": "RUE DES HORTENSIAS", "sales": 9, "sales_appt": 0, "sales_maison": 7, "median_price": 185500.0, "median_price_per_sqm": 1515.9574468085107, "turnover_score": 17.6, "turnover_rank": 9, "first_year": 2021, "last_year": 2023, "years_active": 3}}, {"type": "Feature", "geometry": {"type": "Point", "coordinates": [3.1822715, 48.6142005]}, "properties": {"street_name": "LA CROIX DE CHENOISE", "sales": 8, "sales_appt": 0, "sales_maison": 0, "median_price": 249500.0, "median_price_per_sqm": null, "turnover_score": 15.7, "turnover_rank": 10, "first_year": 2021, "last_year": 2023, "years_active": 3}}, {"type": "Feature", "geometry": {"type": "Point", "coordinates": [3.1833675, 48.6150575]}, "properties": {"street_name": "RUE DE LA CROIX", "sales": 8, "sales_appt": 0, "sales_maison": 5, "median_price": 319500.0, "median_price_per_sqm": 2765.625, "turnover_score": 15.7, "turnover_rank": 10, "first_year": 2021, "last_year": 2023, "years_active": 3}}, {"type": "Feature", "geometry": {"type": "Point", "coordinates": [3.173074, 48.593526]}, "properties": {"street_name": "ANC CHAT DU PLESSIS TOURNE", "sales": 7, "sales_appt": 0, "sales_maison": 0, "median_price": 320966.4, "median_price_per_sqm": null, "turnover_score": 13.7, "turnover_rank": 11, "first_year": 2025, "last_year": 2025, "years_active": 1}}, {"type": "Feature", "geometry": {"type": "Point", "coordinates": [3.192152, 48.617385]}, "properties": {"street_name": "RUE DU CHATEAU D'EAU", "sales": 7, "sales_appt": 0, "sales_maison": 5, "median_price": 210000.0, "median_price_per_sqm": 1926.605504587156, "turnover_score": 13.7, "turnover_rank": 11, "first_year": 2021, "last_year": 2024, "years_active": 2}}, {"type": "Feature", "geometry": {"type": "Point", "coordinates": [3.193877, 48.582655]}, "properties": {"street_name": "RUE DU PUITS CERVEAU", "sales": 7, "sales_appt": 0, "sales_maison": 4, "median_price": 99000.0, "median_price_per_sqm": 1793.222912353347, "turnover_score": 13.7, "turnover_rank": 11, "first_year": 2021, "last_year": 2024, "years_active": 2}}, {"type": "Feature", "geometry": {"type": "Point", "coordinates": [3.195128, 48.611443]}, "properties": {"street_name": "RUE DU STADE", "sales": 7, "sales_appt": 0, "sales_maison": 4, "median_price": 230000.0, "median_price_per_sqm": 1679.4871794871797, "turnover_score": 13.7, "turnover_rank": 11, "first_year": 2021, "last_year": 2025, "years_active": 3}}, {"type": "Feature", "geometry": {"type": "Point", "coordinates": [3.175085, 48.643127]}, "properties": {"street_name": "LES CHAPELLES D EN HAUT", "sales": 6, "sales_appt": 0, "sales_maison": 1, "median_price": 237000.0, "median_price_per_sqm": 1909.090909090909, "turnover_score": 11.8, "turnover_rank": 12, "first_year": 2021, "last_year": 2023, "years_active": 2}}, {"type": "Feature", "geometry": {"type": "Point", "coordinates": [3.174586, 48.597678]}, "properties": {"street_name": "GRANDE RUE", "sales": 6, "sales_appt": 0, "sales_maison": 2, "median_price": 352180.0, "median_price_per_sqm": 2291.8455042225532, "turnover_score": 11.8, "turnover_rank": 12, "first_year": 2025, "last_year": 2025, "years_active": 1}}, {"type": "Feature", "geometry": {"type": "Point", "coordinates": [3.189413, 48.6150625]}, "properties": {"street_name": "RUE DES THUYAS", "sales": 6, "sales_appt": 0, "sales_maison": 4, "median_price": 157000.0, "median_price_per_sqm": 2111.824324324324, "turnover_score": 11.8, "turnover_rank": 12, "first_year": 2021, "last_year": 2025, "years_active": 4}}, {"type": "Feature", "geometry": {"type": "Point", "coordinates": [3.193123, 48.618638]}, "properties": {"street_name": "RUE DE LA TUILERIE", "sales": 6, "sales_appt": 0, "sales_maison": 4, "median_price": 210000.0, "median_price_per_sqm": 1426.2802208261946, "turnover_score": 11.8, "turnover_rank": 12, "first_year": 2022, "last_year": 2023, "years_active": 2}}, {"type": "Feature", "geometry": {"type": "Point", "coordinates": [3.19158, 48.581534500000004]}, "properties": {"street_name": "LA CROIX L OIGNON", "sales": 6, "sales_appt": 0, "sales_maison": 0, "median_price": 60000.0, "median_price_per_sqm": null, "turnover_score": 11.8, "turnover_rank": 12, "first_year": 2023, "last_year": 2025, "years_active": 3}}, {"type": "Feature", "geometry": {"type": "Point", "coordinates": [3.171341, 48.597387]}, "properties": {"street_name": "RUE DE LA MERCY", "sales": 5, "sales_appt": 0, "sales_maison": 3, "median_price": 210000.0, "median_price_per_sqm": 1050.0, "turnover_score": 9.8, "turnover_rank": 13, "first_year": 2021, "last_year": 2025, "years_active": 2}}, {"type": "Feature", "geometry": {"type": "Point", "coordinates": [3.18668, 48.617491]}, "properties": {"street_name": "LE CORNILLON", "sales": 5, "sales_appt": 0, "sales_maison": 0, "median_price": 240000.0, "median_price_per_sqm": 676.056338028169, "turnover_score": 9.8, "turnover_rank": 13, "first_year": 2021, "last_year": 2025, "years_active": 4}}, {"type": "Feature", "geometry": {"type": "Point", "coordinates": [3.196575, 48.616998]}, "properties": {"street_name": "RLE DES ROSES", "sales": 5, "sales_appt": 0, "sales_maison": 3, "median_price": 238270.0, "median_price_per_sqm": 3094.4155844155844, "turnover_score": 9.8, "turnover_rank": 13, "first_year": 2021, "last_year": 2021, "years_active": 1}}, {"type": "Feature", "geometry": {"type": "Point", "coordinates": [3.179087, 48.642433]}, "properties": {"street_name": "CHAPELLES D EN HAUT", "sales": 5, "sales_appt": 0, "sales_maison": 0, "median_price": 22500.0, "median_price_per_sqm": null, "turnover_score": 9.8, "turnover_rank": 13, "first_year": 2022, "last_year": 2024, "years_active": 2}}, {"type": "Feature", "geometry": {"type": "Point", "coordinates": [3.193637, 48.581735]}, "properties": {"street_name": "RUE DU VILLAGE", "sales": 5, "sales_appt": 0, "sales_maison": 5, "median_price": 155000.0, "median_price_per_sqm": 2031.25, "turnover_score": 9.8, "turnover_rank": 13, "first_year": 2021, "last_year": 2025, "years_active": 3}}, {"type": "Feature", "geometry": {"type": "Point", "coordinates": [3.195849, 48.580148]}, "properties": {"street_name": "LA POINTE AU CURE", "sales": 5, "sales_appt": 0, "sales_maison": 0, "median_price": 60000.0, "median_price_per_sqm": null, "turnover_score": 9.8, "turnover_rank": 13, "first_year": 2023, "last_year": 2025, "years_active": 3}}, {"type": "Feature", "geometry": {"type": "Point", "coordinates": [3.211547, 48.629383]}, "properties": {"street_name": "LA GARENNE D ENFER", "sales": 5, "sales_appt": 0, "sales_maison": 0, "median_price": 110000.0, "median_price_per_sqm": null, "turnover_score": 9.8, "turnover_rank": 13, "first_year": 2021, "last_year": 2024, "years_active": 2}}, {"type": "Feature", "geometry": {"type": "Point", "coordinates": [3.172294, 48.593272]}, "properties": {"street_name": "RUE DE LA MAIRIE", "sales": 4, "sales_appt": 0, "sales_maison": 2, "median_price": 302983.2, "median_price_per_sqm": 1277.546013986014, "turnover_score": 7.8, "turnover_rank": 14, "first_year": 2025, "last_year": 2025, "years_active": 1}}, {"type": "Feature", "geometry": {"type": "Point", "coordinates": [3.1930945, 48.6126]}, "properties": {"street_name": "PL DES PERCE NEIGES", "sales": 4, "sales_appt": 0, "sales_maison": 3, "median_price": 138000.0, "median_price_per_sqm": 1629.2134831460673, "turnover_score": 7.8, "turnover_rank": 14, "first_year": 2024, "last_year": 2025, "years_active": 2}}, {"type": "Feature", "geometry": {"type": "Point", "coordinates": [3.21592, 48.62406]}, "properties": {"street_name": "RUE DE LA SOURCE", "sales": 4, "sales_appt": 0, "sales_maison": 2, "median_price": 75000.0, "median_price_per_sqm": 714.2857142857143, "turnover_score": 7.8, "turnover_rank": 14, "first_year": 2021, "last_year": 2021, "years_active": 1}}, {"type": "Feature", "geometry": {"type": "Point", "coordinates": [3.193298, 48.615784]}, "properties": {"street_name": "RUE DES LISERONS", "sales": 4, "sales_appt": 4, "sales_maison": 0, "median_price": 203950.0, "median_price_per_sqm": 3289.516129032258, "turnover_score": 7.8, "turnover_rank": 14, "first_year": 2023, "last_year": 2024, "years_active": 2}}, {"type": "Feature", "geometry": {"type": "Point", "coordinates": [3.192993, 48.591941500000004]}, "properties": {"street_name": "SAINT PIERRE AUX BOEUFS", "sales": 4, "sales_appt": 0, "sales_maison": 0, "median_price": 60000.0, "median_price_per_sqm": null, "turnover_score": 7.8, "turnover_rank": 14, "first_year": 2023, "last_year": 2024, "years_active": 2}}, {"type": "Feature", "geometry": {"type": "Point", "coordinates": [3.212492, 48.581417]}, "properties": {"street_name": "SOULORON", "sales": 4, "sales_appt": 0, "sales_maison": 0, "median_price": 225000.0, "median_price_per_sqm": null, "turnover_score": 7.8, "turnover_rank": 14, "first_year": 2025, "last_year": 2025, "years_active": 1}}, {"type": "Feature", "geometry": {"type": "Point", "coordinates": [3.194128, 48.618917]}, "properties": {"street_name": "RUE DU VIVIER", "sales": 3, "sales_appt": 0, "sales_maison": 1, "median_price": 235000.0, "median_price_per_sqm": 1740.7407407407406, "turnover_score": 5.9, "turnover_rank": 15, "first_year": 2021, "last_year": 2021, "years_active": 1}}, {"type": "Feature", "geometry": {"type": "Point", "coordinates": [3.195161, 48.615335]}, "properties": {"street_name": "RUE DU CHATEAU", "sales": 3, "sales_appt": 0, "sales_maison": 2, "median_price": 182000.0, "median_price_per_sqm": 1700.9345794392523, "turnover_score": 5.9, "turnover_rank": 15, "first_year": 2024, "last_year": 2025, "years_active": 2}}, {"type": "Feature", "geometry": {"type": "Point", "coordinates": [3.195162, 48.610033]}, "properties": {"street_name": "RUE DES BOULEAUX", "sales": 3, "sales_appt": 0, "sales_maison": 3, "median_price": 247300.0, "median_price_per_sqm": 2208.035714285714, "turnover_score": 5.9, "turnover_rank": 15, "first_year": 2021, "last_year": 2023, "years_active": 2}}, {"type": "Feature", "geometry": {"type": "Point", "coordinates": [3.187668, 48.617334]}, "properties": {"street_name": "RUE DES EPIS", "sales": 3, "sales_appt": 0, "sales_maison": 3, "median_price": 245000.0, "median_price_per_sqm": 2545.4545454545455, "turnover_score": 5.9, "turnover_rank": 15, "first_year": 2022, "last_year": 2024, "years_active": 3}}, {"type": "Feature", "geometry": {"type": "Point", "coordinates": [3.17527, 48.642952]}, "properties": {"street_name": "HAUTE FOSSE", "sales": 3, "sales_appt": 0, "sales_maison": 1, "median_price": 237000.0, "median_price_per_sqm": 1926.8292682926829, "turnover_score": 5.9, "turnover_rank": 15, "first_year": 2021, "last_year": 2021, "years_active": 1}}, {"type": "Feature", "geometry": {"type": "Point", "coordinates": [3.191672, 48.583708]}, "properties": {"street_name": "CHE DU PLESSIS", "sales": 3, "sales_appt": 0, "sales_maison": 1, "median_price": 230000.0, "median_price_per_sqm": 2911.3924050632913, "turnover_score": 5.9, "turnover_rank": 15, "first_year": 2022, "last_year": 2022, "years_active": 1}}, {"type": "Feature", "geometry": {"type": "Point", "coordinates": [3.19092, 48.617536]}, "properties": {"street_name": "RES DU CHATEAU D'EAU", "sales": 3, "sales_appt": 0, "sales_maison": 2, "median_price": 260000.0, "median_price_per_sqm": 2505.2790346907996, "turnover_score": 5.9, "turnover_rank": 15, "first_year": 2023, "last_year": 2024, "years_active": 2}}, {"type": "Feature", "geometry": {"type": "Point", "coordinates": [3.208922, 48.627767]}, "properties": {"street_name": "IMP VERTE", "sales": 3, "sales_appt": 0, "sales_maison": 2, "median_price": 135000.0, "median_price_per_sqm": 1330.7971014492753, "turnover_score": 5.9, "turnover_rank": 15, "first_year": 2024, "last_year": 2024, "years_active": 1}}, {"type": "Feature", "geometry": {"type": "Point", "coordinates": [3.182626, 48.616061]}, "properties": {"street_name": "RUE DE L ETANG MALIN", "sales": 3, "sales_appt": 0, "sales_maison": 3, "median_price": 235000.0, "median_price_per_sqm": 2281.5533980582522, "turnover_score": 5.9, "turnover_rank": 15, "first_year": 2021, "last_year": 2022, "years_active": 2}}, {"type": "Feature", "geometry": {"type": "Point", "coordinates": [3.186102, 48.618226]}, "properties": {"street_name": "RUE DE LA GERBE", "sales": 3, "sales_appt": 0, "sales_maison": 0, "median_price": 140000.0, "median_price_per_sqm": 476.19047619047615, "turnover_score": 5.9, "turnover_rank": 15, "first_year": 2021, "last_year": 2024, "years_active": 2}}, {"type": "Feature", "geometry": {"type": "Point", "coordinates": [3.192923, 48.583456]}, "properties": {"street_name": "RLE DES GUES", "sales": 2, "sales_appt": 0, "sales_maison": 1, "median_price": 295000.0, "median_price_per_sqm": 1418.2692307692307, "turnover_score": 3.9, "turnover_rank": 16, "first_year": 2021, "last_year": 2021, "years_active": 1}}, {"type": "Feature", "geometry": {"type": "Point", "coordinates": [3.188577, 48.587996]}, "properties": {"street_name": "LE VIEUX MOULIN CUCHARMOY", "sales": 2, "sales_appt": 0, "sales_maison": 0, "median_price": 60000.0, "median_price_per_sqm": null, "turnover_score": 3.9, "turnover_rank": 16, "first_year": 2023, "last_year": 2023, "years_active": 1}}, {"type": "Feature", "geometry": {"type": "Point", "coordinates": [3.193808, 48.614947]}, "properties": {"street_name": "RUE DU PARC", "sales": 2, "sales_appt": 0, "sales_maison": 0, "median_price": 10000.0, "median_price_per_sqm": null, "turnover_score": 3.9, "turnover_rank": 16, "first_year": 2025, "last_year": 2025, "years_active": 1}}, {"type": "Feature", "geometry": {"type": "Point", "coordinates": [3.2111340000000004, 48.627744]}, "properties": {"street_name": "RUE DU BEAU CHENE", "sales": 2, "sales_appt": 0, "sales_maison": 1, "median_price": 188000.0, "median_price_per_sqm": 1424.2424242424242, "turnover_score": 3.9, "turnover_rank": 16, "first_year": 2024, "last_year": 2024, "years_active": 1}}, {"type": "Feature", "geometry": {"type": "Point", "coordinates": [3.184678, 48.585891]}, "properties": {"street_name": "LA VIGNOTTE CUCHARMOY", "sales": 2, "sales_appt": 0, "sales_maison": 0, "median_price": 60000.0, "median_price_per_sqm": null, "turnover_score": 3.9, "turnover_rank": 16, "first_year": 2024, "last_year": 2024, "years_active": 1}}, {"type": "Feature", "geometry": {"type": "Point", "coordinates": [3.186051, 48.578159]}, "properties": {"street_name": "LE MERISIER", "sales": 2, "sales_appt": 0, "sales_maison": 0, "median_price": 225000.0, "median_price_per_sqm": null, "turnover_score": 3.9, "turnover_rank": 16, "first_year": 2025, "last_year": 2025, "years_active": 1}}, {"type": "Feature", "geometry": {"type": "Point", "coordinates": [3.177381, 48.578813]}, "properties": {"street_name": "LA BUTTE", "sales": 2, "sales_appt": 0, "sales_maison": 0, "median_price": 225000.0, "median_price_per_sqm": null, "turnover_score": 3.9, "turnover_rank": 16, "first_year": 2025, "last_year": 2025, "years_active": 1}}, {"type": "Feature", "geometry": {"type": "Point", "coordinates": [3.175515, 48.580829]}, "properties": {"street_name": "LA JUSTICE", "sales": 2, "sales_appt": 0, "sales_maison": 0, "median_price": 225000.0, "median_price_per_sqm": null, "turnover_score": 3.9, "turnover_rank": 16, "first_year": 2025, "last_year": 2025, "years_active": 1}}, {"type": "Feature", "geometry": {"type": "Point", "coordinates": [3.19626, 48.583793]}, "properties": {"street_name": "RUE DE LA BROSSE", "sales": 2, "sales_appt": 0, "sales_maison": 1, "median_price": 270000.0, "median_price_per_sqm": 2250.0, "turnover_score": 3.9, "turnover_rank": 16, "first_year": 2022, "last_year": 2022, "years_active": 1}}, {"type": "Feature", "geometry": {"type": "Point", "coordinates": [3.193956, 48.610226]}, "properties": {"street_name": "PL DES MARRONNIERS", "sales": 2, "sales_appt": 0, "sales_maison": 1, "median_price": 209000.0, "median_price_per_sqm": 1917.4311926605506, "turnover_score": 3.9, "turnover_rank": 16, "first_year": 2024, "last_year": 2024, "years_active": 1}}, {"type": "Feature", "geometry": {"type": "Point", "coordinates": [3.18573, 48.594862]}, "properties": {"street_name": "LES CHATELOTS", "sales": 2, "sales_appt": 0, "sales_maison": 0, "median_price": 28000.0, "median_price_per_sqm": null, "turnover_score": 3.9, "turnover_rank": 16, "first_year": 2024, "last_year": 2024, "years_active": 1}}, {"type": "Feature", "geometry": {"type": "Point", "coordinates": [3.164541, 48.604145]}, "properties": {"street_name": "LUGEME", "sales": 2, "sales_appt": 0, "sales_maison": 0, "median_price": 28000.0, "median_price_per_sqm": null, "turnover_score": 3.9, "turnover_rank": 16, "first_year": 2024, "last_year": 2024, "years_active": 1}}, {"type": "Feature", "geometry": {"type": "Point", "coordinates": [3.1969165000000004, 48.611827]}, "properties": {"street_name": "PL DES ACACIAS", "sales": 2, "sales_appt": 0, "sales_maison": 2, "median_price": 203500.0, "median_price_per_sqm": 2710.186513629842, "turnover_score": 3.9, "turnover_rank": 16, "first_year": 2022, "last_year": 2023, "years_active": 2}}, {"type": "Feature", "geometry": {"type": "Point", "coordinates": [3.194502, 48.581733]}, "properties": {"street_name": "CHE DE CHAMPIGNY", "sales": 1, "sales_appt": 0, "sales_maison": 1, "median_price": 50000.0, "median_price_per_sqm": 961.5384615384615, "turnover_score": 2.0, "turnover_rank": 17, "first_year": 2022, "last_year": 2022, "years_active": 1}}, {"type": "Feature", "geometry": {"type": "Point", "coordinates": [3.212008, 48.629046]}, "properties": {"street_name": "IMP DE LA FONTAINE VOULX", "sales": 1, "sales_appt": 0, "sales_maison": 0, "median_price": 220000.0, "median_price_per_sqm": 41.12149532710281, "turnover_score": 2.0, "turnover_rank": 17, "first_year": 2021, "last_year": 2021, "years_active": 1}}, {"type": "Feature", "geometry": {"type": "Point", "coordinates": [3.214347, 48.602225]}, "properties": {"street_name": "FERME DU GRAND BOISSY", "sales": 1, "sales_appt": 0, "sales_maison": 0, "median_price": 7100.0, "median_price_per_sqm": null, "turnover_score": 2.0, "turnover_rank": 17, "first_year": 2024, "last_year": 2024, "years_active": 1}}, {"type": "Feature", "geometry": {"type": "Point", "coordinates": [3.195757, 48.610519]}, "properties": {"street_name": "AV DES MARRONNIERS", "sales": 1, "sales_appt": 0, "sales_maison": 1, "median_price": 257000.0, "median_price_per_sqm": 2401.8691588785045, "turnover_score": 2.0, "turnover_rank": 17, "first_year": 2022, "last_year": 2022, "years_active": 1}}, {"type": "Feature", "geometry": {"type": "Point", "coordinates": [3.210541, 48.619529]}, "properties": {"street_name": "LES LONGUES RAIES", "sales": 1, "sales_appt": 0, "sales_maison": 0, "median_price": 6726.5, "median_price_per_sqm": null, "turnover_score": 2.0, "turnover_rank": 17, "first_year": 2021, "last_year": 2021, "years_active": 1}}, {"type": "Feature", "geometry": {"type": "Point", "coordinates": [3.195385, 48.618305]}, "properties": {"street_name": "RES DE LA FORET", "sales": 1, "sales_appt": 0, "sales_maison": 1, "median_price": 248000.0, "median_price_per_sqm": 2583.3333333333335, "turnover_score": 2.0, "turnover_rank": 17, "first_year": 2021, "last_year": 2021, "years_active": 1}}, {"type": "Feature", "geometry": {"type": "Point", "coordinates": [3.196336, 48.612707]}, "properties": {"street_name": "PL DES TILLEULS", "sales": 1, "sales_appt": 0, "sales_maison": 1, "median_price": 200000.0, "median_price_per_sqm": 1360.544217687075, "turnover_score": 2.0, "turnover_rank": 17, "first_year": 2023, "last_year": 2023, "years_active": 1}}, {"type": "Feature", "geometry": {"type": "Point", "coordinates": [3.174386, 48.592901]}, "properties": {"street_name": "LE FOUR A CHAUX CUCHARMOY", "sales": 1, "sales_appt": 0, "sales_maison": 0, "median_price": 320966.4, "median_price_per_sqm": null, "turnover_score": 2.0, "turnover_rank": 17, "first_year": 2025, "last_year": 2025, "years_active": 1}}, {"type": "Feature", "geometry": {"type": "Point", "coordinates": [3.18455, 48.61165]}, "properties": {"street_name": "LE GUE DE L ALOUETTE", "sales": 1, "sales_appt": 0, "sales_maison": 0, "median_price": 6726.5, "median_price_per_sqm": null, "turnover_score": 2.0, "turnover_rank": 17, "first_year": 2021, "last_year": 2021, "years_active": 1}}, {"type": "Feature", "geometry": {"type": "Point", "coordinates": [3.189875, 48.583981]}, "properties": {"street_name": "LE BORDEAUX", "sales": 1, "sales_appt": 0, "sales_maison": 0, "median_price": 100000.0, "median_price_per_sqm": null, "turnover_score": 2.0, "turnover_rank": 17, "first_year": 2022, "last_year": 2022, "years_active": 1}}, {"type": "Feature", "geometry": {"type": "Point", "coordinates": [3.198128, 48.617922]}, "properties": {"street_name": "LE BOIS AUX GEAIS", "sales": 1, "sales_appt": 0, "sales_maison": 0, "median_price": 266350.0, "median_price_per_sqm": null, "turnover_score": 2.0, "turnover_rank": 17, "first_year": 2022, "last_year": 2022, "years_active": 1}}, {"type": "Feature", "geometry": {"type": "Point", "coordinates": [3.190402, 48.586497]}, "properties": {"street_name": "LA MAUGARNIE", "sales": 1, "sales_appt": 0, "sales_maison": 0, "median_price": 60000.0, "median_price_per_sqm": null, "turnover_score": 2.0, "turnover_rank": 17, "first_year": 2024, "last_year": 2024, "years_active": 1}}, {"type": "Feature", "geometry": {"type": "Point", "coordinates": [3.191143, 48.582967]}, "properties": {"street_name": "LE PRE AUX CANES", "sales": 1, "sales_appt": 0, "sales_maison": 0, "median_price": 130000.0, "median_price_per_sqm": null, "turnover_score": 2.0, "turnover_rank": 17, "first_year": 2021, "last_year": 2021, "years_active": 1}}, {"type": "Feature", "geometry": {"type": "Point", "coordinates": [3.160236, 48.634727]}, "properties": {"street_name": "LE PRE COGNOT", "sales": 1, "sales_appt": 0, "sales_maison": 0, "median_price": 51405.0, "median_price_per_sqm": null, "turnover_score": 2.0, "turnover_rank": 17, "first_year": 2025, "last_year": 2025, "years_active": 1}}, {"type": "Feature", "geometry": {"type": "Point", "coordinates": [3.186338, 48.617234]}, "properties": {"street_name": "LE FOUR A CHAUX CHENOISE", "sales": 1, "sales_appt": 0, "sales_maison": 0, "median_price": 240000.0, "median_price_per_sqm": null, "turnover_score": 2.0, "turnover_rank": 17, "first_year": 2022, "last_year": 2022, "years_active": 1}}, {"type": "Feature", "geometry": {"type": "Point", "coordinates": [3.187614, 48.61637]}, "properties": {"street_name": "RUE DES BLES D OR", "sales": 1, "sales_appt": 0, "sales_maison": 1, "median_price": 237000.0, "median_price_per_sqm": 2693.181818181818, "turnover_score": 2.0, "turnover_rank": 17, "first_year": 2021, "last_year": 2021, "years_active": 1}}, {"type": "Feature", "geometry": {"type": "Point", "coordinates": [3.193555, 48.583606]}, "properties": {"street_name": "RUE DU CIMETIERE", "sales": 1, "sales_appt": 0, "sales_maison": 1, "median_price": 335000.0, "median_price_per_sqm": 2991.0714285714284, "turnover_score": 2.0, "turnover_rank": 17, "first_year": 2025, "last_year": 2025, "years_active": 1}}]}