{"type": "FeatureCollection", "features": [{"type": "Feature", "geometry": {"type": "Polygon", "coordinates": [[[2.734708, 48.882848], [2.73408, 48.883036], [2.733192, 48.883217], [2.732753, 48.883275], [2.732282, 48.88331], [2.731328, 48.883341], [2.729548, 48.883287], [2.728686, 48.883239], [2.72786, 48.883173], [2.727747, 48.883871], [2.728535, 48.884041], [2.728713, 48.884116], [2.729068, 48.884318], [2.729018, 48.884921], [2.729232, 48.884939], [2.729077, 48.885651], [2.72926, 48.886758], [2.729965, 48.886711], [2.72999, 48.887297], [2.729939, 48.88767], [2.729949, 48.88816], [2.729835, 48.889183], [2.729785, 48.889808], [2.729799, 48.890116], [2.72976, 48.89063], [2.729955, 48.891044], [2.730488, 48.892275], [2.729674, 48.895108], [2.729587, 48.895095], [2.729223, 48.896511], [2.729156, 48.896896], [2.728971, 48.896884], [2.728764, 48.898316], [2.728392, 48.898285], [2.727807, 48.898287], [2.727817, 48.898155], [2.727557, 48.898138], [2.727002, 48.898069], [2.726582, 48.898135], [2.726617, 48.898444], [2.726629, 48.898795], [2.726681, 48.899288], [2.726669, 48.899679], [2.726611, 48.899808], [2.726603, 48.900053], [2.726254, 48.900044], [2.725252, 48.900094], [2.72536, 48.901303], [2.725382, 48.901818], [2.724961, 48.901706], [2.724453, 48.901702], [2.724466, 48.902022], [2.724466, 48.902802], [2.725635, 48.902758], [2.726185, 48.902745], [2.727347, 48.902688], [2.727779, 48.902631], [2.730443, 48.902313], [2.731044, 48.902281], [2.731646, 48.90234], [2.732174, 48.902361], [2.732388, 48.902425], [2.733157, 48.902776], [2.733807, 48.903055], [2.734071, 48.903194], [2.734561, 48.903384], [2.734798, 48.903434], [2.735601, 48.903541], [2.736335, 48.903583], [2.737083, 48.903555], [2.737825, 48.903553], [2.739302, 48.903496], [2.739615, 48.903509], [2.740609, 48.903494], [2.741814, 48.903424], [2.742366, 48.903357], [2.743269, 48.903301], [2.743737, 48.903302], [2.7441, 48.903264], [2.74454, 48.903282], [2.746221, 48.903299], [2.747673, 48.903355], [2.74887, 48.903375], [2.750044, 48.903434], [2.750565, 48.90349], [2.751601, 48.903565], [2.752843, 48.903682], [2.753953, 48.903847], [2.75475, 48.903941], [2.755181, 48.904007], [2.756583, 48.904167], [2.757116, 48.904238], [2.757928, 48.904322], [2.758452, 48.904339], [2.760737, 48.904173], [2.760885, 48.904144], [2.763859, 48.903538], [2.76686, 48.902469], [2.767885, 48.901661], [2.768024, 48.900751], [2.768043, 48.900217], [2.768082, 48.899939], [2.768178, 48.899584], [2.768284, 48.898809], [2.768295, 48.898475], [2.768396, 48.898106], [2.76862, 48.897479], [2.768639, 48.897196], [2.768551, 48.896702], [2.768466, 48.896377], [2.768333, 48.895602], [2.768219, 48.895231], [2.768076, 48.894863], [2.767863, 48.893935], [2.767619, 48.893295], [2.767293, 48.892698], [2.76713, 48.892439], [2.766903, 48.892166], [2.766368, 48.891708], [2.766062, 48.891418], [2.7658, 48.891121], [2.765513, 48.890757], [2.765203, 48.890463], [2.76493, 48.890146], [2.764487, 48.889554], [2.764224, 48.88926], [2.763961, 48.889002], [2.76366, 48.888753], [2.762872, 48.888364], [2.761924, 48.887988], [2.761439, 48.887762], [2.761013, 48.88754], [2.760695, 48.88735], [2.760388, 48.887123], [2.759284, 48.886512], [2.758904, 48.886288], [2.75851, 48.886101], [2.758296, 48.885957], [2.757106, 48.885348], [2.756698, 48.885107], [2.755767, 48.884662], [2.754912, 48.884343], [2.754181, 48.884082], [2.753613, 48.883938], [2.752518, 48.883726], [2.751849, 48.88367], [2.751583, 48.883683], [2.750734, 48.883766], [2.749901, 48.883863], [2.748517, 48.883972], [2.748247, 48.883969], [2.747697, 48.883903], [2.747439, 48.883843], [2.746889, 48.883673], [2.74664, 48.883576], [2.74595, 48.883379], [2.744848, 48.883182], [2.743823, 48.883027], [2.743176, 48.882962], [2.742551, 48.882935], [2.74171, 48.882915], [2.740697, 48.882861], [2.740086, 48.882811], [2.73896, 48.882744], [2.737913, 48.882714], [2.736773, 48.882742], [2.735876, 48.882731], [2.735123, 48.882772], [2.734708, 48.882848]]]}, "properties": {"code_iris": "771550000", "nom_iris": "Dampmart (commune entière)", "type_iris": "Z", "lat": 48.8935, "lng": 2.7465, "dvf_sales_total": 677, "dvf_sales_appt": 0, "dvf_sales_maison": 0, "dvf_median_price": 300000.0, "dvf_median_ppsqm": 3737.7976190476193, "dvf_by_year": "[{\"year\": 2021, \"sales\": 192, \"median_price\": 320250.0}, {\"year\": 2022, \"sales\": 208, \"median_price\": 321100.0}, {\"year\": 2023, \"sales\": 116, \"median_price\": 274209.0}, {\"year\": 2024, \"sales\": 88, \"median_price\": 261000.0}, {\"year\": 2025, \"sales\": 73, \"median_price\": 239900.0}]", "population": 3677, "n_log": null, "n_rp": null, "pct_proprio": null, "pct_hlm": null, "pct_appart": null, "pct_cadres": null, "pct_bac5p": null, "pct_etrangers": null, "pct_0_14": null, "pct_65p": null, "bpe_total": null, "bpe_commerces": null, "bpe_enseignement": null, "bpe_sante": null, "dpe": null, "attractivity_score": null, "rank_attractivity_score": null, "rank_total_attractivity_score": 1, "commune_avg": null, "is_stub": true}}]}