{"type": "FeatureCollection", "features": [{"type": "Feature", "geometry": {"type": "Point", "coordinates": [2.736846, 48.887299]}, "properties": {"id_parcelle": "77155000AB0853", "address": "6 RUE GODARD DESMARETS", "sales": 14, "median_price": 118000.0, "median_price_per_sqm": 3541.6666666666665, "median_rooms": 0.5, "first_sale": "2021-04-29", "last_sale": "2025-09-15"}}, {"type": "Feature", "geometry": {"type": "Point", "coordinates": [2.740849, 48.888606]}, "properties": {"id_parcelle": "77155000AE0357", "address": "10 RUE COLAS", "sales": 13, "median_price": 206000.0, "median_price_per_sqm": 3690.0, "median_rooms": 0.0, "first_sale": "2021-12-09", "last_sale": "2025-07-17"}}, {"type": "Feature", "geometry": {"type": "Point", "coordinates": [2.731606, 48.887556]}, "properties": {"id_parcelle": "77155000AB0705", "address": "13 RUE DE BOURDIN", "sales": 12, "median_price": 130500.0, "median_price_per_sqm": 3212.121212121212, "median_rooms": 0.0, "first_sale": "2021-08-23", "last_sale": "2025-10-15"}}, {"type": "Feature", "geometry": {"type": "Point", "coordinates": [2.736489, 48.884881]}, "properties": {"id_parcelle": "77155000AD0228", "address": "6 PL DU GAL LECLERC", "sales": 9, "median_price": 555000.0, "median_price_per_sqm": 18500.0, "median_rooms": 3.0, "first_sale": "2021-03-26", "last_sale": "2021-03-26"}}, {"type": "Feature", "geometry": {"type": "Point", "coordinates": [2.740373, 48.885339]}, "properties": {"id_parcelle": "77155000AD0529", "address": "54 RUE DU CHATEAU", "sales": 9, "median_price": 239900.0, "median_price_per_sqm": 3797.0390070921985, "median_rooms": 0.0, "first_sale": "2021-05-19", "last_sale": "2025-09-25"}}, {"type": "Feature", "geometry": {"type": "Point", "coordinates": [2.731402, 48.889836]}, "properties": {"id_parcelle": "77155000AB0697", "address": "17 RUE DE CARNETIN", "sales": 8, "median_price": 597000.0, "median_price_per_sqm": 4455.223880597015, "median_rooms": 0.0, "first_sale": "2022-02-18", "last_sale": "2022-02-18"}}, {"type": "Feature", "geometry": {"type": "Point", "coordinates": [2.732143, 48.886806]}, "properties": {"id_parcelle": "77155000AB0817", "address": "6 RUE DENFERT ROCHEREAU", "sales": 8, "median_price": 682927.45, "median_price_per_sqm": 6323.402314814815, "median_rooms": 1.5, "first_sale": "2024-03-07", "last_sale": "2024-03-07"}}, {"type": "Feature", "geometry": {"type": "Point", "coordinates": [2.735946, 48.88471]}, "properties": {"id_parcelle": "77155000AD0216", "address": "3 RUE DE L ABREUVOIR", "sales": 7, "median_price": 270000.0, "median_price_per_sqm": 2842.4202127659573, "median_rooms": 0.0, "first_sale": "2021-11-30", "last_sale": "2021-11-30"}}, {"type": "Feature", "geometry": {"type": "Point", "coordinates": [2.732564, 48.888437]}, "properties": {"id_parcelle": "77155000AB0155", "address": "11 PL DES ORMES", "sales": 7, "median_price": 350000.0, "median_price_per_sqm": 2916.6666666666665, "median_rooms": 0.0, "first_sale": "2025-03-11", "last_sale": "2025-04-16"}}, {"type": "Feature", "geometry": {"type": "Point", "coordinates": [2.740889, 48.888135]}, "properties": {"id_parcelle": "77155000AE0294", "address": "3 RLE COLAS", "sales": 6, "median_price": 455000.0, "median_price_per_sqm": 3611.1111111111113, "median_rooms": 0.0, "first_sale": "2025-06-27", "last_sale": "2025-06-27"}}, {"type": "Feature", "geometry": {"type": "Point", "coordinates": [2.747538, 48.884567]}, "properties": {"id_parcelle": "77155000AE0824", "address": "30 CHE DES TARTREUX", "sales": 6, "median_price": 275000.0, "median_price_per_sqm": 4296.875, "median_rooms": 0.0, "first_sale": "2021-08-18", "last_sale": "2021-08-18"}}, {"type": "Feature", "geometry": {"type": "Point", "coordinates": [2.733038, 48.885588]}, "properties": {"id_parcelle": "77155000AC0277", "address": "44 RUE DE LAGNY", "sales": 6, "median_price": 279250.0, "median_price_per_sqm": 2161.90855927698, "median_rooms": 0.0, "first_sale": "2021-06-29", "last_sale": "2024-03-15"}}, {"type": "Feature", "geometry": {"type": "Point", "coordinates": [2.729286, 48.884112]}, "properties": {"id_parcelle": "77155000AC0325", "address": "99 RUE DE LAGNY", "sales": 6, "median_price": 390000.0, "median_price_per_sqm": 3679.245283018868, "median_rooms": 0.0, "first_sale": "2022-04-04", "last_sale": "2022-04-04"}}, {"type": "Feature", "geometry": {"type": "Point", "coordinates": [2.734022, 48.887807]}, "properties": {"id_parcelle": "77155000AB0422", "address": "45 RUE DE LA REPUBLIQUE", "sales": 6, "median_price": 360000.0, "median_price_per_sqm": 13333.333333333334, "median_rooms": 1.0, "first_sale": "2021-05-17", "last_sale": "2021-05-17"}}, {"type": "Feature", "geometry": {"type": "Point", "coordinates": [2.750938, 48.888639]}, "properties": {"id_parcelle": "77155000AI0772", "address": "75 RUE DES LAMBUIS", "sales": 5, "median_price": 140000.0, "median_price_per_sqm": 2500.0, "median_rooms": 0.0, "first_sale": "2023-01-18", "last_sale": "2023-01-18"}}, {"type": "Feature", "geometry": {"type": "Point", "coordinates": [2.733667, 48.887735]}, "properties": {"id_parcelle": "77155000AB0426", "address": "41 RUE DE LA REPUBLIQUE", "sales": 5, "median_price": 317000.0, "median_price_per_sqm": 2990.566037735849, "median_rooms": 0.0, "first_sale": "2022-01-25", "last_sale": "2022-01-25"}}, {"type": "Feature", "geometry": {"type": "Point", "coordinates": [2.733538, 48.888343]}, "properties": {"id_parcelle": "77155000AB0185", "address": "6 PL DES ORMES", "sales": 5, "median_price": 250000.0, "median_price_per_sqm": 8676.470588235294, "median_rooms": 1.0, "first_sale": "2024-12-26", "last_sale": "2024-12-26"}}, {"type": "Feature", "geometry": {"type": "Point", "coordinates": [2.735387, 48.888477]}, "properties": {"id_parcelle": "77155000AB1384", "address": "24 RUE ANTOINETTE LABOUR", "sales": 4, "median_price": 260000.0, "median_price_per_sqm": 5245.559038662487, "median_rooms": 3.0, "first_sale": "2024-03-29", "last_sale": "2024-03-29"}}, {"type": "Feature", "geometry": {"type": "Point", "coordinates": [2.733775, 48.88866]}, "properties": {"id_parcelle": "77155000AB1344", "address": "1 RUE ANTOINETTE LABOUR", "sales": 4, "median_price": 560000.0, "median_price_per_sqm": 14746.543778801843, "median_rooms": 2.5, "first_sale": "2025-10-14", "last_sale": "2025-10-14"}}, {"type": "Feature", "geometry": {"type": "Point", "coordinates": [2.732497, 48.886876]}, "properties": {"id_parcelle": "77155000AB1110", "address": "2 RUE DENFERT ROCHEREAU", "sales": 4, "median_price": 370000.0, "median_price_per_sqm": 3189.655172413793, "median_rooms": 2.5, "first_sale": "2024-07-03", "last_sale": "2024-07-03"}}, {"type": "Feature", "geometry": {"type": "Point", "coordinates": [2.736605, 48.888542]}, "properties": {"id_parcelle": "77155000AB0251", "address": "38 RUE ANTOINETTE LABOUR", "sales": 4, "median_price": 281813.0, "median_price_per_sqm": 3522.6625, "median_rooms": 2.0, "first_sale": "2022-07-01", "last_sale": "2023-03-27"}}, {"type": "Feature", "geometry": {"type": "Point", "coordinates": [2.737406, 48.886762]}, "properties": {"id_parcelle": "77155000AD0214", "address": "10 RUE EMILE BLANCHET", "sales": 4, "median_price": 275672.5, "median_price_per_sqm": 4594.541666666667, "median_rooms": 1.5, "first_sale": "2021-10-12", "last_sale": "2025-12-19"}}, {"type": "Feature", "geometry": {"type": "Point", "coordinates": [2.733364, 48.888846]}, "properties": {"id_parcelle": "77155000AB0813", "address": "4 RUE DE CARNETIN", "sales": 4, "median_price": 500000.0, "median_price_per_sqm": 2074.688796680498, "median_rooms": 4.0, "first_sale": "2025-10-08", "last_sale": "2025-10-08"}}, {"type": "Feature", "geometry": {"type": "Point", "coordinates": [2.733938, 48.884338]}, "properties": {"id_parcelle": "77155000AC0426", "address": "20 RUE DU CHEMIN DE FER", "sales": 4, "median_price": 117000.0, "median_price_per_sqm": 4952.380952380952, "median_rooms": 0.5, "first_sale": "2023-03-01", "last_sale": "2023-03-01"}}, {"type": "Feature", "geometry": {"type": "Point", "coordinates": [2.731422, 48.885661]}, "properties": {"id_parcelle": "77155000AC0521", "address": "76 RUE DE LAGNY", "sales": 4, "median_price": 700000.0, "median_price_per_sqm": 4216.8674698795185, "median_rooms": 5.5, "first_sale": "2021-01-20", "last_sale": "2021-01-20"}}, {"type": "Feature", "geometry": {"type": "Point", "coordinates": [2.734552, 48.885098]}, "properties": {"id_parcelle": "77155000AC0504", "address": "27 RUE DE LAGNY", "sales": 4, "median_price": 321500.0, "median_price_per_sqm": 4018.75, "median_rooms": 0.0, "first_sale": "2021-08-12", "last_sale": "2021-08-12"}}, {"type": "Feature", "geometry": {"type": "Point", "coordinates": [2.733337, 48.885095]}, "properties": {"id_parcelle": "77155000AC0497", "address": "51 RUE DE LAGNY", "sales": 4, "median_price": 400000.0, "median_price_per_sqm": 3252.032520325203, "median_rooms": 3.0, "first_sale": "2022-01-11", "last_sale": "2022-01-11"}}, {"type": "Feature", "geometry": {"type": "Point", "coordinates": [2.733626, 48.886466]}, "properties": {"id_parcelle": "77155000AC0525", "address": "12 RUE GAMBETTA", "sales": 4, "median_price": 475000.0, "median_price_per_sqm": 5654.761904761905, "median_rooms": 2.5, "first_sale": "2022-11-22", "last_sale": "2022-11-22"}}, {"type": "Feature", "geometry": {"type": "Point", "coordinates": [2.736258, 48.88476]}, "properties": {"id_parcelle": "77155000AD0256", "address": "8 PL DU GAL LECLERC", "sales": 4, "median_price": 700000.0, "median_price_per_sqm": 5384.615384615385, "median_rooms": 0.0, "first_sale": "2023-01-25", "last_sale": "2023-01-25"}}, {"type": "Feature", "geometry": {"type": "Point", "coordinates": [2.738388, 48.889507]}, "properties": {"id_parcelle": "77155000AH0343", "address": "3 RUE JULIETTE VADEL", "sales": 4, "median_price": 490000.0, "median_price_per_sqm": 13024.425287356322, "median_rooms": 2.5, "first_sale": "2021-09-17", "last_sale": "2021-09-17"}}, {"type": "Feature", "geometry": {"type": "Point", "coordinates": [2.749916, 48.890655]}, "properties": {"id_parcelle": "77155000AI0019", "address": "9003 RLE DE LA PERRIERE", "sales": 4, "median_price": 285400.0, "median_price_per_sqm": 4077.1428571428573, "median_rooms": 2.0, "first_sale": "2021-09-21", "last_sale": "2021-09-21"}}, {"type": "Feature", "geometry": {"type": "Point", "coordinates": [2.745886, 48.890188]}, "properties": {"id_parcelle": "77155000AH0218", "address": "71 RUE JULIETTE VADEL", "sales": 4, "median_price": 672800.0, "median_price_per_sqm": 4368.831168831169, "median_rooms": 3.5, "first_sale": "2022-08-18", "last_sale": "2022-08-18"}}, {"type": "Feature", "geometry": {"type": "Point", "coordinates": [2.75906, 48.88775]}, "properties": {"id_parcelle": "77155000AL0030", "address": "13 CHE DES TARTREUX", "sales": 4, "median_price": 276000.0, "median_price_per_sqm": 4928.571428571428, "median_rooms": 1.5, "first_sale": "2022-08-01", "last_sale": "2022-08-01"}}, {"type": "Feature", "geometry": {"type": "Point", "coordinates": [2.750687, 48.887945]}, "properties": {"id_parcelle": "77155000AI0783", "address": "74 RUE DES LAMBUIS", "sales": 4, "median_price": 700000.0, "median_price_per_sqm": 5737.704918032787, "median_rooms": 2.0, "first_sale": "2022-05-03", "last_sale": "2022-05-03"}}, {"type": "Feature", "geometry": {"type": "Point", "coordinates": [2.752127, 48.887354]}, "properties": {"id_parcelle": "77155000AI0681", "address": "139 RUE DU CHATEAU", "sales": 4, "median_price": 240500.0, "median_price_per_sqm": 4625.0, "median_rooms": 1.0, "first_sale": "2021-10-08", "last_sale": "2022-09-09"}}, {"type": "Feature", "geometry": {"type": "Point", "coordinates": [2.736816, 48.885867]}, "properties": {"id_parcelle": "77155000AD0551", "address": "15 RUE DU CHATEAU", "sales": 4, "median_price": 250000.0, "median_price_per_sqm": 2500.0, "median_rooms": 2.0, "first_sale": "2024-06-17", "last_sale": "2024-06-17"}}, {"type": "Feature", "geometry": {"type": "Point", "coordinates": [2.740259, 48.889482]}, "properties": {"id_parcelle": "77155000AH0328", "address": "17 RUE JULIETTE VADEL", "sales": 3, "median_price": 418000.0, "median_price_per_sqm": 3398.3739837398375, "median_rooms": 0.0, "first_sale": "2021-12-27", "last_sale": "2021-12-27"}}, {"type": "Feature", "geometry": {"type": "Point", "coordinates": [2.732629, 48.884459]}, "properties": {"id_parcelle": "77155000AC0578", "address": "34 RUE DU CHEMIN DE FER", "sales": 3, "median_price": 300000.0, "median_price_per_sqm": 4000.0, "median_rooms": 0.0, "first_sale": "2021-10-14", "last_sale": "2021-10-14"}}, {"type": "Feature", "geometry": {"type": "Point", "coordinates": [2.737654, 48.885689]}, "properties": {"id_parcelle": "77155000AD0100", "address": "10 RUE DU CHATEAU", "sales": 3, "median_price": 105000.0, "median_price_per_sqm": 5526.315789473684, "median_rooms": 0.0, "first_sale": "2022-05-02", "last_sale": "2022-05-02"}}, {"type": "Feature", "geometry": {"type": "Point", "coordinates": [2.734278, 48.885565]}, "properties": {"id_parcelle": "77155000AC0087", "address": "26 RUE DE LAGNY", "sales": 3, "median_price": 264000.0, "median_price_per_sqm": 6952.182952182952, "median_rooms": 2.0, "first_sale": "2022-03-17", "last_sale": "2022-03-17"}}, {"type": "Feature", "geometry": {"type": "Point", "coordinates": [2.734716, 48.889454]}, "properties": {"id_parcelle": "77155000AB0673", "address": "15 RUE DU CLOS RICHARD", "sales": 3, "median_price": 480000.0, "median_price_per_sqm": 3692.3076923076924, "median_rooms": 0.0, "first_sale": "2021-10-06", "last_sale": "2021-10-06"}}, {"type": "Feature", "geometry": {"type": "Point", "coordinates": [2.734545, 48.890371]}, "properties": {"id_parcelle": "77155000AB0723", "address": "24 RUE DANIEL LEDUC", "sales": 3, "median_price": 311400.0, "median_price_per_sqm": 4385.915492957746, "median_rooms": 0.0, "first_sale": "2022-02-18", "last_sale": "2022-02-18"}}, {"type": "Feature", "geometry": {"type": "Point", "coordinates": [2.736136, 48.888639]}, "properties": {"id_parcelle": "77155000AB1121", "address": "36 RUE ANTOINETTE LABOUR", "sales": 3, "median_price": 118000.0, "median_price_per_sqm": 3687.5, "median_rooms": 0.0, "first_sale": "2022-04-29", "last_sale": "2022-04-29"}}, {"type": "Feature", "geometry": {"type": "Point", "coordinates": [2.734415, 48.885379]}, "properties": {"id_parcelle": "77155000AC0571", "address": "22 RUE DE LAGNY", "sales": 3, "median_price": 240000.0, "median_price_per_sqm": 6857.142857142857, "median_rooms": 2.0, "first_sale": "2021-11-15", "last_sale": "2021-11-15"}}, {"type": "Feature", "geometry": {"type": "Point", "coordinates": [2.733898, 48.885162]}, "properties": {"id_parcelle": "77155000AC0458", "address": "45 RUE DE LAGNY", "sales": 3, "median_price": 190800.0, "median_price_per_sqm": 2935.3846153846152, "median_rooms": 0.0, "first_sale": "2023-02-09", "last_sale": "2023-02-09"}}, {"type": "Feature", "geometry": {"type": "Point", "coordinates": [2.733694, 48.886339]}, "properties": {"id_parcelle": "77155000AC0032", "address": "8 RUE GAMBETTA", "sales": 3, "median_price": 438000.0, "median_price_per_sqm": 4469.3877551020405, "median_rooms": 0.0, "first_sale": "2022-12-23", "last_sale": "2022-12-23"}}, {"type": "Feature", "geometry": {"type": "Point", "coordinates": [2.734305, 48.887935]}, "properties": {"id_parcelle": "77155000AB1092", "address": "42 RUE DE LA REPUBLIQUE", "sales": 3, "median_price": 242000.0, "median_price_per_sqm": 3558.823529411765, "median_rooms": 0.0, "first_sale": "2022-03-31", "last_sale": "2022-03-31"}}, {"type": "Feature", "geometry": {"type": "Point", "coordinates": [2.73976, 48.888791]}, "properties": {"id_parcelle": "77155000AB0280", "address": "16 RUE JULIETTE VADEL", "sales": 3, "median_price": 710500.0, "median_price_per_sqm": 4280.120481927711, "median_rooms": 0.0, "first_sale": "2022-12-21", "last_sale": "2022-12-21"}}, {"type": "Feature", "geometry": {"type": "Point", "coordinates": [2.731625, 48.88494]}, "properties": {"id_parcelle": "77155000AC0121", "address": "75 RUE DE LAGNY", "sales": 3, "median_price": 211000.0, "median_price_per_sqm": 2649.3694567627495, "median_rooms": 4.0, "first_sale": "2021-05-20", "last_sale": "2025-12-19"}}, {"type": "Feature", "geometry": {"type": "Point", "coordinates": [2.734024, 48.888708]}, "properties": {"id_parcelle": "77155000AB0199", "address": "3 RUE ANTOINETTE LABOUR", "sales": 3, "median_price": 450000.0, "median_price_per_sqm": 9375.0, "median_rooms": 3.0, "first_sale": "2022-03-10", "last_sale": "2022-03-10"}}, {"type": "Feature", "geometry": {"type": "Point", "coordinates": [2.730036, 48.887532]}, "properties": {"id_parcelle": "77155000AB0488", "address": "31 RUE DE BOURDIN", "sales": 2, "median_price": 328615.0, "median_price_per_sqm": 2857.521739130435, "median_rooms": 6.0, "first_sale": "2021-05-04", "last_sale": "2022-12-05"}}, {"type": "Feature", "geometry": {"type": "Point", "coordinates": [2.735847, 48.88979]}, "properties": {"id_parcelle": "77155000AB0608", "address": "6 RUE DU CLOS RICHARD", "sales": 2, "median_price": 424343.72, "median_price_per_sqm": 3722.3133333333335, "median_rooms": 6.0, "first_sale": "2021-07-13", "last_sale": "2021-07-19"}}, {"type": "Feature", "geometry": {"type": "Point", "coordinates": [2.736921, 48.889031]}, "properties": {"id_parcelle": "77155000AB0523", "address": "31 RUE ANTOINETTE LABOUR", "sales": 2, "median_price": 425000.0, "median_price_per_sqm": 3423.6111111111113, "median_rooms": 1.5, "first_sale": "2024-05-24", "last_sale": "2024-05-24"}}, {"type": "Feature", "geometry": {"type": "Point", "coordinates": [2.730241, 48.887443]}, "properties": {"id_parcelle": "77155000AB0489", "address": "LA RUELLE BOUILLANT", "sales": 2, "median_price": 328615.0, "median_price_per_sqm": null, "median_rooms": null, "first_sale": "2021-05-04", "last_sale": "2022-12-05"}}, {"type": "Feature", "geometry": {"type": "Point", "coordinates": [2.734546, 48.888752]}, "properties": {"id_parcelle": "77155000AB0208", "address": "9 RUE ANTOINETTE LABOUR", "sales": 2, "median_price": 367000.0, "median_price_per_sqm": 6734.72706155633, "median_rooms": 4.0, "first_sale": "2021-08-06", "last_sale": "2021-08-06"}}, {"type": "Feature", "geometry": {"type": "Point", "coordinates": [2.73474, 48.885039]}, "properties": {"id_parcelle": "77155000AC0153", "address": "21 RUE DE LAGNY", "sales": 2, "median_price": 199900.0, "median_price_per_sqm": 4164.583333333333, "median_rooms": 1.5, "first_sale": "2022-01-06", "last_sale": "2022-01-06"}}, {"type": "Feature", "geometry": {"type": "Point", "coordinates": [2.733539, 48.885022]}, "properties": {"id_parcelle": "77155000AC0137", "address": "49 RUE DE LAGNY", "sales": 2, "median_price": 226000.0, "median_price_per_sqm": 4035.714285714286, "median_rooms": 2.0, "first_sale": "2025-08-08", "last_sale": "2025-08-08"}}, {"type": "Feature", "geometry": {"type": "Point", "coordinates": [2.736524, 48.887177]}, "properties": {"id_parcelle": "77155000AB1353", "address": "4 RUE GODARD DESMARETS", "sales": 2, "median_price": 265000.0, "median_price_per_sqm": 3154.7619047619046, "median_rooms": 2.0, "first_sale": "2021-06-07", "last_sale": "2021-06-07"}}, {"type": "Feature", "geometry": {"type": "Point", "coordinates": [2.735561, 48.886183]}, "properties": {"id_parcelle": "77155000AC0053", "address": "11 RUE DE LA REPUBLIQUE", "sales": 2, "median_price": 440000.0, "median_price_per_sqm": 3666.6666666666665, "median_rooms": 2.5, "first_sale": "2021-12-15", "last_sale": "2021-12-15"}}, {"type": "Feature", "geometry": {"type": "Point", "coordinates": [2.732279, 48.887634]}, "properties": {"id_parcelle": "77155000AB1034", "address": "3 RUE DE BOURDIN", "sales": 2, "median_price": 370000.0, "median_price_per_sqm": 2824.4274809160306, "median_rooms": 2.5, "first_sale": "2025-04-08", "last_sale": "2025-04-08"}}, {"type": "Feature", "geometry": {"type": "Point", "coordinates": [2.740517, 48.887318]}, "properties": {"id_parcelle": "77155000AB1155", "address": "1 RUE COLAS", "sales": 2, "median_price": 393900.0, "median_price_per_sqm": 3202.439024390244, "median_rooms": 2.5, "first_sale": "2022-03-15", "last_sale": "2022-03-15"}}, {"type": "Feature", "geometry": {"type": "Point", "coordinates": [2.736929, 48.888361]}, "properties": {"id_parcelle": "77155000AB1342", "address": "21 RUE GODARD DESMARETS", "sales": 2, "median_price": 321100.0, "median_price_per_sqm": 3777.6470588235293, "median_rooms": 1.5, "first_sale": "2022-12-20", "last_sale": "2022-12-20"}}, {"type": "Feature", "geometry": {"type": "Point", "coordinates": [2.73372, 48.888269]}, "properties": {"id_parcelle": "77155000AB1348", "address": "4 PL DES ORMES", "sales": 2, "median_price": 287000.0, "median_price_per_sqm": 2870.0, "median_rooms": 3.0, "first_sale": "2021-04-09", "last_sale": "2022-09-01"}}, {"type": "Feature", "geometry": {"type": "Point", "coordinates": [2.73571, 48.89065]}, "properties": {"id_parcelle": "77155000AB0760", "address": "17 RUE MICHEL PLACE", "sales": 2, "median_price": 370000.0, "median_price_per_sqm": 4111.111111111111, "median_rooms": 5.0, "first_sale": "2021-10-05", "last_sale": "2021-10-05"}}, {"type": "Feature", "geometry": {"type": "Point", "coordinates": [2.734101, 48.891051]}, "properties": {"id_parcelle": "77155000AB0740", "address": "20 RUE MICHEL PLACE", "sales": 2, "median_price": 315000.0, "median_price_per_sqm": 4256.756756756757, "median_rooms": 2.0, "first_sale": "2022-04-26", "last_sale": "2022-04-26"}}, {"type": "Feature", "geometry": {"type": "Point", "coordinates": [2.739434, 48.88912]}, "properties": {"id_parcelle": "77155000AB0630", "address": "10 RUE JULIETTE VADEL", "sales": 2, "median_price": 430000.0, "median_price_per_sqm": 5243.90243902439, "median_rooms": 4.0, "first_sale": "2023-06-07", "last_sale": "2023-06-07"}}, {"type": "Feature", "geometry": {"type": "Point", "coordinates": [2.736756, 48.889231]}, "properties": {"id_parcelle": "77155000AB0803", "address": "RUE DE BATAILLE", "sales": 2, "median_price": 425000.0, "median_price_per_sqm": null, "median_rooms": null, "first_sale": "2024-05-24", "last_sale": "2024-05-24"}}, {"type": "Feature", "geometry": {"type": "Point", "coordinates": [2.732604, 48.886755]}, "properties": {"id_parcelle": "77155000AB0848", "address": "2 RUE DENFERT ROCHEREAU", "sales": 2, "median_price": 240000.0, "median_price_per_sqm": 3428.5714285714284, "median_rooms": 1.5, "first_sale": "2022-03-16", "last_sale": "2022-03-16"}}, {"type": "Feature", "geometry": {"type": "Point", "coordinates": [2.730386, 48.890835]}, "properties": {"id_parcelle": "77155000AB0867", "address": "20 RUE DE CARNETIN", "sales": 2, "median_price": 500000.0, "median_price_per_sqm": 3571.4285714285716, "median_rooms": 4.0, "first_sale": "2022-08-02", "last_sale": "2022-08-02"}}, {"type": "Feature", "geometry": {"type": "Point", "coordinates": [2.735086, 48.888553]}, "properties": {"id_parcelle": "77155000AB0967", "address": "24 RUE ANTOINETTE LABOUR", "sales": 2, "median_price": 180000.0, "median_price_per_sqm": null, "median_rooms": null, "first_sale": "2024-03-29", "last_sale": "2024-03-29"}}, {"type": "Feature", "geometry": {"type": "Point", "coordinates": [2.73847, 48.887376]}, "properties": {"id_parcelle": "77155000AB1030", "address": "21 RUE EMILE BLANCHET", "sales": 2, "median_price": 579000.0, "median_price_per_sqm": 3618.75, "median_rooms": 5.0, "first_sale": "2024-12-13", "last_sale": "2024-12-13"}}, {"type": "Feature", "geometry": {"type": "Point", "coordinates": [2.732104, 48.887666]}, "properties": {"id_parcelle": "77155000AB0698", "address": "5 RUE DE BOURDIN", "sales": 2, "median_price": 390000.0, "median_price_per_sqm": 6610.169491525424, "median_rooms": 1.5, "first_sale": "2021-11-09", "last_sale": "2021-11-09"}}, {"type": "Feature", "geometry": {"type": "Point", "coordinates": [2.729991, 48.887714]}, "properties": {"id_parcelle": "77155000AB0166", "address": "26 RUE DE BOURDIN", "sales": 2, "median_price": 2400000.0, "median_price_per_sqm": 34285.71428571428, "median_rooms": 1.5, "first_sale": "2022-12-05", "last_sale": "2022-12-05"}}, {"type": "Feature", "geometry": {"type": "Point", "coordinates": [2.764627, 48.89124]}, "properties": {"id_parcelle": "771550000X0125", "address": "LES TARTREUX", "sales": 2, "median_price": 4664.0, "median_price_per_sqm": null, "median_rooms": null, "first_sale": "2024-06-25", "last_sale": "2024-12-17"}}, {"type": "Feature", "geometry": {"type": "Point", "coordinates": [2.730311, 48.888171]}, "properties": {"id_parcelle": "77155000AB0164", "address": "RUE DE BOURDIN", "sales": 2, "median_price": 2400000.0, "median_price_per_sqm": null, "median_rooms": null, "first_sale": "2022-12-05", "last_sale": "2022-12-05"}}, {"type": "Feature", "geometry": {"type": "Point", "coordinates": [2.738143, 48.887494]}, "properties": {"id_parcelle": "77155000AB0326", "address": "19 RUE EMILE BLANCHET", "sales": 2, "median_price": 198924.0, "median_price_per_sqm": 3978.48, "median_rooms": 1.5, "first_sale": "2023-05-17", "last_sale": "2023-05-17"}}, {"type": "Feature", "geometry": {"type": "Point", "coordinates": [2.735924, 48.88684]}, "properties": {"id_parcelle": "77155000AB0374", "address": "2 RUE GODARD DESMARETS", "sales": 2, "median_price": 190000.0, "median_price_per_sqm": 3958.3333333333335, "median_rooms": 1.5, "first_sale": "2021-08-30", "last_sale": "2021-08-30"}}, {"type": "Feature", "geometry": {"type": "Point", "coordinates": [2.736283, 48.8876]}, "properties": {"id_parcelle": "77155000AB0380", "address": "7 RUE GODARD DESMARETS", "sales": 2, "median_price": 465000.0, "median_price_per_sqm": 2906.25, "median_rooms": 6.0, "first_sale": "2021-07-30", "last_sale": "2021-07-30"}}, {"type": "Feature", "geometry": {"type": "Point", "coordinates": [2.735581, 48.888495]}, "properties": {"id_parcelle": "77155000AB0239", "address": "26 RUE ANTOINETTE LABOUR", "sales": 2, "median_price": 350000.0, "median_price_per_sqm": 2536.231884057971, "median_rooms": 2.0, "first_sale": "2024-05-15", "last_sale": "2024-05-15"}}, {"type": "Feature", "geometry": {"type": "Point", "coordinates": [2.736785, 48.88826]}, "properties": {"id_parcelle": "77155000AB0391", "address": "19 RUE GODARD DESMARETS", "sales": 2, "median_price": 335550.0, "median_price_per_sqm": 4793.571428571428, "median_rooms": 5.0, "first_sale": "2021-08-26", "last_sale": "2022-12-20"}}, {"type": "Feature", "geometry": {"type": "Point", "coordinates": [2.731814, 48.887649]}, "properties": {"id_parcelle": "77155000AB0468", "address": "9 RUE DE BOURDIN", "sales": 2, "median_price": 300000.0, "median_price_per_sqm": 2631.5789473684213, "median_rooms": 3.0, "first_sale": "2022-09-19", "last_sale": "2022-09-19"}}, {"type": "Feature", "geometry": {"type": "Point", "coordinates": [2.731638, 48.887731]}, "properties": {"id_parcelle": "77155000AB0470", "address": "LA RUELLE BOUILLANT", "sales": 2, "median_price": 207500.0, "median_price_per_sqm": null, "median_rooms": null, "first_sale": "2022-09-19", "last_sale": "2025-02-13"}}, {"type": "Feature", "geometry": {"type": "Point", "coordinates": [2.730306, 48.887589]}, "properties": {"id_parcelle": "77155000AB0486", "address": "RUE DE BOURDIN", "sales": 2, "median_price": 328615.0, "median_price_per_sqm": null, "median_rooms": null, "first_sale": "2021-05-04", "last_sale": "2022-12-05"}}, {"type": "Feature", "geometry": {"type": "Point", "coordinates": [2.730261, 48.885549]}, "properties": {"id_parcelle": "77155000AC0435", "address": "4 RUE D ALGER", "sales": 2, "median_price": 325000.0, "median_price_per_sqm": 6770.833333333333, "median_rooms": 2.5, "first_sale": "2021-06-09", "last_sale": "2021-06-09"}}, {"type": "Feature", "geometry": {"type": "Point", "coordinates": [2.730254, 48.885739]}, "properties": {"id_parcelle": "77155000AC0434", "address": "6 RUE D ALGER", "sales": 2, "median_price": 341875.0, "median_price_per_sqm": 4273.4375, "median_rooms": 2.0, "first_sale": "2022-11-25", "last_sale": "2022-11-25"}}, {"type": "Feature", "geometry": {"type": "Point", "coordinates": [2.731516, 48.884848]}, "properties": {"id_parcelle": "77155000AC0456", "address": "77 RUE DE LAGNY", "sales": 2, "median_price": 250000.0, "median_price_per_sqm": null, "median_rooms": null, "first_sale": "2024-07-15", "last_sale": "2024-07-15"}}, {"type": "Feature", "geometry": {"type": "Point", "coordinates": [2.734672, 48.884906]}, "properties": {"id_parcelle": "77155000AC0154", "address": "25 RUE DE LAGNY", "sales": 2, "median_price": 138000.0, "median_price_per_sqm": 3000.0, "median_rooms": 1.5, "first_sale": "2025-05-14", "last_sale": "2025-05-14"}}, {"type": "Feature", "geometry": {"type": "Point", "coordinates": [2.736073, 48.885626]}, "properties": {"id_parcelle": "77155000AD0418", "address": "5 RUE DU CHATEAU", "sales": 2, "median_price": 190000.0, "median_price_per_sqm": 2923.076923076923, "median_rooms": 2.0, "first_sale": "2025-05-13", "last_sale": "2025-05-13"}}, {"type": "Feature", "geometry": {"type": "Point", "coordinates": [2.743286, 48.885125]}, "properties": {"id_parcelle": "77155000AD0407", "address": "66 RUE DU CHATEAU", "sales": 2, "median_price": 343000.0, "median_price_per_sqm": 3500.0, "median_rooms": 5.0, "first_sale": "2021-06-23", "last_sale": "2021-06-23"}}, {"type": "Feature", "geometry": {"type": "Point", "coordinates": [2.736304, 48.884604]}, "properties": {"id_parcelle": "77155000AD0293", "address": "PL DU GAL LECLERC", "sales": 2, "median_price": 700000.0, "median_price_per_sqm": null, "median_rooms": null, "first_sale": "2023-01-25", "last_sale": "2023-01-25"}}, {"type": "Feature", "geometry": {"type": "Point", "coordinates": [2.738142, 48.885581]}, "properties": {"id_parcelle": "77155000AD0106", "address": "16 RUE DU CHATEAU", "sales": 2, "median_price": 375000.0, "median_price_per_sqm": 4076.086956521739, "median_rooms": 2.0, "first_sale": "2023-01-06", "last_sale": "2023-01-06"}}, {"type": "Feature", "geometry": {"type": "Point", "coordinates": [2.729738, 48.884492]}, "properties": {"id_parcelle": "77155000AC0567", "address": "87 RUE DE LAGNY", "sales": 2, "median_price": 250000.0, "median_price_per_sqm": 3125.0, "median_rooms": 2.5, "first_sale": "2023-08-21", "last_sale": "2023-08-21"}}, {"type": "Feature", "geometry": {"type": "Point", "coordinates": [2.735922, 48.886089]}, "properties": {"id_parcelle": "77155000AD0005", "address": "20 RUE DE LA REPUBLIQUE", "sales": 2, "median_price": 196000.0, "median_price_per_sqm": 2512.8205128205127, "median_rooms": 3.0, "first_sale": "2022-10-19", "last_sale": "2025-05-28"}}, {"type": "Feature", "geometry": {"type": "Point", "coordinates": [2.73751, 48.886614]}, "properties": {"id_parcelle": "77155000AD0017", "address": "RUE EMILE BLANCHET", "sales": 2, "median_price": 275672.5, "median_price_per_sqm": null, "median_rooms": null, "first_sale": "2021-10-12", "last_sale": "2025-12-19"}}, {"type": "Feature", "geometry": {"type": "Point", "coordinates": [2.737984, 48.885617]}, "properties": {"id_parcelle": "77155000AD0105", "address": "14 RUE DU CHATEAU", "sales": 2, "median_price": 229500.0, "median_price_per_sqm": 2732.1428571428573, "median_rooms": 2.0, "first_sale": "2022-04-20", "last_sale": "2022-04-20"}}, {"type": "Feature", "geometry": {"type": "Point", "coordinates": [2.7353, 48.884307]}, "properties": {"id_parcelle": "77155000AC0399", "address": "2 RUE DU CHEMIN DE FER", "sales": 2, "median_price": 159000.0, "median_price_per_sqm": 3613.6363636363635, "median_rooms": 1.0, "first_sale": "2022-07-01", "last_sale": "2022-07-01"}}, {"type": "Feature", "geometry": {"type": "Point", "coordinates": [2.732836, 48.885562]}, "properties": {"id_parcelle": "77155000AC0389", "address": "RUE DE LAGNY", "sales": 2, "median_price": 282250.0, "median_price_per_sqm": null, "median_rooms": null, "first_sale": "2022-07-19", "last_sale": "2024-03-15"}}, {"type": "Feature", "geometry": {"type": "Point", "coordinates": [2.731511, 48.885005]}, "properties": {"id_parcelle": "77155000AC0229", "address": "77 RUE DE LAGNY", "sales": 2, "median_price": 250000.0, "median_price_per_sqm": 2500.0, "median_rooms": 2.0, "first_sale": "2024-07-15", "last_sale": "2024-07-15"}}, {"type": "Feature", "geometry": {"type": "Point", "coordinates": [2.732705, 48.886522]}, "properties": {"id_parcelle": "77155000AC0275", "address": "3 RUE DENFERT ROCHEREAU", "sales": 2, "median_price": 340000.0, "median_price_per_sqm": 6678.571428571428, "median_rooms": 1.0, "first_sale": "2021-04-09", "last_sale": "2021-04-09"}}, {"type": "Feature", "geometry": {"type": "Point", "coordinates": [2.735479, 48.884991]}, "properties": {"id_parcelle": "77155000AC0160", "address": "5 RUE DE LAGNY", "sales": 2, "median_price": 132000.0, "median_price_per_sqm": 4400.0, "median_rooms": 0.5, "first_sale": "2022-04-25", "last_sale": "2022-04-25"}}, {"type": "Feature", "geometry": {"type": "Point", "coordinates": [2.746729, 48.889345]}, "properties": {"id_parcelle": "77155000AE0014", "address": "66 RUE JULIETTE VADEL", "sales": 2, "median_price": 512600.0, "median_price_per_sqm": 4618.018018018018, "median_rooms": 4.0, "first_sale": "2021-01-25", "last_sale": "2021-01-25"}}, {"type": "Feature", "geometry": {"type": "Point", "coordinates": [2.740893, 48.887462]}, "properties": {"id_parcelle": "77155000AE0459", "address": "2 RUE COLAS", "sales": 2, "median_price": 345000.0, "median_price_per_sqm": 4662.1621621621625, "median_rooms": 2.0, "first_sale": "2022-05-25", "last_sale": "2022-05-25"}}, {"type": "Feature", "geometry": {"type": "Point", "coordinates": [2.745412, 48.887064]}, "properties": {"id_parcelle": "77155000AE0454", "address": "32 RUE DES LAMBUIS", "sales": 2, "median_price": 473000.0, "median_price_per_sqm": 3974.7899159663866, "median_rooms": 4.0, "first_sale": "2021-10-08", "last_sale": "2021-10-08"}}, {"type": "Feature", "geometry": {"type": "Point", "coordinates": [2.742742, 48.88899]}, "properties": {"id_parcelle": "77155000AE0735", "address": "38 RUE JULIETTE VADEL", "sales": 2, "median_price": 499000.0, "median_price_per_sqm": 4892.156862745098, "median_rooms": 5.0, "first_sale": "2022-11-29", "last_sale": "2022-11-29"}}, {"type": "Feature", "geometry": {"type": "Point", "coordinates": [2.742485, 48.888926]}, "properties": {"id_parcelle": "77155000AE0720", "address": "36 RUE JULIETTE VADEL", "sales": 2, "median_price": 460000.0, "median_price_per_sqm": 3484.848484848485, "median_rooms": 6.0, "first_sale": "2021-05-12", "last_sale": "2021-05-12"}}, {"type": "Feature", "geometry": {"type": "Point", "coordinates": [2.741433, 48.888733]}, "properties": {"id_parcelle": "77155000AE0689", "address": "28 RUE JULIETTE VADEL", "sales": 2, "median_price": 670000.0, "median_price_per_sqm": 4751.77304964539, "median_rooms": 7.0, "first_sale": "2024-08-20", "last_sale": "2024-08-20"}}, {"type": "Feature", "geometry": {"type": "Point", "coordinates": [2.745744, 48.88668]}, "properties": {"id_parcelle": "77155000AE0687", "address": "81 RUE DU CHATEAU", "sales": 2, "median_price": 430040.0, "median_price_per_sqm": null, "median_rooms": null, "first_sale": "2021-06-24", "last_sale": "2021-06-24"}}, {"type": "Feature", "geometry": {"type": "Point", "coordinates": [2.744372, 48.887855]}, "properties": {"id_parcelle": "77155000AE0565", "address": "1 RUE DU LIMONET", "sales": 2, "median_price": 321000.0, "median_price_per_sqm": 3647.7272727272725, "median_rooms": 5.0, "first_sale": "2024-02-29", "last_sale": "2024-02-29"}}, {"type": "Feature", "geometry": {"type": "Point", "coordinates": [2.743736, 48.888881]}, "properties": {"id_parcelle": "77155000AE0615", "address": "48 RUE JULIETTE VADEL", "sales": 2, "median_price": 2800000.0, "median_price_per_sqm": 683.4268977300463, "median_rooms": 0.0, "first_sale": "2022-08-11", "last_sale": "2022-08-11"}}, {"type": "Feature", "geometry": {"type": "Point", "coordinates": [2.743077, 48.886722]}, "properties": {"id_parcelle": "77155000AE0480", "address": "12 RUE DES LAMBUIS", "sales": 2, "median_price": 400000.0, "median_price_per_sqm": 4651.162790697675, "median_rooms": 4.0, "first_sale": "2023-07-17", "last_sale": "2023-07-17"}}, {"type": "Feature", "geometry": {"type": "Point", "coordinates": [2.742024, 48.888239]}, "properties": {"id_parcelle": "77155000AE0466", "address": "11 RLE COLAS", "sales": 2, "median_price": 410000.0, "median_price_per_sqm": 5324.675324675325, "median_rooms": 3.0, "first_sale": "2022-05-25", "last_sale": "2022-05-25"}}, {"type": "Feature", "geometry": {"type": "Point", "coordinates": [2.739111, 48.890328]}, "properties": {"id_parcelle": "77155000AH0431", "address": "10 RUE CLEMENT BREVARD", "sales": 2, "median_price": 444000.0, "median_price_per_sqm": 3700.0, "median_rooms": 4.0, "first_sale": "2023-02-13", "last_sale": "2023-02-13"}}, {"type": "Feature", "geometry": {"type": "Point", "coordinates": [2.741079, 48.88988]}, "properties": {"id_parcelle": "77155000AH0104", "address": "25 RUE JULIETTE VADEL", "sales": 2, "median_price": 382000.0, "median_price_per_sqm": 6262.295081967213, "median_rooms": 4.0, "first_sale": "2021-01-11", "last_sale": "2021-01-11"}}, {"type": "Feature", "geometry": {"type": "Point", "coordinates": [2.741306, 48.889984]}, "properties": {"id_parcelle": "77155000AH0113", "address": "27 RUE JULIETTE VADEL", "sales": 2, "median_price": 444000.0, "median_price_per_sqm": 4228.571428571428, "median_rooms": 6.0, "first_sale": "2023-02-09", "last_sale": "2023-02-09"}}, {"type": "Feature", "geometry": {"type": "Point", "coordinates": [2.742534, 48.889736]}, "properties": {"id_parcelle": "77155000AH0139", "address": "39 RUE JULIETTE VADEL", "sales": 2, "median_price": 420000.0, "median_price_per_sqm": 3043.478260869565, "median_rooms": 1.5, "first_sale": "2021-08-03", "last_sale": "2021-08-03"}}, {"type": "Feature", "geometry": {"type": "Point", "coordinates": [2.739084, 48.89094]}, "properties": {"id_parcelle": "77155000AH0008", "address": "7 RUE CLEMENT BREVARD", "sales": 2, "median_price": 429000.0, "median_price_per_sqm": 5362.5, "median_rooms": 4.0, "first_sale": "2022-11-24", "last_sale": "2022-11-24"}}, {"type": "Feature", "geometry": {"type": "Point", "coordinates": [2.750297, 48.886805]}, "properties": {"id_parcelle": "77155000AI0603", "address": "117 RUE DU CHATEAU", "sales": 2, "median_price": 360000.0, "median_price_per_sqm": 3050.8474576271187, "median_rooms": 5.0, "first_sale": "2021-04-20", "last_sale": "2021-04-20"}}, {"type": "Feature", "geometry": {"type": "Point", "coordinates": [2.749016, 48.88707]}, "properties": {"id_parcelle": "77155000AI0748", "address": "4 ALL DU CLOS DES LAMBUIS", "sales": 2, "median_price": 438000.0, "median_price_per_sqm": 3220.5882352941176, "median_rooms": 5.0, "first_sale": "2024-08-30", "last_sale": "2024-08-30"}}, {"type": "Feature", "geometry": {"type": "Point", "coordinates": [2.748709, 48.884778]}, "properties": {"id_parcelle": "77155000AI0836", "address": "34 CHE DES TARTREUX", "sales": 2, "median_price": 148000.0, "median_price_per_sqm": 3700.0, "median_rooms": 3.0, "first_sale": "2022-03-29", "last_sale": "2022-03-29"}}]}