{"type": "FeatureCollection", "features": [{"type": "Feature", "geometry": {"type": "Point", "coordinates": [2.908141, 48.751989]}, "properties": {"year": 2021, "valeur_fonciere": 429000.0, "type_local": "Maison", "surface_reelle_bati": 179.0, "nombre_pieces_principales": 7.0, "adresse_nom_voie": "RUE DU GRAND CHENE", "price_per_sqm": 2396.6480446927376, "date_iso": "2021-04-16", "parcelle": "771440000B0632", "addr_num": "9"}}, {"type": "Feature", "geometry": {"type": "Point", "coordinates": [2.906859, 48.754239]}, "properties": {"year": 2021, "valeur_fonciere": 391300.0, "type_local": "Dépendance", "surface_reelle_bati": null, "nombre_pieces_principales": 0.0, "adresse_nom_voie": "RUE DES AMOURETTES", "price_per_sqm": null, "date_iso": "2021-06-21", "parcelle": "771440000B0229", "addr_num": "15"}}, {"type": "Feature", "geometry": {"type": "Point", "coordinates": [2.906859, 48.754239]}, "properties": {"year": 2021, "valeur_fonciere": 391300.0, "type_local": "Maison", "surface_reelle_bati": 145.0, "nombre_pieces_principales": 5.0, "adresse_nom_voie": "RUE DES AMOURETTES", "price_per_sqm": 2698.6206896551726, "date_iso": "2021-06-21", "parcelle": "771440000B0229", "addr_num": "15"}}, {"type": "Feature", "geometry": {"type": "Point", "coordinates": [2.906859, 48.754239]}, "properties": {"year": 2021, "valeur_fonciere": 391300.0, "type_local": "Dépendance", "surface_reelle_bati": null, "nombre_pieces_principales": 0.0, "adresse_nom_voie": "RUE DES AMOURETTES", "price_per_sqm": null, "date_iso": "2021-06-21", "parcelle": "771440000B0229", "addr_num": "15"}}, {"type": "Feature", "geometry": {"type": "Point", "coordinates": [2.906859, 48.754239]}, "properties": {"year": 2021, "valeur_fonciere": 391300.0, "type_local": "Dépendance", "surface_reelle_bati": null, "nombre_pieces_principales": 0.0, "adresse_nom_voie": "RUE DES AMOURETTES", "price_per_sqm": null, "date_iso": "2021-06-21", "parcelle": "771440000B0229", "addr_num": "15"}}, {"type": "Feature", "geometry": {"type": "Point", "coordinates": [2.906859, 48.754239]}, "properties": {"year": 2021, "valeur_fonciere": 391300.0, "type_local": "Maison", "surface_reelle_bati": 145.0, "nombre_pieces_principales": 5.0, "adresse_nom_voie": "RUE DES AMOURETTES", "price_per_sqm": 2698.6206896551726, "date_iso": "2021-06-21", "parcelle": "771440000B0229", "addr_num": "15"}}, {"type": "Feature", "geometry": {"type": "Point", "coordinates": [2.906859, 48.754239]}, "properties": {"year": 2021, "valeur_fonciere": 391300.0, "type_local": "Dépendance", "surface_reelle_bati": null, "nombre_pieces_principales": 0.0, "adresse_nom_voie": "RUE DES AMOURETTES", "price_per_sqm": null, "date_iso": "2021-06-21", "parcelle": "771440000B0229", "addr_num": "15"}}, {"type": "Feature", "geometry": {"type": "Point", "coordinates": [2.905707, 48.754448]}, "properties": {"year": 2021, "valeur_fonciere": 272000.0, "type_local": "Maison", "surface_reelle_bati": 103.0, "nombre_pieces_principales": 6.0, "adresse_nom_voie": "RUE DES AMOURETTES", "price_per_sqm": 2640.776699029126, "date_iso": "2021-11-10", "parcelle": "771440000B0367", "addr_num": "7"}}, {"type": "Feature", "geometry": {"type": "Point", "coordinates": [2.905707, 48.754448]}, "properties": {"year": 2021, "valeur_fonciere": 272000.0, "type_local": "Dépendance", "surface_reelle_bati": null, "nombre_pieces_principales": 0.0, "adresse_nom_voie": "RUE DES AMOURETTES", "price_per_sqm": null, "date_iso": "2021-11-10", "parcelle": "771440000B0367", "addr_num": "7"}}, {"type": "Feature", "geometry": {"type": "Point", "coordinates": [2.90724, 48.756059]}, "properties": {"year": 2021, "valeur_fonciere": 20476.0, "type_local": null, "surface_reelle_bati": null, "nombre_pieces_principales": null, "adresse_nom_voie": "CREVECOEUR", "price_per_sqm": null, "date_iso": "2021-12-02", "parcelle": "771440000B0653", "addr_num": ""}}, {"type": "Feature", "geometry": {"type": "Point", "coordinates": [2.906866, 48.756473]}, "properties": {"year": 2021, "valeur_fonciere": 20476.0, "type_local": null, "surface_reelle_bati": null, "nombre_pieces_principales": null, "adresse_nom_voie": "CREVECOEUR", "price_per_sqm": null, "date_iso": "2021-12-02", "parcelle": "771440000B0654", "addr_num": ""}}, {"type": "Feature", "geometry": {"type": "Point", "coordinates": [2.907497, 48.753289]}, "properties": {"year": 2021, "valeur_fonciere": 330300.0, "type_local": "Maison", "surface_reelle_bati": 131.0, "nombre_pieces_principales": 6.0, "adresse_nom_voie": "RUE DE BALOQUIN", "price_per_sqm": 2521.374045801527, "date_iso": "2021-12-13", "parcelle": "771440000B0438", "addr_num": "1"}}, {"type": "Feature", "geometry": {"type": "Point", "coordinates": [2.907279, 48.755644]}, "properties": {"year": 2021, "valeur_fonciere": 4779.0, "type_local": null, "surface_reelle_bati": null, "nombre_pieces_principales": null, "adresse_nom_voie": "CREVECOEUR", "price_per_sqm": null, "date_iso": "2021-12-02", "parcelle": "771440000B0650", "addr_num": ""}}, {"type": "Feature", "geometry": {"type": "Point", "coordinates": [2.906305, 48.75519]}, "properties": {"year": 2022, "valeur_fonciere": 322000.0, "type_local": "Maison", "surface_reelle_bati": 92.0, "nombre_pieces_principales": 4.0, "adresse_nom_voie": "LA BRECHE BEAULIEU", "price_per_sqm": 3500.0, "date_iso": "2022-05-03", "parcelle": "771440000B0500", "addr_num": "8"}}, {"type": "Feature", "geometry": {"type": "Point", "coordinates": [2.899919, 48.755488]}, "properties": {"year": 2022, "valeur_fonciere": 135404.0, "type_local": "Maison", "surface_reelle_bati": 88.0, "nombre_pieces_principales": 4.0, "adresse_nom_voie": "RLE DES CHATAIGNIERS", "price_per_sqm": 1538.6818181818182, "date_iso": "2022-05-24", "parcelle": "771440000B0607", "addr_num": "1"}}, {"type": "Feature", "geometry": {"type": "Point", "coordinates": [2.899919, 48.755488]}, "properties": {"year": 2022, "valeur_fonciere": 135404.0, "type_local": "Maison", "surface_reelle_bati": 88.0, "nombre_pieces_principales": 4.0, "adresse_nom_voie": "RLE DES CHATAIGNIERS", "price_per_sqm": 1538.6818181818182, "date_iso": "2022-05-24", "parcelle": "771440000B0607", "addr_num": "1"}}, {"type": "Feature", "geometry": {"type": "Point", "coordinates": [2.897774, 48.7501]}, "properties": {"year": 2022, "valeur_fonciere": 70000.0, "type_local": null, "surface_reelle_bati": null, "nombre_pieces_principales": null, "adresse_nom_voie": "BEAUREGARD", "price_per_sqm": null, "date_iso": "2022-05-30", "parcelle": "771440000B0647", "addr_num": ""}}, {"type": "Feature", "geometry": {"type": "Point", "coordinates": [2.898001, 48.749997]}, "properties": {"year": 2022, "valeur_fonciere": 70000.0, "type_local": null, "surface_reelle_bati": null, "nombre_pieces_principales": null, "adresse_nom_voie": "BEAUREGARD", "price_per_sqm": null, "date_iso": "2022-05-30", "parcelle": "771440000B0648", "addr_num": ""}}, {"type": "Feature", "geometry": {"type": "Point", "coordinates": [2.897616, 48.749802]}, "properties": {"year": 2022, "valeur_fonciere": 550000.0, "type_local": "Maison", "surface_reelle_bati": 323.0, "nombre_pieces_principales": 6.0, "adresse_nom_voie": "RUE DE BEAUREGARD", "price_per_sqm": 1702.7863777089783, "date_iso": "2022-05-30", "parcelle": "771440000B0480", "addr_num": "23"}}, {"type": "Feature", "geometry": {"type": "Point", "coordinates": [2.90452, 48.753274]}, "properties": {"year": 2022, "valeur_fonciere": 266000.0, "type_local": "Maison", "surface_reelle_bati": 84.0, "nombre_pieces_principales": 5.0, "adresse_nom_voie": "RUE DE LA GAILLARDIERE", "price_per_sqm": 3166.6666666666665, "date_iso": "2022-06-30", "parcelle": "771440000B0347", "addr_num": "15"}}, {"type": "Feature", "geometry": {"type": "Point", "coordinates": [2.90452, 48.753274]}, "properties": {"year": 2022, "valeur_fonciere": 266000.0, "type_local": "Maison", "surface_reelle_bati": 84.0, "nombre_pieces_principales": 5.0, "adresse_nom_voie": "RUE DE LA GAILLARDIERE", "price_per_sqm": 3166.6666666666665, "date_iso": "2022-06-30", "parcelle": "771440000B0347", "addr_num": "15"}}, {"type": "Feature", "geometry": {"type": "Point", "coordinates": [2.902953, 48.753457]}, "properties": {"year": 2022, "valeur_fonciere": 270000.0, "type_local": "Maison", "surface_reelle_bati": 84.0, "nombre_pieces_principales": 6.0, "adresse_nom_voie": "RUE DE LA GAILLARDIERE", "price_per_sqm": 3214.285714285714, "date_iso": "2022-07-22", "parcelle": "771440000B0341", "addr_num": "27"}}, {"type": "Feature", "geometry": {"type": "Point", "coordinates": [2.902953, 48.753457]}, "properties": {"year": 2022, "valeur_fonciere": 270000.0, "type_local": "Maison", "surface_reelle_bati": 84.0, "nombre_pieces_principales": 6.0, "adresse_nom_voie": "RUE DE LA GAILLARDIERE", "price_per_sqm": 3214.285714285714, "date_iso": "2022-07-22", "parcelle": "771440000B0341", "addr_num": "27"}}, {"type": "Feature", "geometry": {"type": "Point", "coordinates": [2.89942, 48.755061]}, "properties": {"year": 2022, "valeur_fonciere": 347800.0, "type_local": "Maison", "surface_reelle_bati": 113.0, "nombre_pieces_principales": 6.0, "adresse_nom_voie": "RUE DE GROSBOIS", "price_per_sqm": 3077.8761061946902, "date_iso": "2022-07-29", "parcelle": "771440000B0569", "addr_num": "14"}}, {"type": "Feature", "geometry": {"type": "Point", "coordinates": [2.897521, 48.750386]}, "properties": {"year": 2022, "valeur_fonciere": 50000.0, "type_local": null, "surface_reelle_bati": null, "nombre_pieces_principales": null, "adresse_nom_voie": "BEAUREGARD", "price_per_sqm": null, "date_iso": "2022-08-12", "parcelle": "771440000B0646", "addr_num": ""}}, {"type": "Feature", "geometry": {"type": "Point", "coordinates": [2.899634, 48.755654]}, "properties": {"year": 2022, "valeur_fonciere": 403000.0, "type_local": "Maison", "surface_reelle_bati": 137.0, "nombre_pieces_principales": 5.0, "adresse_nom_voie": "RUE DES CHARMILLES", "price_per_sqm": 2941.605839416058, "date_iso": "2022-11-23", "parcelle": "771440000B0606", "addr_num": "2"}}, {"type": "Feature", "geometry": {"type": "Point", "coordinates": [2.899634, 48.755654]}, "properties": {"year": 2022, "valeur_fonciere": 403000.0, "type_local": "Maison", "surface_reelle_bati": 137.0, "nombre_pieces_principales": 5.0, "adresse_nom_voie": "RUE DES CHARMILLES", "price_per_sqm": 2941.605839416058, "date_iso": "2022-11-23", "parcelle": "771440000B0606", "addr_num": "2"}}, {"type": "Feature", "geometry": {"type": "Point", "coordinates": [2.905727, 48.754877]}, "properties": {"year": 2023, "valeur_fonciere": 347000.0, "type_local": "Maison", "surface_reelle_bati": 104.0, "nombre_pieces_principales": 5.0, "adresse_nom_voie": "RUE DE LA BRECHE BEAULIEU", "price_per_sqm": 3336.5384615384614, "date_iso": "2023-01-04", "parcelle": "771440000B0489", "addr_num": "1"}}, {"type": "Feature", "geometry": {"type": "Point", "coordinates": [2.905727, 48.754877]}, "properties": {"year": 2023, "valeur_fonciere": 347000.0, "type_local": "Dépendance", "surface_reelle_bati": null, "nombre_pieces_principales": 0.0, "adresse_nom_voie": "RUE DE LA BRECHE BEAULIEU", "price_per_sqm": null, "date_iso": "2023-01-04", "parcelle": "771440000B0489", "addr_num": "1"}}, {"type": "Feature", "geometry": {"type": "Point", "coordinates": [2.900522, 48.75408]}, "properties": {"year": 2023, "valeur_fonciere": 339000.0, "type_local": "Maison", "surface_reelle_bati": 84.0, "nombre_pieces_principales": 5.0, "adresse_nom_voie": "RUE DE GROSBOIS", "price_per_sqm": 4035.714285714286, "date_iso": "2023-05-11", "parcelle": "771440000B0317", "addr_num": "1"}}, {"type": "Feature", "geometry": {"type": "Point", "coordinates": [2.900522, 48.75408]}, "properties": {"year": 2023, "valeur_fonciere": 339000.0, "type_local": "Maison", "surface_reelle_bati": 84.0, "nombre_pieces_principales": 5.0, "adresse_nom_voie": "RUE DE GROSBOIS", "price_per_sqm": 4035.714285714286, "date_iso": "2023-05-11", "parcelle": "771440000B0317", "addr_num": "1"}}, {"type": "Feature", "geometry": {"type": "Point", "coordinates": [2.900015, 48.75522]}, "properties": {"year": 2023, "valeur_fonciere": 399000.0, "type_local": "Maison", "surface_reelle_bati": 132.0, "nombre_pieces_principales": 5.0, "adresse_nom_voie": "RLE DES CHATAIGNIERS", "price_per_sqm": 3022.7272727272725, "date_iso": "2023-08-11", "parcelle": "771440000B0612", "addr_num": "6"}}, {"type": "Feature", "geometry": {"type": "Point", "coordinates": [2.900015, 48.75522]}, "properties": {"year": 2023, "valeur_fonciere": 399000.0, "type_local": "Maison", "surface_reelle_bati": 132.0, "nombre_pieces_principales": 5.0, "adresse_nom_voie": "RLE DES CHATAIGNIERS", "price_per_sqm": 3022.7272727272725, "date_iso": "2023-08-11", "parcelle": "771440000B0612", "addr_num": "6"}}, {"type": "Feature", "geometry": {"type": "Point", "coordinates": [2.907213, 48.755534]}, "properties": {"year": 2023, "valeur_fonciere": 3955.5, "type_local": null, "surface_reelle_bati": null, "nombre_pieces_principales": null, "adresse_nom_voie": "CREVECOEUR", "price_per_sqm": null, "date_iso": "2023-11-22", "parcelle": "771440000B0649", "addr_num": ""}}, {"type": "Feature", "geometry": {"type": "Point", "coordinates": [2.896599, 48.748893]}, "properties": {"year": 2023, "valeur_fonciere": 400000.0, "type_local": "Maison", "surface_reelle_bati": 105.0, "nombre_pieces_principales": 7.0, "adresse_nom_voie": "RUE DE BEAUREGARD", "price_per_sqm": 3809.5238095238096, "date_iso": "2023-12-12", "parcelle": "771440000B0251", "addr_num": "36"}}, {"type": "Feature", "geometry": {"type": "Point", "coordinates": [2.896599, 48.748893]}, "properties": {"year": 2023, "valeur_fonciere": 400000.0, "type_local": "Local industriel. commercial ou assimilé", "surface_reelle_bati": 463.0, "nombre_pieces_principales": 0.0, "adresse_nom_voie": "RUE DE BEAUREGARD", "price_per_sqm": 863.9308855291576, "date_iso": "2023-12-12", "parcelle": "771440000B0251", "addr_num": "36"}}, {"type": "Feature", "geometry": {"type": "Point", "coordinates": [2.896599, 48.748893]}, "properties": {"year": 2023, "valeur_fonciere": 400000.0, "type_local": "Maison", "surface_reelle_bati": 105.0, "nombre_pieces_principales": 7.0, "adresse_nom_voie": "RUE DE BEAUREGARD", "price_per_sqm": 3809.5238095238096, "date_iso": "2023-12-12", "parcelle": "771440000B0251", "addr_num": "36"}}, {"type": "Feature", "geometry": {"type": "Point", "coordinates": [2.896599, 48.748893]}, "properties": {"year": 2023, "valeur_fonciere": 400000.0, "type_local": "Local industriel. commercial ou assimilé", "surface_reelle_bati": 463.0, "nombre_pieces_principales": 0.0, "adresse_nom_voie": "RUE DE BEAUREGARD", "price_per_sqm": 863.9308855291576, "date_iso": "2023-12-12", "parcelle": "771440000B0251", "addr_num": "36"}}, {"type": "Feature", "geometry": {"type": "Point", "coordinates": [2.896312, 48.748753]}, "properties": {"year": 2023, "valeur_fonciere": 400000.0, "type_local": null, "surface_reelle_bati": null, "nombre_pieces_principales": null, "adresse_nom_voie": "PLAINE DE BEAUREGARD", "price_per_sqm": null, "date_iso": "2023-12-12", "parcelle": "771440000B0280", "addr_num": ""}}, {"type": "Feature", "geometry": {"type": "Point", "coordinates": [2.896312, 48.748753]}, "properties": {"year": 2023, "valeur_fonciere": 400000.0, "type_local": null, "surface_reelle_bati": null, "nombre_pieces_principales": null, "adresse_nom_voie": "PLAINE DE BEAUREGARD", "price_per_sqm": null, "date_iso": "2023-12-12", "parcelle": "771440000B0280", "addr_num": ""}}, {"type": "Feature", "geometry": {"type": "Point", "coordinates": [2.895723, 48.749638]}, "properties": {"year": 2023, "valeur_fonciere": 400000.0, "type_local": null, "surface_reelle_bati": null, "nombre_pieces_principales": null, "adresse_nom_voie": "PLAINE DE BEAUREGARD", "price_per_sqm": null, "date_iso": "2023-12-12", "parcelle": "771440000B0512", "addr_num": ""}}, {"type": "Feature", "geometry": {"type": "Point", "coordinates": [2.895874, 48.748951]}, "properties": {"year": 2023, "valeur_fonciere": 400000.0, "type_local": null, "surface_reelle_bati": null, "nombre_pieces_principales": null, "adresse_nom_voie": "PIECE DE L ETANG", "price_per_sqm": null, "date_iso": "2023-12-12", "parcelle": "771440000B0514", "addr_num": ""}}, {"type": "Feature", "geometry": {"type": "Point", "coordinates": [2.914807, 48.748056]}, "properties": {"year": 2024, "valeur_fonciere": 410000.0, "type_local": "Maison", "surface_reelle_bati": 325.0, "nombre_pieces_principales": 16.0, "adresse_nom_voie": "CHAMP DE BALOQUIN", "price_per_sqm": 1261.5384615384614, "date_iso": "2024-03-08", "parcelle": "771440000B0302", "addr_num": "5003"}}, {"type": "Feature", "geometry": {"type": "Point", "coordinates": [2.915229, 48.748041]}, "properties": {"year": 2024, "valeur_fonciere": 410000.0, "type_local": null, "surface_reelle_bati": null, "nombre_pieces_principales": null, "adresse_nom_voie": "CHAMP DE BALOQUIN", "price_per_sqm": null, "date_iso": "2024-03-08", "parcelle": "771440000B0303", "addr_num": ""}}, {"type": "Feature", "geometry": {"type": "Point", "coordinates": [2.914773, 48.747254]}, "properties": {"year": 2024, "valeur_fonciere": 410000.0, "type_local": null, "surface_reelle_bati": null, "nombre_pieces_principales": null, "adresse_nom_voie": "CHAMP DE BALOQUIN", "price_per_sqm": null, "date_iso": "2024-03-08", "parcelle": "771440000B0304", "addr_num": ""}}, {"type": "Feature", "geometry": {"type": "Point", "coordinates": [2.90119, 48.754328]}, "properties": {"year": 2024, "valeur_fonciere": 333100.0, "type_local": "Maison", "surface_reelle_bati": 109.0, "nombre_pieces_principales": 4.0, "adresse_nom_voie": "GROS BOIS", "price_per_sqm": 3055.9633027522937, "date_iso": "2024-07-08", "parcelle": "771440000B0587", "addr_num": "2"}}, {"type": "Feature", "geometry": {"type": "Point", "coordinates": [2.90119, 48.754328]}, "properties": {"year": 2024, "valeur_fonciere": 333100.0, "type_local": "Maison", "surface_reelle_bati": 109.0, "nombre_pieces_principales": 4.0, "adresse_nom_voie": "GROS BOIS", "price_per_sqm": 3055.9633027522937, "date_iso": "2024-07-08", "parcelle": "771440000B0587", "addr_num": "2"}}, {"type": "Feature", "geometry": {"type": "Point", "coordinates": [2.900509, 48.754539]}, "properties": {"year": 2025, "valeur_fonciere": 275000.0, "type_local": "Dépendance", "surface_reelle_bati": null, "nombre_pieces_principales": 0.0, "adresse_nom_voie": "RUE DE GROSBOIS", "price_per_sqm": null, "date_iso": "2025-02-24", "parcelle": "771440000B0399", "addr_num": "8"}}, {"type": "Feature", "geometry": {"type": "Point", "coordinates": [2.900509, 48.754539]}, "properties": {"year": 2025, "valeur_fonciere": 275000.0, "type_local": "Maison", "surface_reelle_bati": 103.0, "nombre_pieces_principales": 5.0, "adresse_nom_voie": "RUE DE GROSBOIS", "price_per_sqm": 2669.902912621359, "date_iso": "2025-02-24", "parcelle": "771440000B0399", "addr_num": "8"}}, {"type": "Feature", "geometry": {"type": "Point", "coordinates": [2.900509, 48.754539]}, "properties": {"year": 2025, "valeur_fonciere": 275000.0, "type_local": "Maison", "surface_reelle_bati": 103.0, "nombre_pieces_principales": 5.0, "adresse_nom_voie": "RUE DE GROSBOIS", "price_per_sqm": 2669.902912621359, "date_iso": "2025-02-24", "parcelle": "771440000B0399", "addr_num": "8"}}, {"type": "Feature", "geometry": {"type": "Point", "coordinates": [2.900509, 48.754539]}, "properties": {"year": 2025, "valeur_fonciere": 275000.0, "type_local": "Dépendance", "surface_reelle_bati": null, "nombre_pieces_principales": 0.0, "adresse_nom_voie": "RUE DE GROSBOIS", "price_per_sqm": null, "date_iso": "2025-02-24", "parcelle": "771440000B0399", "addr_num": "8"}}, {"type": "Feature", "geometry": {"type": "Point", "coordinates": [2.890132, 48.751271]}, "properties": {"year": 2025, "valeur_fonciere": 300000.0, "type_local": "Maison", "surface_reelle_bati": 60.0, "nombre_pieces_principales": 3.0, "adresse_nom_voie": "BOIS DE L EPINE", "price_per_sqm": 5000.0, "date_iso": "2025-04-26", "parcelle": "771440000B0471", "addr_num": "5900"}}, {"type": "Feature", "geometry": {"type": "Point", "coordinates": [2.890132, 48.751271]}, "properties": {"year": 2025, "valeur_fonciere": 300000.0, "type_local": "Maison", "surface_reelle_bati": 60.0, "nombre_pieces_principales": 3.0, "adresse_nom_voie": "BOIS DE L EPINE", "price_per_sqm": 5000.0, "date_iso": "2025-04-26", "parcelle": "771440000B0471", "addr_num": "5900"}}, {"type": "Feature", "geometry": {"type": "Point", "coordinates": [2.890132, 48.751271]}, "properties": {"year": 2025, "valeur_fonciere": 300000.0, "type_local": "Maison", "surface_reelle_bati": 60.0, "nombre_pieces_principales": 3.0, "adresse_nom_voie": "BOIS DE L EPINE", "price_per_sqm": 5000.0, "date_iso": "2025-04-26", "parcelle": "771440000B0471", "addr_num": "5900"}}, {"type": "Feature", "geometry": {"type": "Point", "coordinates": [2.892396, 48.751279]}, "properties": {"year": 2025, "valeur_fonciere": 300000.0, "type_local": null, "surface_reelle_bati": null, "nombre_pieces_principales": null, "adresse_nom_voie": "PLAINE DE BEAUREGARD", "price_per_sqm": null, "date_iso": "2025-04-26", "parcelle": "771440000B0472", "addr_num": ""}}, {"type": "Feature", "geometry": {"type": "Point", "coordinates": [2.905942, 48.753658]}, "properties": {"year": 2025, "valeur_fonciere": 239000.0, "type_local": null, "surface_reelle_bati": null, "nombre_pieces_principales": null, "adresse_nom_voie": "CREVECOEUR", "price_per_sqm": null, "date_iso": "2025-05-21", "parcelle": "771440000B0264", "addr_num": ""}}, {"type": "Feature", "geometry": {"type": "Point", "coordinates": [2.905975, 48.753802]}, "properties": {"year": 2025, "valeur_fonciere": 239000.0, "type_local": "Maison", "surface_reelle_bati": 64.0, "nombre_pieces_principales": 3.0, "adresse_nom_voie": "RUE DE LA GAILLARDIERE", "price_per_sqm": 3734.375, "date_iso": "2025-05-21", "parcelle": "771440000B0363", "addr_num": "6"}}, {"type": "Feature", "geometry": {"type": "Point", "coordinates": [2.905975, 48.753802]}, "properties": {"year": 2025, "valeur_fonciere": 239000.0, "type_local": "Dépendance", "surface_reelle_bati": null, "nombre_pieces_principales": 0.0, "adresse_nom_voie": "RUE DE LA GAILLARDIERE", "price_per_sqm": null, "date_iso": "2025-05-21", "parcelle": "771440000B0363", "addr_num": "6"}}, {"type": "Feature", "geometry": {"type": "Point", "coordinates": [2.906859, 48.754239]}, "properties": {"year": 2025, "valeur_fonciere": 423000.0, "type_local": "Dépendance", "surface_reelle_bati": null, "nombre_pieces_principales": 0.0, "adresse_nom_voie": "RUE DES AMOURETTES", "price_per_sqm": null, "date_iso": "2025-06-10", "parcelle": "771440000B0229", "addr_num": "15"}}, {"type": "Feature", "geometry": {"type": "Point", "coordinates": [2.906859, 48.754239]}, "properties": {"year": 2025, "valeur_fonciere": 423000.0, "type_local": "Dépendance", "surface_reelle_bati": null, "nombre_pieces_principales": 0.0, "adresse_nom_voie": "RUE DES AMOURETTES", "price_per_sqm": null, "date_iso": "2025-06-10", "parcelle": "771440000B0229", "addr_num": "15"}}, {"type": "Feature", "geometry": {"type": "Point", "coordinates": [2.906859, 48.754239]}, "properties": {"year": 2025, "valeur_fonciere": 423000.0, "type_local": "Dépendance", "surface_reelle_bati": null, "nombre_pieces_principales": 0.0, "adresse_nom_voie": "RUE DES AMOURETTES", "price_per_sqm": null, "date_iso": "2025-06-10", "parcelle": "771440000B0229", "addr_num": "15"}}, {"type": "Feature", "geometry": {"type": "Point", "coordinates": [2.906859, 48.754239]}, "properties": {"year": 2025, "valeur_fonciere": 423000.0, "type_local": "Maison", "surface_reelle_bati": 145.0, "nombre_pieces_principales": 5.0, "adresse_nom_voie": "RUE DES AMOURETTES", "price_per_sqm": 2917.2413793103447, "date_iso": "2025-06-10", "parcelle": "771440000B0229", "addr_num": "15"}}, {"type": "Feature", "geometry": {"type": "Point", "coordinates": [2.906859, 48.754239]}, "properties": {"year": 2025, "valeur_fonciere": 423000.0, "type_local": "Dépendance", "surface_reelle_bati": null, "nombre_pieces_principales": 0.0, "adresse_nom_voie": "RUE DES AMOURETTES", "price_per_sqm": null, "date_iso": "2025-06-10", "parcelle": "771440000B0229", "addr_num": "15"}}, {"type": "Feature", "geometry": {"type": "Point", "coordinates": [2.906859, 48.754239]}, "properties": {"year": 2025, "valeur_fonciere": 423000.0, "type_local": "Maison", "surface_reelle_bati": 145.0, "nombre_pieces_principales": 5.0, "adresse_nom_voie": "RUE DES AMOURETTES", "price_per_sqm": 2917.2413793103447, "date_iso": "2025-06-10", "parcelle": "771440000B0229", "addr_num": "15"}}, {"type": "Feature", "geometry": {"type": "Point", "coordinates": [2.906644, 48.7558]}, "properties": {"year": 2025, "valeur_fonciere": 320000.0, "type_local": "Maison", "surface_reelle_bati": 97.0, "nombre_pieces_principales": 3.0, "adresse_nom_voie": "RUE DE LA BRECHE BEAULIEU", "price_per_sqm": 3298.9690721649486, "date_iso": "2025-09-09", "parcelle": "771440000B0637", "addr_num": "23"}}, {"type": "Feature", "geometry": {"type": "Point", "coordinates": [2.90695, 48.755773]}, "properties": {"year": 2025, "valeur_fonciere": 320000.0, "type_local": null, "surface_reelle_bati": null, "nombre_pieces_principales": null, "adresse_nom_voie": "CREVECOEUR", "price_per_sqm": null, "date_iso": "2025-09-09", "parcelle": "771440000B0638", "addr_num": ""}}, {"type": "Feature", "geometry": {"type": "Point", "coordinates": [2.906625, 48.755679]}, "properties": {"year": 2025, "valeur_fonciere": 305000.0, "type_local": "Maison", "surface_reelle_bati": 96.0, "nombre_pieces_principales": 4.0, "adresse_nom_voie": "RUE DE LA BRECHE BEAULIEU", "price_per_sqm": 3177.0833333333335, "date_iso": "2025-12-09", "parcelle": "771440000B0639", "addr_num": "25"}}, {"type": "Feature", "geometry": {"type": "Point", "coordinates": [2.906625, 48.755679]}, "properties": {"year": 2025, "valeur_fonciere": 305000.0, "type_local": "Dépendance", "surface_reelle_bati": null, "nombre_pieces_principales": 0.0, "adresse_nom_voie": "RUE DE LA BRECHE BEAULIEU", "price_per_sqm": null, "date_iso": "2025-12-09", "parcelle": "771440000B0639", "addr_num": "25"}}, {"type": "Feature", "geometry": {"type": "Point", "coordinates": [2.906957, 48.755647]}, "properties": {"year": 2025, "valeur_fonciere": 305000.0, "type_local": null, "surface_reelle_bati": null, "nombre_pieces_principales": null, "adresse_nom_voie": "CREVECOEUR", "price_per_sqm": null, "date_iso": "2025-12-09", "parcelle": "771440000B0640", "addr_num": ""}}, {"type": "Feature", "geometry": {"type": "Point", "coordinates": [2.907279, 48.755644]}, "properties": {"year": 2025, "valeur_fonciere": 305000.0, "type_local": null, "surface_reelle_bati": null, "nombre_pieces_principales": null, "adresse_nom_voie": "CREVECOEUR", "price_per_sqm": null, "date_iso": "2025-12-09", "parcelle": "771440000B0650", "addr_num": ""}}]}