{"type": "FeatureCollection", "features": [{"type": "Feature", "geometry": {"type": "Polygon", "coordinates": [[[3.27883, 48.766075], [3.27739, 48.765522], [3.274358, 48.764318], [3.273777, 48.76419], [3.273402, 48.764155], [3.272877, 48.76416], [3.270494, 48.764266], [3.263647, 48.764562], [3.261988, 48.764641], [3.261147, 48.764669], [3.259719, 48.764733], [3.258984, 48.764748], [3.258596, 48.764712], [3.258135, 48.764624], [3.257669, 48.764497], [3.25768, 48.76482], [3.25756, 48.764988], [3.257312, 48.7652], [3.257069, 48.765349], [3.256698, 48.765497], [3.256043, 48.765719], [3.255801, 48.765937], [3.25548, 48.766019], [3.254677, 48.766278], [3.253998, 48.766479], [3.2534, 48.766641], [3.253009, 48.76673], [3.252374, 48.766833], [3.251992, 48.766869], [3.25094, 48.767006], [3.250324, 48.767119], [3.249511, 48.767312], [3.24915, 48.767452], [3.248918, 48.767644], [3.248827, 48.767762], [3.248645, 48.768105], [3.248206, 48.768647], [3.247805, 48.769289], [3.24768, 48.769465], [3.247452, 48.769692], [3.247286, 48.769806], [3.246839, 48.77001], [3.24645, 48.770134], [3.246933, 48.77088], [3.247053, 48.771173], [3.246993, 48.771729], [3.246925, 48.772057], [3.246817, 48.77227], [3.246166, 48.773209], [3.246031, 48.773514], [3.245814, 48.774259], [3.24524, 48.77573], [3.245, 48.776369], [3.244822, 48.776757], [3.244477, 48.777187], [3.244274, 48.777491], [3.243971, 48.777768], [3.243535, 48.778259], [3.243425, 48.778407], [3.243369, 48.778565], [3.243391, 48.778943], [3.243535, 48.77923], [3.243646, 48.779319], [3.243891, 48.78264], [3.244219, 48.787186], [3.243331, 48.787317], [3.243213, 48.787846], [3.243181, 48.788107], [3.243883, 48.788102], [3.244351, 48.788077], [3.24525, 48.78791], [3.245894, 48.787748], [3.246454, 48.787574], [3.246445, 48.787651], [3.246728, 48.78797], [3.246969, 48.787833], [3.247198, 48.787921], [3.247662, 48.788153], [3.248091, 48.788499], [3.24793, 48.788565], [3.2483, 48.789119], [3.248449, 48.78907], [3.248564, 48.789214], [3.248728, 48.789168], [3.248834, 48.78935], [3.249134, 48.789585], [3.249193, 48.789701], [3.249192, 48.789913], [3.249412, 48.790097], [3.249512, 48.790254], [3.249967, 48.790565], [3.25019, 48.790662], [3.25029, 48.790753], [3.250616, 48.790906], [3.25115, 48.791289], [3.251514, 48.791403], [3.251666, 48.791591], [3.251973, 48.791763], [3.252161, 48.791756], [3.252422, 48.791874], [3.252773, 48.791913], [3.252807, 48.792167], [3.252646, 48.792311], [3.252295, 48.792459], [3.251649, 48.792894], [3.251544, 48.793057], [3.251577, 48.793452], [3.251374, 48.794209], [3.25124, 48.79439], [3.250866, 48.794716], [3.250829, 48.794873], [3.252037, 48.795015], [3.252129, 48.795059], [3.252966, 48.795671], [3.25365, 48.796278], [3.25416, 48.796662], [3.253553, 48.79701], [3.253372, 48.797145], [3.253091, 48.797441], [3.253259, 48.797559], [3.253159, 48.797715], [3.253598, 48.798837], [3.253997, 48.79954], [3.254323, 48.800776], [3.254486, 48.801188], [3.254756, 48.801689], [3.254588, 48.801691], [3.255633, 48.803086], [3.255646, 48.803131], [3.255275, 48.803315], [3.255836, 48.804271], [3.255714, 48.804325], [3.256411, 48.805457], [3.255567, 48.80572], [3.255851, 48.80605], [3.255955, 48.806024], [3.256369, 48.806478], [3.256844, 48.806958], [3.257304, 48.807442], [3.257544, 48.807562], [3.258017, 48.807943], [3.258896, 48.8087], [3.259225, 48.808952], [3.259407, 48.809032], [3.259504, 48.808918], [3.260031, 48.809682], [3.26022, 48.810094], [3.260724, 48.810986], [3.260792, 48.81129], [3.261063, 48.812257], [3.261118, 48.812657], [3.261035, 48.813272], [3.261009, 48.813592], [3.261037, 48.813785], [3.261136, 48.813945], [3.261641, 48.814428], [3.261792, 48.814647], [3.261855, 48.814881], [3.261856, 48.815072], [3.261814, 48.815779], [3.261789, 48.816462], [3.261836, 48.816861], [3.261818, 48.817565], [3.261841, 48.817843], [3.261928, 48.818118], [3.262132, 48.818645], [3.262266, 48.819048], [3.262203, 48.819239], [3.2623, 48.819512], [3.26243, 48.820104], [3.262278, 48.82056], [3.262291, 48.820604], [3.262718, 48.820754], [3.263019, 48.820795], [3.263274, 48.820938], [3.263645, 48.82094], [3.263793, 48.820976], [3.263993, 48.821139], [3.264112, 48.821165], [3.264615, 48.82113], [3.264753, 48.821091], [3.265326, 48.821108], [3.265547, 48.820944], [3.26584, 48.820828], [3.26594, 48.820833], [3.266177, 48.82097], [3.266926, 48.82118], [3.267079, 48.821364], [3.267433, 48.821528], [3.268094, 48.821494], [3.268292, 48.821613], [3.268398, 48.821796], [3.268792, 48.821782], [3.269241, 48.821798], [3.269744, 48.821761], [3.26991, 48.821787], [3.270644, 48.821503], [3.270743, 48.821608], [3.271034, 48.821524], [3.271379, 48.821465], [3.271701, 48.82134], [3.271905, 48.8212], [3.272053, 48.82116], [3.272348, 48.820997], [3.27286, 48.820935], [3.273029, 48.820978], [3.273186, 48.820912], [3.273553, 48.821019], [3.273698, 48.820991], [3.273877, 48.820733], [3.274063, 48.820635], [3.274181, 48.820519], [3.27456, 48.820579], [3.2753, 48.820923], [3.275469, 48.82096], [3.275686, 48.820911], [3.276142, 48.820893], [3.276245, 48.820921], [3.276315, 48.821172], [3.276455, 48.821231], [3.276672, 48.821191], [3.276705, 48.821035], [3.276984, 48.820912], [3.277631, 48.820732], [3.277687, 48.820612], [3.278108, 48.821313], [3.278505, 48.821913], [3.278997, 48.822727], [3.279221, 48.822673], [3.279342, 48.822855], [3.279442, 48.822925], [3.279779, 48.823285], [3.279976, 48.82356], [3.280266, 48.824007], [3.280634, 48.824723], [3.280722, 48.824701], [3.280811, 48.824855], [3.280956, 48.825214], [3.281016, 48.825444], [3.28095, 48.825461], [3.281032, 48.825836], [3.28163, 48.82564], [3.281942, 48.825569], [3.283197, 48.825383], [3.283958, 48.825293], [3.284629, 48.825239], [3.286375, 48.824933], [3.286699, 48.824971], [3.286873, 48.82491], [3.287757, 48.824703], [3.288693, 48.824502], [3.290278, 48.824127], [3.290827, 48.823962], [3.29322, 48.823213], [3.293759, 48.82305], [3.294169, 48.822949], [3.295063, 48.822754], [3.295453, 48.822631], [3.29698, 48.821958], [3.297377, 48.821759], [3.29764, 48.821538], [3.297935, 48.821658], [3.298751, 48.822043], [3.299293, 48.822259], [3.30003, 48.822518], [3.300348, 48.822572], [3.300872, 48.822536], [3.301619, 48.82245], [3.301828, 48.821814], [3.302219, 48.821004], [3.302513, 48.820558], [3.302801, 48.819936], [3.303088, 48.819186], [3.303874, 48.81785], [3.303943, 48.817698], [3.304115, 48.816417], [3.3041, 48.816154], [3.30402, 48.815971], [3.303309, 48.814838], [3.30261, 48.813658], [3.302406, 48.813252], [3.302329, 48.813018], [3.30234, 48.812403], [3.302467, 48.811634], [3.302263, 48.811346], [3.302161, 48.81113], [3.302182, 48.810256], [3.302173, 48.810024], [3.302061, 48.809737], [3.301824, 48.809302], [3.301798, 48.809009], [3.301867, 48.808478], [3.301845, 48.80829], [3.301736, 48.807987], [3.301575, 48.807683], [3.301174, 48.807164], [3.301079, 48.806986], [3.300803, 48.80658], [3.300482, 48.806051], [3.300364, 48.8059], [3.299724, 48.805211], [3.299414, 48.804775], [3.298681, 48.803612], [3.298282, 48.802838], [3.298, 48.802356], [3.297128, 48.801038], [3.296613, 48.800283], [3.296278, 48.799678], [3.29613, 48.799386], [3.295878, 48.798651], [3.295657, 48.798074], [3.295348, 48.797358], [3.295237, 48.796974], [3.295174, 48.796861], [3.294286, 48.795883], [3.294047, 48.795648], [3.293713, 48.795363], [3.293296, 48.794956], [3.292951, 48.794648], [3.292356, 48.794202], [3.292091, 48.793973], [3.291956, 48.793697], [3.291869, 48.793052], [3.291714, 48.79256], [3.291817, 48.792527], [3.291728, 48.792211], [3.291732, 48.791987], [3.291625, 48.7917], [3.291514, 48.791565], [3.291361, 48.791267], [3.291757, 48.791018], [3.291735, 48.790938], [3.291565, 48.790747], [3.291931, 48.790524], [3.291564, 48.790247], [3.291231, 48.789962], [3.290797, 48.789695], [3.290257, 48.789323], [3.289649, 48.788963], [3.289394, 48.788867], [3.289511, 48.788731], [3.289633, 48.78845], [3.289685, 48.788219], [3.289555, 48.78812], [3.289232, 48.788066], [3.289116, 48.787967], [3.288984, 48.787719], [3.28854, 48.787506], [3.288406, 48.787371], [3.288192, 48.786979], [3.288386, 48.786889], [3.288816, 48.786504], [3.28871, 48.786391], [3.288166, 48.786055], [3.288179, 48.785369], [3.288228, 48.785245], [3.288207, 48.785081], [3.287825, 48.784472], [3.287514, 48.783894], [3.284875, 48.784071], [3.284758, 48.783733], [3.284611, 48.783535], [3.28446, 48.7834], [3.283787, 48.783487], [3.283568, 48.783467], [3.283476, 48.783332], [3.283251, 48.782776], [3.282914, 48.782058], [3.282556, 48.781793], [3.282321, 48.781571], [3.282219, 48.78141], [3.282158, 48.780888], [3.282092, 48.780635], [3.281959, 48.780353], [3.281779, 48.780115], [3.281359, 48.779497], [3.281132, 48.779119], [3.280892, 48.778805], [3.280659, 48.778557], [3.280532, 48.778476], [3.280205, 48.778378], [3.279798, 48.778309], [3.2795, 48.778202], [3.279353, 48.7781], [3.278883, 48.777704], [3.278282, 48.777143], [3.278009, 48.776924], [3.277269, 48.776429], [3.276858, 48.775743], [3.27696, 48.775486], [3.277101, 48.77531], [3.277593, 48.774917], [3.277839, 48.774648], [3.277921, 48.774485], [3.278037, 48.774111], [3.278068, 48.773805], [3.278012, 48.773681], [3.278037, 48.77353], [3.277949, 48.772871], [3.277958, 48.772505], [3.278085, 48.771588], [3.278071, 48.771248], [3.277839, 48.770763], [3.277812, 48.770561], [3.277823, 48.770177], [3.277945, 48.769549], [3.278083, 48.769071], [3.278487, 48.768058], [3.278614, 48.767674], [3.27866, 48.767179], [3.278727, 48.766654], [3.27883, 48.766075]]]}, "properties": {"code_iris": "772400000", "nom_iris": "Jouy-sur-Morin (commune entière)", "type_iris": "Z", "lat": 48.795, "lng": 3.2736, "dvf_sales_total": 932, "dvf_sales_appt": 0, "dvf_sales_maison": 0, "dvf_median_price": 159000.0, "dvf_median_ppsqm": 2246.5753424657532, "dvf_by_year": "[{\"year\": 2021, \"sales\": 289, \"median_price\": 168000.0}, {\"year\": 2022, \"sales\": 210, \"median_price\": 94883.9}, {\"year\": 2023, \"sales\": 161, \"median_price\": 96000.0}, {\"year\": 2024, \"sales\": 134, \"median_price\": 88435.0}, {\"year\": 2025, \"sales\": 138, \"median_price\": 182000.0}]", "population": 2230, "n_log": null, "n_rp": null, "pct_proprio": null, "pct_hlm": null, "pct_appart": null, "pct_cadres": null, "pct_bac5p": null, "pct_etrangers": null, "pct_0_14": null, "pct_65p": null, "bpe_total": null, "bpe_commerces": null, "bpe_enseignement": null, "bpe_sante": null, "dpe": null, "attractivity_score": null, "rank_attractivity_score": null, "rank_total_attractivity_score": 1, "commune_avg": null, "is_stub": true}}]}