{"type": "FeatureCollection", "features": [{"type": "Feature", "geometry": {"type": "Point", "coordinates": [3.107652, 48.590892]}, "properties": {"street_name": "RUE BONNADOT", "sales": 25, "sales_appt": 0, "sales_maison": 9, "median_price": 183400.0, "median_price_per_sqm": 2190.0826446280994, "turnover_score": 100.0, "turnover_rank": 1, "first_year": 2021, "last_year": 2025, "years_active": 4}}, {"type": "Feature", "geometry": {"type": "Point", "coordinates": [3.108337, 48.588769]}, "properties": {"street_name": "RUE PROSPER DESPLATS", "sales": 16, "sales_appt": 0, "sales_maison": 6, "median_price": 269500.0, "median_price_per_sqm": 1520.0, "turnover_score": 64.0, "turnover_rank": 2, "first_year": 2022, "last_year": 2025, "years_active": 3}}, {"type": "Feature", "geometry": {"type": "Point", "coordinates": [3.104809, 48.587129]}, "properties": {"street_name": "RUE DES LYS", "sales": 11, "sales_appt": 0, "sales_maison": 5, "median_price": 120000.0, "median_price_per_sqm": 1935.483870967742, "turnover_score": 44.0, "turnover_rank": 3, "first_year": 2021, "last_year": 2025, "years_active": 3}}, {"type": "Feature", "geometry": {"type": "Point", "coordinates": [3.108308, 48.588693]}, "properties": {"street_name": "CHATEAUBLEAU", "sales": 10, "sales_appt": 0, "sales_maison": 0, "median_price": 249375.0, "median_price_per_sqm": null, "turnover_score": 40.0, "turnover_rank": 4, "first_year": 2021, "last_year": 2025, "years_active": 3}}, {"type": "Feature", "geometry": {"type": "Point", "coordinates": [3.1077615, 48.592993]}, "properties": {"street_name": "LA TANNERIE", "sales": 10, "sales_appt": 0, "sales_maison": 0, "median_price": 132250.0, "median_price_per_sqm": null, "turnover_score": 40.0, "turnover_rank": 4, "first_year": 2021, "last_year": 2022, "years_active": 2}}, {"type": "Feature", "geometry": {"type": "Point", "coordinates": [3.106038, 48.588107]}, "properties": {"street_name": "RUE SAINT GOND", "sales": 9, "sales_appt": 0, "sales_maison": 7, "median_price": 177320.0, "median_price_per_sqm": 1639.0845070422536, "turnover_score": 36.0, "turnover_rank": 5, "first_year": 2021, "last_year": 2025, "years_active": 5}}, {"type": "Feature", "geometry": {"type": "Point", "coordinates": [3.120565, 48.575748]}, "properties": {"street_name": "LES PRES VERTS", "sales": 6, "sales_appt": 0, "sales_maison": 0, "median_price": 39000.0, "median_price_per_sqm": null, "turnover_score": 24.0, "turnover_rank": 6, "first_year": 2021, "last_year": 2023, "years_active": 2}}, {"type": "Feature", "geometry": {"type": "Point", "coordinates": [3.108079, 48.587068]}, "properties": {"street_name": "RUE DU TEMPLE", "sales": 5, "sales_appt": 0, "sales_maison": 3, "median_price": 159000.0, "median_price_per_sqm": 1496.3235294117646, "turnover_score": 20.0, "turnover_rank": 7, "first_year": 2021, "last_year": 2025, "years_active": 3}}, {"type": "Feature", "geometry": {"type": "Point", "coordinates": [3.105089, 48.590104]}, "properties": {"street_name": "LA CROIX CARREAU", "sales": 3, "sales_appt": 0, "sales_maison": 0, "median_price": 168000.0, "median_price_per_sqm": null, "turnover_score": 12.0, "turnover_rank": 8, "first_year": 2021, "last_year": 2022, "years_active": 2}}, {"type": "Feature", "geometry": {"type": "Point", "coordinates": [3.107228, 48.585089]}, "properties": {"street_name": "RUE DES ROSIERS", "sales": 2, "sales_appt": 0, "sales_maison": 2, "median_price": 213000.0, "median_price_per_sqm": 2448.2758620689656, "turnover_score": 8.0, "turnover_rank": 9, "first_year": 2023, "last_year": 2023, "years_active": 1}}, {"type": "Feature", "geometry": {"type": "Point", "coordinates": [3.110494, 48.587616]}, "properties": {"street_name": "LA JUSTICE", "sales": 2, "sales_appt": 0, "sales_maison": 0, "median_price": 2160.0, "median_price_per_sqm": null, "turnover_score": 8.0, "turnover_rank": 9, "first_year": 2022, "last_year": 2022, "years_active": 1}}, {"type": "Feature", "geometry": {"type": "Point", "coordinates": [3.103738, 48.59278]}, "properties": {"street_name": "LE BOIS DE CHATEAUBLEAU", "sales": 2, "sales_appt": 0, "sales_maison": 0, "median_price": 204500.0, "median_price_per_sqm": null, "turnover_score": 8.0, "turnover_rank": 9, "first_year": 2021, "last_year": 2021, "years_active": 1}}, {"type": "Feature", "geometry": {"type": "Point", "coordinates": [3.11023, 48.595139]}, "properties": {"street_name": "SAINT GOND", "sales": 2, "sales_appt": 0, "sales_maison": 0, "median_price": 204500.0, "median_price_per_sqm": null, "turnover_score": 8.0, "turnover_rank": 9, "first_year": 2021, "last_year": 2021, "years_active": 1}}, {"type": "Feature", "geometry": {"type": "Point", "coordinates": [3.0975634999999997, 48.580028]}, "properties": {"street_name": "LES PICARDS", "sales": 2, "sales_appt": 0, "sales_maison": 0, "median_price": 125576.875, "median_price_per_sqm": null, "turnover_score": 8.0, "turnover_rank": 9, "first_year": 2021, "last_year": 2023, "years_active": 2}}, {"type": "Feature", "geometry": {"type": "Point", "coordinates": [3.1067, 48.584979]}, "properties": {"street_name": "LA HAUTE BORNE", "sales": 1, "sales_appt": 0, "sales_maison": 0, "median_price": 55000.0, "median_price_per_sqm": null, "turnover_score": 4.0, "turnover_rank": 10, "first_year": 2022, "last_year": 2022, "years_active": 1}}, {"type": "Feature", "geometry": {"type": "Point", "coordinates": [3.110093, 48.577941]}, "properties": {"street_name": "LA FONTAINE ADOT", "sales": 1, "sales_appt": 0, "sales_maison": 0, "median_price": 204500.0, "median_price_per_sqm": null, "turnover_score": 4.0, "turnover_rank": 10, "first_year": 2021, "last_year": 2021, "years_active": 1}}, {"type": "Feature", "geometry": {"type": "Point", "coordinates": [3.111067, 48.588135]}, "properties": {"street_name": "PRAIRIE DE LA VIGNE", "sales": 1, "sales_appt": 0, "sales_maison": 0, "median_price": 1.0, "median_price_per_sqm": null, "turnover_score": 4.0, "turnover_rank": 10, "first_year": 2022, "last_year": 2022, "years_active": 1}}, {"type": "Feature", "geometry": {"type": "Point", "coordinates": [3.106327, 48.590591]}, "properties": {"street_name": "LES GRANDS JARDINS", "sales": 1, "sales_appt": 0, "sales_maison": 0, "median_price": 250000.0, "median_price_per_sqm": null, "turnover_score": 4.0, "turnover_rank": 10, "first_year": 2024, "last_year": 2024, "years_active": 1}}, {"type": "Feature", "geometry": {"type": "Point", "coordinates": [3.11179, 48.588121]}, "properties": {"street_name": "LE HAUT CHEMIN", "sales": 1, "sales_appt": 0, "sales_maison": 0, "median_price": 1.0, "median_price_per_sqm": null, "turnover_score": 4.0, "turnover_rank": 10, "first_year": 2022, "last_year": 2022, "years_active": 1}}, {"type": "Feature", "geometry": {"type": "Point", "coordinates": [3.109758, 48.594981]}, "properties": {"street_name": "SAINT GOUD", "sales": 1, "sales_appt": 0, "sales_maison": 0, "median_price": 204500.0, "median_price_per_sqm": null, "turnover_score": 4.0, "turnover_rank": 10, "first_year": 2021, "last_year": 2021, "years_active": 1}}]}