{"type": "FeatureCollection", "features": [{"type": "Feature", "geometry": {"type": "Point", "coordinates": [2.991654, 48.735327]}, "properties": {"street_name": "RUE DE PROVINS", "sales": 22, "sales_appt": 0, "sales_maison": 10, "median_price": 295000.0, "median_price_per_sqm": 2216.9811320754716, "turnover_score": 100.0, "turnover_rank": 1, "first_year": 2021, "last_year": 2025, "years_active": 5}}, {"type": "Feature", "geometry": {"type": "Point", "coordinates": [2.994221, 48.73695]}, "properties": {"street_name": "GRANDE RUE", "sales": 19, "sales_appt": 5, "sales_maison": 3, "median_price": 220500.0, "median_price_per_sqm": 2598.888091822095, "turnover_score": 86.4, "turnover_rank": 2, "first_year": 2022, "last_year": 2024, "years_active": 3}}, {"type": "Feature", "geometry": {"type": "Point", "coordinates": [2.991066, 48.7359085]}, "properties": {"street_name": "PEZARCHES", "sales": 12, "sales_appt": 0, "sales_maison": 0, "median_price": 302589.0, "median_price_per_sqm": null, "turnover_score": 54.5, "turnover_rank": 3, "first_year": 2021, "last_year": 2025, "years_active": 5}}, {"type": "Feature", "geometry": {"type": "Point", "coordinates": [2.981726, 48.730540500000004]}, "properties": {"street_name": "L EPINETTE", "sales": 10, "sales_appt": 0, "sales_maison": 3, "median_price": 130933.5, "median_price_per_sqm": 2622.2943722943724, "turnover_score": 45.5, "turnover_rank": 4, "first_year": 2021, "last_year": 2025, "years_active": 5}}, {"type": "Feature", "geometry": {"type": "Point", "coordinates": [2.984396, 48.739306]}, "properties": {"street_name": "LES GRES", "sales": 9, "sales_appt": 0, "sales_maison": 2, "median_price": 200000.0, "median_price_per_sqm": 1149.4252873563219, "turnover_score": 40.9, "turnover_rank": 5, "first_year": 2025, "last_year": 2025, "years_active": 1}}, {"type": "Feature", "geometry": {"type": "Point", "coordinates": [2.9741405, 48.7317145]}, "properties": {"street_name": "LES SABLES", "sales": 8, "sales_appt": 0, "sales_maison": 0, "median_price": 72000.0, "median_price_per_sqm": null, "turnover_score": 36.4, "turnover_rank": 6, "first_year": 2021, "last_year": 2023, "years_active": 2}}, {"type": "Feature", "geometry": {"type": "Point", "coordinates": [2.9901955, 48.736132]}, "properties": {"street_name": "RUE AUX ANES", "sales": 6, "sales_appt": 0, "sales_maison": 4, "median_price": 293500.0, "median_price_per_sqm": 3135.8024691358023, "turnover_score": 27.3, "turnover_rank": 7, "first_year": 2021, "last_year": 2022, "years_active": 2}}, {"type": "Feature", "geometry": {"type": "Point", "coordinates": [2.9779355, 48.734640999999996]}, "properties": {"street_name": "LA LONGUE RAIE", "sales": 4, "sales_appt": 0, "sales_maison": 0, "median_price": 26000.0, "median_price_per_sqm": null, "turnover_score": 18.2, "turnover_rank": 8, "first_year": 2025, "last_year": 2025, "years_active": 1}}, {"type": "Feature", "geometry": {"type": "Point", "coordinates": [3.00095, 48.7504245]}, "properties": {"street_name": "LES USELLES", "sales": 4, "sales_appt": 0, "sales_maison": 0, "median_price": 527000.0, "median_price_per_sqm": null, "turnover_score": 18.2, "turnover_rank": 8, "first_year": 2023, "last_year": 2023, "years_active": 1}}, {"type": "Feature", "geometry": {"type": "Point", "coordinates": [3.0097804999999997, 48.746514]}, "properties": {"street_name": "LA POIX", "sales": 4, "sales_appt": 0, "sales_maison": 0, "median_price": 46833.5, "median_price_per_sqm": null, "turnover_score": 18.2, "turnover_rank": 8, "first_year": 2022, "last_year": 2024, "years_active": 2}}, {"type": "Feature", "geometry": {"type": "Point", "coordinates": [2.9924915, 48.7364715]}, "properties": {"street_name": "SEN DU PETIT PUITS", "sales": 4, "sales_appt": 0, "sales_maison": 2, "median_price": 137506.0, "median_price_per_sqm": 4044.1176470588234, "turnover_score": 18.2, "turnover_rank": 8, "first_year": 2021, "last_year": 2022, "years_active": 2}}, {"type": "Feature", "geometry": {"type": "Point", "coordinates": [2.987736, 48.735816]}, "properties": {"street_name": "LA MALTOURNEE", "sales": 3, "sales_appt": 0, "sales_maison": 0, "median_price": 260000.0, "median_price_per_sqm": null, "turnover_score": 13.6, "turnover_rank": 9, "first_year": 2021, "last_year": 2021, "years_active": 1}}, {"type": "Feature", "geometry": {"type": "Point", "coordinates": [2.973072, 48.729356]}, "properties": {"street_name": "CHE DES SABLES", "sales": 3, "sales_appt": 0, "sales_maison": 2, "median_price": 260000.0, "median_price_per_sqm": 2342.3423423423424, "turnover_score": 13.6, "turnover_rank": 9, "first_year": 2024, "last_year": 2025, "years_active": 2}}, {"type": "Feature", "geometry": {"type": "Point", "coordinates": [2.990955, 48.735836]}, "properties": {"street_name": "RUE DU PAVE", "sales": 3, "sales_appt": 0, "sales_maison": 1, "median_price": 300178.0, "median_price_per_sqm": 3159.7684210526318, "turnover_score": 13.6, "turnover_rank": 9, "first_year": 2025, "last_year": 2025, "years_active": 1}}, {"type": "Feature", "geometry": {"type": "Point", "coordinates": [2.97613, 48.728676]}, "properties": {"street_name": "CHE DE LUREAU", "sales": 2, "sales_appt": 0, "sales_maison": 2, "median_price": 252000.0, "median_price_per_sqm": 2446.6019417475727, "turnover_score": 9.1, "turnover_rank": 10, "first_year": 2023, "last_year": 2023, "years_active": 1}}, {"type": "Feature", "geometry": {"type": "Point", "coordinates": [3.002365, 48.73367]}, "properties": {"street_name": "LA VIGNOTTE", "sales": 1, "sales_appt": 0, "sales_maison": 0, "median_price": 87955.0, "median_price_per_sqm": null, "turnover_score": 4.5, "turnover_rank": 11, "first_year": 2024, "last_year": 2024, "years_active": 1}}, {"type": "Feature", "geometry": {"type": "Point", "coordinates": [2.984163, 48.738466]}, "properties": {"street_name": "LE MARGAT", "sales": 1, "sales_appt": 0, "sales_maison": 0, "median_price": 200000.0, "median_price_per_sqm": null, "turnover_score": 4.5, "turnover_rank": 11, "first_year": 2025, "last_year": 2025, "years_active": 1}}, {"type": "Feature", "geometry": {"type": "Point", "coordinates": [2.99619, 48.742186]}, "properties": {"street_name": "LE PETIT BOIS", "sales": 1, "sales_appt": 0, "sales_maison": 0, "median_price": 3878.0, "median_price_per_sqm": null, "turnover_score": 4.5, "turnover_rank": 11, "first_year": 2024, "last_year": 2024, "years_active": 1}}, {"type": "Feature", "geometry": {"type": "Point", "coordinates": [2.987845, 48.73705]}, "properties": {"street_name": "LES GRANDS PRES", "sales": 1, "sales_appt": 0, "sales_maison": 0, "median_price": 3878.0, "median_price_per_sqm": null, "turnover_score": 4.5, "turnover_rank": 11, "first_year": 2024, "last_year": 2024, "years_active": 1}}, {"type": "Feature", "geometry": {"type": "Point", "coordinates": [2.987596, 48.736115]}, "properties": {"street_name": "RUE DE LA CELLE", "sales": 1, "sales_appt": 0, "sales_maison": 1, "median_price": 260000.0, "median_price_per_sqm": 2600.0, "turnover_score": 4.5, "turnover_rank": 11, "first_year": 2021, "last_year": 2021, "years_active": 1}}, {"type": "Feature", "geometry": {"type": "Point", "coordinates": [2.995363, 48.736704]}, "properties": {"street_name": "RUE DU GRAND GUE", "sales": 1, "sales_appt": 0, "sales_maison": 1, "median_price": 240000.0, "median_price_per_sqm": 1875.0, "turnover_score": 4.5, "turnover_rank": 11, "first_year": 2024, "last_year": 2024, "years_active": 1}}]}