{"type": "FeatureCollection", "features": [{"type": "Feature", "geometry": {"type": "Point", "coordinates": [2.720859, 48.874473]}, "properties": {"street_name": "ALL DES CEDRES", "sales": 630, "sales_appt": 308, "sales_maison": 0, "median_price": 400000.0, "median_price_per_sqm": 5405.405405405405, "turnover_score": 100.0, "turnover_rank": 1, "first_year": 2021, "last_year": 2021, "years_active": 1}}, {"type": "Feature", "geometry": {"type": "Point", "coordinates": [2.720486, 48.873364]}, "properties": {"street_name": "RUE HENRI GUILLAUMET", "sales": 462, "sales_appt": 229, "sales_maison": 0, "median_price": 400000.0, "median_price_per_sqm": 5333.333333333333, "turnover_score": 73.3, "turnover_rank": 2, "first_year": 2021, "last_year": 2021, "years_active": 1}}, {"type": "Feature", "geometry": {"type": "Point", "coordinates": [2.709816, 48.879097]}, "properties": {"street_name": "RUE SAINT DENIS", "sales": 351, "sales_appt": 130, "sales_maison": 10, "median_price": 207000.0, "median_price_per_sqm": 3891.304347826087, "turnover_score": 55.7, "turnover_rank": 3, "first_year": 2021, "last_year": 2025, "years_active": 5}}, {"type": "Feature", "geometry": {"type": "Point", "coordinates": [2.705744, 48.866503]}, "properties": {"street_name": "ALL LUCIEN GRIVEAU", "sales": 202, "sales_appt": 76, "sales_maison": 0, "median_price": 4940000.0, "median_price_per_sqm": 61368.82716049383, "turnover_score": 32.1, "turnover_rank": 4, "first_year": 2024, "last_year": 2024, "years_active": 1}}, {"type": "Feature", "geometry": {"type": "Point", "coordinates": [2.703229, 48.878406]}, "properties": {"street_name": "RUE GAMBETTA", "sales": 116, "sales_appt": 56, "sales_maison": 0, "median_price": 128027.0, "median_price_per_sqm": 3483.4875, "turnover_score": 18.4, "turnover_rank": 5, "first_year": 2021, "last_year": 2025, "years_active": 5}}, {"type": "Feature", "geometry": {"type": "Point", "coordinates": [2.70071, 48.879396]}, "properties": {"street_name": "RUE JACQUES LE PAIRE", "sales": 110, "sales_appt": 38, "sales_maison": 0, "median_price": 252038.0, "median_price_per_sqm": 3932.3821339950373, "turnover_score": 17.5, "turnover_rank": 6, "first_year": 2021, "last_year": 2025, "years_active": 5}}, {"type": "Feature", "geometry": {"type": "Point", "coordinates": [2.707909, 48.865792]}, "properties": {"street_name": "AV ALBERT CAMUS", "sales": 109, "sales_appt": 42, "sales_maison": 0, "median_price": 217070.0, "median_price_per_sqm": 2623.4690753214945, "turnover_score": 17.3, "turnover_rank": 7, "first_year": 2021, "last_year": 2025, "years_active": 5}}, {"type": "Feature", "geometry": {"type": "Point", "coordinates": [2.696037, 48.875072]}, "properties": {"street_name": "AV DU GENERAL LECLERC", "sales": 99, "sales_appt": 18, "sales_maison": 14, "median_price": 325000.0, "median_price_per_sqm": 4398.696602518413, "turnover_score": 15.7, "turnover_rank": 8, "first_year": 2021, "last_year": 2025, "years_active": 5}}, {"type": "Feature", "geometry": {"type": "Point", "coordinates": [2.705357, 48.875425]}, "properties": {"street_name": "RUE SAINT LAURENT", "sales": 99, "sales_appt": 22, "sales_maison": 15, "median_price": 304000.0, "median_price_per_sqm": 4396.135265700483, "turnover_score": 15.7, "turnover_rank": 8, "first_year": 2021, "last_year": 2025, "years_active": 5}}, {"type": "Feature", "geometry": {"type": "Point", "coordinates": [2.694001, 48.879012]}, "properties": {"street_name": "QUAI DU PRE LONG", "sales": 97, "sales_appt": 38, "sales_maison": 1, "median_price": 258150.12, "median_price_per_sqm": 4382.35294117647, "turnover_score": 15.4, "turnover_rank": 9, "first_year": 2021, "last_year": 2025, "years_active": 5}}, {"type": "Feature", "geometry": {"type": "Point", "coordinates": [2.703337, 48.879523]}, "properties": {"street_name": "RUE D ORGEMONT", "sales": 88, "sales_appt": 40, "sales_maison": 2, "median_price": 258500.0, "median_price_per_sqm": 4299.107142857143, "turnover_score": 14.0, "turnover_rank": 10, "first_year": 2021, "last_year": 2025, "years_active": 5}}, {"type": "Feature", "geometry": {"type": "Point", "coordinates": [2.707326, 48.86907]}, "properties": {"street_name": "RUE LEO GAUSSON", "sales": 82, "sales_appt": 27, "sales_maison": 2, "median_price": 208500.0, "median_price_per_sqm": 3271.4251324025036, "turnover_score": 13.0, "turnover_rank": 11, "first_year": 2021, "last_year": 2025, "years_active": 5}}, {"type": "Feature", "geometry": {"type": "Point", "coordinates": [2.696387, 48.876694]}, "properties": {"street_name": "RUE MARTHE AUREAU", "sales": 76, "sales_appt": 30, "sales_maison": 3, "median_price": 245000.0, "median_price_per_sqm": 4302.4923589886075, "turnover_score": 12.1, "turnover_rank": 12, "first_year": 2021, "last_year": 2025, "years_active": 5}}, {"type": "Feature", "geometry": {"type": "Point", "coordinates": [2.724346, 48.8735]}, "properties": {"street_name": "AV DU STADE", "sales": 73, "sales_appt": 15, "sales_maison": 2, "median_price": 175000.0, "median_price_per_sqm": 3962.962962962963, "turnover_score": 11.6, "turnover_rank": 13, "first_year": 2021, "last_year": 2025, "years_active": 5}}, {"type": "Feature", "geometry": {"type": "Point", "coordinates": [2.703796, 48.880166]}, "properties": {"street_name": "RUE DU CHATEAU FORT", "sales": 73, "sales_appt": 37, "sales_maison": 1, "median_price": 142000.0, "median_price_per_sqm": 4166.360294117647, "turnover_score": 11.6, "turnover_rank": 13, "first_year": 2021, "last_year": 2025, "years_active": 5}}, {"type": "Feature", "geometry": {"type": "Point", "coordinates": [2.700331, 48.867978]}, "properties": {"street_name": "CHE DE GOUVERNES", "sales": 70, "sales_appt": 10, "sales_maison": 9, "median_price": 222000.0, "median_price_per_sqm": 4000.0, "turnover_score": 11.1, "turnover_rank": 14, "first_year": 2021, "last_year": 2025, "years_active": 5}}, {"type": "Feature", "geometry": {"type": "Point", "coordinates": [2.709001, 48.8783825]}, "properties": {"street_name": "RUE JEANNE D ARC", "sales": 68, "sales_appt": 29, "sales_maison": 0, "median_price": 234750.0, "median_price_per_sqm": 4186.046511627907, "turnover_score": 10.8, "turnover_rank": 15, "first_year": 2021, "last_year": 2025, "years_active": 5}}, {"type": "Feature", "geometry": {"type": "Point", "coordinates": [2.701934, 48.879856]}, "properties": {"street_name": "PL MARCHANDE", "sales": 65, "sales_appt": 15, "sales_maison": 0, "median_price": 240000.0, "median_price_per_sqm": 3950.8064516129034, "turnover_score": 10.3, "turnover_rank": 16, "first_year": 2021, "last_year": 2025, "years_active": 5}}, {"type": "Feature", "geometry": {"type": "Point", "coordinates": [2.694861, 48.878493]}, "properties": {"street_name": "AV MAL DE LATTRE DE TASSIGNY", "sales": 59, "sales_appt": 13, "sales_maison": 11, "median_price": 230000.0, "median_price_per_sqm": 3785.714285714286, "turnover_score": 9.4, "turnover_rank": 17, "first_year": 2021, "last_year": 2025, "years_active": 5}}, {"type": "Feature", "geometry": {"type": "Point", "coordinates": [2.702632, 48.878448]}, "properties": {"street_name": "RUE SAINT SAUVEUR", "sales": 57, "sales_appt": 26, "sales_maison": 0, "median_price": 185000.0, "median_price_per_sqm": 3750.0, "turnover_score": 9.0, "turnover_rank": 18, "first_year": 2021, "last_year": 2025, "years_active": 5}}, {"type": "Feature", "geometry": {"type": "Point", "coordinates": [2.710009, 48.866603]}, "properties": {"street_name": "RUE JEAN MONNET", "sales": 56, "sales_appt": 22, "sales_maison": 0, "median_price": 202800.0, "median_price_per_sqm": 2869.8630136986303, "turnover_score": 8.9, "turnover_rank": 19, "first_year": 2021, "last_year": 2025, "years_active": 5}}, {"type": "Feature", "geometry": {"type": "Point", "coordinates": [2.703109, 48.879188]}, "properties": {"street_name": "RUE DES TANNEURS", "sales": 53, "sales_appt": 20, "sales_maison": 0, "median_price": 180000.0, "median_price_per_sqm": 4254.545454545455, "turnover_score": 8.4, "turnover_rank": 20, "first_year": 2021, "last_year": 2025, "years_active": 5}}, {"type": "Feature", "geometry": {"type": "Point", "coordinates": [2.72445, 48.882437]}, "properties": {"street_name": "QUAI DE LA GOURDINE", "sales": 52, "sales_appt": 1, "sales_maison": 26, "median_price": 550000.0, "median_price_per_sqm": 5696.520146520146, "turnover_score": 8.3, "turnover_rank": 21, "first_year": 2021, "last_year": 2025, "years_active": 4}}, {"type": "Feature", "geometry": {"type": "Point", "coordinates": [2.695473, 48.879463]}, "properties": {"street_name": "ALL DES BERGES", "sales": 51, "sales_appt": 17, "sales_maison": 0, "median_price": 183000.0, "median_price_per_sqm": 3767.857142857143, "turnover_score": 8.1, "turnover_rank": 22, "first_year": 2021, "last_year": 2025, "years_active": 5}}, {"type": "Feature", "geometry": {"type": "Point", "coordinates": [2.7049760000000003, 48.879502]}, "properties": {"street_name": "RUE DU CHEMIN DE FER", "sales": 50, "sales_appt": 35, "sales_maison": 1, "median_price": 242100.0, "median_price_per_sqm": 6263.1578947368425, "turnover_score": 7.9, "turnover_rank": 23, "first_year": 2021, "last_year": 2025, "years_active": 5}}, {"type": "Feature", "geometry": {"type": "Point", "coordinates": [2.713066, 48.870451]}, "properties": {"street_name": "RUE DES PENSEES", "sales": 49, "sales_appt": 17, "sales_maison": 0, "median_price": 110000.0, "median_price_per_sqm": 4153.846153846154, "turnover_score": 7.8, "turnover_rank": 24, "first_year": 2021, "last_year": 2025, "years_active": 5}}, {"type": "Feature", "geometry": {"type": "Point", "coordinates": [2.691905, 48.875205]}, "properties": {"street_name": "RUE DU PONT HARDY", "sales": 48, "sales_appt": 20, "sales_maison": 4, "median_price": 198750.0, "median_price_per_sqm": 3500.0, "turnover_score": 7.6, "turnover_rank": 25, "first_year": 2021, "last_year": 2025, "years_active": 5}}, {"type": "Feature", "geometry": {"type": "Point", "coordinates": [2.690827, 48.876073]}, "properties": {"street_name": "ALL DES CATALPAS", "sales": 46, "sales_appt": 16, "sales_maison": 0, "median_price": 280000.0, "median_price_per_sqm": 3994.0476190476193, "turnover_score": 7.3, "turnover_rank": 26, "first_year": 2021, "last_year": 2025, "years_active": 5}}, {"type": "Feature", "geometry": {"type": "Point", "coordinates": [2.711915, 48.878959]}, "properties": {"street_name": "RUE DU 27 AOUT 1944", "sales": 41, "sales_appt": 9, "sales_maison": 5, "median_price": 650000.0, "median_price_per_sqm": 11645.021645021647, "turnover_score": 6.5, "turnover_rank": 27, "first_year": 2021, "last_year": 2024, "years_active": 4}}, {"type": "Feature", "geometry": {"type": "Point", "coordinates": [2.709696, 48.869597]}, "properties": {"street_name": "RUE DU CLOS DES VIGNES", "sales": 40, "sales_appt": 19, "sales_maison": 1, "median_price": 173000.0, "median_price_per_sqm": 4425.051975051974, "turnover_score": 6.3, "turnover_rank": 28, "first_year": 2021, "last_year": 2025, "years_active": 5}}, {"type": "Feature", "geometry": {"type": "Point", "coordinates": [2.70482, 48.878208]}, "properties": {"street_name": "RUE DES MARCHES", "sales": 38, "sales_appt": 20, "sales_maison": 0, "median_price": 310000.0, "median_price_per_sqm": 5725.965217391305, "turnover_score": 6.0, "turnover_rank": 29, "first_year": 2021, "last_year": 2025, "years_active": 5}}, {"type": "Feature", "geometry": {"type": "Point", "coordinates": [2.718905, 48.878309]}, "properties": {"street_name": "RUE ROGER", "sales": 36, "sales_appt": 11, "sales_maison": 7, "median_price": 191500.0, "median_price_per_sqm": 4134.615384615385, "turnover_score": 5.7, "turnover_rank": 30, "first_year": 2021, "last_year": 2025, "years_active": 4}}, {"type": "Feature", "geometry": {"type": "Point", "coordinates": [2.715215, 48.879844]}, "properties": {"street_name": "RUE DU CHARIOT D OR", "sales": 36, "sales_appt": 2, "sales_maison": 19, "median_price": 488000.0, "median_price_per_sqm": 3718.389423076923, "turnover_score": 5.7, "turnover_rank": 30, "first_year": 2021, "last_year": 2025, "years_active": 5}}, {"type": "Feature", "geometry": {"type": "Point", "coordinates": [2.694996, 48.877253]}, "properties": {"street_name": "ALL DES TILLEULS", "sales": 36, "sales_appt": 12, "sales_maison": 7, "median_price": 355000.0, "median_price_per_sqm": 4481.818181818182, "turnover_score": 5.7, "turnover_rank": 30, "first_year": 2021, "last_year": 2025, "years_active": 5}}, {"type": "Feature", "geometry": {"type": "Point", "coordinates": [2.705749, 48.87904]}, "properties": {"street_name": "RUE DELAMBRE", "sales": 34, "sales_appt": 13, "sales_maison": 1, "median_price": 209450.0, "median_price_per_sqm": 4166.666666666667, "turnover_score": 5.4, "turnover_rank": 31, "first_year": 2021, "last_year": 2025, "years_active": 5}}, {"type": "Feature", "geometry": {"type": "Point", "coordinates": [2.705637, 48.876941]}, "properties": {"street_name": "RUE DU DOCTEUR NAUDIER", "sales": 31, "sales_appt": 10, "sales_maison": 0, "median_price": 112000.0, "median_price_per_sqm": 3461.057304277643, "turnover_score": 4.9, "turnover_rank": 32, "first_year": 2021, "last_year": 2025, "years_active": 4}}, {"type": "Feature", "geometry": {"type": "Point", "coordinates": [2.697089, 48.878669]}, "properties": {"street_name": "RUE GIRARD", "sales": 29, "sales_appt": 6, "sales_maison": 6, "median_price": 660000.0, "median_price_per_sqm": 12673.91304347826, "turnover_score": 4.6, "turnover_rank": 33, "first_year": 2021, "last_year": 2025, "years_active": 4}}, {"type": "Feature", "geometry": {"type": "Point", "coordinates": [2.704329, 48.877882]}, "properties": {"street_name": "RUE SAINT PAUL", "sales": 28, "sales_appt": 13, "sales_maison": 1, "median_price": 160000.0, "median_price_per_sqm": 4040.3225806451615, "turnover_score": 4.4, "turnover_rank": 34, "first_year": 2021, "last_year": 2025, "years_active": 5}}, {"type": "Feature", "geometry": {"type": "Point", "coordinates": [2.724346, 48.8735]}, "properties": {"street_name": "AV RAYMOND POINCARE", "sales": 27, "sales_appt": 15, "sales_maison": 9, "median_price": 219000.0, "median_price_per_sqm": 4712.676691729323, "turnover_score": 4.3, "turnover_rank": 35, "first_year": 2021, "last_year": 2025, "years_active": 5}}, {"type": "Feature", "geometry": {"type": "Point", "coordinates": [2.705574, 48.865967]}, "properties": {"street_name": "ALL EMILE PRODHON", "sales": 27, "sales_appt": 13, "sales_maison": 0, "median_price": 197000.0, "median_price_per_sqm": 2727.5, "turnover_score": 4.3, "turnover_rank": 35, "first_year": 2021, "last_year": 2025, "years_active": 5}}, {"type": "Feature", "geometry": {"type": "Point", "coordinates": [2.708299, 48.879574]}, "properties": {"street_name": "COUR PIERRE HERBIN", "sales": 26, "sales_appt": 12, "sales_maison": 0, "median_price": 160000.0, "median_price_per_sqm": 4003.5952747817155, "turnover_score": 4.1, "turnover_rank": 36, "first_year": 2021, "last_year": 2025, "years_active": 5}}, {"type": "Feature", "geometry": {"type": "Point", "coordinates": [2.698927, 48.875576]}, "properties": {"street_name": "RUE VICTOR HUGO", "sales": 25, "sales_appt": 5, "sales_maison": 5, "median_price": 612000.0, "median_price_per_sqm": 7899.733510992672, "turnover_score": 4.0, "turnover_rank": 37, "first_year": 2021, "last_year": 2025, "years_active": 4}}, {"type": "Feature", "geometry": {"type": "Point", "coordinates": [2.697539, 48.866825]}, "properties": {"street_name": "ALL EDOUARD CORTES", "sales": 24, "sales_appt": 12, "sales_maison": 0, "median_price": 197000.0, "median_price_per_sqm": 2778.5714285714284, "turnover_score": 3.8, "turnover_rank": 38, "first_year": 2021, "last_year": 2025, "years_active": 5}}, {"type": "Feature", "geometry": {"type": "Point", "coordinates": [2.702571, 48.876659]}, "properties": {"street_name": "RUE VACHERESSE", "sales": 24, "sales_appt": 14, "sales_maison": 1, "median_price": 314000.0, "median_price_per_sqm": 6205.276595744681, "turnover_score": 3.8, "turnover_rank": 38, "first_year": 2021, "last_year": 2025, "years_active": 5}}, {"type": "Feature", "geometry": {"type": "Point", "coordinates": [2.725816, 48.874054]}, "properties": {"street_name": "RUE DU DOCTEUR DEMARS", "sales": 24, "sales_appt": 5, "sales_maison": 5, "median_price": 157470.0, "median_price_per_sqm": 3957.3939833272925, "turnover_score": 3.8, "turnover_rank": 38, "first_year": 2021, "last_year": 2025, "years_active": 5}}, {"type": "Feature", "geometry": {"type": "Point", "coordinates": [2.725664, 48.877748499999996]}, "properties": {"street_name": "AV GEORGES CLEMENCEAU", "sales": 24, "sales_appt": 2, "sales_maison": 8, "median_price": 392275.0, "median_price_per_sqm": 3684.2105263157896, "turnover_score": 3.8, "turnover_rank": 38, "first_year": 2021, "last_year": 2025, "years_active": 5}}, {"type": "Feature", "geometry": {"type": "Point", "coordinates": [2.704909, 48.875459]}, "properties": {"street_name": "BD CHARPENTIER", "sales": 24, "sales_appt": 8, "sales_maison": 4, "median_price": 441000.0, "median_price_per_sqm": 5196.448439620081, "turnover_score": 3.8, "turnover_rank": 38, "first_year": 2021, "last_year": 2025, "years_active": 5}}, {"type": "Feature", "geometry": {"type": "Point", "coordinates": [2.711947, 48.880723]}, "properties": {"street_name": "ALL ANTOINETTE", "sales": 24, "sales_appt": 12, "sales_maison": 2, "median_price": 154050.0, "median_price_per_sqm": 3823.4253361641895, "turnover_score": 3.8, "turnover_rank": 38, "first_year": 2021, "last_year": 2025, "years_active": 4}}, {"type": "Feature", "geometry": {"type": "Point", "coordinates": [2.699106, 48.874434]}, "properties": {"street_name": "RUE SIMONE VEIL", "sales": 23, "sales_appt": 9, "sales_maison": 0, "median_price": 220160.0, "median_price_per_sqm": 4736.8421052631575, "turnover_score": 3.7, "turnover_rank": 39, "first_year": 2021, "last_year": 2025, "years_active": 4}}, {"type": "Feature", "geometry": {"type": "Point", "coordinates": [2.725069, 48.877273]}, "properties": {"street_name": "AV DES IRIS", "sales": 22, "sales_appt": 7, "sales_maison": 4, "median_price": 1040000.0, "median_price_per_sqm": 28888.88888888889, "turnover_score": 3.5, "turnover_rank": 40, "first_year": 2022, "last_year": 2024, "years_active": 3}}, {"type": "Feature", "geometry": {"type": "Point", "coordinates": [2.697363, 48.868214]}, "properties": {"street_name": "CHE DES HAUTS BOUILLONS", "sales": 22, "sales_appt": 0, "sales_maison": 11, "median_price": 567250.0, "median_price_per_sqm": 3627.450980392157, "turnover_score": 3.5, "turnover_rank": 40, "first_year": 2022, "last_year": 2025, "years_active": 3}}, {"type": "Feature", "geometry": {"type": "Point", "coordinates": [2.70908, 48.869582]}, "properties": {"street_name": "RUE LENOTRE", "sales": 21, "sales_appt": 4, "sales_maison": 0, "median_price": 500.0, "median_price_per_sqm": 3587.5, "turnover_score": 3.3, "turnover_rank": 41, "first_year": 2021, "last_year": 2025, "years_active": 4}}, {"type": "Feature", "geometry": {"type": "Point", "coordinates": [2.703477, 48.873645]}, "properties": {"street_name": "RUE MACHERET", "sales": 21, "sales_appt": 0, "sales_maison": 11, "median_price": 655000.0, "median_price_per_sqm": 5500.0, "turnover_score": 3.3, "turnover_rank": 41, "first_year": 2023, "last_year": 2025, "years_active": 3}}, {"type": "Feature", "geometry": {"type": "Point", "coordinates": [2.697722, 48.870611]}, "properties": {"street_name": "CHE DE L AUTOSTRADE", "sales": 20, "sales_appt": 0, "sales_maison": 12, "median_price": 441450.0, "median_price_per_sqm": 4458.646616541353, "turnover_score": 3.2, "turnover_rank": 42, "first_year": 2021, "last_year": 2025, "years_active": 5}}, {"type": "Feature", "geometry": {"type": "Point", "coordinates": [2.717651, 48.877163]}, "properties": {"street_name": "AV DEHOLLAIN", "sales": 20, "sales_appt": 9, "sales_maison": 2, "median_price": 108000.0, "median_price_per_sqm": 4253.684210526316, "turnover_score": 3.2, "turnover_rank": 42, "first_year": 2021, "last_year": 2025, "years_active": 4}}, {"type": "Feature", "geometry": {"type": "Point", "coordinates": [2.704485, 48.879361]}, "properties": {"street_name": "RUE RENE LALLEMANT", "sales": 20, "sales_appt": 3, "sales_maison": 0, "median_price": 371500.0, "median_price_per_sqm": 4970.149253731343, "turnover_score": 3.2, "turnover_rank": 42, "first_year": 2021, "last_year": 2025, "years_active": 5}}, {"type": "Feature", "geometry": {"type": "Point", "coordinates": [2.7251205, 48.87483]}, "properties": {"street_name": "AV DES GLYCINES", "sales": 20, "sales_appt": 0, "sales_maison": 12, "median_price": 346500.0, "median_price_per_sqm": 4195.121951219512, "turnover_score": 3.2, "turnover_rank": 42, "first_year": 2021, "last_year": 2025, "years_active": 5}}, {"type": "Feature", "geometry": {"type": "Point", "coordinates": [2.706077, 48.873268]}, "properties": {"street_name": "RUE EUGENE PREVOST", "sales": 19, "sales_appt": 4, "sales_maison": 7, "median_price": 219000.0, "median_price_per_sqm": 5779.220779220779, "turnover_score": 3.0, "turnover_rank": 43, "first_year": 2021, "last_year": 2023, "years_active": 3}}, {"type": "Feature", "geometry": {"type": "Point", "coordinates": [2.701903, 48.875805]}, "properties": {"street_name": "BD DU GENERAL DE GAULLE", "sales": 19, "sales_appt": 5, "sales_maison": 1, "median_price": 362000.0, "median_price_per_sqm": 3849.5475113122175, "turnover_score": 3.0, "turnover_rank": 43, "first_year": 2021, "last_year": 2025, "years_active": 5}}, {"type": "Feature", "geometry": {"type": "Point", "coordinates": [2.689955, 48.878419]}, "properties": {"street_name": "RUE CHARLES MICHELS", "sales": 19, "sales_appt": 5, "sales_maison": 3, "median_price": 960000.0, "median_price_per_sqm": 13150.684931506848, "turnover_score": 3.0, "turnover_rank": 43, "first_year": 2021, "last_year": 2025, "years_active": 3}}, {"type": "Feature", "geometry": {"type": "Point", "coordinates": [2.710252, 48.870482499999994]}, "properties": {"street_name": "RUE DES ANEMONES", "sales": 18, "sales_appt": 0, "sales_maison": 7, "median_price": 291335.0, "median_price_per_sqm": 4861.111111111111, "turnover_score": 2.9, "turnover_rank": 44, "first_year": 2021, "last_year": 2025, "years_active": 5}}, {"type": "Feature", "geometry": {"type": "Point", "coordinates": [2.707214, 48.878241]}, "properties": {"street_name": "RUE PAUL BERT", "sales": 17, "sales_appt": 7, "sales_maison": 3, "median_price": 320000.0, "median_price_per_sqm": 4261.111111111111, "turnover_score": 2.7, "turnover_rank": 45, "first_year": 2021, "last_year": 2025, "years_active": 3}}, {"type": "Feature", "geometry": {"type": "Point", "coordinates": [2.712648, 48.867246]}, "properties": {"street_name": "ALL LOUIS BRAILLE", "sales": 17, "sales_appt": 2, "sales_maison": 8, "median_price": 344000.0, "median_price_per_sqm": 3247.1153846153848, "turnover_score": 2.7, "turnover_rank": 45, "first_year": 2021, "last_year": 2025, "years_active": 3}}, {"type": "Feature", "geometry": {"type": "Point", "coordinates": [2.718568, 48.867955]}, "properties": {"street_name": "AV JEAN MERMOZ", "sales": 17, "sales_appt": 0, "sales_maison": 10, "median_price": 330000.0, "median_price_per_sqm": 4259.523809523809, "turnover_score": 2.7, "turnover_rank": 45, "first_year": 2021, "last_year": 2025, "years_active": 5}}, {"type": "Feature", "geometry": {"type": "Point", "coordinates": [2.7108545, 48.8719465]}, "properties": {"street_name": "RUE DES CHAUFFERNES", "sales": 16, "sales_appt": 1, "sales_maison": 6, "median_price": 372050.0, "median_price_per_sqm": 3828.282828282828, "turnover_score": 2.5, "turnover_rank": 46, "first_year": 2021, "last_year": 2025, "years_active": 3}}, {"type": "Feature", "geometry": {"type": "Point", "coordinates": [2.709969, 48.879613]}, "properties": {"street_name": "RUE DE MARNE", "sales": 15, "sales_appt": 4, "sales_maison": 2, "median_price": 256070.0, "median_price_per_sqm": 4945.127417082853, "turnover_score": 2.4, "turnover_rank": 47, "first_year": 2021, "last_year": 2025, "years_active": 3}}, {"type": "Feature", "geometry": {"type": "Point", "coordinates": [2.714627, 48.873835]}, "properties": {"street_name": "RUE DE LA GRANGE AU BOIS", "sales": 15, "sales_appt": 2, "sales_maison": 5, "median_price": 330000.0, "median_price_per_sqm": 4274.5, "turnover_score": 2.4, "turnover_rank": 47, "first_year": 2021, "last_year": 2025, "years_active": 4}}, {"type": "Feature", "geometry": {"type": "Point", "coordinates": [2.71104, 48.876783]}, "properties": {"street_name": "RUE DE LUNEVILLE", "sales": 15, "sales_appt": 3, "sales_maison": 1, "median_price": 210000.0, "median_price_per_sqm": 4438.775510204081, "turnover_score": 2.4, "turnover_rank": 47, "first_year": 2023, "last_year": 2025, "years_active": 3}}, {"type": "Feature", "geometry": {"type": "Point", "coordinates": [2.70519, 48.877963]}, "properties": {"street_name": "CRS DE L ABBAYE", "sales": 15, "sales_appt": 11, "sales_maison": 0, "median_price": 1000000.0, "median_price_per_sqm": 17857.14285714286, "turnover_score": 2.4, "turnover_rank": 47, "first_year": 2021, "last_year": 2023, "years_active": 3}}, {"type": "Feature", "geometry": {"type": "Point", "coordinates": [2.690349, 48.877332]}, "properties": {"street_name": "IMP DU PONT HARDY", "sales": 14, "sales_appt": 0, "sales_maison": 11, "median_price": 321000.0, "median_price_per_sqm": 4790.0, "turnover_score": 2.2, "turnover_rank": 48, "first_year": 2021, "last_year": 2025, "years_active": 4}}, {"type": "Feature", "geometry": {"type": "Point", "coordinates": [2.714161, 48.872553]}, "properties": {"street_name": "RUE DES ROSES", "sales": 14, "sales_appt": 4, "sales_maison": 8, "median_price": 356000.0, "median_price_per_sqm": 4685.714285714285, "turnover_score": 2.2, "turnover_rank": 48, "first_year": 2021, "last_year": 2025, "years_active": 5}}, {"type": "Feature", "geometry": {"type": "Point", "coordinates": [2.702755, 48.877202]}, "properties": {"street_name": "RUE AUBERT", "sales": 13, "sales_appt": 7, "sales_maison": 1, "median_price": 189000.0, "median_price_per_sqm": 4350.0, "turnover_score": 2.1, "turnover_rank": 49, "first_year": 2021, "last_year": 2024, "years_active": 4}}, {"type": "Feature", "geometry": {"type": "Point", "coordinates": [2.721946, 48.864086]}, "properties": {"street_name": "RTE DE TOURNAN", "sales": 13, "sales_appt": 0, "sales_maison": 9, "median_price": 439800.0, "median_price_per_sqm": 4159.574468085107, "turnover_score": 2.1, "turnover_rank": 49, "first_year": 2021, "last_year": 2025, "years_active": 3}}, {"type": "Feature", "geometry": {"type": "Point", "coordinates": [2.71351, 48.877794]}, "properties": {"street_name": "RUE BERTHELOT", "sales": 13, "sales_appt": 0, "sales_maison": 8, "median_price": 450000.0, "median_price_per_sqm": 4601.0989010989015, "turnover_score": 2.1, "turnover_rank": 49, "first_year": 2021, "last_year": 2025, "years_active": 5}}, {"type": "Feature", "geometry": {"type": "Point", "coordinates": [2.717411, 48.875272]}, "properties": {"street_name": "RUE DU FORT DU BOIS", "sales": 13, "sales_appt": 0, "sales_maison": 11, "median_price": 332000.0, "median_price_per_sqm": 4309.302325581395, "turnover_score": 2.1, "turnover_rank": 49, "first_year": 2021, "last_year": 2025, "years_active": 5}}, {"type": "Feature", "geometry": {"type": "Point", "coordinates": [2.70471, 48.876853]}, "properties": {"street_name": "PL DU MARCHE AU BLE", "sales": 13, "sales_appt": 7, "sales_maison": 0, "median_price": 259000.0, "median_price_per_sqm": 4840.800477897252, "turnover_score": 2.1, "turnover_rank": 49, "first_year": 2022, "last_year": 2025, "years_active": 4}}, {"type": "Feature", "geometry": {"type": "Point", "coordinates": [2.712956, 48.876509]}, "properties": {"street_name": "RUE MILON DE LAGNY", "sales": 12, "sales_appt": 0, "sales_maison": 6, "median_price": 774000.0, "median_price_per_sqm": 8147.368421052632, "turnover_score": 1.9, "turnover_rank": 50, "first_year": 2022, "last_year": 2025, "years_active": 3}}, {"type": "Feature", "geometry": {"type": "Point", "coordinates": [2.6959555, 48.871537]}, "properties": {"street_name": "CHE DES BOUILLONS", "sales": 12, "sales_appt": 3, "sales_maison": 3, "median_price": 306500.0, "median_price_per_sqm": 4474.040404040405, "turnover_score": 1.9, "turnover_rank": 50, "first_year": 2021, "last_year": 2025, "years_active": 3}}, {"type": "Feature", "geometry": {"type": "Point", "coordinates": [2.709827, 48.876882499999994]}, "properties": {"street_name": "RUE DU COLONEL DURAND", "sales": 12, "sales_appt": 0, "sales_maison": 7, "median_price": 580000.0, "median_price_per_sqm": 4779.891304347826, "turnover_score": 1.9, "turnover_rank": 50, "first_year": 2021, "last_year": 2024, "years_active": 4}}, {"type": "Feature", "geometry": {"type": "Point", "coordinates": [2.71862, 48.875016]}, "properties": {"street_name": "RUE CHARLES VAILLANT", "sales": 12, "sales_appt": 0, "sales_maison": 6, "median_price": 320000.0, "median_price_per_sqm": 4681.5427215189875, "turnover_score": 1.9, "turnover_rank": 50, "first_year": 2022, "last_year": 2025, "years_active": 4}}, {"type": "Feature", "geometry": {"type": "Point", "coordinates": [2.716463, 48.866364]}, "properties": {"street_name": "RUE DES THUYAS", "sales": 12, "sales_appt": 0, "sales_maison": 5, "median_price": 210000.0, "median_price_per_sqm": 4555.555555555556, "turnover_score": 1.9, "turnover_rank": 50, "first_year": 2021, "last_year": 2025, "years_active": 4}}, {"type": "Feature", "geometry": {"type": "Point", "coordinates": [2.713456, 48.868654]}, "properties": {"street_name": "RUE LOUIS JACOLLIOT", "sales": 12, "sales_appt": 0, "sales_maison": 12, "median_price": 370500.0, "median_price_per_sqm": 3174.107142857143, "turnover_score": 1.9, "turnover_rank": 50, "first_year": 2021, "last_year": 2025, "years_active": 4}}, {"type": "Feature", "geometry": {"type": "Point", "coordinates": [2.705737, 48.87904]}, "properties": {"street_name": "PAS DES ECOLES", "sales": 12, "sales_appt": 8, "sales_maison": 0, "median_price": 205000.0, "median_price_per_sqm": 4270.833333333333, "turnover_score": 1.9, "turnover_rank": 50, "first_year": 2021, "last_year": 2025, "years_active": 5}}, {"type": "Feature", "geometry": {"type": "Point", "coordinates": [2.715978, 48.879143]}, "properties": {"street_name": "RUE PARMENTIER", "sales": 12, "sales_appt": 3, "sales_maison": 0, "median_price": 329000.0, "median_price_per_sqm": 4217.948717948718, "turnover_score": 1.9, "turnover_rank": 50, "first_year": 2021, "last_year": 2025, "years_active": 4}}, {"type": "Feature", "geometry": {"type": "Point", "coordinates": [2.729234, 48.87535]}, "properties": {"street_name": "AV HECTOR BERLIOZ", "sales": 11, "sales_appt": 0, "sales_maison": 4, "median_price": 324329.0, "median_price_per_sqm": 3889.8698241240827, "turnover_score": 1.7, "turnover_rank": 51, "first_year": 2022, "last_year": 2025, "years_active": 3}}, {"type": "Feature", "geometry": {"type": "Point", "coordinates": [2.702882, 48.871158]}, "properties": {"street_name": "BD D ALSACE LORRAINE", "sales": 11, "sales_appt": 0, "sales_maison": 6, "median_price": 455000.0, "median_price_per_sqm": 4551.916376306621, "turnover_score": 1.7, "turnover_rank": 51, "first_year": 2021, "last_year": 2025, "years_active": 3}}, {"type": "Feature", "geometry": {"type": "Point", "coordinates": [2.726925, 48.878522]}, "properties": {"street_name": "CHE DE LA GRANDE VOIRIE", "sales": 11, "sales_appt": 1, "sales_maison": 4, "median_price": 315000.0, "median_price_per_sqm": 4470.588235294118, "turnover_score": 1.7, "turnover_rank": 51, "first_year": 2021, "last_year": 2025, "years_active": 4}}, {"type": "Feature", "geometry": {"type": "Point", "coordinates": [2.727664, 48.878283]}, "properties": {"street_name": "AV DES LYS", "sales": 11, "sales_appt": 2, "sales_maison": 3, "median_price": 170850.0, "median_price_per_sqm": 4661.016949152542, "turnover_score": 1.7, "turnover_rank": 51, "first_year": 2022, "last_year": 2024, "years_active": 3}}, {"type": "Feature", "geometry": {"type": "Point", "coordinates": [2.71518, 48.877122]}, "properties": {"street_name": "RUE LAMARTINE", "sales": 11, "sales_appt": 2, "sales_maison": 2, "median_price": 108000.0, "median_price_per_sqm": 5017.142857142857, "turnover_score": 1.7, "turnover_rank": 51, "first_year": 2021, "last_year": 2025, "years_active": 3}}, {"type": "Feature", "geometry": {"type": "Point", "coordinates": [2.703307, 48.877596]}, "properties": {"street_name": "RUE SAINT FURCY", "sales": 11, "sales_appt": 5, "sales_maison": 0, "median_price": 175000.0, "median_price_per_sqm": 4184.210526315789, "turnover_score": 1.7, "turnover_rank": 51, "first_year": 2021, "last_year": 2025, "years_active": 4}}, {"type": "Feature", "geometry": {"type": "Point", "coordinates": [2.68195, 48.874233]}, "properties": {"street_name": "RUE AMPERE", "sales": 11, "sales_appt": 1, "sales_maison": 1, "median_price": 1000000.0, "median_price_per_sqm": 1315.7894736842106, "turnover_score": 1.7, "turnover_rank": 51, "first_year": 2021, "last_year": 2024, "years_active": 4}}, {"type": "Feature", "geometry": {"type": "Point", "coordinates": [2.71108, 48.87467]}, "properties": {"street_name": "RUE DES BLEUETS", "sales": 11, "sales_appt": 0, "sales_maison": 6, "median_price": 561000.0, "median_price_per_sqm": 4252.336448598131, "turnover_score": 1.7, "turnover_rank": 51, "first_year": 2022, "last_year": 2025, "years_active": 4}}, {"type": "Feature", "geometry": {"type": "Point", "coordinates": [2.687647, 48.873778]}, "properties": {"street_name": "RUE JACQUARD", "sales": 11, "sales_appt": 2, "sales_maison": 1, "median_price": 1800000.0, "median_price_per_sqm": 2161.3451728698283, "turnover_score": 1.7, "turnover_rank": 51, "first_year": 2021, "last_year": 2025, "years_active": 4}}, {"type": "Feature", "geometry": {"type": "Point", "coordinates": [2.697156, 48.874318]}, "properties": {"street_name": "RUE HENRI DUNANT", "sales": 11, "sales_appt": 0, "sales_maison": 0, "median_price": 3813781.5, "median_price_per_sqm": null, "turnover_score": 1.7, "turnover_rank": 51, "first_year": 2022, "last_year": 2023, "years_active": 2}}, {"type": "Feature", "geometry": {"type": "Point", "coordinates": [2.714068, 48.879165]}, "properties": {"street_name": "RUE DE PAMPELUNE", "sales": 10, "sales_appt": 3, "sales_maison": 0, "median_price": 62050.0, "median_price_per_sqm": 2634.1463414634145, "turnover_score": 1.6, "turnover_rank": 52, "first_year": 2022, "last_year": 2025, "years_active": 3}}, {"type": "Feature", "geometry": {"type": "Point", "coordinates": [2.7264365, 48.8752085]}, "properties": {"street_name": "AV DES ACACIAS", "sales": 10, "sales_appt": 0, "sales_maison": 8, "median_price": 302500.0, "median_price_per_sqm": 3082.9326923076924, "turnover_score": 1.6, "turnover_rank": 52, "first_year": 2021, "last_year": 2025, "years_active": 5}}, {"type": "Feature", "geometry": {"type": "Point", "coordinates": [2.7120715, 48.87223]}, "properties": {"street_name": "RUE DES VIOLETTES", "sales": 10, "sales_appt": 1, "sales_maison": 4, "median_price": 320000.0, "median_price_per_sqm": 3875.0, "turnover_score": 1.6, "turnover_rank": 52, "first_year": 2021, "last_year": 2024, "years_active": 4}}, {"type": "Feature", "geometry": {"type": "Point", "coordinates": [2.699404, 48.873527]}, "properties": {"street_name": "RUE DU PROF. CHRISTIAN CABROL", "sales": 9, "sales_appt": 3, "sales_maison": 0, "median_price": 228000.0, "median_price_per_sqm": 4467.307692307692, "turnover_score": 1.4, "turnover_rank": 53, "first_year": 2021, "last_year": 2025, "years_active": 4}}, {"type": "Feature", "geometry": {"type": "Point", "coordinates": [2.719603, 48.879881]}, "properties": {"street_name": "AV GROUARD", "sales": 9, "sales_appt": 0, "sales_maison": 7, "median_price": 297500.0, "median_price_per_sqm": 2285.714285714286, "turnover_score": 1.4, "turnover_rank": 53, "first_year": 2021, "last_year": 2025, "years_active": 4}}, {"type": "Feature", "geometry": {"type": "Point", "coordinates": [2.690278, 48.876864]}, "properties": {"street_name": "RUE LOUISE", "sales": 9, "sales_appt": 0, "sales_maison": 6, "median_price": 379195.0, "median_price_per_sqm": 4140.837336993823, "turnover_score": 1.4, "turnover_rank": 53, "first_year": 2021, "last_year": 2025, "years_active": 4}}, {"type": "Feature", "geometry": {"type": "Point", "coordinates": [2.691024, 48.878806]}, "properties": {"street_name": "RUE DE STRASBOURG", "sales": 9, "sales_appt": 0, "sales_maison": 3, "median_price": 350000.0, "median_price_per_sqm": 2948.5210256410255, "turnover_score": 1.4, "turnover_rank": 53, "first_year": 2022, "last_year": 2024, "years_active": 3}}, {"type": "Feature", "geometry": {"type": "Point", "coordinates": [2.715005, 48.88013]}, "properties": {"street_name": "RUE DE L IMPRIMERIE", "sales": 9, "sales_appt": 4, "sales_maison": 2, "median_price": 186000.0, "median_price_per_sqm": 4863.883847549909, "turnover_score": 1.4, "turnover_rank": 53, "first_year": 2021, "last_year": 2024, "years_active": 4}}, {"type": "Feature", "geometry": {"type": "Point", "coordinates": [2.723587, 48.881629]}, "properties": {"street_name": "CHE DE QUINCANGROGNE", "sales": 9, "sales_appt": 0, "sales_maison": 8, "median_price": 363700.0, "median_price_per_sqm": 4912.055417700579, "turnover_score": 1.4, "turnover_rank": 53, "first_year": 2021, "last_year": 2025, "years_active": 4}}, {"type": "Feature", "geometry": {"type": "Point", "coordinates": [2.728662, 48.877015]}, "properties": {"street_name": "AV DU BEL AIR", "sales": 9, "sales_appt": 0, "sales_maison": 9, "median_price": 399000.0, "median_price_per_sqm": 3483.6601307189544, "turnover_score": 1.4, "turnover_rank": 53, "first_year": 2021, "last_year": 2024, "years_active": 4}}, {"type": "Feature", "geometry": {"type": "Point", "coordinates": [2.704352, 48.869702]}, "properties": {"street_name": "AV DU BEAU SITE", "sales": 9, "sales_appt": 3, "sales_maison": 0, "median_price": 199000.0, "median_price_per_sqm": 2763.8888888888887, "turnover_score": 1.4, "turnover_rank": 53, "first_year": 2022, "last_year": 2024, "years_active": 2}}, {"type": "Feature", "geometry": {"type": "Point", "coordinates": [2.712897, 48.875737]}, "properties": {"street_name": "RUE DE METZ", "sales": 8, "sales_appt": 0, "sales_maison": 4, "median_price": 580000.0, "median_price_per_sqm": 4172.661870503597, "turnover_score": 1.3, "turnover_rank": 54, "first_year": 2022, "last_year": 2025, "years_active": 3}}, {"type": "Feature", "geometry": {"type": "Point", "coordinates": [2.724573, 48.8761795]}, "properties": {"street_name": "AV DES PAQUERETTES", "sales": 8, "sales_appt": 0, "sales_maison": 2, "median_price": 354500.0, "median_price_per_sqm": 6371.637426900585, "turnover_score": 1.3, "turnover_rank": 54, "first_year": 2022, "last_year": 2025, "years_active": 3}}, {"type": "Feature", "geometry": {"type": "Point", "coordinates": [2.703644, 48.878829]}, "properties": {"street_name": "RUE DES ETUVES", "sales": 8, "sales_appt": 3, "sales_maison": 0, "median_price": 160000.0, "median_price_per_sqm": 3712.303075768942, "turnover_score": 1.3, "turnover_rank": 54, "first_year": 2022, "last_year": 2025, "years_active": 4}}, {"type": "Feature", "geometry": {"type": "Point", "coordinates": [2.697987, 48.872875]}, "properties": {"street_name": "RUE DU DOCTEUR NICOLE MANGIN", "sales": 8, "sales_appt": 4, "sales_maison": 0, "median_price": 223000.0, "median_price_per_sqm": 4789.4503546099295, "turnover_score": 1.3, "turnover_rank": 54, "first_year": 2022, "last_year": 2025, "years_active": 3}}, {"type": "Feature", "geometry": {"type": "Point", "coordinates": [2.699218, 48.877304]}, "properties": {"street_name": "AV DE LA REPUBLIQUE", "sales": 8, "sales_appt": 0, "sales_maison": 5, "median_price": 372000.0, "median_price_per_sqm": 5314.285714285715, "turnover_score": 1.3, "turnover_rank": 54, "first_year": 2021, "last_year": 2025, "years_active": 4}}, {"type": "Feature", "geometry": {"type": "Point", "coordinates": [2.718116, 48.865723]}, "properties": {"street_name": "RUE DES FLEURS", "sales": 7, "sales_appt": 0, "sales_maison": 4, "median_price": 340000.0, "median_price_per_sqm": 4226.75026123302, "turnover_score": 1.1, "turnover_rank": 55, "first_year": 2023, "last_year": 2025, "years_active": 2}}, {"type": "Feature", "geometry": {"type": "Point", "coordinates": [2.690827, 48.876073]}, "properties": {"street_name": "ALL DU SEQUOIA", "sales": 7, "sales_appt": 3, "sales_maison": 0, "median_price": 373600.0, "median_price_per_sqm": 3592.3076923076924, "turnover_score": 1.1, "turnover_rank": 55, "first_year": 2022, "last_year": 2024, "years_active": 2}}, {"type": "Feature", "geometry": {"type": "Point", "coordinates": [2.728731, 48.880917]}, "properties": {"street_name": "ALL DES CARPES", "sales": 7, "sales_appt": 0, "sales_maison": 3, "median_price": 405000.0, "median_price_per_sqm": 3873.2558139534885, "turnover_score": 1.1, "turnover_rank": 55, "first_year": 2021, "last_year": 2024, "years_active": 2}}, {"type": "Feature", "geometry": {"type": "Point", "coordinates": [2.715603, 48.870159]}, "properties": {"street_name": "RUE PIERRE SEMARD", "sales": 7, "sales_appt": 0, "sales_maison": 3, "median_price": 113330.0, "median_price_per_sqm": 3495.0495049504952, "turnover_score": 1.1, "turnover_rank": 55, "first_year": 2021, "last_year": 2025, "years_active": 4}}, {"type": "Feature", "geometry": {"type": "Point", "coordinates": [2.715409, 48.867258]}, "properties": {"street_name": "RUE DES ROSES PROLONGEE", "sales": 7, "sales_appt": 0, "sales_maison": 4, "median_price": 480000.0, "median_price_per_sqm": 3966.9421487603304, "turnover_score": 1.1, "turnover_rank": 55, "first_year": 2021, "last_year": 2025, "years_active": 3}}, {"type": "Feature", "geometry": {"type": "Point", "coordinates": [2.690047, 48.879313]}, "properties": {"street_name": "RUE DE NANCY", "sales": 7, "sales_appt": 0, "sales_maison": 1, "median_price": 358000.0, "median_price_per_sqm": 2186.0239162929747, "turnover_score": 1.1, "turnover_rank": 55, "first_year": 2022, "last_year": 2024, "years_active": 2}}, {"type": "Feature", "geometry": {"type": "Point", "coordinates": [2.712799, 48.873757]}, "properties": {"street_name": "RUE ALFRED BREBION", "sales": 7, "sales_appt": 0, "sales_maison": 3, "median_price": 400000.0, "median_price_per_sqm": 5293.181818181818, "turnover_score": 1.1, "turnover_rank": 55, "first_year": 2021, "last_year": 2025, "years_active": 3}}, {"type": "Feature", "geometry": {"type": "Point", "coordinates": [2.722442, 48.881417]}, "properties": {"street_name": "RUE DU CANADA", "sales": 7, "sales_appt": 1, "sales_maison": 1, "median_price": 362000.0, "median_price_per_sqm": 3120.689655172414, "turnover_score": 1.1, "turnover_rank": 55, "first_year": 2021, "last_year": 2025, "years_active": 4}}, {"type": "Feature", "geometry": {"type": "Point", "coordinates": [2.705175, 48.879863]}, "properties": {"street_name": "RUE DES VIEUX MOULINS", "sales": 6, "sales_appt": 3, "sales_maison": 0, "median_price": 197500.0, "median_price_per_sqm": 3237.2742200328407, "turnover_score": 1.0, "turnover_rank": 56, "first_year": 2021, "last_year": 2024, "years_active": 3}}, {"type": "Feature", "geometry": {"type": "Point", "coordinates": [2.71707, 48.866678]}, "properties": {"street_name": "RUE DU PRESIDENT", "sales": 6, "sales_appt": 0, "sales_maison": 4, "median_price": 230900.0, "median_price_per_sqm": 3209.8278335724535, "turnover_score": 1.0, "turnover_rank": 56, "first_year": 2021, "last_year": 2024, "years_active": 4}}, {"type": "Feature", "geometry": {"type": "Point", "coordinates": [2.706436, 48.87677]}, "properties": {"street_name": "RUE HENRI BOUTEILLER", "sales": 6, "sales_appt": 3, "sales_maison": 0, "median_price": 128500.0, "median_price_per_sqm": 3569.4444444444443, "turnover_score": 1.0, "turnover_rank": 56, "first_year": 2023, "last_year": 2025, "years_active": 3}}, {"type": "Feature", "geometry": {"type": "Point", "coordinates": [2.71862, 48.875769]}, "properties": {"street_name": "RUE DU DOCTEUR ROUX", "sales": 6, "sales_appt": 0, "sales_maison": 2, "median_price": 401322.5, "median_price_per_sqm": 4362.201086956522, "turnover_score": 1.0, "turnover_rank": 56, "first_year": 2023, "last_year": 2025, "years_active": 2}}, {"type": "Feature", "geometry": {"type": "Point", "coordinates": [2.7117015, 48.865984499999996]}, "properties": {"street_name": "ALL ABBE JAGER", "sales": 6, "sales_appt": 0, "sales_maison": 6, "median_price": 340000.0, "median_price_per_sqm": 3257.1839080459768, "turnover_score": 1.0, "turnover_rank": 56, "first_year": 2021, "last_year": 2025, "years_active": 3}}, {"type": "Feature", "geometry": {"type": "Point", "coordinates": [2.714127, 48.871055]}, "properties": {"street_name": "RUE DES CHRYSANTHEMES", "sales": 6, "sales_appt": 0, "sales_maison": 3, "median_price": 300000.0, "median_price_per_sqm": 3571.4285714285716, "turnover_score": 1.0, "turnover_rank": 56, "first_year": 2021, "last_year": 2024, "years_active": 2}}, {"type": "Feature", "geometry": {"type": "Point", "coordinates": [2.693063, 48.8776825]}, "properties": {"street_name": "RUE CARNOT PROLONGEE", "sales": 6, "sales_appt": 0, "sales_maison": 2, "median_price": 372000.0, "median_price_per_sqm": 4645.929339477727, "turnover_score": 1.0, "turnover_rank": 56, "first_year": 2023, "last_year": 2024, "years_active": 2}}, {"type": "Feature", "geometry": {"type": "Point", "coordinates": [2.715477, 48.873353]}, "properties": {"street_name": "RUE DU COMMANDANT BRES", "sales": 6, "sales_appt": 0, "sales_maison": 5, "median_price": 463022.5, "median_price_per_sqm": 4881.35593220339, "turnover_score": 1.0, "turnover_rank": 56, "first_year": 2022, "last_year": 2025, "years_active": 4}}, {"type": "Feature", "geometry": {"type": "Point", "coordinates": [2.7114564999999997, 48.872551]}, "properties": {"street_name": "IMP DES CHAUFFERNES", "sales": 6, "sales_appt": 0, "sales_maison": 4, "median_price": 465386.1, "median_price_per_sqm": 4300.021119592875, "turnover_score": 1.0, "turnover_rank": 56, "first_year": 2022, "last_year": 2025, "years_active": 4}}, {"type": "Feature", "geometry": {"type": "Point", "coordinates": [2.6987389999999998, 48.8787345]}, "properties": {"street_name": "AV DU MARECHAL JUIN", "sales": 6, "sales_appt": 0, "sales_maison": 3, "median_price": 460000.0, "median_price_per_sqm": 4181.818181818182, "turnover_score": 1.0, "turnover_rank": 56, "first_year": 2021, "last_year": 2025, "years_active": 2}}, {"type": "Feature", "geometry": {"type": "Point", "coordinates": [2.716639, 48.874641]}, "properties": {"street_name": "IMP DES HEURTEAUX", "sales": 6, "sales_appt": 0, "sales_maison": 4, "median_price": 192500.0, "median_price_per_sqm": 3381.156930126002, "turnover_score": 1.0, "turnover_rank": 56, "first_year": 2021, "last_year": 2024, "years_active": 2}}, {"type": "Feature", "geometry": {"type": "Point", "coordinates": [2.7261465, 48.880336]}, "properties": {"street_name": "CHE DES ETOISIES", "sales": 6, "sales_appt": 0, "sales_maison": 4, "median_price": 414390.0, "median_price_per_sqm": 3854.040404040404, "turnover_score": 1.0, "turnover_rank": 56, "first_year": 2022, "last_year": 2025, "years_active": 3}}, {"type": "Feature", "geometry": {"type": "Point", "coordinates": [2.699789, 48.865971]}, "properties": {"street_name": "AV CHARLES LATOISON DUVAL", "sales": 6, "sales_appt": 0, "sales_maison": 6, "median_price": 368740.0, "median_price_per_sqm": 4086.4197530864194, "turnover_score": 1.0, "turnover_rank": 56, "first_year": 2021, "last_year": 2025, "years_active": 3}}, {"type": "Feature", "geometry": {"type": "Point", "coordinates": [2.7122655, 48.8653335]}, "properties": {"street_name": "AV ERNEST RENAN", "sales": 6, "sales_appt": 0, "sales_maison": 6, "median_price": 334500.0, "median_price_per_sqm": 2980.9294871794873, "turnover_score": 1.0, "turnover_rank": 56, "first_year": 2021, "last_year": 2025, "years_active": 3}}, {"type": "Feature", "geometry": {"type": "Point", "coordinates": [2.710252, 48.870062]}, "properties": {"street_name": "ALL DES PIVOINES", "sales": 6, "sales_appt": 3, "sales_maison": 0, "median_price": 231000.0, "median_price_per_sqm": 3786.8852459016393, "turnover_score": 1.0, "turnover_rank": 56, "first_year": 2022, "last_year": 2025, "years_active": 3}}, {"type": "Feature", "geometry": {"type": "Point", "coordinates": [2.726257, 48.879165]}, "properties": {"street_name": "ALL DES NOISETIERS", "sales": 6, "sales_appt": 0, "sales_maison": 4, "median_price": 526500.0, "median_price_per_sqm": 3752.2990328206756, "turnover_score": 1.0, "turnover_rank": 56, "first_year": 2022, "last_year": 2023, "years_active": 2}}, {"type": "Feature", "geometry": {"type": "Point", "coordinates": [2.717344, 48.877957]}, "properties": {"street_name": "ALL DE LA HEUSE", "sales": 5, "sales_appt": 0, "sales_maison": 5, "median_price": 387000.0, "median_price_per_sqm": 3860.7843137254904, "turnover_score": 0.8, "turnover_rank": 57, "first_year": 2021, "last_year": 2025, "years_active": 4}}, {"type": "Feature", "geometry": {"type": "Point", "coordinates": [2.711771, 48.875162]}, "properties": {"street_name": "IMP DES BLEUETS", "sales": 5, "sales_appt": 0, "sales_maison": 3, "median_price": 470000.0, "median_price_per_sqm": 5202.020202020202, "turnover_score": 0.8, "turnover_rank": 57, "first_year": 2023, "last_year": 2024, "years_active": 2}}, {"type": "Feature", "geometry": {"type": "Point", "coordinates": [2.705324, 48.869953]}, "properties": {"street_name": "AV DE LA VICTOIRE", "sales": 5, "sales_appt": 0, "sales_maison": 4, "median_price": 406000.0, "median_price_per_sqm": 4726.420454545454, "turnover_score": 0.8, "turnover_rank": 57, "first_year": 2021, "last_year": 2024, "years_active": 3}}, {"type": "Feature", "geometry": {"type": "Point", "coordinates": [2.727897, 48.875948]}, "properties": {"street_name": "AV DU DOCTEUR BERGOGNIE", "sales": 5, "sales_appt": 0, "sales_maison": 3, "median_price": 368000.0, "median_price_per_sqm": 6222.222222222223, "turnover_score": 0.8, "turnover_rank": 57, "first_year": 2021, "last_year": 2025, "years_active": 3}}, {"type": "Feature", "geometry": {"type": "Point", "coordinates": [2.703938, 48.877208]}, "properties": {"street_name": "RUE DES LIONS", "sales": 5, "sales_appt": 3, "sales_maison": 0, "median_price": 160000.0, "median_price_per_sqm": 2469.135802469136, "turnover_score": 0.8, "turnover_rank": 57, "first_year": 2022, "last_year": 2022, "years_active": 1}}, {"type": "Feature", "geometry": {"type": "Point", "coordinates": [2.731438, 48.882846]}, "properties": {"street_name": "ALL DES GOUJONS", "sales": 4, "sales_appt": 0, "sales_maison": 2, "median_price": 270000.0, "median_price_per_sqm": 4168.198529411765, "turnover_score": 0.6, "turnover_rank": 58, "first_year": 2022, "last_year": 2025, "years_active": 3}}, {"type": "Feature", "geometry": {"type": "Point", "coordinates": [2.7268065, 48.8755865]}, "properties": {"street_name": "AV CHARLES INFROIS", "sales": 4, "sales_appt": 0, "sales_maison": 4, "median_price": 303575.0, "median_price_per_sqm": 4053.1506849315065, "turnover_score": 0.6, "turnover_rank": 58, "first_year": 2021, "last_year": 2024, "years_active": 3}}, {"type": "Feature", "geometry": {"type": "Point", "coordinates": [2.701231, 48.867012]}, "properties": {"street_name": "ALL RODOLPHE PIGUET", "sales": 4, "sales_appt": 0, "sales_maison": 3, "median_price": 389500.0, "median_price_per_sqm": 3717.1717171717173, "turnover_score": 0.6, "turnover_rank": 58, "first_year": 2023, "last_year": 2024, "years_active": 2}}, {"type": "Feature", "geometry": {"type": "Point", "coordinates": [2.701927, 48.876558]}, "properties": {"street_name": "IMP DES RAIMBAULT", "sales": 4, "sales_appt": 4, "sales_maison": 0, "median_price": 166655.0, "median_price_per_sqm": 4012.6162790697676, "turnover_score": 0.6, "turnover_rank": 58, "first_year": 2022, "last_year": 2025, "years_active": 2}}, {"type": "Feature", "geometry": {"type": "Point", "coordinates": [2.708777, 48.875079]}, "properties": {"street_name": "RUE DE LA PAIX", "sales": 4, "sales_appt": 0, "sales_maison": 2, "median_price": 571000.0, "median_price_per_sqm": 4803.030303030303, "turnover_score": 0.6, "turnover_rank": 58, "first_year": 2022, "last_year": 2024, "years_active": 2}}, {"type": "Feature", "geometry": {"type": "Point", "coordinates": [2.69299, 48.878841]}, "properties": {"street_name": "RUE CARNOT", "sales": 4, "sales_appt": 1, "sales_maison": 1, "median_price": 265000.0, "median_price_per_sqm": 5284.04679144385, "turnover_score": 0.6, "turnover_rank": 58, "first_year": 2022, "last_year": 2022, "years_active": 1}}, {"type": "Feature", "geometry": {"type": "Point", "coordinates": [2.702076, 48.877524]}, "properties": {"street_name": "RUE DE L AITRE", "sales": 4, "sales_appt": 1, "sales_maison": 1, "median_price": 145500.0, "median_price_per_sqm": 4231.349206349207, "turnover_score": 0.6, "turnover_rank": 58, "first_year": 2021, "last_year": 2021, "years_active": 1}}, {"type": "Feature", "geometry": {"type": "Point", "coordinates": [2.708247, 48.877697]}, "properties": {"street_name": "RUE JEAN ELIE", "sales": 4, "sales_appt": 2, "sales_maison": 0, "median_price": 360000.0, "median_price_per_sqm": 7279.411764705883, "turnover_score": 0.6, "turnover_rank": 58, "first_year": 2022, "last_year": 2022, "years_active": 1}}, {"type": "Feature", "geometry": {"type": "Point", "coordinates": [2.7183425000000003, 48.867576]}, "properties": {"street_name": "RUE JEAN MOULIN", "sales": 4, "sales_appt": 0, "sales_maison": 3, "median_price": 278500.0, "median_price_per_sqm": 3991.10611326927, "turnover_score": 0.6, "turnover_rank": 58, "first_year": 2021, "last_year": 2025, "years_active": 2}}, {"type": "Feature", "geometry": {"type": "Point", "coordinates": [2.680448, 48.872494]}, "properties": {"street_name": "RUE LAVOISIER", "sales": 4, "sales_appt": 0, "sales_maison": 0, "median_price": 860000.0, "median_price_per_sqm": 880.8290155440415, "turnover_score": 0.6, "turnover_rank": 58, "first_year": 2021, "last_year": 2021, "years_active": 1}}, {"type": "Feature", "geometry": {"type": "Point", "coordinates": [2.698255, 48.877826]}, "properties": {"street_name": "RUE PIERRE MARIE CURIE", "sales": 4, "sales_appt": 0, "sales_maison": 2, "median_price": 201000.0, "median_price_per_sqm": 3949.612403100775, "turnover_score": 0.6, "turnover_rank": 58, "first_year": 2021, "last_year": 2024, "years_active": 2}}, {"type": "Feature", "geometry": {"type": "Point", "coordinates": [2.704509, 48.877643]}, "properties": {"street_name": "PL DE LA FONTAINE", "sales": 4, "sales_appt": 2, "sales_maison": 0, "median_price": 158000.0, "median_price_per_sqm": 4365.151515151515, "turnover_score": 0.6, "turnover_rank": 58, "first_year": 2022, "last_year": 2025, "years_active": 2}}, {"type": "Feature", "geometry": {"type": "Point", "coordinates": [2.7020334999999998, 48.8670725]}, "properties": {"street_name": "AV ALPHONSE LINT", "sales": 4, "sales_appt": 0, "sales_maison": 4, "median_price": 336500.0, "median_price_per_sqm": 3398.9898989898993, "turnover_score": 0.6, "turnover_rank": 58, "first_year": 2023, "last_year": 2025, "years_active": 3}}, {"type": "Feature", "geometry": {"type": "Point", "coordinates": [2.729282, 48.878264]}, "properties": {"street_name": "AV DES LILAS", "sales": 4, "sales_appt": 0, "sales_maison": 2, "median_price": 258000.0, "median_price_per_sqm": 2704.7619047619046, "turnover_score": 0.6, "turnover_rank": 58, "first_year": 2023, "last_year": 2025, "years_active": 2}}, {"type": "Feature", "geometry": {"type": "Point", "coordinates": [2.705998, 48.875864]}, "properties": {"street_name": "BD DU MARECHAL GALLIENI", "sales": 4, "sales_appt": 0, "sales_maison": 2, "median_price": 800000.0, "median_price_per_sqm": 3738.3177570093458, "turnover_score": 0.6, "turnover_rank": 58, "first_year": 2025, "last_year": 2025, "years_active": 1}}, {"type": "Feature", "geometry": {"type": "Point", "coordinates": [2.7222655, 48.87398]}, "properties": {"street_name": "RUE LOUIS BLERIOT", "sales": 4, "sales_appt": 0, "sales_maison": 0, "median_price": 400000.0, "median_price_per_sqm": null, "turnover_score": 0.6, "turnover_rank": 58, "first_year": 2021, "last_year": 2021, "years_active": 1}}, {"type": "Feature", "geometry": {"type": "Point", "coordinates": [2.693156, 48.877306000000004]}, "properties": {"street_name": "RUE LEON BLOY", "sales": 4, "sales_appt": 0, "sales_maison": 2, "median_price": 349000.0, "median_price_per_sqm": 3666.6666666666665, "turnover_score": 0.6, "turnover_rank": 58, "first_year": 2021, "last_year": 2023, "years_active": 2}}, {"type": "Feature", "geometry": {"type": "Point", "coordinates": [2.721008, 48.874556]}, "properties": {"street_name": "RUE MARCEL RIVIERE", "sales": 4, "sales_appt": 1, "sales_maison": 0, "median_price": 81500.0, "median_price_per_sqm": 1040.0, "turnover_score": 0.6, "turnover_rank": 58, "first_year": 2021, "last_year": 2023, "years_active": 3}}, {"type": "Feature", "geometry": {"type": "Point", "coordinates": [2.7164275, 48.868961]}, "properties": {"street_name": "RUE DE BELLEVUE", "sales": 4, "sales_appt": 0, "sales_maison": 3, "median_price": 397500.0, "median_price_per_sqm": 5645.1612903225805, "turnover_score": 0.6, "turnover_rank": 58, "first_year": 2022, "last_year": 2025, "years_active": 3}}, {"type": "Feature", "geometry": {"type": "Point", "coordinates": [2.69513, 48.876070999999996]}, "properties": {"street_name": "RUE DE NANTES", "sales": 4, "sales_appt": 1, "sales_maison": 1, "median_price": 193300.0, "median_price_per_sqm": 3449.721706864564, "turnover_score": 0.6, "turnover_rank": 58, "first_year": 2021, "last_year": 2022, "years_active": 2}}, {"type": "Feature", "geometry": {"type": "Point", "coordinates": [2.7077635, 48.875125499999996]}, "properties": {"street_name": "RUE DES SOURCES", "sales": 4, "sales_appt": 0, "sales_maison": 2, "median_price": 491900.0, "median_price_per_sqm": 4953.152644456993, "turnover_score": 0.6, "turnover_rank": 58, "first_year": 2024, "last_year": 2025, "years_active": 2}}, {"type": "Feature", "geometry": {"type": "Point", "coordinates": [2.696554, 48.869558]}, "properties": {"street_name": "SEN PETITE SENTE VERTE", "sales": 3, "sales_appt": 0, "sales_maison": 3, "median_price": 280000.0, "median_price_per_sqm": 4516.129032258064, "turnover_score": 0.5, "turnover_rank": 59, "first_year": 2021, "last_year": 2024, "years_active": 2}}, {"type": "Feature", "geometry": {"type": "Point", "coordinates": [2.714492, 48.874733]}, "properties": {"street_name": "RUE NORMANDIE NIEMEN", "sales": 3, "sales_appt": 1, "sales_maison": 0, "median_price": 280000.0, "median_price_per_sqm": 4000.0, "turnover_score": 0.5, "turnover_rank": 59, "first_year": 2022, "last_year": 2022, "years_active": 1}}, {"type": "Feature", "geometry": {"type": "Point", "coordinates": [2.724952, 48.881185]}, "properties": {"street_name": "RUE DE L ILE MAUBERT", "sales": 3, "sales_appt": 0, "sales_maison": 3, "median_price": 473000.0, "median_price_per_sqm": 3504.0, "turnover_score": 0.5, "turnover_rank": 59, "first_year": 2021, "last_year": 2021, "years_active": 1}}, {"type": "Feature", "geometry": {"type": "Point", "coordinates": [2.717136, 48.865205]}, "properties": {"street_name": "RUE DES MIMOSAS", "sales": 3, "sales_appt": 0, "sales_maison": 2, "median_price": 466890.0, "median_price_per_sqm": 2333.321917808219, "turnover_score": 0.5, "turnover_rank": 59, "first_year": 2025, "last_year": 2025, "years_active": 1}}, {"type": "Feature", "geometry": {"type": "Point", "coordinates": [2.724098, 48.86833]}, "properties": {"street_name": "LE BOIS DE CHIGNY", "sales": 3, "sales_appt": 0, "sales_maison": 0, "median_price": 190500.0, "median_price_per_sqm": null, "turnover_score": 0.5, "turnover_rank": 59, "first_year": 2025, "last_year": 2025, "years_active": 1}}, {"type": "Feature", "geometry": {"type": "Point", "coordinates": [2.714164, 48.869548]}, "properties": {"street_name": "CHE DU CHAMP POURRI", "sales": 3, "sales_appt": 0, "sales_maison": 0, "median_price": 915000.0, "median_price_per_sqm": null, "turnover_score": 0.5, "turnover_rank": 59, "first_year": 2021, "last_year": 2022, "years_active": 2}}, {"type": "Feature", "geometry": {"type": "Point", "coordinates": [2.690252, 48.87434]}, "properties": {"street_name": "IMP DES SERRES", "sales": 3, "sales_appt": 0, "sales_maison": 3, "median_price": 359200.0, "median_price_per_sqm": 4035.955056179775, "turnover_score": 0.5, "turnover_rank": 59, "first_year": 2022, "last_year": 2023, "years_active": 2}}, {"type": "Feature", "geometry": {"type": "Point", "coordinates": [2.73035, 48.874826]}, "properties": {"street_name": "RUE JULES MASSENET", "sales": 3, "sales_appt": 0, "sales_maison": 2, "median_price": 323000.0, "median_price_per_sqm": 4593.333333333334, "turnover_score": 0.5, "turnover_rank": 59, "first_year": 2021, "last_year": 2024, "years_active": 2}}, {"type": "Feature", "geometry": {"type": "Point", "coordinates": [2.715309, 48.868188]}, "properties": {"street_name": "RUE HENRI JARDIN", "sales": 3, "sales_appt": 0, "sales_maison": 3, "median_price": 400000.0, "median_price_per_sqm": 3950.9615384615386, "turnover_score": 0.5, "turnover_rank": 59, "first_year": 2022, "last_year": 2025, "years_active": 3}}, {"type": "Feature", "geometry": {"type": "Point", "coordinates": [2.714278, 48.866048]}, "properties": {"street_name": "RUE EMMANUEL GREVIN", "sales": 3, "sales_appt": 0, "sales_maison": 2, "median_price": 332000.0, "median_price_per_sqm": 3658.653846153846, "turnover_score": 0.5, "turnover_rank": 59, "first_year": 2021, "last_year": 2025, "years_active": 2}}, {"type": "Feature", "geometry": {"type": "Point", "coordinates": [2.695067, 48.873533]}, "properties": {"street_name": "AV DE ROTHSCHILD", "sales": 3, "sales_appt": 0, "sales_maison": 0, "median_price": 509172.0, "median_price_per_sqm": null, "turnover_score": 0.5, "turnover_rank": 59, "first_year": 2022, "last_year": 2022, "years_active": 1}}, {"type": "Feature", "geometry": {"type": "Point", "coordinates": [2.729853, 48.878049]}, "properties": {"street_name": "AV DES MARGUERITES", "sales": 3, "sales_appt": 0, "sales_maison": 2, "median_price": 402152.0, "median_price_per_sqm": 4521.005405405405, "turnover_score": 0.5, "turnover_rank": 59, "first_year": 2021, "last_year": 2022, "years_active": 2}}, {"type": "Feature", "geometry": {"type": "Point", "coordinates": [2.702492, 48.866066]}, "properties": {"street_name": "AV HENRI LEBASQUE", "sales": 3, "sales_appt": 0, "sales_maison": 3, "median_price": 150000.0, "median_price_per_sqm": 1500.0, "turnover_score": 0.5, "turnover_rank": 59, "first_year": 2022, "last_year": 2022, "years_active": 1}}, {"type": "Feature", "geometry": {"type": "Point", "coordinates": [2.702287, 48.865736]}, "properties": {"street_name": "AV JEAN BAPTISTE LE PRINCE", "sales": 3, "sales_appt": 0, "sales_maison": 3, "median_price": 409000.0, "median_price_per_sqm": 3525.862068965517, "turnover_score": 0.5, "turnover_rank": 59, "first_year": 2022, "last_year": 2022, "years_active": 1}}, {"type": "Feature", "geometry": {"type": "Point", "coordinates": [2.720394, 48.867105]}, "properties": {"street_name": "CHE DE LA QUARANTAINE", "sales": 3, "sales_appt": 0, "sales_maison": 2, "median_price": 299970.0, "median_price_per_sqm": 3916.315789473684, "turnover_score": 0.5, "turnover_rank": 59, "first_year": 2022, "last_year": 2023, "years_active": 2}}, {"type": "Feature", "geometry": {"type": "Point", "coordinates": [2.730166, 48.8809485]}, "properties": {"street_name": "ALL DES PECHEURS", "sales": 2, "sales_appt": 0, "sales_maison": 1, "median_price": 370000.0, "median_price_per_sqm": 5138.888888888889, "turnover_score": 0.3, "turnover_rank": 60, "first_year": 2024, "last_year": 2024, "years_active": 1}}, {"type": "Feature", "geometry": {"type": "Point", "coordinates": [2.709078, 48.880065]}, "properties": {"street_name": "ALL DES FRENES", "sales": 2, "sales_appt": 0, "sales_maison": 2, "median_price": 1075800.0, "median_price_per_sqm": 20688.46153846154, "turnover_score": 0.3, "turnover_rank": 60, "first_year": 2022, "last_year": 2022, "years_active": 1}}, {"type": "Feature", "geometry": {"type": "Point", "coordinates": [2.728424, 48.870025]}, "properties": {"street_name": "AV DES 3 AMIS", "sales": 2, "sales_appt": 0, "sales_maison": 0, "median_price": 190500.0, "median_price_per_sqm": null, "turnover_score": 0.3, "turnover_rank": 60, "first_year": 2025, "last_year": 2025, "years_active": 1}}, {"type": "Feature", "geometry": {"type": "Point", "coordinates": [2.724902, 48.88179]}, "properties": {"street_name": "ALL DES MESANGES", "sales": 2, "sales_appt": 0, "sales_maison": 2, "median_price": 484100.0, "median_price_per_sqm": 3667.4242424242425, "turnover_score": 0.3, "turnover_rank": 60, "first_year": 2023, "last_year": 2023, "years_active": 1}}, {"type": "Feature", "geometry": {"type": "Point", "coordinates": [2.727475, 48.873386]}, "properties": {"street_name": "IMP DU DOCTEUR DEMARS", "sales": 2, "sales_appt": 0, "sales_maison": 1, "median_price": 350000.0, "median_price_per_sqm": 3365.3846153846152, "turnover_score": 0.3, "turnover_rank": 60, "first_year": 2022, "last_year": 2022, "years_active": 1}}, {"type": "Feature", "geometry": {"type": "Point", "coordinates": [2.6902179999999998, 48.874806]}, "properties": {"street_name": "IMP DES JARDINIERS", "sales": 2, "sales_appt": 0, "sales_maison": 2, "median_price": 392500.0, "median_price_per_sqm": 4343.246213971666, "turnover_score": 0.3, "turnover_rank": 60, "first_year": 2022, "last_year": 2025, "years_active": 2}}, {"type": "Feature", "geometry": {"type": "Point", "coordinates": [2.705871, 48.86669]}, "properties": {"street_name": "LES MOULINS A VENT", "sales": 2, "sales_appt": 0, "sales_maison": 0, "median_price": 4940000.0, "median_price_per_sqm": null, "turnover_score": 0.3, "turnover_rank": 60, "first_year": 2024, "last_year": 2024, "years_active": 1}}, {"type": "Feature", "geometry": {"type": "Point", "coordinates": [2.7154815, 48.877455499999996]}, "properties": {"street_name": "RUE DE GERARDMER", "sales": 2, "sales_appt": 0, "sales_maison": 2, "median_price": 406500.0, "median_price_per_sqm": 3805.442836979534, "turnover_score": 0.3, "turnover_rank": 60, "first_year": 2023, "last_year": 2024, "years_active": 2}}, {"type": "Feature", "geometry": {"type": "Point", "coordinates": [2.726537, 48.878338]}, "properties": {"street_name": "AV DES CAMELIAS", "sales": 2, "sales_appt": 0, "sales_maison": 1, "median_price": 340000.0, "median_price_per_sqm": 4358.974358974359, "turnover_score": 0.3, "turnover_rank": 60, "first_year": 2022, "last_year": 2022, "years_active": 1}}, {"type": "Feature", "geometry": {"type": "Point", "coordinates": [2.7152465, 48.872399]}, "properties": {"street_name": "CHE PERDU", "sales": 2, "sales_appt": 0, "sales_maison": 1, "median_price": 562500.0, "median_price_per_sqm": 4468.75, "turnover_score": 0.3, "turnover_rank": 60, "first_year": 2024, "last_year": 2025, "years_active": 2}}, {"type": "Feature", "geometry": {"type": "Point", "coordinates": [2.723347, 48.866937]}, "properties": {"street_name": "LA QUARANTAINE", "sales": 2, "sales_appt": 0, "sales_maison": 0, "median_price": 184200.0, "median_price_per_sqm": null, "turnover_score": 0.3, "turnover_rank": 60, "first_year": 2025, "last_year": 2025, "years_active": 1}}, {"type": "Feature", "geometry": {"type": "Point", "coordinates": [2.6935085, 48.876442999999995]}, "properties": {"street_name": "RUE SARDA", "sales": 2, "sales_appt": 0, "sales_maison": 2, "median_price": 354992.5, "median_price_per_sqm": 6826.72322083639, "turnover_score": 0.3, "turnover_rank": 60, "first_year": 2022, "last_year": 2022, "years_active": 1}}, {"type": "Feature", "geometry": {"type": "Point", "coordinates": [2.7159915000000003, 48.872139000000004]}, "properties": {"street_name": "RUE SAINT EXUPERY", "sales": 2, "sales_appt": 0, "sales_maison": 2, "median_price": 229500.0, "median_price_per_sqm": 3207.972462802576, "turnover_score": 0.3, "turnover_rank": 60, "first_year": 2021, "last_year": 2022, "years_active": 2}}, {"type": "Feature", "geometry": {"type": "Point", "coordinates": [2.715258, 48.872144]}, "properties": {"street_name": "RUE MAURICE TOUQUOY", "sales": 2, "sales_appt": 0, "sales_maison": 1, "median_price": 475300.0, "median_price_per_sqm": 4320.909090909091, "turnover_score": 0.3, "turnover_rank": 60, "first_year": 2023, "last_year": 2023, "years_active": 1}}, {"type": "Feature", "geometry": {"type": "Point", "coordinates": [2.7299645, 48.8758555]}, "properties": {"street_name": "RUE MAURICE RAVEL", "sales": 2, "sales_appt": 0, "sales_maison": 2, "median_price": 334700.0, "median_price_per_sqm": 4584.931506849314, "turnover_score": 0.3, "turnover_rank": 60, "first_year": 2021, "last_year": 2021, "years_active": 1}}, {"type": "Feature", "geometry": {"type": "Point", "coordinates": [2.71845, 48.868246]}, "properties": {"street_name": "RUE DU PLATEAU", "sales": 2, "sales_appt": 0, "sales_maison": 1, "median_price": 223875.0, "median_price_per_sqm": 3327.127659574468, "turnover_score": 0.3, "turnover_rank": 60, "first_year": 2021, "last_year": 2024, "years_active": 2}}, {"type": "Feature", "geometry": {"type": "Point", "coordinates": [2.7123185000000003, 48.877669499999996]}, "properties": {"street_name": "RUE PASTEUR", "sales": 2, "sales_appt": 0, "sales_maison": 2, "median_price": 447500.0, "median_price_per_sqm": 5531.746031746032, "turnover_score": 0.3, "turnover_rank": 60, "first_year": 2022, "last_year": 2025, "years_active": 2}}, {"type": "Feature", "geometry": {"type": "Point", "coordinates": [2.7051135, 48.8770115]}, "properties": {"street_name": "PL DE L HOTEL DE VILLE", "sales": 2, "sales_appt": 2, "sales_maison": 0, "median_price": 101500.0, "median_price_per_sqm": 4290.476190476191, "turnover_score": 0.3, "turnover_rank": 60, "first_year": 2021, "last_year": 2025, "years_active": 2}}, {"type": "Feature", "geometry": {"type": "Point", "coordinates": [2.7096549999999997, 48.869055]}, "properties": {"street_name": "RUE CAVALLO PEDUZZI", "sales": 2, "sales_appt": 0, "sales_maison": 2, "median_price": 371500.0, "median_price_per_sqm": 3531.5656565656564, "turnover_score": 0.3, "turnover_rank": 60, "first_year": 2021, "last_year": 2022, "years_active": 2}}, {"type": "Feature", "geometry": {"type": "Point", "coordinates": [2.7119095, 48.8785695]}, "properties": {"street_name": "RUE DE LORRAINE", "sales": 2, "sales_appt": 0, "sales_maison": 2, "median_price": 648500.0, "median_price_per_sqm": 5256.547619047619, "turnover_score": 0.3, "turnover_rank": 60, "first_year": 2023, "last_year": 2025, "years_active": 2}}, {"type": "Feature", "geometry": {"type": "Point", "coordinates": [2.705238, 48.871005]}, "properties": {"street_name": "ALL DES TOURNELLES", "sales": 1, "sales_appt": 0, "sales_maison": 1, "median_price": 319000.0, "median_price_per_sqm": 3987.5, "turnover_score": 0.2, "turnover_rank": 61, "first_year": 2021, "last_year": 2021, "years_active": 1}}, {"type": "Feature", "geometry": {"type": "Point", "coordinates": [2.712411, 48.868153]}, "properties": {"street_name": "ALL BENJAMIN RAYNAUD", "sales": 1, "sales_appt": 0, "sales_maison": 1, "median_price": 270000.0, "median_price_per_sqm": 3506.4935064935066, "turnover_score": 0.2, "turnover_rank": 61, "first_year": 2021, "last_year": 2021, "years_active": 1}}, {"type": "Feature", "geometry": {"type": "Point", "coordinates": [2.719205, 48.865408]}, "properties": {"street_name": "ALL DES SOUPIRS", "sales": 1, "sales_appt": 0, "sales_maison": 0, "median_price": 20000.0, "median_price_per_sqm": null, "turnover_score": 0.2, "turnover_rank": 61, "first_year": 2023, "last_year": 2023, "years_active": 1}}, {"type": "Feature", "geometry": {"type": "Point", "coordinates": [2.690371, 48.875883]}, "properties": {"street_name": "ALL DU NOYER", "sales": 1, "sales_appt": 0, "sales_maison": 1, "median_price": 387000.0, "median_price_per_sqm": 4348.314606741573, "turnover_score": 0.2, "turnover_rank": 61, "first_year": 2023, "last_year": 2023, "years_active": 1}}, {"type": "Feature", "geometry": {"type": "Point", "coordinates": [2.690963, 48.874629]}, "properties": {"street_name": "ALL DE LA PEPINIERE", "sales": 1, "sales_appt": 0, "sales_maison": 1, "median_price": 191274.0, "median_price_per_sqm": 2304.5060240963853, "turnover_score": 0.2, "turnover_rank": 61, "first_year": 2023, "last_year": 2023, "years_active": 1}}, {"type": "Feature", "geometry": {"type": "Point", "coordinates": [2.702326, 48.866692]}, "properties": {"street_name": "ALL EMILE PAPILLON", "sales": 1, "sales_appt": 0, "sales_maison": 1, "median_price": 434000.0, "median_price_per_sqm": 5292.682926829269, "turnover_score": 0.2, "turnover_rank": 61, "first_year": 2023, "last_year": 2023, "years_active": 1}}, {"type": "Feature", "geometry": {"type": "Point", "coordinates": [2.698557, 48.865926]}, "properties": {"street_name": "ALL HENRI GABRIEL IBELS", "sales": 1, "sales_appt": 0, "sales_maison": 1, "median_price": 325000.0, "median_price_per_sqm": 4012.3456790123455, "turnover_score": 0.2, "turnover_rank": 61, "first_year": 2023, "last_year": 2023, "years_active": 1}}, {"type": "Feature", "geometry": {"type": "Point", "coordinates": [2.713225, 48.876541]}, "properties": {"street_name": "CHE VERT", "sales": 1, "sales_appt": 0, "sales_maison": 0, "median_price": 300000.0, "median_price_per_sqm": null, "turnover_score": 0.2, "turnover_rank": 61, "first_year": 2023, "last_year": 2023, "years_active": 1}}, {"type": "Feature", "geometry": {"type": "Point", "coordinates": [2.714218, 48.865824]}, "properties": {"street_name": "BD GEORGES POMPIDOU", "sales": 1, "sales_appt": 0, "sales_maison": 0, "median_price": 162000.0, "median_price_per_sqm": null, "turnover_score": 0.2, "turnover_rank": 61, "first_year": 2022, "last_year": 2022, "years_active": 1}}, {"type": "Feature", "geometry": {"type": "Point", "coordinates": [2.703689, 48.870641]}, "properties": {"street_name": "AV ROBERT FLAMANT", "sales": 1, "sales_appt": 0, "sales_maison": 1, "median_price": 415900.0, "median_price_per_sqm": 3554.7008547008545, "turnover_score": 0.2, "turnover_rank": 61, "first_year": 2021, "last_year": 2021, "years_active": 1}}, {"type": "Feature", "geometry": {"type": "Point", "coordinates": [2.718764, 48.880299]}, "properties": {"street_name": "AV DU BRAS SAINT PERE", "sales": 1, "sales_appt": 0, "sales_maison": 1, "median_price": 440000.0, "median_price_per_sqm": 3666.6666666666665, "turnover_score": 0.2, "turnover_rank": 61, "first_year": 2021, "last_year": 2021, "years_active": 1}}, {"type": "Feature", "geometry": {"type": "Point", "coordinates": [2.703882, 48.866522]}, "properties": {"street_name": "ALL MAXIMILIEN LUCE", "sales": 1, "sales_appt": 0, "sales_maison": 1, "median_price": 389000.0, "median_price_per_sqm": 4686.746987951808, "turnover_score": 0.2, "turnover_rank": 61, "first_year": 2022, "last_year": 2022, "years_active": 1}}, {"type": "Feature", "geometry": {"type": "Point", "coordinates": [2.711477, 48.867664]}, "properties": {"street_name": "AV ANDRE MALRAUX", "sales": 1, "sales_appt": 0, "sales_maison": 1, "median_price": 269235.0, "median_price_per_sqm": 3901.9565217391305, "turnover_score": 0.2, "turnover_rank": 61, "first_year": 2021, "last_year": 2021, "years_active": 1}}, {"type": "Feature", "geometry": {"type": "Point", "coordinates": [2.688652, 48.879422]}, "properties": {"street_name": "RUE DE BELFORT", "sales": 1, "sales_appt": 0, "sales_maison": 1, "median_price": 365000.0, "median_price_per_sqm": 3842.1052631578946, "turnover_score": 0.2, "turnover_rank": 61, "first_year": 2022, "last_year": 2022, "years_active": 1}}, {"type": "Feature", "geometry": {"type": "Point", "coordinates": [2.72899, 48.87639]}, "properties": {"street_name": "RUE CLAUDE DEBUSSY", "sales": 1, "sales_appt": 0, "sales_maison": 1, "median_price": 250000.0, "median_price_per_sqm": 2631.5789473684213, "turnover_score": 0.2, "turnover_rank": 61, "first_year": 2021, "last_year": 2021, "years_active": 1}}, {"type": "Feature", "geometry": {"type": "Point", "coordinates": [2.685213, 48.874584]}, "properties": {"street_name": "RUE BRANLY", "sales": 1, "sales_appt": 0, "sales_maison": 0, "median_price": 700000.0, "median_price_per_sqm": 583.3333333333334, "turnover_score": 0.2, "turnover_rank": 61, "first_year": 2023, "last_year": 2023, "years_active": 1}}, {"type": "Feature", "geometry": {"type": "Point", "coordinates": [2.687065, 48.875906]}, "properties": {"street_name": "LE NOYER DE LA MERE DIEU", "sales": 1, "sales_appt": 0, "sales_maison": 0, "median_price": 1350000.0, "median_price_per_sqm": null, "turnover_score": 0.2, "turnover_rank": 61, "first_year": 2024, "last_year": 2024, "years_active": 1}}, {"type": "Feature", "geometry": {"type": "Point", "coordinates": [2.680962, 48.870905]}, "properties": {"street_name": "RUE DU GRAVIER DU BAC", "sales": 1, "sales_appt": 0, "sales_maison": 0, "median_price": 1.0, "median_price_per_sqm": null, "turnover_score": 0.2, "turnover_rank": 61, "first_year": 2025, "last_year": 2025, "years_active": 1}}, {"type": "Feature", "geometry": {"type": "Point", "coordinates": [2.724497, 48.878534]}, "properties": {"street_name": "RUE DU PRE GARREAU", "sales": 1, "sales_appt": 0, "sales_maison": 1, "median_price": 328000.0, "median_price_per_sqm": 3313.131313131313, "turnover_score": 0.2, "turnover_rank": 61, "first_year": 2021, "last_year": 2021, "years_active": 1}}, {"type": "Feature", "geometry": {"type": "Point", "coordinates": [2.714037, 48.878402]}, "properties": {"street_name": "RUE HENRI MOISSAN", "sales": 1, "sales_appt": 0, "sales_maison": 1, "median_price": 557000.0, "median_price_per_sqm": 4641.666666666667, "turnover_score": 0.2, "turnover_rank": 61, "first_year": 2023, "last_year": 2023, "years_active": 1}}, {"type": "Feature", "geometry": {"type": "Point", "coordinates": [2.710135, 48.87573]}, "properties": {"street_name": "RUE DU DOCTEUR D HALLUIN", "sales": 1, "sales_appt": 0, "sales_maison": 1, "median_price": 395000.0, "median_price_per_sqm": 3264.4628099173556, "turnover_score": 0.2, "turnover_rank": 61, "first_year": 2021, "last_year": 2021, "years_active": 1}}, {"type": "Feature", "geometry": {"type": "Point", "coordinates": [2.714358, 48.86815]}, "properties": {"street_name": "RUE PIERRE DAVID BOILAT", "sales": 1, "sales_appt": 0, "sales_maison": 1, "median_price": 322000.0, "median_price_per_sqm": 3617.9775280898875, "turnover_score": 0.2, "turnover_rank": 61, "first_year": 2024, "last_year": 2024, "years_active": 1}}, {"type": "Feature", "geometry": {"type": "Point", "coordinates": [2.722712, 48.870186]}, "properties": {"street_name": "SOUS LE BOIS DE CHIGNY", "sales": 1, "sales_appt": 0, "sales_maison": 0, "median_price": 190500.0, "median_price_per_sqm": null, "turnover_score": 0.2, "turnover_rank": 61, "first_year": 2025, "last_year": 2025, "years_active": 1}}]}