{"type": "FeatureCollection", "features": [{"type": "Feature", "geometry": {"type": "Polygon", "coordinates": [[[2.499754, 48.459199], [2.503625, 48.460503], [2.505479, 48.461114], [2.506005, 48.46141], [2.506829, 48.460538], [2.508502, 48.461272], [2.508312, 48.461457], [2.509488, 48.461938], [2.51078, 48.462071], [2.511191, 48.461812], [2.511333, 48.461864], [2.513683, 48.462824], [2.514004, 48.462737], [2.514228, 48.463136], [2.514403, 48.46355], [2.514447, 48.463722], [2.51456, 48.464474], [2.514437, 48.465145], [2.514751, 48.465191], [2.516576, 48.465498], [2.515693, 48.466779], [2.516148, 48.466917], [2.51724, 48.467278], [2.517533, 48.467974], [2.51843, 48.468369], [2.517866, 48.468928], [2.518052, 48.469075], [2.519709, 48.470067], [2.519473, 48.470414], [2.5208, 48.471352], [2.521289, 48.471537], [2.521919, 48.471749], [2.522271, 48.471865], [2.523173, 48.472139], [2.524102, 48.47243], [2.525504, 48.472131], [2.526251, 48.472072], [2.526561, 48.47203], [2.527041, 48.471997], [2.528123, 48.471958], [2.52934, 48.471902], [2.529522, 48.471863], [2.530057, 48.471649], [2.530411, 48.47153], [2.530991, 48.471453], [2.531422, 48.471435], [2.53211, 48.471357], [2.533017, 48.471361], [2.533324, 48.471396], [2.533787, 48.471493], [2.534368, 48.471577], [2.534856, 48.471631], [2.536154, 48.471676], [2.536717, 48.471639], [2.537247, 48.471574], [2.538982, 48.471041], [2.539942, 48.47068], [2.541079, 48.469774], [2.5414, 48.46956], [2.541809, 48.469382], [2.542394, 48.469045], [2.542573, 48.469164], [2.542648, 48.469101], [2.542551, 48.46896], [2.542672, 48.468906], [2.542961, 48.468857], [2.543884, 48.468659], [2.544093, 48.468603], [2.544508, 48.468432], [2.545565, 48.467931], [2.545891, 48.467745], [2.546298, 48.467457], [2.546789, 48.466979], [2.547282, 48.466689], [2.548704, 48.465955], [2.548892, 48.465868], [2.549433, 48.465565], [2.549142, 48.465235], [2.54839, 48.46441], [2.548503, 48.464355], [2.548066, 48.46376], [2.548006, 48.463745], [2.54766, 48.463305], [2.547607, 48.463185], [2.547599, 48.462979], [2.547146, 48.462377], [2.546691, 48.461584], [2.546447, 48.461454], [2.54618, 48.460903], [2.545852, 48.46043], [2.545558, 48.459942], [2.545504, 48.459794], [2.545625, 48.459766], [2.545205, 48.459403], [2.545467, 48.459198], [2.545179, 48.459026], [2.545041, 48.458875], [2.544958, 48.458635], [2.54509, 48.458149], [2.545057, 48.45775], [2.544991, 48.457384], [2.543973, 48.457507], [2.54333, 48.45737], [2.543127, 48.456957], [2.542937, 48.456698], [2.542883, 48.456695], [2.542837, 48.456064], [2.540792, 48.45601], [2.541152, 48.455547], [2.541513, 48.455133], [2.541605, 48.455051], [2.541898, 48.454644], [2.542699, 48.453692], [2.542825, 48.453523], [2.542118, 48.453218], [2.542142, 48.453067], [2.541858, 48.453031], [2.542125, 48.45217], [2.541299, 48.45207], [2.54133, 48.45191], [2.541496, 48.451899], [2.541531, 48.451762], [2.541428, 48.451493], [2.541523, 48.451105], [2.540003, 48.450852], [2.539827, 48.450862], [2.538521, 48.450868], [2.537122, 48.450866], [2.537159, 48.449553], [2.534657, 48.449675], [2.534617, 48.449147], [2.532909, 48.449067], [2.532291, 48.449085], [2.532288, 48.448856], [2.529825, 48.449064], [2.529727, 48.448672], [2.528152, 48.448888], [2.528055, 48.448689], [2.525968, 48.449039], [2.526037, 48.449336], [2.524917, 48.449511], [2.525246, 48.450504], [2.524509, 48.450487], [2.523846, 48.448652], [2.52301, 48.448804], [2.52252, 48.448954], [2.522684, 48.449294], [2.522197, 48.449572], [2.521407, 48.449933], [2.520369, 48.45031], [2.519954, 48.450565], [2.519713, 48.45084], [2.51965, 48.450998], [2.519433, 48.451136], [2.5188, 48.451363], [2.518489, 48.451521], [2.517506, 48.45209], [2.517135, 48.452328], [2.51624, 48.452809], [2.51596, 48.45298], [2.515537, 48.45319], [2.515024, 48.453499], [2.513681, 48.452823], [2.511917, 48.45193], [2.508906, 48.45042], [2.508402, 48.450118], [2.50459, 48.447778], [2.504325, 48.447976], [2.503667, 48.448427], [2.505562, 48.449355], [2.505292, 48.449588], [2.50509, 48.449703], [2.505009, 48.449821], [2.505888, 48.450223], [2.507222, 48.450859], [2.506279, 48.451492], [2.506745, 48.451783], [2.505532, 48.452536], [2.50293, 48.453531], [2.503634, 48.454191], [2.500606, 48.45536], [2.501368, 48.456154], [2.499413, 48.457007], [2.499219, 48.456838], [2.498729, 48.457012], [2.498647, 48.456928], [2.497892, 48.457266], [2.499469, 48.458859], [2.499694, 48.459078], [2.499754, 48.459199]]]}, "properties": {"code_iris": "770650000", "nom_iris": "Cély (commune entière)", "type_iris": "Z", "lat": 48.4601, "lng": 2.5237, "dvf_sales_total": 494, "dvf_sales_appt": 0, "dvf_sales_maison": 0, "dvf_median_price": 250000.0, "dvf_median_ppsqm": 3361.344537815126, "dvf_by_year": "[{\"year\": 2021, \"sales\": 123, \"median_price\": 370000.0}, {\"year\": 2022, \"sales\": 110, \"median_price\": 244900.0}, {\"year\": 2023, \"sales\": 68, \"median_price\": 370000.0}, {\"year\": 2024, \"sales\": 103, \"median_price\": 156700.0}, {\"year\": 2025, \"sales\": 90, \"median_price\": 210000.0}]", "population": 1259, "n_log": null, "n_rp": null, "pct_proprio": null, "pct_hlm": null, "pct_appart": null, "pct_cadres": null, "pct_bac5p": null, "pct_etrangers": null, "pct_0_14": null, "pct_65p": null, "bpe_total": null, "bpe_commerces": null, "bpe_enseignement": null, "bpe_sante": null, "dpe": null, "attractivity_score": null, "rank_attractivity_score": null, "rank_total_attractivity_score": 1, "commune_avg": null, "is_stub": true}}]}