{"type": "FeatureCollection", "features": [{"type": "Feature", "geometry": {"type": "Point", "coordinates": [2.778917, 48.587804]}, "properties": {"id_parcelle": "771950000D0696", "address": "193 RUE DU CHATEAU D EAU", "sales": 14, "median_price": 163574.0, "median_price_per_sqm": 2858.3333333333335, "median_rooms": 0.0, "first_sale": "2021-07-29", "last_sale": "2025-12-19"}}, {"type": "Feature", "geometry": {"type": "Point", "coordinates": [2.777334, 48.586913]}, "properties": {"id_parcelle": "771950000D0345", "address": "152 RUE DU GEN DE GAULLE", "sales": 8, "median_price": 255450.0, "median_price_per_sqm": 3275.0, "median_rooms": 2.0, "first_sale": "2021-07-26", "last_sale": "2025-11-20"}}, {"type": "Feature", "geometry": {"type": "Point", "coordinates": [2.779972, 48.585162]}, "properties": {"id_parcelle": "771950000D0487", "address": "59 RUE DE LA FERME AUX DOUVES", "sales": 6, "median_price": 190000.0, "median_price_per_sqm": 1397.0588235294117, "median_rooms": 0.0, "first_sale": "2023-09-21", "last_sale": "2023-09-21"}}, {"type": "Feature", "geometry": {"type": "Point", "coordinates": [2.775969, 48.585313]}, "properties": {"id_parcelle": "771950000D0521", "address": "64 RUE SALVADOR ALLENDE", "sales": 6, "median_price": 290000.0, "median_price_per_sqm": 2900.0, "median_rooms": 0.0, "first_sale": "2025-02-21", "last_sale": "2025-02-21"}}, {"type": "Feature", "geometry": {"type": "Point", "coordinates": [2.77786, 48.588372]}, "properties": {"id_parcelle": "771950000D0730", "address": "306 RUE DU CHATEAU D EAU", "sales": 6, "median_price": 207000.0, "median_price_per_sqm": 3136.3636363636365, "median_rooms": 0.0, "first_sale": "2025-12-18", "last_sale": "2025-12-18"}}, {"type": "Feature", "geometry": {"type": "Point", "coordinates": [2.778673, 48.584797]}, "properties": {"id_parcelle": "771950000D0425", "address": "122 RUE DE L EGLISE", "sales": 6, "median_price": 589300.0, "median_price_per_sqm": 9914.256707759247, "median_rooms": 1.0, "first_sale": "2023-04-25", "last_sale": "2023-04-25"}}, {"type": "Feature", "geometry": {"type": "Point", "coordinates": [2.748592, 48.583777]}, "properties": {"id_parcelle": "77195000ZI0041", "address": "SAUSSAIE MONTARGON", "sales": 4, "median_price": 4327322.0, "median_price_per_sqm": null, "median_rooms": null, "first_sale": "2025-07-11", "last_sale": "2025-07-11"}}, {"type": "Feature", "geometry": {"type": "Point", "coordinates": [2.777476, 48.587198]}, "properties": {"id_parcelle": "771950000D0751", "address": "112 RUE DU GEN DE GAULLE", "sales": 4, "median_price": 157500.0, "median_price_per_sqm": 3088.235294117647, "median_rooms": 1.5, "first_sale": "2024-10-29", "last_sale": "2024-10-29"}}, {"type": "Feature", "geometry": {"type": "Point", "coordinates": [2.77788, 48.582952]}, "properties": {"id_parcelle": "77195000ZN0026", "address": "280 RUE DES TOURNELLES", "sales": 4, "median_price": 283000.0, "median_price_per_sqm": 2264.0, "median_rooms": 3.0, "first_sale": "2022-01-21", "last_sale": "2022-01-21"}}, {"type": "Feature", "geometry": {"type": "Point", "coordinates": [2.779309, 48.585826]}, "properties": {"id_parcelle": "771950000D0508", "address": "201 RUE DE L EGLISE", "sales": 4, "median_price": 484100.0, "median_price_per_sqm": 3968.032786885246, "median_rooms": 2.5, "first_sale": "2022-11-04", "last_sale": "2022-11-04"}}, {"type": "Feature", "geometry": {"type": "Point", "coordinates": [2.774862, 48.584936]}, "properties": {"id_parcelle": "771950000D0451", "address": "146 RUE SALVADOR ALLENDE", "sales": 4, "median_price": 227000.0, "median_price_per_sqm": 3439.3939393939395, "median_rooms": 2.0, "first_sale": "2025-02-21", "last_sale": "2025-02-21"}}, {"type": "Feature", "geometry": {"type": "Point", "coordinates": [2.774933, 48.583728]}, "properties": {"id_parcelle": "77195000ZD0047", "address": "100 RUE DES PRES HAUTS", "sales": 4, "median_price": 535550.0, "median_price_per_sqm": 5697.340425531915, "median_rooms": 0.0, "first_sale": "2022-09-16", "last_sale": "2022-09-16"}}, {"type": "Feature", "geometry": {"type": "Point", "coordinates": [2.777367, 48.58749]}, "properties": {"id_parcelle": "771950000D0618", "address": "70 RUE DU GEN DE GAULLE", "sales": 3, "median_price": 360000.0, "median_price_per_sqm": 2416.1073825503354, "median_rooms": 0.0, "first_sale": "2023-11-10", "last_sale": "2023-11-10"}}, {"type": "Feature", "geometry": {"type": "Point", "coordinates": [2.777364, 48.584525]}, "properties": {"id_parcelle": "771950000D0578", "address": "23 PAS STE MADELEINE", "sales": 3, "median_price": 305000.0, "median_price_per_sqm": 1732.9545454545455, "median_rooms": 0.0, "first_sale": "2023-10-27", "last_sale": "2023-10-27"}}, {"type": "Feature", "geometry": {"type": "Point", "coordinates": [2.777221, 48.588395]}, "properties": {"id_parcelle": "771950000D0002", "address": "358 RUE DU CHATEAU D EAU", "sales": 2, "median_price": 365000.0, "median_price_per_sqm": 9701.315789473683, "median_rooms": 2.5, "first_sale": "2024-11-05", "last_sale": "2024-11-05"}}, {"type": "Feature", "geometry": {"type": "Point", "coordinates": [2.778209, 48.585353]}, "properties": {"id_parcelle": "771950000D0071", "address": "187 RUE JULIETTE ROUSSEAU", "sales": 2, "median_price": 231480.0, "median_price_per_sqm": 4208.727272727273, "median_rooms": 1.5, "first_sale": "2024-12-27", "last_sale": "2024-12-27"}}, {"type": "Feature", "geometry": {"type": "Point", "coordinates": [2.778253, 48.586728]}, "properties": {"id_parcelle": "771950000D0058", "address": "10 RUE JULIETTE ROUSSEAU", "sales": 2, "median_price": 265000.0, "median_price_per_sqm": 2304.3478260869565, "median_rooms": 2.0, "first_sale": "2022-01-31", "last_sale": "2022-01-31"}}, {"type": "Feature", "geometry": {"type": "Point", "coordinates": [2.77901, 48.585052]}, "properties": {"id_parcelle": "771950000D0423", "address": "142 RUE DE L EGLISE", "sales": 2, "median_price": 162500.0, "median_price_per_sqm": 1608.9108910891089, "median_rooms": 4.0, "first_sale": "2021-09-09", "last_sale": "2021-09-09"}}, {"type": "Feature", "geometry": {"type": "Point", "coordinates": [2.776929, 48.587323]}, "properties": {"id_parcelle": "771950000D0390", "address": "FOUJU", "sales": 2, "median_price": 82500.0, "median_price_per_sqm": null, "median_rooms": null, "first_sale": "2024-10-29", "last_sale": "2025-01-04"}}, {"type": "Feature", "geometry": {"type": "Point", "coordinates": [2.777093, 48.584043]}, "properties": {"id_parcelle": "771950000D0564", "address": "466 RUE DU GEN DE GAULLE", "sales": 2, "median_price": 342250.0, "median_price_per_sqm": 2410.211267605634, "median_rooms": 2.5, "first_sale": "2021-07-27", "last_sale": "2021-07-27"}}, {"type": "Feature", "geometry": {"type": "Point", "coordinates": [2.777686, 48.587638]}, "properties": {"id_parcelle": "771950000D0377", "address": "FOUJU", "sales": 2, "median_price": 230565.0, "median_price_per_sqm": null, "median_rooms": null, "first_sale": "2021-11-09", "last_sale": "2022-01-19"}}, {"type": "Feature", "geometry": {"type": "Point", "coordinates": [2.77764, 48.587016]}, "properties": {"id_parcelle": "771950000D0370", "address": "FOUJU", "sales": 2, "median_price": 255450.0, "median_price_per_sqm": null, "median_rooms": null, "first_sale": "2021-07-26", "last_sale": "2025-11-20"}}, {"type": "Feature", "geometry": {"type": "Point", "coordinates": [2.777614, 48.587259]}, "properties": {"id_parcelle": "771950000D0754", "address": "FOUJU", "sales": 2, "median_price": 157500.0, "median_price_per_sqm": null, "median_rooms": null, "first_sale": "2024-10-29", "last_sale": "2024-10-29"}}, {"type": "Feature", "geometry": {"type": "Point", "coordinates": [2.777694, 48.588422]}, "properties": {"id_parcelle": "771950000D0761", "address": "336 RUE DU CHATEAU D EAU", "sales": 2, "median_price": 104000.0, "median_price_per_sqm": null, "median_rooms": null, "first_sale": "2025-12-02", "last_sale": "2025-12-18"}}, {"type": "Feature", "geometry": {"type": "Point", "coordinates": [2.775877, 48.584025]}, "properties": {"id_parcelle": "77195000ZD0050", "address": "154 RUE DES PRES HAUTS", "sales": 2, "median_price": 340000.0, "median_price_per_sqm": 2905.982905982906, "median_rooms": 3.5, "first_sale": "2025-08-12", "last_sale": "2025-08-12"}}, {"type": "Feature", "geometry": {"type": "Point", "coordinates": [2.777043, 48.587327]}, "properties": {"id_parcelle": "771950000D0759", "address": "FOUJU", "sales": 2, "median_price": 82500.0, "median_price_per_sqm": null, "median_rooms": null, "first_sale": "2024-10-29", "last_sale": "2025-01-04"}}, {"type": "Feature", "geometry": {"type": "Point", "coordinates": [2.777199, 48.587201]}, "properties": {"id_parcelle": "771950000D0757", "address": "FOUJU", "sales": 2, "median_price": 157500.0, "median_price_per_sqm": null, "median_rooms": null, "first_sale": "2024-10-29", "last_sale": "2024-10-29"}}, {"type": "Feature", "geometry": {"type": "Point", "coordinates": [2.747967, 48.584649]}, "properties": {"id_parcelle": "77195000ZI0040", "address": "SAUSSAIE MONTARGON", "sales": 2, "median_price": 4327322.0, "median_price_per_sqm": null, "median_rooms": null, "first_sale": "2025-07-11", "last_sale": "2025-07-11"}}, {"type": "Feature", "geometry": {"type": "Point", "coordinates": [2.77685, 48.58298]}, "properties": {"id_parcelle": "77195000ZD0061", "address": "108 RUE DES PRES PAQUETTES", "sales": 2, "median_price": 357500.0, "median_price_per_sqm": 4642.857142857143, "median_rooms": 3.0, "first_sale": "2021-06-23", "last_sale": "2024-09-06"}}, {"type": "Feature", "geometry": {"type": "Point", "coordinates": [2.749552, 48.584239]}, "properties": {"id_parcelle": "77195000ZI0134", "address": "SAUSSAIE MONTARGON", "sales": 2, "median_price": 4327322.0, "median_price_per_sqm": null, "median_rooms": null, "first_sale": "2025-07-11", "last_sale": "2025-07-11"}}, {"type": "Feature", "geometry": {"type": "Point", "coordinates": [2.745182, 48.585436]}, "properties": {"id_parcelle": "77195000ZI0132", "address": "SAUSSAIE MONTARGON", "sales": 2, "median_price": 4327322.0, "median_price_per_sqm": null, "median_rooms": null, "first_sale": "2025-07-11", "last_sale": "2025-07-11"}}, {"type": "Feature", "geometry": {"type": "Point", "coordinates": [2.742878, 48.584102]}, "properties": {"id_parcelle": "77195000ZL0006", "address": "L ORME AU POIGNANT", "sales": 2, "median_price": 367151.19, "median_price_per_sqm": null, "median_rooms": null, "first_sale": "2024-07-25", "last_sale": "2025-12-17"}}, {"type": "Feature", "geometry": {"type": "Point", "coordinates": [2.778187, 48.582688]}, "properties": {"id_parcelle": "77195000ZN0025", "address": "244 RUE DES TOURNELLES", "sales": 2, "median_price": 315000.0, "median_price_per_sqm": 2100.0, "median_rooms": 7.0, "first_sale": "2021-09-17", "last_sale": "2021-09-17"}}, {"type": "Feature", "geometry": {"type": "Point", "coordinates": [2.777407, 48.582822]}, "properties": {"id_parcelle": "77195000ZN0027", "address": "291 RUE DES TOURNELLES", "sales": 2, "median_price": 340000.0, "median_price_per_sqm": 3434.343434343434, "median_rooms": 2.0, "first_sale": "2022-07-25", "last_sale": "2022-07-25"}}, {"type": "Feature", "geometry": {"type": "Point", "coordinates": [2.777409, 48.582303]}, "properties": {"id_parcelle": "77195000ZN0032", "address": "181 RUE DES TOURNELLES", "sales": 2, "median_price": 371771.0, "median_price_per_sqm": 2367.9681528662422, "median_rooms": 2.5, "first_sale": "2023-07-10", "last_sale": "2023-07-10"}}]}