{"type": "FeatureCollection", "features": [{"type": "Feature", "geometry": {"type": "Polygon", "coordinates": [[[2.970923, 48.941722], [2.969479, 48.941326], [2.969322, 48.941321], [2.968405, 48.942722], [2.967734, 48.942508], [2.968224, 48.941719], [2.96764, 48.941671], [2.967292, 48.941612], [2.967081, 48.941996], [2.966132, 48.943568], [2.965874, 48.943454], [2.965408, 48.943885], [2.964773, 48.944453], [2.964055, 48.944144], [2.963247, 48.945023], [2.962629, 48.944738], [2.962357, 48.944959], [2.961866, 48.944808], [2.961433, 48.945137], [2.959564, 48.944523], [2.958971, 48.944336], [2.958374, 48.944758], [2.958079, 48.94499], [2.957684, 48.94536], [2.956887, 48.946327], [2.956641, 48.946658], [2.956573, 48.946637], [2.95563, 48.946485], [2.953519, 48.946165], [2.953359, 48.94684], [2.951438, 48.946415], [2.951043, 48.946973], [2.949934, 48.946657], [2.949916, 48.946683], [2.949358, 48.946569], [2.949254, 48.946719], [2.94861, 48.946569], [2.947965, 48.947566], [2.947301, 48.948581], [2.94714, 48.948528], [2.946974, 48.948742], [2.944109, 48.948102], [2.939967, 48.947424], [2.939617, 48.94736], [2.939221, 48.947451], [2.937865, 48.947792], [2.936188, 48.948225], [2.936261, 48.948351], [2.936638, 48.948612], [2.936982, 48.948797], [2.935984, 48.949415], [2.935026, 48.950031], [2.937001, 48.951199], [2.937646, 48.951644], [2.938201, 48.951953], [2.938691, 48.952335], [2.939201, 48.952801], [2.939638, 48.953295], [2.940169, 48.954099], [2.940645, 48.954602], [2.941825, 48.955317], [2.942381, 48.95559], [2.9428, 48.955819], [2.943268, 48.95615], [2.943352, 48.956242], [2.943635, 48.956685], [2.943782, 48.957018], [2.944121, 48.957552], [2.944135, 48.957673], [2.944164, 48.957931], [2.944261, 48.95831], [2.944394, 48.958676], [2.944464, 48.959021], [2.944556, 48.959898], [2.944636, 48.960323], [2.944621, 48.961486], [2.944474, 48.962309], [2.944296, 48.963482], [2.944206, 48.9639], [2.94405, 48.964834], [2.94382, 48.965698], [2.943601, 48.966361], [2.943283, 48.967237], [2.943017, 48.967936], [2.942705, 48.968543], [2.942245, 48.969385], [2.941944, 48.970046], [2.941803, 48.970428], [2.941346, 48.971497], [2.941126, 48.972065], [2.940883, 48.972491], [2.940604, 48.972914], [2.940434, 48.973422], [2.940337, 48.973609], [2.941716, 48.973791], [2.943587, 48.974004], [2.94526, 48.974208], [2.946353, 48.974066], [2.947337, 48.973927], [2.947607, 48.973976], [2.950872, 48.974101], [2.956722, 48.974333], [2.956994, 48.974346], [2.956699, 48.975002], [2.956621, 48.975269], [2.960799, 48.974158], [2.96223, 48.973762], [2.967529, 48.972343], [2.969044, 48.971943], [2.970434, 48.97156], [2.971976, 48.9711], [2.974794, 48.970352], [2.976757, 48.969825], [2.979074, 48.969192], [2.984766, 48.967649], [2.991102, 48.966001], [2.992756, 48.965542], [2.994194, 48.96519], [2.994324, 48.96512], [2.994555, 48.964815], [2.994753, 48.964609], [2.99525, 48.964262], [2.995402, 48.964033], [2.995447, 48.963768], [2.995519, 48.963636], [2.995701, 48.963475], [2.995989, 48.96332], [2.996135, 48.963205], [2.996283, 48.962602], [2.996535, 48.962109], [2.996716, 48.96203], [2.996987, 48.96172], [2.997143, 48.961499], [2.997252, 48.961206], [2.997192, 48.960876], [2.997165, 48.960552], [2.997175, 48.959662], [2.99722, 48.959214], [2.997101, 48.959166], [2.997136, 48.958795], [2.997171, 48.958013], [2.99713, 48.957636], [2.99664, 48.956283], [2.996515, 48.955839], [2.996215, 48.954958], [2.995939, 48.954078], [2.995695, 48.95367], [2.995405, 48.953379], [2.995252, 48.953179], [2.995145, 48.952945], [2.995075, 48.952923], [2.995091, 48.952423], [2.995086, 48.952048], [2.994959, 48.951525], [2.994829, 48.951231], [2.994581, 48.95074], [2.994483, 48.950438], [2.994414, 48.950085], [2.994358, 48.949926], [2.993842, 48.949199], [2.993602, 48.948785], [2.992924, 48.948112], [2.992378, 48.947667], [2.992477, 48.94757], [2.992284, 48.947429], [2.990581, 48.947961], [2.988415, 48.948644], [2.986198, 48.949348], [2.984181, 48.949996], [2.984034, 48.949874], [2.981668, 48.948373], [2.979705, 48.947136], [2.977417, 48.945682], [2.977134, 48.945507], [2.976998, 48.945359], [2.976907, 48.945475], [2.975909, 48.94544], [2.975715, 48.945648], [2.975437, 48.945667], [2.975201, 48.945601], [2.976119, 48.944494], [2.975662, 48.944296], [2.976358, 48.943667], [2.975288, 48.943226], [2.97505, 48.943548], [2.973726, 48.943358], [2.973942, 48.942733], [2.973003, 48.942686], [2.972963, 48.942938], [2.972854, 48.943374], [2.972869, 48.943521], [2.972432, 48.943403], [2.972336, 48.943337], [2.972375, 48.942945], [2.970654, 48.942175], [2.970923, 48.941722]]]}, "properties": {"code_iris": "774750000", "nom_iris": "Trilport (commune entière)", "type_iris": "Z", "lat": 48.9583, "lng": 2.9661, "dvf_sales_total": 896, "dvf_sales_appt": 0, "dvf_sales_maison": 0, "dvf_median_price": 240570.0, "dvf_median_ppsqm": 3025.0, "dvf_by_year": "[{\"year\": 2021, \"sales\": 227, \"median_price\": 245000.0}, {\"year\": 2022, \"sales\": 197, \"median_price\": 210000.0}, {\"year\": 2023, \"sales\": 150, \"median_price\": 235000.0}, {\"year\": 2024, \"sales\": 136, \"median_price\": 260000.0}, {\"year\": 2025, \"sales\": 186, \"median_price\": 240570.0}]", "population": 5146, "n_log": null, "n_rp": null, "pct_proprio": null, "pct_hlm": null, "pct_appart": null, "pct_cadres": null, "pct_bac5p": null, "pct_etrangers": null, "pct_0_14": null, "pct_65p": null, "bpe_total": null, "bpe_commerces": null, "bpe_enseignement": null, "bpe_sante": null, "dpe": null, "attractivity_score": null, "rank_attractivity_score": null, "rank_total_attractivity_score": 1, "commune_avg": null, "is_stub": true}}]}