{"type": "FeatureCollection", "features": [{"type": "Feature", "geometry": {"type": "Point", "coordinates": [3.237365, 48.415923]}, "properties": {"id_parcelle": "77051000AM0053", "address": "1 RUE VICTOR HUGO", "sales": 15, "median_price": 380000.0, "median_price_per_sqm": 7037.037037037037, "median_rooms": 0.0, "first_sale": "2024-03-08", "last_sale": "2024-03-08"}}, {"type": "Feature", "geometry": {"type": "Point", "coordinates": [3.240749, 48.414239]}, "properties": {"id_parcelle": "77051000AH0069", "address": "10 RUE DES FILOIRS", "sales": 9, "median_price": 204000.0, "median_price_per_sqm": 2835.521235521235, "median_rooms": 0.0, "first_sale": "2022-07-09", "last_sale": "2022-07-09"}}, {"type": "Feature", "geometry": {"type": "Point", "coordinates": [3.236819, 48.415817]}, "properties": {"id_parcelle": "77051000AL0097", "address": "6 RUE VICTOR HUGO", "sales": 8, "median_price": 293000.0, "median_price_per_sqm": 6976.190476190476, "median_rooms": 0.0, "first_sale": "2025-04-30", "last_sale": "2025-04-30"}}, {"type": "Feature", "geometry": {"type": "Point", "coordinates": [3.241149, 48.414862]}, "properties": {"id_parcelle": "77051000AH0667", "address": "457 RUE DES PATURES", "sales": 8, "median_price": 86000.0, "median_price_per_sqm": null, "median_rooms": 0.0, "first_sale": "2021-09-24", "last_sale": "2021-09-24"}}, {"type": "Feature", "geometry": {"type": "Point", "coordinates": [3.239111, 48.415624]}, "properties": {"id_parcelle": "77051000AM0098", "address": "1 RUE DU FOUR", "sales": 7, "median_price": 220000.0, "median_price_per_sqm": 3928.5714285714284, "median_rooms": 0.0, "first_sale": "2023-08-29", "last_sale": "2023-08-29"}}, {"type": "Feature", "geometry": {"type": "Point", "coordinates": [3.233074, 48.410017]}, "properties": {"id_parcelle": "77051000AK0284", "address": "595 RUE DANTON", "sales": 6, "median_price": 70000.0, "median_price_per_sqm": 886.0759493670886, "median_rooms": 2.0, "first_sale": "2025-11-29", "last_sale": "2025-11-29"}}, {"type": "Feature", "geometry": {"type": "Point", "coordinates": [3.239353, 48.415508]}, "properties": {"id_parcelle": "77051000AM0124", "address": "9 RUE DE LA PECHERIE", "sales": 6, "median_price": 57000.0, "median_price_per_sqm": 1511.6279069767443, "median_rooms": 0.5, "first_sale": "2021-12-15", "last_sale": "2023-12-28"}}, {"type": "Feature", "geometry": {"type": "Point", "coordinates": [3.237968, 48.413705]}, "properties": {"id_parcelle": "77051000AK0259", "address": "86 RUE DE BOURGOGNE", "sales": 6, "median_price": 240000.0, "median_price_per_sqm": 2000.0, "median_rooms": 0.0, "first_sale": "2022-11-30", "last_sale": "2022-11-30"}}, {"type": "Feature", "geometry": {"type": "Point", "coordinates": [3.239124, 48.415384]}, "properties": {"id_parcelle": "77051000AM0127", "address": "13 RUE DE LA PECHERIE", "sales": 5, "median_price": 180000.0, "median_price_per_sqm": 3800.0, "median_rooms": 2.0, "first_sale": "2024-11-27", "last_sale": "2024-11-27"}}, {"type": "Feature", "geometry": {"type": "Point", "coordinates": [3.236852, 48.41598]}, "properties": {"id_parcelle": "77051000AL0160", "address": "20 RLE DES DEUX PORTES", "sales": 5, "median_price": 405000.0, "median_price_per_sqm": 7363.636363636364, "median_rooms": 3.0, "first_sale": "2024-06-17", "last_sale": "2024-06-17"}}, {"type": "Feature", "geometry": {"type": "Point", "coordinates": [3.239046, 48.415067]}, "properties": {"id_parcelle": "77051000AM0147", "address": "2 RUE DE LA PAIX", "sales": 5, "median_price": 225000.0, "median_price_per_sqm": 4650.682100041339, "median_rooms": 2.0, "first_sale": "2022-08-04", "last_sale": "2022-08-04"}}, {"type": "Feature", "geometry": {"type": "Point", "coordinates": [3.238764, 48.415582]}, "properties": {"id_parcelle": "77051000AM0270", "address": "20 RUE GRANDE", "sales": 5, "median_price": 245000.0, "median_price_per_sqm": 1622.5165562913908, "median_rooms": 0.0, "first_sale": "2022-04-13", "last_sale": "2022-04-13"}}, {"type": "Feature", "geometry": {"type": "Point", "coordinates": [3.240559, 48.419411]}, "properties": {"id_parcelle": "77051000AC0003", "address": "5431 RUE D HENRIEN", "sales": 5, "median_price": 120000.0, "median_price_per_sqm": 1333.3333333333333, "median_rooms": 0.0, "first_sale": "2025-02-21", "last_sale": "2025-02-21"}}, {"type": "Feature", "geometry": {"type": "Point", "coordinates": [3.238154, 48.416096]}, "properties": {"id_parcelle": "77051000AM0081", "address": "1 RUE DE L ECHELLE", "sales": 5, "median_price": 116000.0, "median_price_per_sqm": 2416.6666666666665, "median_rooms": 0.0, "first_sale": "2021-11-18", "last_sale": "2021-11-18"}}, {"type": "Feature", "geometry": {"type": "Point", "coordinates": [3.242106, 48.414619]}, "properties": {"id_parcelle": "77051000AH0312", "address": "407 RUE DES PATURES", "sales": 4, "median_price": 177500.0, "median_price_per_sqm": 2431.5068493150684, "median_rooms": 1.5, "first_sale": "2023-12-20", "last_sale": "2024-12-27"}}, {"type": "Feature", "geometry": {"type": "Point", "coordinates": [3.234908, 48.416905]}, "properties": {"id_parcelle": "77051000AD0045", "address": "5533 RUE DE L ABREUVOIR", "sales": 4, "median_price": 220000.0, "median_price_per_sqm": 1301.775147928994, "median_rooms": 2.5, "first_sale": "2022-05-19", "last_sale": "2022-05-19"}}, {"type": "Feature", "geometry": {"type": "Point", "coordinates": [3.238813, 48.413726]}, "properties": {"id_parcelle": "77051000AH0004", "address": "51 RUE DE BOURGOGNE", "sales": 4, "median_price": 228000.0, "median_price_per_sqm": 1594.4055944055945, "median_rooms": 0.0, "first_sale": "2023-12-13", "last_sale": "2023-12-13"}}, {"type": "Feature", "geometry": {"type": "Point", "coordinates": [3.239812, 48.413668]}, "properties": {"id_parcelle": "77051000AH0016", "address": "220 RUE DU TRIPOT", "sales": 4, "median_price": 155000.0, "median_price_per_sqm": 1313.5593220338983, "median_rooms": 2.0, "first_sale": "2025-03-28", "last_sale": "2025-03-28"}}, {"type": "Feature", "geometry": {"type": "Point", "coordinates": [3.239412, 48.414065]}, "properties": {"id_parcelle": "77051000AH0008", "address": "21 RUE DES FILOIRS", "sales": 4, "median_price": 149000.0, "median_price_per_sqm": 2292.3076923076924, "median_rooms": 1.5, "first_sale": "2022-01-20", "last_sale": "2022-01-20"}}, {"type": "Feature", "geometry": {"type": "Point", "coordinates": [3.240576, 48.419119]}, "properties": {"id_parcelle": "77051000AC0001", "address": "4 RUE D HENRIEN", "sales": 4, "median_price": 155000.0, "median_price_per_sqm": 2282.3093220338983, "median_rooms": 1.5, "first_sale": "2021-12-29", "last_sale": "2021-12-29"}}, {"type": "Feature", "geometry": {"type": "Point", "coordinates": [3.237238, 48.414534]}, "properties": {"id_parcelle": "77051000AK0427", "address": "13 RUE DES TAUPINS", "sales": 4, "median_price": 177000.0, "median_price_per_sqm": 4783.783783783784, "median_rooms": 1.5, "first_sale": "2021-06-24", "last_sale": "2021-06-24"}}, {"type": "Feature", "geometry": {"type": "Point", "coordinates": [3.236107, 48.416464]}, "properties": {"id_parcelle": "77051000AL0013", "address": "55 RUE GRANDE", "sales": 4, "median_price": 750000.0, "median_price_per_sqm": 10135.135135135135, "median_rooms": 1.0, "first_sale": "2025-11-25", "last_sale": "2025-11-25"}}, {"type": "Feature", "geometry": {"type": "Point", "coordinates": [3.237161, 48.411312]}, "properties": {"id_parcelle": "77051000AK0382", "address": "362 RUE DE BOURGOGNE", "sales": 4, "median_price": 95143.0, "median_price_per_sqm": 1534.5645161290322, "median_rooms": 0.0, "first_sale": "2025-10-22", "last_sale": "2025-10-22"}}, {"type": "Feature", "geometry": {"type": "Point", "coordinates": [3.231929, 48.410844]}, "properties": {"id_parcelle": "77051000AK0416", "address": "731 RTE DE SENS", "sales": 4, "median_price": 150000.0, "median_price_per_sqm": 1500.0, "median_rooms": 2.0, "first_sale": "2023-04-29", "last_sale": "2023-04-29"}}, {"type": "Feature", "geometry": {"type": "Point", "coordinates": [3.23687, 48.41609]}, "properties": {"id_parcelle": "77051000AL0159", "address": "22 RLE DES DEUX PORTES", "sales": 4, "median_price": 383000.0, "median_price_per_sqm": 3871.2413652986593, "median_rooms": 2.0, "first_sale": "2021-01-14", "last_sale": "2021-01-14"}}, {"type": "Feature", "geometry": {"type": "Point", "coordinates": [3.245206, 48.408901]}, "properties": {"id_parcelle": "77051000AO0082", "address": "490 RTE DE MONTIGNY", "sales": 3, "median_price": 225000.0, "median_price_per_sqm": 1551.7241379310344, "median_rooms": 0.0, "first_sale": "2021-09-03", "last_sale": "2021-09-03"}}, {"type": "Feature", "geometry": {"type": "Point", "coordinates": [3.239495, 48.415928]}, "properties": {"id_parcelle": "77051000AM0267", "address": "9 QUAI SAINT NICOLAS", "sales": 3, "median_price": 139000.0, "median_price_per_sqm": 2780.0, "median_rooms": 3.0, "first_sale": "2021-05-06", "last_sale": "2021-05-06"}}, {"type": "Feature", "geometry": {"type": "Point", "coordinates": [3.23865, 48.415207]}, "properties": {"id_parcelle": "77051000AM0154", "address": "10 RUE DE LA PAIX", "sales": 3, "median_price": 47000.0, "median_price_per_sqm": 1958.3333333333333, "median_rooms": 1.0, "first_sale": "2022-04-29", "last_sale": "2022-04-29"}}, {"type": "Feature", "geometry": {"type": "Point", "coordinates": [3.235024, 48.411592]}, "properties": {"id_parcelle": "77051000AK0558", "address": "386 RUE DANTON", "sales": 3, "median_price": 320000.0, "median_price_per_sqm": 1666.6666666666667, "median_rooms": 0.0, "first_sale": "2025-11-17", "last_sale": "2025-11-17"}}, {"type": "Feature", "geometry": {"type": "Point", "coordinates": [3.235734, 48.412751]}, "properties": {"id_parcelle": "77051000AK0012", "address": "240 RUE DANTON", "sales": 3, "median_price": 167180.0, "median_price_per_sqm": 1797.6344086021506, "median_rooms": 0.0, "first_sale": "2025-06-20", "last_sale": "2025-06-20"}}, {"type": "Feature", "geometry": {"type": "Point", "coordinates": [3.234785, 48.417483]}, "properties": {"id_parcelle": "77051000AD0010", "address": "2 RUE DE L ABREUVOIR", "sales": 3, "median_price": 76000.0, "median_price_per_sqm": 2303.030303030303, "median_rooms": 1.0, "first_sale": "2022-03-16", "last_sale": "2025-09-01"}}, {"type": "Feature", "geometry": {"type": "Point", "coordinates": [3.238938, 48.414811]}, "properties": {"id_parcelle": "77051000AM0166", "address": "7 RUE DE LA PAIX", "sales": 3, "median_price": 67000.0, "median_price_per_sqm": 2093.75, "median_rooms": 1.0, "first_sale": "2025-02-05", "last_sale": "2025-02-05"}}, {"type": "Feature", "geometry": {"type": "Point", "coordinates": [3.238614, 48.416257]}, "properties": {"id_parcelle": "77051000AM0068", "address": "2 RUE DU PRESIDENT CARNOT", "sales": 3, "median_price": 108000.0, "median_price_per_sqm": 1687.5, "median_rooms": 3.0, "first_sale": "2025-12-19", "last_sale": "2025-12-19"}}, {"type": "Feature", "geometry": {"type": "Point", "coordinates": [3.238853, 48.415417]}, "properties": {"id_parcelle": "77051000AM0096", "address": "14 RUE DE LA PECHERIE", "sales": 3, "median_price": 166000.0, "median_price_per_sqm": 1952.9411764705883, "median_rooms": 3.0, "first_sale": "2024-07-31", "last_sale": "2024-07-31"}}, {"type": "Feature", "geometry": {"type": "Point", "coordinates": [3.237885, 48.415545]}, "properties": {"id_parcelle": "77051000AM0040", "address": "25 RUE GRANDE", "sales": 3, "median_price": 238000.0, "median_price_per_sqm": 4760.0, "median_rooms": 1.0, "first_sale": "2024-01-12", "last_sale": "2024-01-12"}}, {"type": "Feature", "geometry": {"type": "Point", "coordinates": [3.237419, 48.411236]}, "properties": {"id_parcelle": "77051000AK0380", "address": "362 RUE DE BOURGOGNE", "sales": 3, "median_price": 95143.0, "median_price_per_sqm": 1534.5645161290322, "median_rooms": 0.0, "first_sale": "2025-10-22", "last_sale": "2025-10-22"}}, {"type": "Feature", "geometry": {"type": "Point", "coordinates": [3.237055, 48.416293]}, "properties": {"id_parcelle": "77051000AL0146", "address": "2 RUE EMILE ZOLA", "sales": 3, "median_price": 126000.0, "median_price_per_sqm": 1750.0, "median_rooms": 0.0, "first_sale": "2022-04-08", "last_sale": "2022-04-08"}}, {"type": "Feature", "geometry": {"type": "Point", "coordinates": [3.237467, 48.416841]}, "properties": {"id_parcelle": "77051000AL0126", "address": "5 QUAI DE L ILE", "sales": 3, "median_price": 118800.0, "median_price_per_sqm": 1414.2857142857142, "median_rooms": 0.0, "first_sale": "2021-09-24", "last_sale": "2021-09-24"}}, {"type": "Feature", "geometry": {"type": "Point", "coordinates": [3.237344, 48.414168]}, "properties": {"id_parcelle": "77051000AK0092", "address": "45 RUE DANTON", "sales": 2, "median_price": 32000.0, "median_price_per_sqm": 507.93650793650795, "median_rooms": 1.5, "first_sale": "2025-07-26", "last_sale": "2025-07-26"}}, {"type": "Feature", "geometry": {"type": "Point", "coordinates": [3.241306, 48.41482]}, "properties": {"id_parcelle": "77051000AH0669", "address": "457 RUE DES PATURES", "sales": 2, "median_price": 184000.0, "median_price_per_sqm": 1916.6666666666665, "median_rooms": 4.0, "first_sale": "2021-07-13", "last_sale": "2025-11-21"}}, {"type": "Feature", "geometry": {"type": "Point", "coordinates": [3.239888, 48.413916]}, "properties": {"id_parcelle": "77051000AH0355", "address": "FAUBOURG DE JAULNES", "sales": 2, "median_price": 125000.0, "median_price_per_sqm": null, "median_rooms": null, "first_sale": "2022-12-26", "last_sale": "2025-03-28"}}, {"type": "Feature", "geometry": {"type": "Point", "coordinates": [3.241196, 48.414762]}, "properties": {"id_parcelle": "77051000AH0668", "address": "457 RUE DES PATURES", "sales": 2, "median_price": 184000.0, "median_price_per_sqm": null, "median_rooms": null, "first_sale": "2021-07-13", "last_sale": "2025-11-21"}}, {"type": "Feature", "geometry": {"type": "Point", "coordinates": [3.239635, 48.414024]}, "properties": {"id_parcelle": "77051000AH0011", "address": "17 RUE DES FILOIRS", "sales": 2, "median_price": 110000.0, "median_price_per_sqm": 2391.304347826087, "median_rooms": 1.0, "first_sale": "2022-08-06", "last_sale": "2022-08-06"}}, {"type": "Feature", "geometry": {"type": "Point", "coordinates": [3.242678, 48.413697]}, "properties": {"id_parcelle": "77051000AH0050", "address": "5 RUE DU VIEUX MARCHE", "sales": 2, "median_price": 111500.0, "median_price_per_sqm": 3097.222222222222, "median_rooms": 1.0, "first_sale": "2022-11-22", "last_sale": "2022-11-22"}}, {"type": "Feature", "geometry": {"type": "Point", "coordinates": [3.234734, 48.417455]}, "properties": {"id_parcelle": "77051000AD0011", "address": "FAUBOURG SAINT JEAN", "sales": 2, "median_price": 29000.0, "median_price_per_sqm": null, "median_rooms": null, "first_sale": "2022-04-28", "last_sale": "2022-09-30"}}, {"type": "Feature", "geometry": {"type": "Point", "coordinates": [3.235127, 48.415314]}, "properties": {"id_parcelle": "77051000AK0040", "address": "11 RUE DES FOSSES DE LA TOUR", "sales": 2, "median_price": 101000.0, "median_price_per_sqm": 1147.7272727272727, "median_rooms": 1.5, "first_sale": "2024-08-10", "last_sale": "2024-08-10"}}, {"type": "Feature", "geometry": {"type": "Point", "coordinates": [3.24129, 48.414923]}, "properties": {"id_parcelle": "77051000AH0670", "address": "457 RUE DES PATURES", "sales": 2, "median_price": 184000.0, "median_price_per_sqm": null, "median_rooms": null, "first_sale": "2021-07-13", "last_sale": "2025-11-21"}}, {"type": "Feature", "geometry": {"type": "Point", "coordinates": [3.236101, 48.410336]}, "properties": {"id_parcelle": "77051000AK0223", "address": "13 CITE ERTEVENT", "sales": 2, "median_price": 160000.0, "median_price_per_sqm": 1702.127659574468, "median_rooms": 5.0, "first_sale": "2021-08-27", "last_sale": "2021-08-27"}}, {"type": "Feature", "geometry": {"type": "Point", "coordinates": [3.235025, 48.412253]}, "properties": {"id_parcelle": "77051000AK0280", "address": "RUE DANTON", "sales": 2, "median_price": 14000.0, "median_price_per_sqm": null, "median_rooms": null, "first_sale": "2025-10-25", "last_sale": "2025-11-05"}}, {"type": "Feature", "geometry": {"type": "Point", "coordinates": [3.231605, 48.41055]}, "properties": {"id_parcelle": "77051000AK0169", "address": "767 RTE DE SENS", "sales": 2, "median_price": 170000.0, "median_price_per_sqm": 1808.5106382978724, "median_rooms": 2.5, "first_sale": "2025-10-25", "last_sale": "2025-10-25"}}, {"type": "Feature", "geometry": {"type": "Point", "coordinates": [3.237344, 48.41397]}, "properties": {"id_parcelle": "77051000AK0093", "address": "63 RUE DANTON", "sales": 2, "median_price": 246000.0, "median_price_per_sqm": 2484.848484848485, "median_rooms": 1.0, "first_sale": "2022-07-21", "last_sale": "2022-07-21"}}, {"type": "Feature", "geometry": {"type": "Point", "coordinates": [3.237106, 48.413591]}, "properties": {"id_parcelle": "77051000AK0097", "address": "117 RUE DANTON", "sales": 2, "median_price": 181900.0, "median_price_per_sqm": null, "median_rooms": 0.0, "first_sale": "2024-12-20", "last_sale": "2024-12-20"}}, {"type": "Feature", "geometry": {"type": "Point", "coordinates": [3.237723, 48.416233]}, "properties": {"id_parcelle": "77051000AL0148", "address": "14 RUE DU GENERAL LECLERC", "sales": 2, "median_price": 227000.0, "median_price_per_sqm": 3783.3333333333335, "median_rooms": 2.5, "first_sale": "2021-04-15", "last_sale": "2021-04-15"}}, {"type": "Feature", "geometry": {"type": "Point", "coordinates": [3.236591, 48.416698]}, "properties": {"id_parcelle": "77051000AL0119", "address": "3 RUE DU MINAGE", "sales": 2, "median_price": 114150.0, "median_price_per_sqm": 2262.392072213501, "median_rooms": 2.0, "first_sale": "2021-09-30", "last_sale": "2021-09-30"}}, {"type": "Feature", "geometry": {"type": "Point", "coordinates": [3.236961, 48.416767]}, "properties": {"id_parcelle": "77051000AL0053", "address": "14 RUE DES ERMITES", "sales": 2, "median_price": 117000.0, "median_price_per_sqm": 2693.877551020408, "median_rooms": 2.5, "first_sale": "2022-12-15", "last_sale": "2022-12-15"}}, {"type": "Feature", "geometry": {"type": "Point", "coordinates": [3.23677, 48.416201]}, "properties": {"id_parcelle": "77051000AL0102", "address": "1 RUE DU BAILLAGE", "sales": 2, "median_price": 110000.0, "median_price_per_sqm": 1557.2033898305085, "median_rooms": 2.0, "first_sale": "2024-07-23", "last_sale": "2024-07-23"}}, {"type": "Feature", "geometry": {"type": "Point", "coordinates": [3.236031, 48.416923]}, "properties": {"id_parcelle": "77051000AL0027", "address": "2 RUE DES REMPARTS", "sales": 2, "median_price": 95000.0, "median_price_per_sqm": 1813.6363636363635, "median_rooms": 3.0, "first_sale": "2025-10-23", "last_sale": "2025-10-23"}}, {"type": "Feature", "geometry": {"type": "Point", "coordinates": [3.236495, 48.41446]}, "properties": {"id_parcelle": "77051000AK0459", "address": "7 RUE DES BUTTES", "sales": 2, "median_price": 15000.0, "median_price_per_sqm": 166.66666666666666, "median_rooms": 0.0, "first_sale": "2024-12-04", "last_sale": "2024-12-04"}}, {"type": "Feature", "geometry": {"type": "Point", "coordinates": [3.234819, 48.412468]}, "properties": {"id_parcelle": "77051000AK0555", "address": "310 RUE DANTON", "sales": 2, "median_price": 14000.0, "median_price_per_sqm": null, "median_rooms": null, "first_sale": "2025-10-25", "last_sale": "2025-11-05"}}, {"type": "Feature", "geometry": {"type": "Point", "coordinates": [3.232629, 48.41008]}, "properties": {"id_parcelle": "77051000AK0480", "address": "637 RUE DANTON", "sales": 2, "median_price": 182750.0, "median_price_per_sqm": null, "median_rooms": null, "first_sale": "2021-05-26", "last_sale": "2021-11-30"}}, {"type": "Feature", "geometry": {"type": "Point", "coordinates": [3.232622, 48.410246]}, "properties": {"id_parcelle": "77051000AK0434", "address": "LA MALADRIE", "sales": 2, "median_price": 182750.0, "median_price_per_sqm": null, "median_rooms": null, "first_sale": "2021-05-26", "last_sale": "2021-11-30"}}, {"type": "Feature", "geometry": {"type": "Point", "coordinates": [3.234939, 48.412273]}, "properties": {"id_parcelle": "77051000AK0468", "address": "RUE DANTON", "sales": 2, "median_price": 14000.0, "median_price_per_sqm": null, "median_rooms": null, "first_sale": "2025-10-25", "last_sale": "2025-11-05"}}, {"type": "Feature", "geometry": {"type": "Point", "coordinates": [3.237528, 48.412445]}, "properties": {"id_parcelle": "77051000AK0116", "address": "230 RUE DE BOURGOGNE", "sales": 2, "median_price": 215000.0, "median_price_per_sqm": 2336.9565217391305, "median_rooms": 4.0, "first_sale": "2021-09-10", "last_sale": "2021-09-10"}}, {"type": "Feature", "geometry": {"type": "Point", "coordinates": [3.236774, 48.41288]}, "properties": {"id_parcelle": "77051000AK0358", "address": "203 RUE DANTON", "sales": 2, "median_price": 155000.0, "median_price_per_sqm": 2583.3333333333335, "median_rooms": 1.5, "first_sale": "2025-01-18", "last_sale": "2025-01-18"}}, {"type": "Feature", "geometry": {"type": "Point", "coordinates": [3.237403, 48.411174]}, "properties": {"id_parcelle": "77051000AK0381", "address": "RUE DE BOURGOGNE", "sales": 2, "median_price": 74000.0, "median_price_per_sqm": null, "median_rooms": null, "first_sale": "2025-10-22", "last_sale": "2025-10-22"}}, {"type": "Feature", "geometry": {"type": "Point", "coordinates": [3.23568, 48.411461]}, "properties": {"id_parcelle": "77051000AK0409", "address": "365 RUE DANTON", "sales": 2, "median_price": 374295.0, "median_price_per_sqm": 2079.4166666666665, "median_rooms": 3.0, "first_sale": "2024-12-11", "last_sale": "2024-12-11"}}, {"type": "Feature", "geometry": {"type": "Point", "coordinates": [3.237241, 48.409953]}, "properties": {"id_parcelle": "77051000AK0418", "address": "51 RUE MARIE CURIE", "sales": 2, "median_price": 297000.0, "median_price_per_sqm": 2020.408163265306, "median_rooms": 6.0, "first_sale": "2022-04-09", "last_sale": "2022-04-09"}}, {"type": "Feature", "geometry": {"type": "Point", "coordinates": [3.236921, 48.40999]}, "properties": {"id_parcelle": "77051000AK0419", "address": "37 RUE MARIE CURIE", "sales": 2, "median_price": 210000.0, "median_price_per_sqm": 1603.0534351145038, "median_rooms": 6.0, "first_sale": "2021-11-02", "last_sale": "2021-11-02"}}, {"type": "Feature", "geometry": {"type": "Point", "coordinates": [3.238548, 48.416301]}, "properties": {"id_parcelle": "77051000AM0070", "address": "1 RUE DES TUILOTS", "sales": 2, "median_price": 25000.0, "median_price_per_sqm": null, "median_rooms": 0.0, "first_sale": "2021-09-30", "last_sale": "2021-09-30"}}, {"type": "Feature", "geometry": {"type": "Point", "coordinates": [3.237641, 48.416276]}, "properties": {"id_parcelle": "77051000AL0149", "address": "14 RUE DU GENERAL LECLERC", "sales": 2, "median_price": 227000.0, "median_price_per_sqm": 4284.544159544159, "median_rooms": 2.0, "first_sale": "2021-04-15", "last_sale": "2021-04-15"}}, {"type": "Feature", "geometry": {"type": "Point", "coordinates": [3.237867, 48.415431]}, "properties": {"id_parcelle": "77051000AM0035", "address": "8 RUE DE L EGLISE", "sales": 2, "median_price": 129000.0, "median_price_per_sqm": 2580.0, "median_rooms": 2.0, "first_sale": "2021-05-06", "last_sale": "2021-05-06"}}, {"type": "Feature", "geometry": {"type": "Point", "coordinates": [3.238186, 48.416425]}, "properties": {"id_parcelle": "77051000AM0064", "address": "5 RUE DU GENERAL LECLERC", "sales": 2, "median_price": 100000.0, "median_price_per_sqm": 2575.757575757576, "median_rooms": 1.5, "first_sale": "2023-10-18", "last_sale": "2023-10-18"}}, {"type": "Feature", "geometry": {"type": "Point", "coordinates": [3.238347, 48.415257]}, "properties": {"id_parcelle": "77051000AM0024", "address": "4 RUE JOSEPH BARA", "sales": 2, "median_price": 140000.0, "median_price_per_sqm": 1139.1509433962265, "median_rooms": 1.5, "first_sale": "2025-02-19", "last_sale": "2025-02-19"}}, {"type": "Feature", "geometry": {"type": "Point", "coordinates": [3.238756, 48.414977]}, "properties": {"id_parcelle": "77051000AM0162", "address": "BRAY", "sales": 2, "median_price": 83000.0, "median_price_per_sqm": null, "median_rooms": null, "first_sale": "2022-08-03", "last_sale": "2025-12-12"}}, {"type": "Feature", "geometry": {"type": "Point", "coordinates": [3.238674, 48.414983]}, "properties": {"id_parcelle": "77051000AM0161", "address": "17 RUE DE LA PAIX", "sales": 2, "median_price": 100000.0, "median_price_per_sqm": 1649.3506493506493, "median_rooms": 1.5, "first_sale": "2022-08-03", "last_sale": "2022-08-03"}}, {"type": "Feature", "geometry": {"type": "Point", "coordinates": [3.23852, 48.415093]}, "properties": {"id_parcelle": "77051000AM0157", "address": "3 RUE JOSEPH BARA", "sales": 2, "median_price": 76000.0, "median_price_per_sqm": 1404.0677966101694, "median_rooms": 1.5, "first_sale": "2024-02-23", "last_sale": "2024-02-23"}}, {"type": "Feature", "geometry": {"type": "Point", "coordinates": [3.23877, 48.416055]}, "properties": {"id_parcelle": "77051000AM0248", "address": "RUE DU FOUR", "sales": 2, "median_price": 101000.0, "median_price_per_sqm": null, "median_rooms": null, "first_sale": "2021-05-11", "last_sale": "2025-06-26"}}, {"type": "Feature", "geometry": {"type": "Point", "coordinates": [3.238796, 48.416026]}, "properties": {"id_parcelle": "77051000AM0247", "address": "8 RUE DU FOUR", "sales": 2, "median_price": 101000.0, "median_price_per_sqm": 1629.032258064516, "median_rooms": 4.0, "first_sale": "2021-05-11", "last_sale": "2025-06-26"}}, {"type": "Feature", "geometry": {"type": "Point", "coordinates": [3.239636, 48.41645]}, "properties": {"id_parcelle": "77051000AM0245", "address": "5410 QUAI SAINT NICOLAS", "sales": 2, "median_price": 1.0, "median_price_per_sqm": 0.007936507936507936, "median_rooms": 1.5, "first_sale": "2023-06-16", "last_sale": "2023-06-16"}}, {"type": "Feature", "geometry": {"type": "Point", "coordinates": [3.238214, 48.415203]}, "properties": {"id_parcelle": "77051000AM0249", "address": "2 RUE DE L EGLISE", "sales": 2, "median_price": 109500.0, "median_price_per_sqm": 2947.1153846153848, "median_rooms": 1.5, "first_sale": "2021-06-03", "last_sale": "2025-02-19"}}, {"type": "Feature", "geometry": {"type": "Point", "coordinates": [3.237855, 48.409599]}, "properties": {"id_parcelle": "77051000AO0125", "address": "187 RUE DES CHAMPS FLEURIS", "sales": 2, "median_price": 100000.0, "median_price_per_sqm": 819.672131147541, "median_rooms": 3.0, "first_sale": "2022-05-10", "last_sale": "2022-05-10"}}, {"type": "Feature", "geometry": {"type": "Point", "coordinates": [3.246441, 48.410664]}, "properties": {"id_parcelle": "77051000AP0003", "address": "267 RTE DE MONTIGNY", "sales": 2, "median_price": 180000.0, "median_price_per_sqm": 1125.0, "median_rooms": 0.0, "first_sale": "2023-03-29", "last_sale": "2023-03-29"}}, {"type": "Feature", "geometry": {"type": "Point", "coordinates": [3.248703, 48.410661]}, "properties": {"id_parcelle": "77051000AP0009", "address": "8 RUE ANTOINE LAURENT LAVOISIER", "sales": 2, "median_price": 233000.0, "median_price_per_sqm": 2248.245614035088, "median_rooms": 1.5, "first_sale": "2021-12-30", "last_sale": "2021-12-30"}}, {"type": "Feature", "geometry": {"type": "Point", "coordinates": [3.250637, 48.410256]}, "properties": {"id_parcelle": "77051000AP0063", "address": "5063 RUE ANTOINE LAURENT LAVOISIER", "sales": 2, "median_price": 169000.0, "median_price_per_sqm": 1173.611111111111, "median_rooms": 0.0, "first_sale": "2022-03-12", "last_sale": "2022-03-12"}}]}