{"type": "FeatureCollection", "features": [{"type": "Feature", "geometry": {"type": "Point", "coordinates": [2.961515, 48.505816]}, "properties": {"street_name": "LES MOYEUX", "sales": 42, "sales_appt": 0, "sales_maison": 7, "median_price": 4680000.0, "median_price_per_sqm": 63375.0, "turnover_score": 100.0, "turnover_rank": 1, "first_year": 2024, "last_year": 2024, "years_active": 1}}, {"type": "Feature", "geometry": {"type": "Point", "coordinates": [2.9400895, 48.510035]}, "properties": {"street_name": "RUE DU BOIS CHAPELLE", "sales": 34, "sales_appt": 3, "sales_maison": 18, "median_price": 227000.0, "median_price_per_sqm": 2120.0, "turnover_score": 81.0, "turnover_rank": 2, "first_year": 2021, "last_year": 2025, "years_active": 5}}, {"type": "Feature", "geometry": {"type": "Point", "coordinates": [2.94847, 48.508154]}, "properties": {"street_name": "LES MONTILS", "sales": 26, "sales_appt": 0, "sales_maison": 0, "median_price": 196000.0, "median_price_per_sqm": null, "turnover_score": 61.9, "turnover_rank": 3, "first_year": 2021, "last_year": 2025, "years_active": 5}}, {"type": "Feature", "geometry": {"type": "Point", "coordinates": [2.970163, 48.509861]}, "properties": {"street_name": "RUE DU BOIS DE L ILE", "sales": 20, "sales_appt": 0, "sales_maison": 9, "median_price": 316000.0, "median_price_per_sqm": 2233.3333333333335, "turnover_score": 47.6, "turnover_rank": 4, "first_year": 2021, "last_year": 2025, "years_active": 4}}, {"type": "Feature", "geometry": {"type": "Point", "coordinates": [2.965923, 48.511949]}, "properties": {"street_name": "RUE DE LA CHAUDRONNERIE", "sales": 14, "sales_appt": 0, "sales_maison": 6, "median_price": 275000.0, "median_price_per_sqm": 2007.4626865671642, "turnover_score": 33.3, "turnover_rank": 5, "first_year": 2021, "last_year": 2022, "years_active": 2}}, {"type": "Feature", "geometry": {"type": "Point", "coordinates": [2.948532, 48.50824]}, "properties": {"street_name": "RUE DES VIEUX PRES", "sales": 14, "sales_appt": 0, "sales_maison": 10, "median_price": 160000.0, "median_price_per_sqm": 2478.1746031746034, "turnover_score": 33.3, "turnover_rank": 5, "first_year": 2021, "last_year": 2024, "years_active": 4}}, {"type": "Feature", "geometry": {"type": "Point", "coordinates": [2.9712785, 48.509137]}, "properties": {"street_name": "RTE DE COUTENCON", "sales": 12, "sales_appt": 0, "sales_maison": 7, "median_price": 140000.0, "median_price_per_sqm": 2592.5925925925926, "turnover_score": 28.6, "turnover_rank": 6, "first_year": 2021, "last_year": 2023, "years_active": 3}}, {"type": "Feature", "geometry": {"type": "Point", "coordinates": [2.9699, 48.507754]}, "properties": {"street_name": "LE MOULIN A VENT", "sales": 11, "sales_appt": 0, "sales_maison": 0, "median_price": 4680000.0, "median_price_per_sqm": null, "turnover_score": 26.2, "turnover_rank": 7, "first_year": 2021, "last_year": 2024, "years_active": 2}}, {"type": "Feature", "geometry": {"type": "Point", "coordinates": [2.9678725000000004, 48.5090015]}, "properties": {"street_name": "RUE AUX GRAINS", "sales": 8, "sales_appt": 0, "sales_maison": 6, "median_price": 334500.0, "median_price_per_sqm": 2326.3888888888887, "turnover_score": 19.0, "turnover_rank": 8, "first_year": 2022, "last_year": 2024, "years_active": 2}}, {"type": "Feature", "geometry": {"type": "Point", "coordinates": [2.972412, 48.512557]}, "properties": {"street_name": "RUE DES MOULINEAUX", "sales": 8, "sales_appt": 0, "sales_maison": 4, "median_price": 165000.0, "median_price_per_sqm": 1896.5517241379312, "turnover_score": 19.0, "turnover_rank": 8, "first_year": 2021, "last_year": 2021, "years_active": 1}}, {"type": "Feature", "geometry": {"type": "Point", "coordinates": [2.969394, 48.512449]}, "properties": {"street_name": "RUE DE LA MARE A LA CANE", "sales": 7, "sales_appt": 0, "sales_maison": 2, "median_price": 300155.0, "median_price_per_sqm": 2326.782945736434, "turnover_score": 16.7, "turnover_rank": 9, "first_year": 2022, "last_year": 2025, "years_active": 3}}, {"type": "Feature", "geometry": {"type": "Point", "coordinates": [2.970713, 48.509095]}, "properties": {"street_name": "RUE DU MINOTIER", "sales": 6, "sales_appt": 0, "sales_maison": 6, "median_price": 265000.0, "median_price_per_sqm": 2345.1327433628317, "turnover_score": 14.3, "turnover_rank": 10, "first_year": 2021, "last_year": 2024, "years_active": 2}}, {"type": "Feature", "geometry": {"type": "Point", "coordinates": [2.9604345, 48.5040325]}, "properties": {"street_name": "LES SABLES", "sales": 6, "sales_appt": 0, "sales_maison": 1, "median_price": 4680000.0, "median_price_per_sqm": 41785.71428571428, "turnover_score": 14.3, "turnover_rank": 10, "first_year": 2024, "last_year": 2024, "years_active": 1}}, {"type": "Feature", "geometry": {"type": "Point", "coordinates": [2.972867, 48.510336499999994]}, "properties": {"street_name": "LA CHAPELLE", "sales": 6, "sales_appt": 0, "sales_maison": 0, "median_price": 88500.0, "median_price_per_sqm": null, "turnover_score": 14.3, "turnover_rank": 10, "first_year": 2021, "last_year": 2025, "years_active": 3}}, {"type": "Feature", "geometry": {"type": "Point", "coordinates": [2.958885, 48.5134095]}, "properties": {"street_name": "LE CHEMIN BLANC", "sales": 4, "sales_appt": 0, "sales_maison": 0, "median_price": 11945.67, "median_price_per_sqm": null, "turnover_score": 9.5, "turnover_rank": 11, "first_year": 2023, "last_year": 2023, "years_active": 1}}, {"type": "Feature", "geometry": {"type": "Point", "coordinates": [2.966603, 48.510051]}, "properties": {"street_name": "SQ DUPEYRON", "sales": 4, "sales_appt": 0, "sales_maison": 2, "median_price": 171000.0, "median_price_per_sqm": 1988.3720930232557, "turnover_score": 9.5, "turnover_rank": 11, "first_year": 2025, "last_year": 2025, "years_active": 1}}, {"type": "Feature", "geometry": {"type": "Point", "coordinates": [2.972138, 48.509995]}, "properties": {"street_name": "RLE DE LA TUCHONNERIE", "sales": 3, "sales_appt": 0, "sales_maison": 3, "median_price": 285000.0, "median_price_per_sqm": 2544.6428571428573, "turnover_score": 7.1, "turnover_rank": 12, "first_year": 2024, "last_year": 2025, "years_active": 2}}, {"type": "Feature", "geometry": {"type": "Point", "coordinates": [2.97332, 48.510749]}, "properties": {"street_name": "RUE DES CLOS", "sales": 3, "sales_appt": 0, "sales_maison": 1, "median_price": 9000.0, "median_price_per_sqm": 3125.0, "turnover_score": 7.1, "turnover_rank": 12, "first_year": 2022, "last_year": 2025, "years_active": 2}}, {"type": "Feature", "geometry": {"type": "Point", "coordinates": [2.966637, 48.512779]}, "properties": {"street_name": "RUE DU BUISSON", "sales": 3, "sales_appt": 0, "sales_maison": 3, "median_price": 196600.0, "median_price_per_sqm": 2234.090909090909, "turnover_score": 7.1, "turnover_rank": 12, "first_year": 2022, "last_year": 2025, "years_active": 3}}, {"type": "Feature", "geometry": {"type": "Point", "coordinates": [2.968852, 48.508739]}, "properties": {"street_name": "RUE DES QUATRE VENTS", "sales": 2, "sales_appt": 0, "sales_maison": 2, "median_price": 130000.0, "median_price_per_sqm": 1203.7037037037037, "turnover_score": 4.8, "turnover_rank": 13, "first_year": 2023, "last_year": 2023, "years_active": 1}}, {"type": "Feature", "geometry": {"type": "Point", "coordinates": [2.9675865000000003, 48.512054]}, "properties": {"street_name": "LA MARE A LA CANNE", "sales": 2, "sales_appt": 0, "sales_maison": 0, "median_price": 287577.5, "median_price_per_sqm": null, "turnover_score": 4.8, "turnover_rank": 13, "first_year": 2022, "last_year": 2023, "years_active": 2}}, {"type": "Feature", "geometry": {"type": "Point", "coordinates": [2.970128, 48.511276]}, "properties": {"street_name": "RLE CANTRIS", "sales": 2, "sales_appt": 0, "sales_maison": 2, "median_price": 260000.0, "median_price_per_sqm": 2524.2718446601943, "turnover_score": 4.8, "turnover_rank": 13, "first_year": 2024, "last_year": 2024, "years_active": 1}}, {"type": "Feature", "geometry": {"type": "Point", "coordinates": [2.973071, 48.512583]}, "properties": {"street_name": "LES HALLES", "sales": 2, "sales_appt": 0, "sales_maison": 0, "median_price": 165000.0, "median_price_per_sqm": null, "turnover_score": 4.8, "turnover_rank": 13, "first_year": 2021, "last_year": 2021, "years_active": 1}}, {"type": "Feature", "geometry": {"type": "Point", "coordinates": [2.96825, 48.512716]}, "properties": {"street_name": "IMP DU CHENE SEC", "sales": 2, "sales_appt": 0, "sales_maison": 2, "median_price": 269000.0, "median_price_per_sqm": 2537.735849056604, "turnover_score": 4.8, "turnover_rank": 13, "first_year": 2023, "last_year": 2023, "years_active": 1}}, {"type": "Feature", "geometry": {"type": "Point", "coordinates": [2.9606565, 48.5031005]}, "properties": {"street_name": "TRENEL", "sales": 2, "sales_appt": 0, "sales_maison": 0, "median_price": 4680000.0, "median_price_per_sqm": null, "turnover_score": 4.8, "turnover_rank": 13, "first_year": 2024, "last_year": 2024, "years_active": 1}}, {"type": "Feature", "geometry": {"type": "Point", "coordinates": [2.9480104999999996, 48.4964005]}, "properties": {"street_name": "TOURNEBOEUF", "sales": 2, "sales_appt": 0, "sales_maison": 0, "median_price": 2786.0, "median_price_per_sqm": null, "turnover_score": 4.8, "turnover_rank": 13, "first_year": 2022, "last_year": 2022, "years_active": 1}}, {"type": "Feature", "geometry": {"type": "Point", "coordinates": [2.939434, 48.503237]}, "properties": {"street_name": "LA PIERRE DU COMPAS", "sales": 1, "sales_appt": 0, "sales_maison": 0, "median_price": 12500.0, "median_price_per_sqm": null, "turnover_score": 2.4, "turnover_rank": 14, "first_year": 2022, "last_year": 2022, "years_active": 1}}, {"type": "Feature", "geometry": {"type": "Point", "coordinates": [2.975103, 48.50329]}, "properties": {"street_name": "LES CARDINAUX", "sales": 1, "sales_appt": 0, "sales_maison": 0, "median_price": 5450.0, "median_price_per_sqm": null, "turnover_score": 2.4, "turnover_rank": 14, "first_year": 2023, "last_year": 2023, "years_active": 1}}, {"type": "Feature", "geometry": {"type": "Point", "coordinates": [2.954761, 48.508291]}, "properties": {"street_name": "LES VIEUX PRES", "sales": 1, "sales_appt": 0, "sales_maison": 0, "median_price": 385000.0, "median_price_per_sqm": null, "turnover_score": 2.4, "turnover_rank": 14, "first_year": 2024, "last_year": 2024, "years_active": 1}}, {"type": "Feature", "geometry": {"type": "Point", "coordinates": [2.937865, 48.51151]}, "properties": {"street_name": "LA FONTAINE DU TONNEAU", "sales": 1, "sales_appt": 0, "sales_maison": 0, "median_price": 178000.0, "median_price_per_sqm": null, "turnover_score": 2.4, "turnover_rank": 14, "first_year": 2021, "last_year": 2021, "years_active": 1}}, {"type": "Feature", "geometry": {"type": "Point", "coordinates": [2.970695, 48.510935]}, "properties": {"street_name": "RUE DU RELAIS", "sales": 1, "sales_appt": 0, "sales_maison": 1, "median_price": 78500.0, "median_price_per_sqm": 912.7906976744187, "turnover_score": 2.4, "turnover_rank": 14, "first_year": 2021, "last_year": 2021, "years_active": 1}}, {"type": "Feature", "geometry": {"type": "Point", "coordinates": [2.950807, 48.508527]}, "properties": {"street_name": "SUR LES MONTILS", "sales": 1, "sales_appt": 0, "sales_maison": 0, "median_price": 14990.0, "median_price_per_sqm": null, "turnover_score": 2.4, "turnover_rank": 14, "first_year": 2021, "last_year": 2021, "years_active": 1}}]}