{"type": "FeatureCollection", "features": [{"type": "Feature", "geometry": {"type": "Polygon", "coordinates": [[[2.747697, 48.883903], [2.748247, 48.883969], [2.748517, 48.883972], [2.749901, 48.883863], [2.750734, 48.883766], [2.751583, 48.883683], [2.751849, 48.88367], [2.752518, 48.883726], [2.753613, 48.883938], [2.754181, 48.884082], [2.754912, 48.884343], [2.755767, 48.884662], [2.756698, 48.885107], [2.757106, 48.885348], [2.758296, 48.885957], [2.75851, 48.886101], [2.758904, 48.886288], [2.759284, 48.886512], [2.760388, 48.887123], [2.760695, 48.88735], [2.761013, 48.88754], [2.761439, 48.887762], [2.761924, 48.887988], [2.762872, 48.888364], [2.76366, 48.888753], [2.763961, 48.889002], [2.764224, 48.88926], [2.766394, 48.888492], [2.76655, 48.888457], [2.766591, 48.888349], [2.766558, 48.888116], [2.766435, 48.887857], [2.766525, 48.887756], [2.766713, 48.88775], [2.767111, 48.887813], [2.767368, 48.887891], [2.767608, 48.888004], [2.767951, 48.888049], [2.768341, 48.888061], [2.768784, 48.88805], [2.769202, 48.888009], [2.769379, 48.887967], [2.769646, 48.887825], [2.769888, 48.887638], [2.770172, 48.887456], [2.770458, 48.887336], [2.770322, 48.887212], [2.769619, 48.886671], [2.769442, 48.886519], [2.768576, 48.885867], [2.769403, 48.885264], [2.770372, 48.884528], [2.770486, 48.884459], [2.77069, 48.88443], [2.771193, 48.884499], [2.771421, 48.884134], [2.771752, 48.883683], [2.771846, 48.883427], [2.771938, 48.883299], [2.772501, 48.882682], [2.773186, 48.881903], [2.773352, 48.88169], [2.773423, 48.88166], [2.773641, 48.881395], [2.77655, 48.881258], [2.777319, 48.88121], [2.777751, 48.880404], [2.777889, 48.880006], [2.778002, 48.879379], [2.777959, 48.878588], [2.777821, 48.877346], [2.777673, 48.87685], [2.777492, 48.876361], [2.777429, 48.876094], [2.777466, 48.875595], [2.781489, 48.874941], [2.782218, 48.874825], [2.782776, 48.87469], [2.783513, 48.87454], [2.786894, 48.873189], [2.788072, 48.872713], [2.790402, 48.871782], [2.791776, 48.871239], [2.791429, 48.87086], [2.790871, 48.870404], [2.790149, 48.869886], [2.789707, 48.869614], [2.789187, 48.869376], [2.78916, 48.869317], [2.788321, 48.866901], [2.787787, 48.865411], [2.786874, 48.862768], [2.78665, 48.862145], [2.786702, 48.860458], [2.786709, 48.86005], [2.786233, 48.860069], [2.786302, 48.860814], [2.785944, 48.860819], [2.785559, 48.860205], [2.785546, 48.860075], [2.783735, 48.860169], [2.783797, 48.860796], [2.783891, 48.861902], [2.781796, 48.861843], [2.781803, 48.861892], [2.781399, 48.861862], [2.780551, 48.86171], [2.780479, 48.861376], [2.780244, 48.860754], [2.77988, 48.860069], [2.779538, 48.859584], [2.779025, 48.859041], [2.778714, 48.858758], [2.778333, 48.858459], [2.777874, 48.858145], [2.777348, 48.857826], [2.776096, 48.85711], [2.775238, 48.856626], [2.773681, 48.855762], [2.772677, 48.854685], [2.772386, 48.854622], [2.772135, 48.854352], [2.771437, 48.854764], [2.770451, 48.855406], [2.770189, 48.855346], [2.7699, 48.855332], [2.769496, 48.8554], [2.769239, 48.855513], [2.76899, 48.855733], [2.768467, 48.855419], [2.76796, 48.855839], [2.76767, 48.856018], [2.76668, 48.855457], [2.766241, 48.85585], [2.765343, 48.856715], [2.763862, 48.858609], [2.76344, 48.859205], [2.763039, 48.859906], [2.762885, 48.860204], [2.764852, 48.860648], [2.764885, 48.860917], [2.764973, 48.861071], [2.765098, 48.861191], [2.765329, 48.86133], [2.764991, 48.862204], [2.764803, 48.862814], [2.764615, 48.863681], [2.764498, 48.864165], [2.764389, 48.866889], [2.764422, 48.866913], [2.764634, 48.867714], [2.763049, 48.867288], [2.762335, 48.867472], [2.761915, 48.867607], [2.761386, 48.867746], [2.761453, 48.868449], [2.76126, 48.868603], [2.761202, 48.868782], [2.761345, 48.868966], [2.761443, 48.869013], [2.761769, 48.869018], [2.761909, 48.869154], [2.762832, 48.8706], [2.762765, 48.870637], [2.762895, 48.870851], [2.760026, 48.872524], [2.757863, 48.873774], [2.756774, 48.874409], [2.755232, 48.875297], [2.750523, 48.878029], [2.750322, 48.878179], [2.750136, 48.878597], [2.749727, 48.879402], [2.749613, 48.87957], [2.74943, 48.87968], [2.749259, 48.880078], [2.749157, 48.880572], [2.749043, 48.880973], [2.748842, 48.881491], [2.74856, 48.88201], [2.748351, 48.88247], [2.748212, 48.882829], [2.747697, 48.883903]]]}, "properties": {"code_iris": "771110000", "nom_iris": "Chessy (commune entière)", "type_iris": "Z", "lat": 48.8718, "lng": 2.7697, "dvf_sales_total": 1877, "dvf_sales_appt": 0, "dvf_sales_maison": 0, "dvf_median_price": 306460.0, "dvf_median_ppsqm": 4717.439664804469, "dvf_by_year": "[{\"year\": 2021, \"sales\": 414, \"median_price\": 311250.0}, {\"year\": 2022, \"sales\": 469, \"median_price\": 307500.0}, {\"year\": 2023, \"sales\": 350, \"median_price\": 292000.0}, {\"year\": 2024, \"sales\": 220, \"median_price\": 271300.0}, {\"year\": 2025, \"sales\": 424, \"median_price\": 335000.0}]", "population": 7771, "n_log": null, "n_rp": null, "pct_proprio": null, "pct_hlm": null, "pct_appart": null, "pct_cadres": null, "pct_bac5p": null, "pct_etrangers": null, "pct_0_14": null, "pct_65p": null, "bpe_total": null, "bpe_commerces": null, "bpe_enseignement": null, "bpe_sante": null, "dpe": null, "attractivity_score": null, "rank_attractivity_score": null, "rank_total_attractivity_score": 1, "commune_avg": null, "is_stub": true}}]}