{"type": "FeatureCollection", "features": [{"type": "Feature", "geometry": {"type": "Point", "coordinates": [2.767948, 48.860018]}, "properties": {"street_name": "RUE DU PRE VERSON", "sales": 173, "sales_appt": 63, "sales_maison": 0, "median_price": 228547.77, "median_price_per_sqm": 3550.0, "turnover_score": 100.0, "turnover_rank": 1, "first_year": 2021, "last_year": 2025, "years_active": 5}}, {"type": "Feature", "geometry": {"type": "Point", "coordinates": [2.774422, 48.858954]}, "properties": {"street_name": "AV HERGE", "sales": 123, "sales_appt": 13, "sales_maison": 0, "median_price": 696000.0, "median_price_per_sqm": 50000.0, "turnover_score": 71.1, "turnover_rank": 2, "first_year": 2021, "last_year": 2025, "years_active": 5}}, {"type": "Feature", "geometry": {"type": "Point", "coordinates": [2.774472, 48.857521]}, "properties": {"street_name": "RUE DES GRANDS PRES", "sales": 106, "sales_appt": 17, "sales_maison": 0, "median_price": 297500.0, "median_price_per_sqm": 4637.68115942029, "turnover_score": 61.3, "turnover_rank": 3, "first_year": 2021, "last_year": 2025, "years_active": 5}}, {"type": "Feature", "geometry": {"type": "Point", "coordinates": [2.7733, 48.855832]}, "properties": {"street_name": "RUE DE LA FONTAINE ROUGE", "sales": 92, "sales_appt": 46, "sales_maison": 0, "median_price": 279500.0, "median_price_per_sqm": 4761.9047619047615, "turnover_score": 53.2, "turnover_rank": 4, "first_year": 2021, "last_year": 2025, "years_active": 5}}, {"type": "Feature", "geometry": {"type": "Point", "coordinates": [2.768198, 48.878941]}, "properties": {"street_name": "RUE D ORSONVILLE", "sales": 87, "sales_appt": 11, "sales_maison": 5, "median_price": 220500.0, "median_price_per_sqm": 4459.529496059231, "turnover_score": 50.3, "turnover_rank": 5, "first_year": 2021, "last_year": 2025, "years_active": 5}}, {"type": "Feature", "geometry": {"type": "Point", "coordinates": [2.770887, 48.858291]}, "properties": {"street_name": "RUE D ARIANE", "sales": 75, "sales_appt": 20, "sales_maison": 1, "median_price": 344000.0, "median_price_per_sqm": 5634.920634920635, "turnover_score": 43.4, "turnover_rank": 6, "first_year": 2021, "last_year": 2025, "years_active": 5}}, {"type": "Feature", "geometry": {"type": "Point", "coordinates": [2.772305, 48.856415]}, "properties": {"street_name": "RUE DE LA GALMY", "sales": 75, "sales_appt": 20, "sales_maison": 0, "median_price": 285000.0, "median_price_per_sqm": 5600.0, "turnover_score": 43.4, "turnover_rank": 6, "first_year": 2021, "last_year": 2025, "years_active": 5}}, {"type": "Feature", "geometry": {"type": "Point", "coordinates": [2.77281, 48.87914]}, "properties": {"street_name": "RUE DU CLOS GIRARD", "sales": 74, "sales_appt": 18, "sales_maison": 2, "median_price": 272000.0, "median_price_per_sqm": 4132.52508361204, "turnover_score": 42.8, "turnover_rank": 7, "first_year": 2021, "last_year": 2025, "years_active": 5}}, {"type": "Feature", "geometry": {"type": "Point", "coordinates": [2.766114, 48.884539]}, "properties": {"street_name": "RUE DES COULOMMIERES", "sales": 49, "sales_appt": 0, "sales_maison": 14, "median_price": 549900.0, "median_price_per_sqm": 5833.333333333333, "turnover_score": 28.3, "turnover_rank": 8, "first_year": 2021, "last_year": 2025, "years_active": 4}}, {"type": "Feature", "geometry": {"type": "Point", "coordinates": [2.75485, 48.879539]}, "properties": {"street_name": "CHE DES FOSSES ROUGES", "sales": 49, "sales_appt": 2, "sales_maison": 19, "median_price": 570000.0, "median_price_per_sqm": 4386.503067484663, "turnover_score": 28.3, "turnover_rank": 8, "first_year": 2021, "last_year": 2025, "years_active": 5}}, {"type": "Feature", "geometry": {"type": "Point", "coordinates": [2.772515, 48.858889]}, "properties": {"street_name": "RUE DU FOSSE MIGNARD", "sales": 47, "sales_appt": 17, "sales_maison": 0, "median_price": 376000.0, "median_price_per_sqm": 5177.215189873417, "turnover_score": 27.2, "turnover_rank": 9, "first_year": 2021, "last_year": 2025, "years_active": 5}}, {"type": "Feature", "geometry": {"type": "Point", "coordinates": [2.758443, 48.875884]}, "properties": {"street_name": "CHE DE LA GLACIERE", "sales": 42, "sales_appt": 0, "sales_maison": 4, "median_price": 635000.0, "median_price_per_sqm": 4697.756897837435, "turnover_score": 24.3, "turnover_rank": 10, "first_year": 2022, "last_year": 2025, "years_active": 3}}, {"type": "Feature", "geometry": {"type": "Point", "coordinates": [2.769698, 48.858038]}, "properties": {"street_name": "PL NELSON MANDELA", "sales": 39, "sales_appt": 10, "sales_maison": 0, "median_price": 413383.0, "median_price_per_sqm": 6653.846153846154, "turnover_score": 22.5, "turnover_rank": 11, "first_year": 2021, "last_year": 2025, "years_active": 5}}, {"type": "Feature", "geometry": {"type": "Point", "coordinates": [2.756155, 48.881217]}, "properties": {"street_name": "CHE DES MEUNIERS", "sales": 36, "sales_appt": 0, "sales_maison": 12, "median_price": 510000.0, "median_price_per_sqm": 3745.030954708374, "turnover_score": 20.8, "turnover_rank": 12, "first_year": 2021, "last_year": 2025, "years_active": 5}}, {"type": "Feature", "geometry": {"type": "Point", "coordinates": [2.770865, 48.879489]}, "properties": {"street_name": "ALL DES MARAICHERS", "sales": 35, "sales_appt": 9, "sales_maison": 1, "median_price": 240000.0, "median_price_per_sqm": 4836.638621794871, "turnover_score": 20.2, "turnover_rank": 13, "first_year": 2021, "last_year": 2025, "years_active": 5}}, {"type": "Feature", "geometry": {"type": "Point", "coordinates": [2.774472, 48.857521]}, "properties": {"street_name": "RUE DU BOIS DE PARIS", "sales": 32, "sales_appt": 20, "sales_maison": 0, "median_price": 300000.0, "median_price_per_sqm": 4918.0327868852455, "turnover_score": 18.5, "turnover_rank": 14, "first_year": 2021, "last_year": 2025, "years_active": 5}}, {"type": "Feature", "geometry": {"type": "Point", "coordinates": [2.766921, 48.877186]}, "properties": {"street_name": "RUE DES FERMES", "sales": 32, "sales_appt": 7, "sales_maison": 5, "median_price": 271300.0, "median_price_per_sqm": 4050.8125472411184, "turnover_score": 18.5, "turnover_rank": 14, "first_year": 2021, "last_year": 2025, "years_active": 5}}, {"type": "Feature", "geometry": {"type": "Point", "coordinates": [2.767438, 48.878941]}, "properties": {"street_name": "RUE DES POMMIERS", "sales": 27, "sales_appt": 26, "sales_maison": 1, "median_price": 210837.0, "median_price_per_sqm": 3569.8394520547945, "turnover_score": 15.6, "turnover_rank": 15, "first_year": 2021, "last_year": 2025, "years_active": 4}}, {"type": "Feature", "geometry": {"type": "Point", "coordinates": [2.764964, 48.878902]}, "properties": {"street_name": "AV THIBAUD DE CHAMPAGNE", "sales": 26, "sales_appt": 10, "sales_maison": 2, "median_price": 253000.0, "median_price_per_sqm": 4288.013013013013, "turnover_score": 15.0, "turnover_rank": 16, "first_year": 2021, "last_year": 2025, "years_active": 5}}, {"type": "Feature", "geometry": {"type": "Point", "coordinates": [2.772502, 48.860487]}, "properties": {"street_name": "RUE HADDOCK", "sales": 26, "sales_appt": 3, "sales_maison": 0, "median_price": 248740.0, "median_price_per_sqm": 5975.609756097561, "turnover_score": 15.0, "turnover_rank": 16, "first_year": 2021, "last_year": 2025, "years_active": 5}}, {"type": "Feature", "geometry": {"type": "Point", "coordinates": [2.764148, 48.880373]}, "properties": {"street_name": "RUE DE LA MARNE", "sales": 24, "sales_appt": 3, "sales_maison": 6, "median_price": 290000.0, "median_price_per_sqm": 4807.692307692308, "turnover_score": 13.9, "turnover_rank": 17, "first_year": 2021, "last_year": 2025, "years_active": 5}}, {"type": "Feature", "geometry": {"type": "Point", "coordinates": [2.766119, 48.88206]}, "properties": {"street_name": "RUE PASTEUR", "sales": 23, "sales_appt": 1, "sales_maison": 11, "median_price": 480000.0, "median_price_per_sqm": 4699.4047619047615, "turnover_score": 13.3, "turnover_rank": 18, "first_year": 2021, "last_year": 2025, "years_active": 5}}, {"type": "Feature", "geometry": {"type": "Point", "coordinates": [2.761528, 48.877188]}, "properties": {"street_name": "PAS DU VIEUX CHENE", "sales": 22, "sales_appt": 10, "sales_maison": 0, "median_price": 299468.25, "median_price_per_sqm": 4796.018913210445, "turnover_score": 12.7, "turnover_rank": 19, "first_year": 2021, "last_year": 2025, "years_active": 4}}, {"type": "Feature", "geometry": {"type": "Point", "coordinates": [2.76897, 48.878093]}, "properties": {"street_name": "PAS DU FOUR", "sales": 22, "sales_appt": 7, "sales_maison": 0, "median_price": 239000.0, "median_price_per_sqm": 4360.6557377049185, "turnover_score": 12.7, "turnover_rank": 19, "first_year": 2021, "last_year": 2025, "years_active": 5}}, {"type": "Feature", "geometry": {"type": "Point", "coordinates": [2.75048, 48.880926]}, "properties": {"street_name": "CHE DES BAS CHAMPS", "sales": 19, "sales_appt": 0, "sales_maison": 5, "median_price": 282000.0, "median_price_per_sqm": 4970.754716981132, "turnover_score": 11.0, "turnover_rank": 20, "first_year": 2021, "last_year": 2025, "years_active": 4}}, {"type": "Feature", "geometry": {"type": "Point", "coordinates": [2.765847, 48.876879]}, "properties": {"street_name": "CHE DES VERGERS", "sales": 19, "sales_appt": 11, "sales_maison": 1, "median_price": 252500.0, "median_price_per_sqm": 4500.984848484848, "turnover_score": 11.0, "turnover_rank": 20, "first_year": 2022, "last_year": 2025, "years_active": 4}}, {"type": "Feature", "geometry": {"type": "Point", "coordinates": [2.771784, 48.87784]}, "properties": {"street_name": "RUE DES TOURNELLES", "sales": 19, "sales_appt": 2, "sales_maison": 9, "median_price": 535150.0, "median_price_per_sqm": 4466.019417475728, "turnover_score": 11.0, "turnover_rank": 20, "first_year": 2021, "last_year": 2025, "years_active": 4}}, {"type": "Feature", "geometry": {"type": "Point", "coordinates": [2.7654579999999997, 48.875595000000004]}, "properties": {"street_name": "PARC DE CHESSY", "sales": 18, "sales_appt": 0, "sales_maison": 1, "median_price": 295000.0, "median_price_per_sqm": 28835.31847133758, "turnover_score": 10.4, "turnover_rank": 21, "first_year": 2021, "last_year": 2025, "years_active": 5}}, {"type": "Feature", "geometry": {"type": "Point", "coordinates": [2.767357, 48.880766]}, "properties": {"street_name": "RUE CHARLES DE GAULLE", "sales": 18, "sales_appt": 0, "sales_maison": 9, "median_price": 350000.0, "median_price_per_sqm": 3915.7894736842104, "turnover_score": 10.4, "turnover_rank": 21, "first_year": 2021, "last_year": 2025, "years_active": 4}}, {"type": "Feature", "geometry": {"type": "Point", "coordinates": [2.786446, 48.866815]}, "properties": {"street_name": "AV PAUL SERAMY", "sales": 18, "sales_appt": 0, "sales_maison": 0, "median_price": 16726540.0, "median_price_per_sqm": 14050.852106673698, "turnover_score": 10.4, "turnover_rank": 21, "first_year": 2025, "last_year": 2025, "years_active": 1}}, {"type": "Feature", "geometry": {"type": "Point", "coordinates": [2.763145, 48.880743]}, "properties": {"street_name": "RLE DES PETITS PRES", "sales": 17, "sales_appt": 4, "sales_maison": 4, "median_price": 760000.0, "median_price_per_sqm": 6703.225806451613, "turnover_score": 9.8, "turnover_rank": 22, "first_year": 2022, "last_year": 2025, "years_active": 3}}, {"type": "Feature", "geometry": {"type": "Point", "coordinates": [2.765976, 48.878959]}, "properties": {"street_name": "PL CECILE SABOURAUD", "sales": 16, "sales_appt": 1, "sales_maison": 1, "median_price": 254500.0, "median_price_per_sqm": 4092.391304347826, "turnover_score": 9.2, "turnover_rank": 23, "first_year": 2021, "last_year": 2025, "years_active": 4}}, {"type": "Feature", "geometry": {"type": "Point", "coordinates": [2.770116, 48.878277]}, "properties": {"street_name": "RUE DU COIN BLOT", "sales": 15, "sales_appt": 3, "sales_maison": 5, "median_price": 299000.0, "median_price_per_sqm": 4509.183673469388, "turnover_score": 8.7, "turnover_rank": 24, "first_year": 2021, "last_year": 2025, "years_active": 5}}, {"type": "Feature", "geometry": {"type": "Point", "coordinates": [2.767815, 48.886469]}, "properties": {"street_name": "LES COULOMMIERES", "sales": 15, "sales_appt": 0, "sales_maison": 0, "median_price": 280000.0, "median_price_per_sqm": null, "turnover_score": 8.7, "turnover_rank": 24, "first_year": 2022, "last_year": 2025, "years_active": 3}}, {"type": "Feature", "geometry": {"type": "Point", "coordinates": [2.768014, 48.882312]}, "properties": {"street_name": "CHE DES RENEUVES", "sales": 15, "sales_appt": 0, "sales_maison": 4, "median_price": 439000.0, "median_price_per_sqm": 3162.9528130671506, "turnover_score": 8.7, "turnover_rank": 24, "first_year": 2022, "last_year": 2025, "years_active": 4}}, {"type": "Feature", "geometry": {"type": "Point", "coordinates": [2.753153, 48.876965]}, "properties": {"street_name": "CHE DE L ORANGERIE", "sales": 14, "sales_appt": 0, "sales_maison": 4, "median_price": 759300.0, "median_price_per_sqm": 6902.727272727273, "turnover_score": 8.1, "turnover_rank": 25, "first_year": 2022, "last_year": 2023, "years_active": 2}}, {"type": "Feature", "geometry": {"type": "Point", "coordinates": [2.774472, 48.857521]}, "properties": {"street_name": "RUE DES LIVRAINS", "sales": 14, "sales_appt": 10, "sales_maison": 0, "median_price": 300000.0, "median_price_per_sqm": 4680.669398907105, "turnover_score": 8.1, "turnover_rank": 25, "first_year": 2021, "last_year": 2025, "years_active": 4}}, {"type": "Feature", "geometry": {"type": "Point", "coordinates": [2.758221, 48.881769]}, "properties": {"street_name": "CHE DES LANTERNES", "sales": 13, "sales_appt": 0, "sales_maison": 4, "median_price": 470000.0, "median_price_per_sqm": 8006.410256410256, "turnover_score": 7.5, "turnover_rank": 26, "first_year": 2022, "last_year": 2025, "years_active": 4}}, {"type": "Feature", "geometry": {"type": "Point", "coordinates": [2.76046, 48.882817]}, "properties": {"street_name": "CHE DE LA GRANDE RUELLE", "sales": 13, "sales_appt": 0, "sales_maison": 6, "median_price": 340000.0, "median_price_per_sqm": 4534.821903242956, "turnover_score": 7.5, "turnover_rank": 26, "first_year": 2021, "last_year": 2025, "years_active": 4}}, {"type": "Feature", "geometry": {"type": "Point", "coordinates": [2.77281, 48.87914]}, "properties": {"street_name": "RUE DU PRE AU PRETRE", "sales": 13, "sales_appt": 8, "sales_maison": 2, "median_price": 245000.0, "median_price_per_sqm": 4467.588495575221, "turnover_score": 7.5, "turnover_rank": 26, "first_year": 2021, "last_year": 2025, "years_active": 5}}, {"type": "Feature", "geometry": {"type": "Point", "coordinates": [2.7686444999999997, 48.8868845]}, "properties": {"street_name": "CHE DES PASTENOTTES", "sales": 12, "sales_appt": 0, "sales_maison": 1, "median_price": 980000.0, "median_price_per_sqm": 4317.180616740088, "turnover_score": 6.9, "turnover_rank": 27, "first_year": 2022, "last_year": 2022, "years_active": 1}}, {"type": "Feature", "geometry": {"type": "Point", "coordinates": [2.767948, 48.860018]}, "properties": {"street_name": "RUE CABU", "sales": 12, "sales_appt": 4, "sales_maison": 0, "median_price": 220000.0, "median_price_per_sqm": 3483.5087719298244, "turnover_score": 6.9, "turnover_rank": 27, "first_year": 2024, "last_year": 2025, "years_active": 2}}, {"type": "Feature", "geometry": {"type": "Point", "coordinates": [2.77477, 48.879521499999996]}, "properties": {"street_name": "RUE SAUSSAYE", "sales": 12, "sales_appt": 0, "sales_maison": 3, "median_price": 1.0, "median_price_per_sqm": 4750.0, "turnover_score": 6.9, "turnover_rank": 27, "first_year": 2021, "last_year": 2024, "years_active": 4}}, {"type": "Feature", "geometry": {"type": "Point", "coordinates": [2.772561, 48.879873]}, "properties": {"street_name": "LE CLOS GIRARD", "sales": 10, "sales_appt": 0, "sales_maison": 0, "median_price": 1.0, "median_price_per_sqm": null, "turnover_score": 5.8, "turnover_rank": 28, "first_year": 2021, "last_year": 2024, "years_active": 2}}, {"type": "Feature", "geometry": {"type": "Point", "coordinates": [2.7688205, 48.8845545]}, "properties": {"street_name": "CHE DES BOUILLANTS", "sales": 10, "sales_appt": 0, "sales_maison": 5, "median_price": 520000.0, "median_price_per_sqm": 4957.264957264957, "turnover_score": 5.8, "turnover_rank": 28, "first_year": 2022, "last_year": 2025, "years_active": 3}}, {"type": "Feature", "geometry": {"type": "Point", "coordinates": [2.775474, 48.880899]}, "properties": {"street_name": "RUE JEAN DE FOURCY", "sales": 10, "sales_appt": 0, "sales_maison": 7, "median_price": 811000.0, "median_price_per_sqm": 4758.620689655172, "turnover_score": 5.8, "turnover_rank": 28, "first_year": 2021, "last_year": 2025, "years_active": 4}}, {"type": "Feature", "geometry": {"type": "Point", "coordinates": [2.774299, 48.877682]}, "properties": {"street_name": "RUE DES QUILLES", "sales": 10, "sales_appt": 0, "sales_maison": 0, "median_price": 507500.0, "median_price_per_sqm": 1582.506156716705, "turnover_score": 5.8, "turnover_rank": 28, "first_year": 2022, "last_year": 2025, "years_active": 4}}, {"type": "Feature", "geometry": {"type": "Point", "coordinates": [2.77038, 48.857543]}, "properties": {"street_name": "RUE ADELE BLANC SEC", "sales": 8, "sales_appt": 4, "sales_maison": 0, "median_price": 216324.065, "median_price_per_sqm": 3568.3657069597066, "turnover_score": 4.6, "turnover_rank": 29, "first_year": 2021, "last_year": 2025, "years_active": 3}}, {"type": "Feature", "geometry": {"type": "Point", "coordinates": [2.755001, 48.8767215]}, "properties": {"street_name": "CHE DU FIEF DE L EMPEREUR", "sales": 8, "sales_appt": 0, "sales_maison": 4, "median_price": 732750.0, "median_price_per_sqm": 4934.121621621622, "turnover_score": 4.6, "turnover_rank": 29, "first_year": 2021, "last_year": 2023, "years_active": 2}}, {"type": "Feature", "geometry": {"type": "Point", "coordinates": [2.758179, 48.879674]}, "properties": {"street_name": "RUE DE LAGNY", "sales": 7, "sales_appt": 0, "sales_maison": 3, "median_price": 340000.0, "median_price_per_sqm": 3586.206896551724, "turnover_score": 4.0, "turnover_rank": 30, "first_year": 2021, "last_year": 2023, "years_active": 3}}, {"type": "Feature", "geometry": {"type": "Point", "coordinates": [2.770887, 48.859039]}, "properties": {"street_name": "PAS DE LA CHENELETTE", "sales": 7, "sales_appt": 0, "sales_maison": 0, "median_price": 400000.0, "median_price_per_sqm": null, "turnover_score": 4.0, "turnover_rank": 30, "first_year": 2022, "last_year": 2025, "years_active": 3}}, {"type": "Feature", "geometry": {"type": "Point", "coordinates": [2.769432, 48.885076]}, "properties": {"street_name": "CHE DU PRE DE LA FONTAINE", "sales": 7, "sales_appt": 0, "sales_maison": 1, "median_price": 348000.0, "median_price_per_sqm": 4350.0, "turnover_score": 4.0, "turnover_rank": 30, "first_year": 2023, "last_year": 2023, "years_active": 1}}, {"type": "Feature", "geometry": {"type": "Point", "coordinates": [2.749176, 48.883098]}, "properties": {"street_name": "LES PRES DE LA RIVIERE", "sales": 7, "sales_appt": 0, "sales_maison": 0, "median_price": 200000.0, "median_price_per_sqm": null, "turnover_score": 4.0, "turnover_rank": 30, "first_year": 2021, "last_year": 2025, "years_active": 2}}, {"type": "Feature", "geometry": {"type": "Point", "coordinates": [2.771809, 48.880334500000004]}, "properties": {"street_name": "RUE DU PRE GIBERT", "sales": 6, "sales_appt": 0, "sales_maison": 2, "median_price": 1.0, "median_price_per_sqm": 4703.315548780488, "turnover_score": 3.5, "turnover_rank": 31, "first_year": 2021, "last_year": 2024, "years_active": 2}}, {"type": "Feature", "geometry": {"type": "Point", "coordinates": [2.7652975, 48.8815065]}, "properties": {"street_name": "LE VILLAGE", "sales": 6, "sales_appt": 0, "sales_maison": 0, "median_price": 286000.0, "median_price_per_sqm": null, "turnover_score": 3.5, "turnover_rank": 31, "first_year": 2022, "last_year": 2025, "years_active": 4}}, {"type": "Feature", "geometry": {"type": "Point", "coordinates": [2.770597, 48.884254]}, "properties": {"street_name": "RUE SAINT ELOI", "sales": 6, "sales_appt": 0, "sales_maison": 4, "median_price": 508000.0, "median_price_per_sqm": 3638.9134615384614, "turnover_score": 3.5, "turnover_rank": 31, "first_year": 2021, "last_year": 2021, "years_active": 1}}, {"type": "Feature", "geometry": {"type": "Point", "coordinates": [2.761412, 48.880154]}, "properties": {"street_name": "RUE PIERRE CURIE", "sales": 6, "sales_appt": 2, "sales_maison": 3, "median_price": 335000.0, "median_price_per_sqm": 4893.617021276596, "turnover_score": 3.5, "turnover_rank": 31, "first_year": 2022, "last_year": 2023, "years_active": 2}}, {"type": "Feature", "geometry": {"type": "Point", "coordinates": [2.773493, 48.878863]}, "properties": {"street_name": "SEN DU BOIS COQUARD", "sales": 6, "sales_appt": 6, "sales_maison": 0, "median_price": 302250.0, "median_price_per_sqm": 4601.694915254237, "turnover_score": 3.5, "turnover_rank": 31, "first_year": 2021, "last_year": 2024, "years_active": 3}}, {"type": "Feature", "geometry": {"type": "Point", "coordinates": [2.765129, 48.879202]}, "properties": {"street_name": "RUE PAUL LAGUESSE", "sales": 5, "sales_appt": 0, "sales_maison": 1, "median_price": 785000.0, "median_price_per_sqm": 5233.333333333333, "turnover_score": 2.9, "turnover_rank": 32, "first_year": 2024, "last_year": 2025, "years_active": 2}}, {"type": "Feature", "geometry": {"type": "Point", "coordinates": [2.758054, 48.879652]}, "properties": {"street_name": "LES FOSSES ROUGES", "sales": 5, "sales_appt": 0, "sales_maison": 0, "median_price": 280000.0, "median_price_per_sqm": null, "turnover_score": 2.9, "turnover_rank": 32, "first_year": 2021, "last_year": 2022, "years_active": 2}}, {"type": "Feature", "geometry": {"type": "Point", "coordinates": [2.772777, 48.880678]}, "properties": {"street_name": "RUE DES ECOUFFES", "sales": 5, "sales_appt": 0, "sales_maison": 2, "median_price": 465000.0, "median_price_per_sqm": 4672.826086956522, "turnover_score": 2.9, "turnover_rank": 32, "first_year": 2021, "last_year": 2023, "years_active": 3}}, {"type": "Feature", "geometry": {"type": "Point", "coordinates": [2.769973, 48.878761]}, "properties": {"street_name": "PAS DES ECOLES", "sales": 5, "sales_appt": 0, "sales_maison": 1, "median_price": 660.0, "median_price_per_sqm": 4773.913043478261, "turnover_score": 2.9, "turnover_rank": 32, "first_year": 2022, "last_year": 2024, "years_active": 2}}, {"type": "Feature", "geometry": {"type": "Point", "coordinates": [2.774415, 48.879012]}, "properties": {"street_name": "RUE DES PERREUX", "sales": 5, "sales_appt": 0, "sales_maison": 3, "median_price": 395000.0, "median_price_per_sqm": 4456.521739130435, "turnover_score": 2.9, "turnover_rank": 32, "first_year": 2021, "last_year": 2021, "years_active": 1}}, {"type": "Feature", "geometry": {"type": "Point", "coordinates": [2.7640995, 48.884166]}, "properties": {"street_name": "SEN DES CHAPETTES", "sales": 4, "sales_appt": 0, "sales_maison": 1, "median_price": 877500.0, "median_price_per_sqm": 5022.83105022831, "turnover_score": 2.3, "turnover_rank": 33, "first_year": 2021, "last_year": 2023, "years_active": 2}}, {"type": "Feature", "geometry": {"type": "Point", "coordinates": [2.763946, 48.880252]}, "properties": {"street_name": "RUE GEDALGE", "sales": 4, "sales_appt": 0, "sales_maison": 1, "median_price": 440000.0, "median_price_per_sqm": 3492.063492063492, "turnover_score": 2.3, "turnover_rank": 33, "first_year": 2023, "last_year": 2023, "years_active": 1}}, {"type": "Feature", "geometry": {"type": "Point", "coordinates": [2.754468, 48.8817925]}, "properties": {"street_name": "LES HARPEAUX", "sales": 4, "sales_appt": 0, "sales_maison": 0, "median_price": 110000.0, "median_price_per_sqm": null, "turnover_score": 2.3, "turnover_rank": 33, "first_year": 2021, "last_year": 2025, "years_active": 3}}, {"type": "Feature", "geometry": {"type": "Point", "coordinates": [2.7584425, 48.881474]}, "properties": {"street_name": "CHE DES FLOBERTS", "sales": 4, "sales_appt": 0, "sales_maison": 1, "median_price": 470000.0, "median_price_per_sqm": 4895.833333333333, "turnover_score": 2.3, "turnover_rank": 33, "first_year": 2024, "last_year": 2024, "years_active": 1}}, {"type": "Feature", "geometry": {"type": "Point", "coordinates": [2.7766075, 48.8593945]}, "properties": {"street_name": "LE BOIS DE PARIS", "sales": 4, "sales_appt": 0, "sales_maison": 0, "median_price": 2260691.54, "median_price_per_sqm": null, "turnover_score": 2.3, "turnover_rank": 33, "first_year": 2025, "last_year": 2025, "years_active": 1}}, {"type": "Feature", "geometry": {"type": "Point", "coordinates": [2.7665395, 48.884195500000004]}, "properties": {"street_name": "LES BOUILLANTS", "sales": 4, "sales_appt": 0, "sales_maison": 0, "median_price": 102500.0, "median_price_per_sqm": null, "turnover_score": 2.3, "turnover_rank": 33, "first_year": 2022, "last_year": 2024, "years_active": 2}}, {"type": "Feature", "geometry": {"type": "Point", "coordinates": [2.765598, 48.87342]}, "properties": {"street_name": "CHE DU BICHERET", "sales": 4, "sales_appt": 1, "sales_maison": 0, "median_price": 335000.0, "median_price_per_sqm": 5317.460317460317, "turnover_score": 2.3, "turnover_rank": 33, "first_year": 2023, "last_year": 2025, "years_active": 2}}, {"type": "Feature", "geometry": {"type": "Point", "coordinates": [2.7618015, 48.878952999999996]}, "properties": {"street_name": "RUE DU PETIT CHAMP", "sales": 4, "sales_appt": 0, "sales_maison": 3, "median_price": 420000.0, "median_price_per_sqm": 3363.116883116883, "turnover_score": 2.3, "turnover_rank": 33, "first_year": 2022, "last_year": 2022, "years_active": 1}}, {"type": "Feature", "geometry": {"type": "Point", "coordinates": [2.757586, 48.880146499999995]}, "properties": {"street_name": "LES NEIGES", "sales": 4, "sales_appt": 0, "sales_maison": 0, "median_price": 570000.0, "median_price_per_sqm": null, "turnover_score": 2.3, "turnover_rank": 33, "first_year": 2025, "last_year": 2025, "years_active": 1}}, {"type": "Feature", "geometry": {"type": "Point", "coordinates": [2.7654115, 48.8831135]}, "properties": {"street_name": "LES PERREUX", "sales": 4, "sales_appt": 0, "sales_maison": 0, "median_price": 572019.0, "median_price_per_sqm": null, "turnover_score": 2.3, "turnover_rank": 33, "first_year": 2021, "last_year": 2022, "years_active": 2}}, {"type": "Feature", "geometry": {"type": "Point", "coordinates": [2.764775, 48.88088]}, "properties": {"street_name": "RUE DE LA DHUIS", "sales": 4, "sales_appt": 1, "sales_maison": 0, "median_price": 266000.0, "median_price_per_sqm": 4925.925925925926, "turnover_score": 2.3, "turnover_rank": 33, "first_year": 2023, "last_year": 2023, "years_active": 1}}, {"type": "Feature", "geometry": {"type": "Point", "coordinates": [2.750869, 48.880157]}, "properties": {"street_name": "LES BAS CHAMPS", "sales": 3, "sales_appt": 0, "sales_maison": 0, "median_price": 4700.0, "median_price_per_sqm": null, "turnover_score": 1.7, "turnover_rank": 34, "first_year": 2022, "last_year": 2025, "years_active": 2}}, {"type": "Feature", "geometry": {"type": "Point", "coordinates": [2.760213, 48.884367]}, "properties": {"street_name": "ALL DES MESANGES", "sales": 3, "sales_appt": 0, "sales_maison": 0, "median_price": 349000.0, "median_price_per_sqm": null, "turnover_score": 1.7, "turnover_rank": 34, "first_year": 2022, "last_year": 2022, "years_active": 1}}, {"type": "Feature", "geometry": {"type": "Point", "coordinates": [2.776205, 48.879868]}, "properties": {"street_name": "CHE DE LA CROIX BLANCHE", "sales": 3, "sales_appt": 0, "sales_maison": 2, "median_price": 835000.0, "median_price_per_sqm": 4371.7277486911, "turnover_score": 1.7, "turnover_rank": 34, "first_year": 2022, "last_year": 2024, "years_active": 2}}, {"type": "Feature", "geometry": {"type": "Point", "coordinates": [2.761803, 48.881151]}, "properties": {"street_name": "CHE DU BOUZET", "sales": 3, "sales_appt": 0, "sales_maison": 1, "median_price": 445000.0, "median_price_per_sqm": 5426.829268292683, "turnover_score": 1.7, "turnover_rank": 34, "first_year": 2025, "last_year": 2025, "years_active": 1}}, {"type": "Feature", "geometry": {"type": "Point", "coordinates": [2.756701, 48.880831]}, "properties": {"street_name": "LES AULNOIS", "sales": 3, "sales_appt": 0, "sales_maison": 0, "median_price": 15400.0, "median_price_per_sqm": null, "turnover_score": 1.7, "turnover_rank": 34, "first_year": 2021, "last_year": 2023, "years_active": 2}}, {"type": "Feature", "geometry": {"type": "Point", "coordinates": [2.771435, 48.875894]}, "properties": {"street_name": "LES LIVRAINS", "sales": 3, "sales_appt": 0, "sales_maison": 0, "median_price": 1.0, "median_price_per_sqm": null, "turnover_score": 1.7, "turnover_rank": 34, "first_year": 2024, "last_year": 2024, "years_active": 1}}, {"type": "Feature", "geometry": {"type": "Point", "coordinates": [2.761528, 48.877188]}, "properties": {"street_name": "PASS DU VIEUX CHENE", "sales": 3, "sales_appt": 1, "sales_maison": 0, "median_price": 286500.0, "median_price_per_sqm": 4547.619047619048, "turnover_score": 1.7, "turnover_rank": 34, "first_year": 2021, "last_year": 2021, "years_active": 1}}, {"type": "Feature", "geometry": {"type": "Point", "coordinates": [2.763826, 48.879235]}, "properties": {"street_name": "PL DE L EGLISE", "sales": 3, "sales_appt": 0, "sales_maison": 1, "median_price": 150000.0, "median_price_per_sqm": 1071.4285714285713, "turnover_score": 1.7, "turnover_rank": 34, "first_year": 2024, "last_year": 2024, "years_active": 1}}, {"type": "Feature", "geometry": {"type": "Point", "coordinates": [2.769188, 48.880998]}, "properties": {"street_name": "RUE DES MARAICHERS", "sales": 3, "sales_appt": 0, "sales_maison": 2, "median_price": 421000.0, "median_price_per_sqm": 4033.1374853113984, "turnover_score": 1.7, "turnover_rank": 34, "first_year": 2021, "last_year": 2021, "years_active": 1}}, {"type": "Feature", "geometry": {"type": "Point", "coordinates": [2.770124, 48.858291]}, "properties": {"street_name": "PAS LES 8 ORMES", "sales": 3, "sales_appt": 0, "sales_maison": 3, "median_price": 489000.0, "median_price_per_sqm": 4527.777777777777, "turnover_score": 1.7, "turnover_rank": 34, "first_year": 2022, "last_year": 2025, "years_active": 3}}, {"type": "Feature", "geometry": {"type": "Point", "coordinates": [2.773638, 48.87867]}, "properties": {"street_name": "CHE DE LA MARRE TORTILLE", "sales": 3, "sales_appt": 1, "sales_maison": 2, "median_price": 442466.0, "median_price_per_sqm": 4864.406779661017, "turnover_score": 1.7, "turnover_rank": 34, "first_year": 2021, "last_year": 2025, "years_active": 2}}, {"type": "Feature", "geometry": {"type": "Point", "coordinates": [2.75519, 48.875888]}, "properties": {"street_name": "CHE DU PRE ROUVIER", "sales": 3, "sales_appt": 0, "sales_maison": 0, "median_price": 635000.0, "median_price_per_sqm": null, "turnover_score": 1.7, "turnover_rank": 34, "first_year": 2022, "last_year": 2023, "years_active": 2}}, {"type": "Feature", "geometry": {"type": "Point", "coordinates": [2.769698, 48.858038]}, "properties": {"street_name": "PAS DE LAISTRE", "sales": 2, "sales_appt": 2, "sales_maison": 0, "median_price": 323600.0, "median_price_per_sqm": 4830.614973262032, "turnover_score": 1.2, "turnover_rank": 35, "first_year": 2021, "last_year": 2024, "years_active": 2}}, {"type": "Feature", "geometry": {"type": "Point", "coordinates": [2.765393, 48.881251]}, "properties": {"street_name": "PAS DU VILLAGE", "sales": 2, "sales_appt": 0, "sales_maison": 2, "median_price": 483000.0, "median_price_per_sqm": 4556.603773584906, "turnover_score": 1.2, "turnover_rank": 35, "first_year": 2022, "last_year": 2022, "years_active": 1}}, {"type": "Feature", "geometry": {"type": "Point", "coordinates": [2.7554205, 48.8817275]}, "properties": {"street_name": "LA FONTAINE DES AULNES", "sales": 2, "sales_appt": 0, "sales_maison": 0, "median_price": 310000.0, "median_price_per_sqm": null, "turnover_score": 1.2, "turnover_rank": 35, "first_year": 2021, "last_year": 2023, "years_active": 2}}, {"type": "Feature", "geometry": {"type": "Point", "coordinates": [2.767861, 48.858698]}, "properties": {"street_name": "BD DU GRAND FOSSE", "sales": 2, "sales_appt": 0, "sales_maison": 0, "median_price": 2615486.0650000004, "median_price_per_sqm": null, "turnover_score": 1.2, "turnover_rank": 35, "first_year": 2025, "last_year": 2025, "years_active": 1}}, {"type": "Feature", "geometry": {"type": "Point", "coordinates": [2.771372, 48.881237999999996]}, "properties": {"street_name": "ALL DES ARTISANS", "sales": 2, "sales_appt": 0, "sales_maison": 0, "median_price": 695860.5, "median_price_per_sqm": null, "turnover_score": 1.2, "turnover_rank": 35, "first_year": 2023, "last_year": 2024, "years_active": 2}}, {"type": "Feature", "geometry": {"type": "Point", "coordinates": [2.76951, 48.878883]}, "properties": {"street_name": "SEN DE LA BORDE", "sales": 2, "sales_appt": 0, "sales_maison": 0, "median_price": 660.0, "median_price_per_sqm": null, "turnover_score": 1.2, "turnover_rank": 35, "first_year": 2022, "last_year": 2022, "years_active": 1}}, {"type": "Feature", "geometry": {"type": "Point", "coordinates": [2.75457, 48.880023]}, "properties": {"street_name": "LES HAUTS CHAMPS", "sales": 2, "sales_appt": 0, "sales_maison": 0, "median_price": 775826.0, "median_price_per_sqm": null, "turnover_score": 1.2, "turnover_rank": 35, "first_year": 2025, "last_year": 2025, "years_active": 1}}, {"type": "Feature", "geometry": {"type": "Point", "coordinates": [2.758569, 48.881513]}, "properties": {"street_name": "LES FLOBERTS", "sales": 1, "sales_appt": 0, "sales_maison": 0, "median_price": 470000.0, "median_price_per_sqm": null, "turnover_score": 0.6, "turnover_rank": 36, "first_year": 2024, "last_year": 2024, "years_active": 1}}, {"type": "Feature", "geometry": {"type": "Point", "coordinates": [2.770249, 48.881917]}, "properties": {"street_name": "LE CLOS SAINT ELOI", "sales": 1, "sales_appt": 0, "sales_maison": 0, "median_price": 389000.0, "median_price_per_sqm": null, "turnover_score": 0.6, "turnover_rank": 36, "first_year": 2025, "last_year": 2025, "years_active": 1}}, {"type": "Feature", "geometry": {"type": "Point", "coordinates": [2.76756, 48.887755]}, "properties": {"street_name": "LE SAUT LOUVET", "sales": 1, "sales_appt": 0, "sales_maison": 0, "median_price": 56.0, "median_price_per_sqm": null, "turnover_score": 0.6, "turnover_rank": 36, "first_year": 2025, "last_year": 2025, "years_active": 1}}, {"type": "Feature", "geometry": {"type": "Point", "coordinates": [2.761925, 48.883523]}, "properties": {"street_name": "LE CLOS DOYEN", "sales": 1, "sales_appt": 0, "sales_maison": 0, "median_price": 420000.0, "median_price_per_sqm": null, "turnover_score": 0.6, "turnover_rank": 36, "first_year": 2022, "last_year": 2022, "years_active": 1}}, {"type": "Feature", "geometry": {"type": "Point", "coordinates": [2.763986, 48.881766]}, "properties": {"street_name": "LE BOUZET", "sales": 1, "sales_appt": 0, "sales_maison": 0, "median_price": 350000.0, "median_price_per_sqm": null, "turnover_score": 0.6, "turnover_rank": 36, "first_year": 2024, "last_year": 2024, "years_active": 1}}, {"type": "Feature", "geometry": {"type": "Point", "coordinates": [2.751029, 48.881414]}, "properties": {"street_name": "LE BAS DE MARNE", "sales": 1, "sales_appt": 0, "sales_maison": 0, "median_price": 30000.0, "median_price_per_sqm": null, "turnover_score": 0.6, "turnover_rank": 36, "first_year": 2021, "last_year": 2021, "years_active": 1}}, {"type": "Feature", "geometry": {"type": "Point", "coordinates": [2.77708, 48.879831]}, "properties": {"street_name": "CHE DES ROZEAUX", "sales": 1, "sales_appt": 0, "sales_maison": 1, "median_price": 1037584.0, "median_price_per_sqm": 4988.384615384615, "turnover_score": 0.6, "turnover_rank": 36, "first_year": 2025, "last_year": 2025, "years_active": 1}}, {"type": "Feature", "geometry": {"type": "Point", "coordinates": [2.762029, 48.883605]}, "properties": {"street_name": "CHE DU CLOS DOYEN", "sales": 1, "sales_appt": 0, "sales_maison": 1, "median_price": 420000.0, "median_price_per_sqm": 7500.0, "turnover_score": 0.6, "turnover_rank": 36, "first_year": 2022, "last_year": 2022, "years_active": 1}}, {"type": "Feature", "geometry": {"type": "Point", "coordinates": [2.760511, 48.883981]}, "properties": {"street_name": "CHE DE LA PLATRIERE", "sales": 1, "sales_appt": 0, "sales_maison": 0, "median_price": 290000.0, "median_price_per_sqm": null, "turnover_score": 0.6, "turnover_rank": 36, "first_year": 2022, "last_year": 2022, "years_active": 1}}, {"type": "Feature", "geometry": {"type": "Point", "coordinates": [2.750089, 48.878935]}, "properties": {"street_name": "CHE DE LA FONTAINE AU ROI", "sales": 1, "sales_appt": 0, "sales_maison": 0, "median_price": 400000.0, "median_price_per_sqm": null, "turnover_score": 0.6, "turnover_rank": 36, "first_year": 2024, "last_year": 2024, "years_active": 1}}, {"type": "Feature", "geometry": {"type": "Point", "coordinates": [2.750911, 48.882834]}, "properties": {"street_name": "ANCIEN CHEMIN DE MEAUX", "sales": 1, "sales_appt": 0, "sales_maison": 0, "median_price": 3700.0, "median_price_per_sqm": null, "turnover_score": 0.6, "turnover_rank": 36, "first_year": 2025, "last_year": 2025, "years_active": 1}}, {"type": "Feature", "geometry": {"type": "Point", "coordinates": [2.769346, 48.859126]}, "properties": {"street_name": "PAS JINJOLES", "sales": 1, "sales_appt": 1, "sales_maison": 0, "median_price": 525000.0, "median_price_per_sqm": 3804.3478260869565, "turnover_score": 0.6, "turnover_rank": 36, "first_year": 2025, "last_year": 2025, "years_active": 1}}, {"type": "Feature", "geometry": {"type": "Point", "coordinates": [2.770254, 48.883001]}, "properties": {"street_name": "RUE DE LA GRANGE", "sales": 1, "sales_appt": 0, "sales_maison": 1, "median_price": 535000.0, "median_price_per_sqm": 3689.655172413793, "turnover_score": 0.6, "turnover_rank": 36, "first_year": 2021, "last_year": 2021, "years_active": 1}}, {"type": "Feature", "geometry": {"type": "Point", "coordinates": [2.770371, 48.881987]}, "properties": {"street_name": "RTE DE CHALIFERT", "sales": 1, "sales_appt": 0, "sales_maison": 1, "median_price": 389000.0, "median_price_per_sqm": 5402.777777777777, "turnover_score": 0.6, "turnover_rank": 36, "first_year": 2025, "last_year": 2025, "years_active": 1}}, {"type": "Feature", "geometry": {"type": "Point", "coordinates": [2.768693, 48.884792]}, "properties": {"street_name": "LES RENEUVES", "sales": 1, "sales_appt": 0, "sales_maison": 0, "median_price": 580000.0, "median_price_per_sqm": null, "turnover_score": 0.6, "turnover_rank": 36, "first_year": 2022, "last_year": 2022, "years_active": 1}}, {"type": "Feature", "geometry": {"type": "Point", "coordinates": [2.76897, 48.878093]}, "properties": {"street_name": "SEN MEREVILLE", "sales": 1, "sales_appt": 1, "sales_maison": 0, "median_price": 114000.0, "median_price_per_sqm": 2780.487804878049, "turnover_score": 0.6, "turnover_rank": 36, "first_year": 2024, "last_year": 2024, "years_active": 1}}]}