{"type": "FeatureCollection", "features": [{"type": "Feature", "geometry": {"type": "Point", "coordinates": [2.93027, 49.001667]}, "properties": {"id_parcelle": "774830000I1439", "address": "46 RUE NEUVE", "sales": 12, "median_price": 159500.0, "median_price_per_sqm": 3032.7868852459014, "median_rooms": 0.0, "first_sale": "2021-07-05", "last_sale": "2024-03-25"}}, {"type": "Feature", "geometry": {"type": "Point", "coordinates": [2.929337, 49.000926]}, "properties": {"id_parcelle": "774830000I1734", "address": "49 RUE MOREAU DUCHESNE", "sales": 10, "median_price": 350900.0, "median_price_per_sqm": 4128.235294117647, "median_rooms": 3.0, "first_sale": "2021-04-07", "last_sale": "2025-12-16"}}, {"type": "Feature", "geometry": {"type": "Point", "coordinates": [2.927631, 49.004269]}, "properties": {"id_parcelle": "774830000I1710", "address": "55 RUE VICTOR CLAIRET", "sales": 9, "median_price": 169000.0, "median_price_per_sqm": 2866.101694915254, "median_rooms": 0.0, "first_sale": "2021-10-08", "last_sale": "2023-09-25"}}, {"type": "Feature", "geometry": {"type": "Point", "coordinates": [2.924893, 49.003138]}, "properties": {"id_parcelle": "774830000I1629", "address": "25 RUE VICTOR CLAIRET", "sales": 8, "median_price": 380000.0, "median_price_per_sqm": 2375.0, "median_rooms": 0.0, "first_sale": "2024-11-07", "last_sale": "2024-11-07"}}, {"type": "Feature", "geometry": {"type": "Point", "coordinates": [2.936063, 49.009362]}, "properties": {"id_parcelle": "774830000B0475", "address": "25 AV GUY DENIS", "sales": 8, "median_price": 215000.0, "median_price_per_sqm": 3071.4285714285716, "median_rooms": 0.0, "first_sale": "2025-03-20", "last_sale": "2025-03-20"}}, {"type": "Feature", "geometry": {"type": "Point", "coordinates": [2.924911, 49.00104]}, "properties": {"id_parcelle": "774830000I1578", "address": "35 RUE D ORSOY", "sales": 6, "median_price": 185000.0, "median_price_per_sqm": 1360.2941176470588, "median_rooms": 0.0, "first_sale": "2024-06-28", "last_sale": "2024-06-28"}}, {"type": "Feature", "geometry": {"type": "Point", "coordinates": [2.92314, 49.002288]}, "properties": {"id_parcelle": "774830000I1169", "address": "2 RUE DU BOURREAU", "sales": 6, "median_price": 125000.0, "median_price_per_sqm": 2600.9615384615386, "median_rooms": 1.5, "first_sale": "2021-02-25", "last_sale": "2025-10-09"}}, {"type": "Feature", "geometry": {"type": "Point", "coordinates": [2.923136, 49.002592]}, "properties": {"id_parcelle": "774830000I1167", "address": "4 RUE DU BOURREAU", "sales": 6, "median_price": 252000.0, "median_price_per_sqm": 3500.0, "median_rooms": 0.0, "first_sale": "2024-12-16", "last_sale": "2024-12-16"}}, {"type": "Feature", "geometry": {"type": "Point", "coordinates": [2.934637, 49.007528]}, "properties": {"id_parcelle": "774830000C0387", "address": "4 AV GUY DENIS", "sales": 4, "median_price": 176000.0, "median_price_per_sqm": 2933.3333333333335, "median_rooms": 0.0, "first_sale": "2025-02-28", "last_sale": "2025-02-28"}}, {"type": "Feature", "geometry": {"type": "Point", "coordinates": [2.926274, 48.999811]}, "properties": {"id_parcelle": "774830000I1135", "address": "3 RUE DU JEU D ARC", "sales": 4, "median_price": 270000.0, "median_price_per_sqm": 3506.4935064935066, "median_rooms": 2.0, "first_sale": "2025-04-23", "last_sale": "2025-04-23"}}, {"type": "Feature", "geometry": {"type": "Point", "coordinates": [2.930478, 49.007297]}, "properties": {"id_parcelle": "774830000H0216", "address": "26 RUE DES PRES", "sales": 4, "median_price": 371000.0, "median_price_per_sqm": 3864.5833333333335, "median_rooms": 2.5, "first_sale": "2021-06-08", "last_sale": "2021-06-08"}}, {"type": "Feature", "geometry": {"type": "Point", "coordinates": [2.928748, 49.001983]}, "properties": {"id_parcelle": "774830000I0255", "address": "26 RUE MOREAU DUCHESNE", "sales": 4, "median_price": 140000.0, "median_price_per_sqm": 2953.216374269006, "median_rooms": 1.0, "first_sale": "2024-07-12", "last_sale": "2024-07-12"}}, {"type": "Feature", "geometry": {"type": "Point", "coordinates": [2.924252, 49.002703]}, "properties": {"id_parcelle": "774830000I0048", "address": "23 RUE VICTOR CLAIRET", "sales": 4, "median_price": 274926.0, "median_price_per_sqm": 1857.6081081081081, "median_rooms": 2.5, "first_sale": "2023-02-17", "last_sale": "2025-12-06"}}, {"type": "Feature", "geometry": {"type": "Point", "coordinates": [2.922817, 49.005218]}, "properties": {"id_parcelle": "774830000H0251", "address": "13 ALL DES RENOMS", "sales": 4, "median_price": 265000.0, "median_price_per_sqm": 3533.3333333333335, "median_rooms": 2.5, "first_sale": "2021-07-26", "last_sale": "2021-07-26"}}, {"type": "Feature", "geometry": {"type": "Point", "coordinates": [2.931609, 49.006786]}, "properties": {"id_parcelle": "774830000H0223", "address": "7 RUE DE LA VALLEE", "sales": 4, "median_price": 287000.0, "median_price_per_sqm": 2562.5, "median_rooms": 2.5, "first_sale": "2025-07-02", "last_sale": "2025-07-02"}}, {"type": "Feature", "geometry": {"type": "Point", "coordinates": [2.934089, 49.007911]}, "properties": {"id_parcelle": "774830000B0438", "address": "3 AV GUY DENIS", "sales": 4, "median_price": 284000.0, "median_price_per_sqm": 3380.9523809523807, "median_rooms": 2.5, "first_sale": "2023-10-14", "last_sale": "2023-10-14"}}, {"type": "Feature", "geometry": {"type": "Point", "coordinates": [2.932733, 49.005295]}, "properties": {"id_parcelle": "774830000D0181", "address": "7 CHE DES RAVETONS", "sales": 4, "median_price": 266000.0, "median_price_per_sqm": 3057.4712643678163, "median_rooms": 2.5, "first_sale": "2023-07-25", "last_sale": "2023-07-25"}}, {"type": "Feature", "geometry": {"type": "Point", "coordinates": [2.929591, 48.999313]}, "properties": {"id_parcelle": "774830000I0303", "address": "10 PTR PETITE RUE", "sales": 4, "median_price": 78500.0, "median_price_per_sqm": 3730.15873015873, "median_rooms": 1.5, "first_sale": "2022-04-22", "last_sale": "2025-02-19"}}, {"type": "Feature", "geometry": {"type": "Point", "coordinates": [2.928052, 48.999596]}, "properties": {"id_parcelle": "774830000I1250", "address": "5 RLE BESNARD", "sales": 4, "median_price": 320000.0, "median_price_per_sqm": 2133.3333333333335, "median_rooms": 3.0, "first_sale": "2022-01-10", "last_sale": "2022-01-10"}}, {"type": "Feature", "geometry": {"type": "Point", "coordinates": [2.922952, 49.004363]}, "properties": {"id_parcelle": "774830000H0239", "address": "7 ALL DES BARRES DU CLOS", "sales": 4, "median_price": 380000.0, "median_price_per_sqm": 3140.495867768595, "median_rooms": 3.0, "first_sale": "2021-07-28", "last_sale": "2021-07-28"}}, {"type": "Feature", "geometry": {"type": "Point", "coordinates": [2.93022, 49.00423]}, "properties": {"id_parcelle": "774830000I0448", "address": "7 RUE NEUVE", "sales": 3, "median_price": 250000.0, "median_price_per_sqm": 1666.6666666666667, "median_rooms": 0.0, "first_sale": "2024-11-29", "last_sale": "2024-11-29"}}, {"type": "Feature", "geometry": {"type": "Point", "coordinates": [2.929106, 49.005297]}, "properties": {"id_parcelle": "774830000I1282", "address": "81 RUE VICTOR CLAIRET", "sales": 3, "median_price": 299000.0, "median_price_per_sqm": 3986.6666666666665, "median_rooms": 0.0, "first_sale": "2021-07-27", "last_sale": "2021-07-27"}}, {"type": "Feature", "geometry": {"type": "Point", "coordinates": [2.929513, 49.005105]}, "properties": {"id_parcelle": "774830000I1416", "address": "87 RUE VICTOR CLAIRET", "sales": 3, "median_price": 198000.0, "median_price_per_sqm": 1237.5, "median_rooms": 0.0, "first_sale": "2023-09-22", "last_sale": "2023-09-22"}}, {"type": "Feature", "geometry": {"type": "Point", "coordinates": [2.928642, 49.002961]}, "properties": {"id_parcelle": "774830000I0753", "address": "LE VILLAGE EST", "sales": 3, "median_price": 154000.0, "median_price_per_sqm": null, "median_rooms": null, "first_sale": "2022-09-16", "last_sale": "2025-09-11"}}, {"type": "Feature", "geometry": {"type": "Point", "coordinates": [2.921729, 49.001687]}, "properties": {"id_parcelle": "774830000I1088", "address": "13 AV DES AMERICAINS", "sales": 3, "median_price": 279800.0, "median_price_per_sqm": 2976.595744680851, "median_rooms": 0.0, "first_sale": "2023-02-04", "last_sale": "2023-02-04"}}, {"type": "Feature", "geometry": {"type": "Point", "coordinates": [2.920257, 49.018703]}, "properties": {"id_parcelle": "77483000ZA0014", "address": "LE GROS NOYER", "sales": 3, "median_price": 155000.0, "median_price_per_sqm": null, "median_rooms": null, "first_sale": "2023-08-31", "last_sale": "2023-08-31"}}, {"type": "Feature", "geometry": {"type": "Point", "coordinates": [2.921297, 49.020387]}, "properties": {"id_parcelle": "77483000ZA0006", "address": "LE GROS NOYER", "sales": 3, "median_price": 6913.0, "median_price_per_sqm": null, "median_rooms": null, "first_sale": "2021-09-29", "last_sale": "2021-09-29"}}, {"type": "Feature", "geometry": {"type": "Point", "coordinates": [2.929523, 49.000904]}, "properties": {"id_parcelle": "774830000I0915", "address": "LE VILLAGE EST", "sales": 3, "median_price": 350900.0, "median_price_per_sqm": null, "median_rooms": null, "first_sale": "2021-04-07", "last_sale": "2025-12-16"}}, {"type": "Feature", "geometry": {"type": "Point", "coordinates": [2.929341, 49.005109]}, "properties": {"id_parcelle": "774830000I0837", "address": "85 RUE VICTOR CLAIRET", "sales": 3, "median_price": 239500.0, "median_price_per_sqm": 4435.185185185185, "median_rooms": 0.0, "first_sale": "2022-08-18", "last_sale": "2022-08-18"}}, {"type": "Feature", "geometry": {"type": "Point", "coordinates": [2.933471, 48.999602]}, "properties": {"id_parcelle": "774830000I1359", "address": "15 RUE DE L EGLISE", "sales": 3, "median_price": 172000.0, "median_price_per_sqm": null, "median_rooms": null, "first_sale": "2022-04-28", "last_sale": "2025-07-18"}}, {"type": "Feature", "geometry": {"type": "Point", "coordinates": [2.931505, 49.005546]}, "properties": {"id_parcelle": "774830000I1736", "address": "78 RUE VICTOR CLAIRET", "sales": 3, "median_price": 290000.0, "median_price_per_sqm": 2230.769230769231, "median_rooms": 0.0, "first_sale": "2021-07-26", "last_sale": "2021-07-26"}}, {"type": "Feature", "geometry": {"type": "Point", "coordinates": [2.921317, 49.000914]}, "properties": {"id_parcelle": "774830000I0417", "address": "18 AV DES AMERICAINS", "sales": 3, "median_price": 195000.0, "median_price_per_sqm": 2349.397590361446, "median_rooms": 0.0, "first_sale": "2025-02-28", "last_sale": "2025-02-28"}}, {"type": "Feature", "geometry": {"type": "Point", "coordinates": [2.921108, 49.004505]}, "properties": {"id_parcelle": "774830000H0300", "address": "ALL DES MARAIS", "sales": 3, "median_price": 283000.0, "median_price_per_sqm": null, "median_rooms": null, "first_sale": "2021-05-12", "last_sale": "2025-09-29"}}, {"type": "Feature", "geometry": {"type": "Point", "coordinates": [2.923904, 49.002955]}, "properties": {"id_parcelle": "774830000I0050", "address": "LE VILLAGE OUEST", "sales": 3, "median_price": 255000.0, "median_price_per_sqm": null, "median_rooms": null, "first_sale": "2023-02-17", "last_sale": "2025-02-07"}}, {"type": "Feature", "geometry": {"type": "Point", "coordinates": [2.916575, 49.019142]}, "properties": {"id_parcelle": "77483000ZA0010", "address": "LE GROS NOYER", "sales": 3, "median_price": 155000.0, "median_price_per_sqm": null, "median_rooms": null, "first_sale": "2023-08-31", "last_sale": "2023-08-31"}}, {"type": "Feature", "geometry": {"type": "Point", "coordinates": [2.930399, 49.002536]}, "properties": {"id_parcelle": "774830000I1420", "address": "27 RUE NEUVE", "sales": 3, "median_price": 169000.0, "median_price_per_sqm": 2414.285714285714, "median_rooms": 3.0, "first_sale": "2022-06-29", "last_sale": "2023-12-18"}}, {"type": "Feature", "geometry": {"type": "Point", "coordinates": [2.942231, 49.011608]}, "properties": {"id_parcelle": "774830000C0121", "address": "LA TERRE QUI CHOIT", "sales": 2, "median_price": 33125.08, "median_price_per_sqm": null, "median_rooms": null, "first_sale": "2024-03-20", "last_sale": "2024-03-20"}}, {"type": "Feature", "geometry": {"type": "Point", "coordinates": [2.922946, 49.011018]}, "properties": {"id_parcelle": "774830000A0633", "address": "LE HEDIN", "sales": 2, "median_price": 155000.0, "median_price_per_sqm": null, "median_rooms": null, "first_sale": "2023-08-31", "last_sale": "2023-08-31"}}, {"type": "Feature", "geometry": {"type": "Point", "coordinates": [2.923682, 49.011035]}, "properties": {"id_parcelle": "774830000A0616", "address": "LE HEDIN", "sales": 2, "median_price": 155000.0, "median_price_per_sqm": null, "median_rooms": null, "first_sale": "2023-08-31", "last_sale": "2023-08-31"}}, {"type": "Feature", "geometry": {"type": "Point", "coordinates": [2.943075, 49.010283]}, "properties": {"id_parcelle": "774830000C0116", "address": "LA TERRE QUI CHOIT", "sales": 2, "median_price": 34341.55, "median_price_per_sqm": null, "median_rooms": null, "first_sale": "2024-03-20", "last_sale": "2024-03-20"}}, {"type": "Feature", "geometry": {"type": "Point", "coordinates": [2.923409, 49.010701]}, "properties": {"id_parcelle": "774830000A0631", "address": "LE HEDIN", "sales": 2, "median_price": 155000.0, "median_price_per_sqm": null, "median_rooms": null, "first_sale": "2023-08-31", "last_sale": "2023-08-31"}}, {"type": "Feature", "geometry": {"type": "Point", "coordinates": [2.94193, 49.005221]}, "properties": {"id_parcelle": "774830000C0290", "address": "LE NOYER THOMAS", "sales": 2, "median_price": 4360.0, "median_price_per_sqm": null, "median_rooms": null, "first_sale": "2025-06-04", "last_sale": "2025-06-04"}}, {"type": "Feature", "geometry": {"type": "Point", "coordinates": [2.934069, 49.00637]}, "properties": {"id_parcelle": "774830000D0248", "address": "24 ALL DU PETIT SAINT MARTIN", "sales": 2, "median_price": 561500.0, "median_price_per_sqm": null, "median_rooms": null, "first_sale": "2022-07-07", "last_sale": "2023-02-02"}}, {"type": "Feature", "geometry": {"type": "Point", "coordinates": [2.934131, 49.006595]}, "properties": {"id_parcelle": "774830000D0247", "address": "ALL DU PETIT SAINT MARTIN", "sales": 2, "median_price": 502500.5, "median_price_per_sqm": null, "median_rooms": null, "first_sale": "2022-07-07", "last_sale": "2024-06-06"}}, {"type": "Feature", "geometry": {"type": "Point", "coordinates": [2.93399, 49.006456]}, "properties": {"id_parcelle": "774830000D0246", "address": "26 ALL DU PETIT SAINT MARTIN", "sales": 2, "median_price": 563000.0, "median_price_per_sqm": null, "median_rooms": null, "first_sale": "2022-07-07", "last_sale": "2022-10-28"}}, {"type": "Feature", "geometry": {"type": "Point", "coordinates": [2.933868, 49.006586]}, "properties": {"id_parcelle": "774830000D0245", "address": "28 ALL DU PETIT SAINT MARTIN", "sales": 2, "median_price": 572500.0, "median_price_per_sqm": null, "median_rooms": null, "first_sale": "2022-07-07", "last_sale": "2023-01-06"}}, {"type": "Feature", "geometry": {"type": "Point", "coordinates": [2.933714, 49.006481]}, "properties": {"id_parcelle": "774830000D0244", "address": "LA COUTURE L EVEQUE", "sales": 2, "median_price": 566000.0, "median_price_per_sqm": null, "median_rooms": null, "first_sale": "2022-07-07", "last_sale": "2022-10-19"}}, {"type": "Feature", "geometry": {"type": "Point", "coordinates": [2.933585, 49.0066]}, "properties": {"id_parcelle": "774830000D0243", "address": "32 ALL DU PETIT SAINT MARTIN", "sales": 2, "median_price": 567000.0, "median_price_per_sqm": null, "median_rooms": null, "first_sale": "2022-07-07", "last_sale": "2022-11-02"}}, {"type": "Feature", "geometry": {"type": "Point", "coordinates": [2.933841, 49.006092]}, "properties": {"id_parcelle": "774830000D0242", "address": "1 ALL DU PETIT SAINT MARTIN", "sales": 2, "median_price": 536697.355, "median_price_per_sqm": null, "median_rooms": null, "first_sale": "2022-07-07", "last_sale": "2024-09-13"}}, {"type": "Feature", "geometry": {"type": "Point", "coordinates": [2.933532, 49.006459]}, "properties": {"id_parcelle": "774830000D0249", "address": "LA COUTURE L EVEQUE", "sales": 2, "median_price": 502500.5, "median_price_per_sqm": null, "median_rooms": null, "first_sale": "2022-07-07", "last_sale": "2024-06-06"}}, {"type": "Feature", "geometry": {"type": "Point", "coordinates": [2.935811, 49.00789]}, "properties": {"id_parcelle": "774830000C0402", "address": "9001 CHE DE LA MALADRERIE", "sales": 2, "median_price": 385000.0, "median_price_per_sqm": null, "median_rooms": null, "first_sale": "2025-10-03", "last_sale": "2025-10-03"}}, {"type": "Feature", "geometry": {"type": "Point", "coordinates": [2.934342, 49.007461]}, "properties": {"id_parcelle": "774830000C0490", "address": "2 AV GUY DENIS", "sales": 2, "median_price": 220000.0, "median_price_per_sqm": 1641.7910447761194, "median_rooms": 6.0, "first_sale": "2024-05-13", "last_sale": "2024-06-26"}}, {"type": "Feature", "geometry": {"type": "Point", "coordinates": [2.936302, 49.008618]}, "properties": {"id_parcelle": "774830000C0410", "address": "LA MALADRIE", "sales": 2, "median_price": 24500.0, "median_price_per_sqm": null, "median_rooms": null, "first_sale": "2022-02-04", "last_sale": "2025-10-24"}}, {"type": "Feature", "geometry": {"type": "Point", "coordinates": [2.934456, 49.00724]}, "properties": {"id_parcelle": "774830000C0535", "address": "AV GUY DENIS", "sales": 2, "median_price": 176500.0, "median_price_per_sqm": null, "median_rooms": null, "first_sale": "2024-05-13", "last_sale": "2025-07-10"}}, {"type": "Feature", "geometry": {"type": "Point", "coordinates": [2.934295, 49.007305]}, "properties": {"id_parcelle": "774830000C0536", "address": "AV GUY DENIS", "sales": 2, "median_price": 167500.0, "median_price_per_sqm": null, "median_rooms": null, "first_sale": "2024-05-13", "last_sale": "2025-04-17"}}, {"type": "Feature", "geometry": {"type": "Point", "coordinates": [2.934275, 49.007145]}, "properties": {"id_parcelle": "774830000C0537", "address": "AV GUY DENIS", "sales": 2, "median_price": 176500.0, "median_price_per_sqm": null, "median_rooms": null, "first_sale": "2024-05-13", "last_sale": "2025-07-10"}}, {"type": "Feature", "geometry": {"type": "Point", "coordinates": [2.934322, 49.007395]}, "properties": {"id_parcelle": "774830000C0534", "address": "2 AV GUY DENIS", "sales": 2, "median_price": 220000.0, "median_price_per_sqm": null, "median_rooms": null, "first_sale": "2024-05-13", "last_sale": "2024-06-26"}}, {"type": "Feature", "geometry": {"type": "Point", "coordinates": [2.934431, 49.006084]}, "properties": {"id_parcelle": "774830000D0234", "address": "20 ALL DU PETIT SAINT MARTIN", "sales": 2, "median_price": 576500.0, "median_price_per_sqm": null, "median_rooms": null, "first_sale": "2022-07-07", "last_sale": "2022-12-23"}}, {"type": "Feature", "geometry": {"type": "Point", "coordinates": [2.934265, 49.005986]}, "properties": {"id_parcelle": "774830000D0235", "address": "18 ALL DU PETIT SAINT MARTIN", "sales": 2, "median_price": 564000.0, "median_price_per_sqm": null, "median_rooms": null, "first_sale": "2022-07-07", "last_sale": "2025-02-25"}}, {"type": "Feature", "geometry": {"type": "Point", "coordinates": [2.9341, 49.00591]}, "properties": {"id_parcelle": "774830000D0236", "address": "16 ALL DU PETIT SAINT MARTIN", "sales": 2, "median_price": 573500.0, "median_price_per_sqm": null, "median_rooms": null, "first_sale": "2022-07-07", "last_sale": "2023-01-18"}}, {"type": "Feature", "geometry": {"type": "Point", "coordinates": [2.933898, 49.005851]}, "properties": {"id_parcelle": "774830000D0237", "address": "14 ALL DU PETIT SAINT MARTIN", "sales": 2, "median_price": 569000.0, "median_price_per_sqm": null, "median_rooms": null, "first_sale": "2022-07-07", "last_sale": "2023-01-26"}}, {"type": "Feature", "geometry": {"type": "Point", "coordinates": [2.93368, 49.005806]}, "properties": {"id_parcelle": "774830000D0238", "address": "12 ALL DU PETIT SAINT MARTIN", "sales": 2, "median_price": 577500.0, "median_price_per_sqm": null, "median_rooms": null, "first_sale": "2022-07-07", "last_sale": "2023-03-31"}}, {"type": "Feature", "geometry": {"type": "Point", "coordinates": [2.933526, 49.005895]}, "properties": {"id_parcelle": "774830000D0239", "address": "10 ALL DU PETIT SAINT MARTIN", "sales": 2, "median_price": 565500.0, "median_price_per_sqm": null, "median_rooms": null, "first_sale": "2022-07-07", "last_sale": "2024-05-25"}}, {"type": "Feature", "geometry": {"type": "Point", "coordinates": [2.933405, 49.006001]}, "properties": {"id_parcelle": "774830000D0240", "address": "8 ALL DU PETIT SAINT MARTIN", "sales": 2, "median_price": 572000.0, "median_price_per_sqm": null, "median_rooms": null, "first_sale": "2022-07-07", "last_sale": "2023-07-11"}}, {"type": "Feature", "geometry": {"type": "Point", "coordinates": [2.933867, 49.006085]}, "properties": {"id_parcelle": "774830000D0241", "address": "LA COUTURE L EVEQUE", "sales": 2, "median_price": 502500.5, "median_price_per_sqm": null, "median_rooms": null, "first_sale": "2022-07-07", "last_sale": "2024-06-06"}}, {"type": "Feature", "geometry": {"type": "Point", "coordinates": [2.934147, 49.007243]}, "properties": {"id_parcelle": "774830000C0538", "address": "AV GUY DENIS", "sales": 2, "median_price": 167500.0, "median_price_per_sqm": null, "median_rooms": null, "first_sale": "2024-05-13", "last_sale": "2025-04-17"}}, {"type": "Feature", "geometry": {"type": "Point", "coordinates": [2.934015, 49.007355]}, "properties": {"id_parcelle": "774830000C0539", "address": "AV GUY DENIS", "sales": 2, "median_price": 167500.0, "median_price_per_sqm": null, "median_rooms": null, "first_sale": "2024-05-13", "last_sale": "2025-04-17"}}, {"type": "Feature", "geometry": {"type": "Point", "coordinates": [2.939705, 49.002083]}, "properties": {"id_parcelle": "774830000D0076", "address": "LA GREVE", "sales": 2, "median_price": 250000.0, "median_price_per_sqm": null, "median_rooms": null, "first_sale": "2021-12-03", "last_sale": "2021-12-03"}}, {"type": "Feature", "geometry": {"type": "Point", "coordinates": [2.939047, 49.000791]}, "properties": {"id_parcelle": "774830000D0073", "address": "LA GREVE", "sales": 2, "median_price": 155000.0, "median_price_per_sqm": null, "median_rooms": null, "first_sale": "2023-08-31", "last_sale": "2023-08-31"}}, {"type": "Feature", "geometry": {"type": "Point", "coordinates": [2.932192, 49.005594]}, "properties": {"id_parcelle": "774830000D0173", "address": "9501 RLE COUTURE L EVEQUE", "sales": 2, "median_price": 345000.0, "median_price_per_sqm": 3108.108108108108, "median_rooms": 3.0, "first_sale": "2021-07-22", "last_sale": "2021-07-22"}}, {"type": "Feature", "geometry": {"type": "Point", "coordinates": [2.934119, 49.006314]}, "properties": {"id_parcelle": "774830000D0231", "address": "24 ALL DU PETIT SAINT MARTIN", "sales": 2, "median_price": 561500.0, "median_price_per_sqm": null, "median_rooms": null, "first_sale": "2022-07-07", "last_sale": "2023-02-02"}}, {"type": "Feature", "geometry": {"type": "Point", "coordinates": [2.934284, 49.006282]}, "properties": {"id_parcelle": "774830000D0232", "address": "ALL DU PETIT SAINT MARTIN", "sales": 2, "median_price": 502500.5, "median_price_per_sqm": null, "median_rooms": null, "first_sale": "2022-07-07", "last_sale": "2024-06-06"}}, {"type": "Feature", "geometry": {"type": "Point", "coordinates": [2.934228, 49.006188]}, "properties": {"id_parcelle": "774830000D0233", "address": "LA COUTURE L EVEQUE", "sales": 2, "median_price": 567000.0, "median_price_per_sqm": null, "median_rooms": null, "first_sale": "2022-07-07", "last_sale": "2022-11-02"}}, {"type": "Feature", "geometry": {"type": "Point", "coordinates": [2.928514, 49.002471]}, "properties": {"id_parcelle": "774830000I0247", "address": "9018 RUE MOREAU DUCHESNE", "sales": 2, "median_price": 345000.0, "median_price_per_sqm": null, "median_rooms": 0.0, "first_sale": "2021-07-16", "last_sale": "2021-07-16"}}, {"type": "Feature", "geometry": {"type": "Point", "coordinates": [2.927525, 49.00054]}, "properties": {"id_parcelle": "774830000I0188", "address": "59 RUE D ORSOY", "sales": 2, "median_price": 271790.0, "median_price_per_sqm": 2638.7378640776697, "median_rooms": 3.0, "first_sale": "2021-02-26", "last_sale": "2022-06-09"}}, {"type": "Feature", "geometry": {"type": "Point", "coordinates": [2.926581, 49.000461]}, "properties": {"id_parcelle": "774830000I0183", "address": "53 RUE D ORSOY", "sales": 2, "median_price": 175000.0, "median_price_per_sqm": 2364.864864864865, "median_rooms": 2.0, "first_sale": "2025-10-10", "last_sale": "2025-10-10"}}, {"type": "Feature", "geometry": {"type": "Point", "coordinates": [2.923221, 49.003206]}, "properties": {"id_parcelle": "774830000I0064", "address": "LE VILLAGE OUEST", "sales": 2, "median_price": 259500.0, "median_price_per_sqm": null, "median_rooms": null, "first_sale": "2022-03-12", "last_sale": "2024-12-24"}}, {"type": "Feature", "geometry": {"type": "Point", "coordinates": [2.923411, 49.002937]}, "properties": {"id_parcelle": "774830000I0062", "address": "LE VILLAGE OUEST", "sales": 2, "median_price": 260000.0, "median_price_per_sqm": null, "median_rooms": null, "first_sale": "2021-10-12", "last_sale": "2024-12-24"}}, {"type": "Feature", "geometry": {"type": "Point", "coordinates": [2.932876, 49.007007]}, "properties": {"id_parcelle": "774830000H0359", "address": "111 RUE VICTOR CLAIRET", "sales": 2, "median_price": 180000.0, "median_price_per_sqm": 2195.121951219512, "median_rooms": 2.0, "first_sale": "2023-11-28", "last_sale": "2023-11-28"}}, {"type": "Feature", "geometry": {"type": "Point", "coordinates": [2.926001, 49.004434]}, "properties": {"id_parcelle": "774830000I0001", "address": "9 RUE DE L OURCQ", "sales": 2, "median_price": 281680.0, "median_price_per_sqm": 3028.8172043010754, "median_rooms": 5.0, "first_sale": "2023-05-20", "last_sale": "2025-03-07"}}, {"type": "Feature", "geometry": {"type": "Point", "coordinates": [2.925941, 49.003452]}, "properties": {"id_parcelle": "774830000I0023", "address": "37 RUE VICTOR CLAIRET", "sales": 2, "median_price": 218000.0, "median_price_per_sqm": 3758.6206896551726, "median_rooms": 1.5, "first_sale": "2021-08-27", "last_sale": "2021-08-27"}}, {"type": "Feature", "geometry": {"type": "Point", "coordinates": [2.920803, 49.004548]}, "properties": {"id_parcelle": "774830000H0297", "address": "5 ALL DES MARAIS", "sales": 2, "median_price": 283000.0, "median_price_per_sqm": 3076.086956521739, "median_rooms": 4.0, "first_sale": "2025-09-29", "last_sale": "2025-09-29"}}, {"type": "Feature", "geometry": {"type": "Point", "coordinates": [2.924788, 49.005236]}, "properties": {"id_parcelle": "774830000H0275", "address": "17 RUE DE L OURCQ", "sales": 2, "median_price": 333372.0, "median_price_per_sqm": 3300.7128712871286, "median_rooms": 3.0, "first_sale": "2022-12-02", "last_sale": "2022-12-02"}}, {"type": "Feature", "geometry": {"type": "Point", "coordinates": [2.921066, 49.004242]}, "properties": {"id_parcelle": "774830000H0346", "address": "33 RUE DU BOURREAU", "sales": 2, "median_price": 215000.0, "median_price_per_sqm": 2415.7303370786517, "median_rooms": 3.0, "first_sale": "2022-03-02", "last_sale": "2022-03-02"}}, {"type": "Feature", "geometry": {"type": "Point", "coordinates": [2.931623, 49.008031]}, "properties": {"id_parcelle": "774830000H0178", "address": "8 RUE DES PRES", "sales": 2, "median_price": 310000.0, "median_price_per_sqm": 3875.0, "median_rooms": 4.0, "first_sale": "2024-08-14", "last_sale": "2024-08-14"}}, {"type": "Feature", "geometry": {"type": "Point", "coordinates": [2.930334, 49.00743]}, "properties": {"id_parcelle": "774830000H0214", "address": "24 RUE DES PRES", "sales": 2, "median_price": 306400.0, "median_price_per_sqm": 2618.803418803419, "median_rooms": 6.0, "first_sale": "2021-03-01", "last_sale": "2021-03-01"}}, {"type": "Feature", "geometry": {"type": "Point", "coordinates": [2.931917, 49.007915]}, "properties": {"id_parcelle": "774830000H0179", "address": "6 RUE DES PRES", "sales": 2, "median_price": 462800.0, "median_price_per_sqm": 3305.714285714286, "median_rooms": 5.0, "first_sale": "2023-07-04", "last_sale": "2023-07-04"}}, {"type": "Feature", "geometry": {"type": "Point", "coordinates": [2.930827, 49.006923]}, "properties": {"id_parcelle": "774830000H0219", "address": "18 RUE DE LA VALLEE", "sales": 2, "median_price": 336000.0, "median_price_per_sqm": 2225.1655629139073, "median_rooms": 8.0, "first_sale": "2021-06-19", "last_sale": "2021-06-19"}}, {"type": "Feature", "geometry": {"type": "Point", "coordinates": [2.931837, 49.006872]}, "properties": {"id_parcelle": "774830000H0224", "address": "5 RUE DE LA VALLEE", "sales": 2, "median_price": 300000.0, "median_price_per_sqm": 3333.3333333333335, "median_rooms": 5.0, "first_sale": "2021-06-03", "last_sale": "2021-06-03"}}, {"type": "Feature", "geometry": {"type": "Point", "coordinates": [2.933423, 49.006375]}, "properties": {"id_parcelle": "774830000D0253", "address": "2 ALL DU PETIT SAINT MARTIN", "sales": 2, "median_price": 564500.0, "median_price_per_sqm": null, "median_rooms": null, "first_sale": "2022-07-07", "last_sale": "2023-11-25"}}, {"type": "Feature", "geometry": {"type": "Point", "coordinates": [2.933246, 49.006273]}, "properties": {"id_parcelle": "774830000D0252", "address": "4 ALL DU PETIT SAINT MARTIN", "sales": 2, "median_price": 565000.0, "median_price_per_sqm": null, "median_rooms": null, "first_sale": "2022-07-07", "last_sale": "2024-10-31"}}, {"type": "Feature", "geometry": {"type": "Point", "coordinates": [2.933307, 49.006138]}, "properties": {"id_parcelle": "774830000D0251", "address": "6 ALL DU PETIT SAINT MARTIN", "sales": 2, "median_price": 573000.0, "median_price_per_sqm": null, "median_rooms": null, "first_sale": "2022-07-07", "last_sale": "2022-11-09"}}, {"type": "Feature", "geometry": {"type": "Point", "coordinates": [2.934065, 48.998424]}, "properties": {"id_parcelle": "774830000E0297", "address": "36 RUE DE L EGLISE", "sales": 2, "median_price": 310000.0, "median_price_per_sqm": 3333.3333333333335, "median_rooms": 2.0, "first_sale": "2022-04-28", "last_sale": "2022-04-28"}}, {"type": "Feature", "geometry": {"type": "Point", "coordinates": [2.933343, 49.006069]}, "properties": {"id_parcelle": "774830000D0250", "address": "8 ALL DU PETIT SAINT MARTIN", "sales": 2, "median_price": 572000.0, "median_price_per_sqm": null, "median_rooms": null, "first_sale": "2022-07-07", "last_sale": "2023-07-11"}}, {"type": "Feature", "geometry": {"type": "Point", "coordinates": [2.915697, 48.991919]}, "properties": {"id_parcelle": "774830000F0292", "address": "LA RAIDE VOIE", "sales": 2, "median_price": 17680.0, "median_price_per_sqm": null, "median_rooms": null, "first_sale": "2023-12-28", "last_sale": "2024-11-27"}}, {"type": "Feature", "geometry": {"type": "Point", "coordinates": [2.915716, 48.992374]}, "properties": {"id_parcelle": "774830000F0293", "address": "LA RAIDE VOIE", "sales": 2, "median_price": 17680.0, "median_price_per_sqm": null, "median_rooms": null, "first_sale": "2023-12-28", "last_sale": "2024-11-27"}}, {"type": "Feature", "geometry": {"type": "Point", "coordinates": [2.917155, 48.997325]}, "properties": {"id_parcelle": "774830000F0564", "address": "LE PLAT CUL", "sales": 2, "median_price": 17680.0, "median_price_per_sqm": null, "median_rooms": null, "first_sale": "2023-12-28", "last_sale": "2024-11-27"}}, {"type": "Feature", "geometry": {"type": "Point", "coordinates": [2.928453, 49.003317]}, "properties": {"id_parcelle": "774830000I1006", "address": "LE VILLAGE EST", "sales": 2, "median_price": 157000.0, "median_price_per_sqm": null, "median_rooms": null, "first_sale": "2024-07-08", "last_sale": "2025-11-05"}}, {"type": "Feature", "geometry": {"type": "Point", "coordinates": [2.926149, 48.999294]}, "properties": {"id_parcelle": "774830000I0965", "address": "16 RUE DU JEU D ARC", "sales": 2, "median_price": 175000.0, "median_price_per_sqm": 4375.0, "median_rooms": 2.0, "first_sale": "2023-04-04", "last_sale": "2023-04-04"}}, {"type": "Feature", "geometry": {"type": "Point", "coordinates": [2.930344, 49.000713]}, "properties": {"id_parcelle": "774830000I0682", "address": "15 RUE DU FOUR", "sales": 2, "median_price": 281000.0, "median_price_per_sqm": 1965.9001956947163, "median_rooms": 3.0, "first_sale": "2022-08-02", "last_sale": "2022-08-02"}}, {"type": "Feature", "geometry": {"type": "Point", "coordinates": [2.92912, 49.001021]}, "properties": {"id_parcelle": "774830000I0711", "address": "49 RUE MOREAU DUCHESNE", "sales": 2, "median_price": 225000.0, "median_price_per_sqm": 2710.843373493976, "median_rooms": 2.0, "first_sale": "2024-07-12", "last_sale": "2024-07-12"}}, {"type": "Feature", "geometry": {"type": "Point", "coordinates": [2.932622, 49.000025]}, "properties": {"id_parcelle": "774830000I0528", "address": "7 RUE DE L EGLISE", "sales": 2, "median_price": 208000.0, "median_price_per_sqm": 2773.3333333333335, "median_rooms": 2.0, "first_sale": "2022-09-13", "last_sale": "2022-09-13"}}, {"type": "Feature", "geometry": {"type": "Point", "coordinates": [2.923168, 49.001842]}, "properties": {"id_parcelle": "774830000I0375", "address": "2 AV DES AMERICAINS", "sales": 2, "median_price": 220000.0, "median_price_per_sqm": 1375.0, "median_rooms": 3.0, "first_sale": "2025-12-23", "last_sale": "2025-12-23"}}, {"type": "Feature", "geometry": {"type": "Point", "coordinates": [2.922792, 49.00152]}, "properties": {"id_parcelle": "774830000I0379", "address": "10 AV DES AMERICAINS", "sales": 2, "median_price": 245000.0, "median_price_per_sqm": 3266.6666666666665, "median_rooms": 1.5, "first_sale": "2021-06-19", "last_sale": "2021-06-19"}}, {"type": "Feature", "geometry": {"type": "Point", "coordinates": [2.928694, 49.000311]}, "properties": {"id_parcelle": "774830000I0293", "address": "4 PTR PETITE RUE", "sales": 2, "median_price": 200000.0, "median_price_per_sqm": 2222.222222222222, "median_rooms": 2.0, "first_sale": "2023-09-22", "last_sale": "2023-09-22"}}, {"type": "Feature", "geometry": {"type": "Point", "coordinates": [2.935659, 48.998737]}, "properties": {"id_parcelle": "774830000I1399", "address": "33 RUE DE L EGLISE", "sales": 2, "median_price": 365000.0, "median_price_per_sqm": 4055.5555555555557, "median_rooms": 4.0, "first_sale": "2021-12-14", "last_sale": "2021-12-14"}}, {"type": "Feature", "geometry": {"type": "Point", "coordinates": [2.933527, 48.999577]}, "properties": {"id_parcelle": "774830000I1360", "address": "15 RUE DE L EGLISE", "sales": 2, "median_price": 169500.0, "median_price_per_sqm": 2948.038334830788, "median_rooms": 2.5, "first_sale": "2022-04-28", "last_sale": "2023-06-22"}}, {"type": "Feature", "geometry": {"type": "Point", "coordinates": [2.923821, 49.001974]}, "properties": {"id_parcelle": "774830000I1240", "address": "12 RUE VICTOR CLAIRET", "sales": 2, "median_price": 555000.0, "median_price_per_sqm": 1790.3225806451612, "median_rooms": 0.0, "first_sale": "2021-10-01", "last_sale": "2021-10-01"}}, {"type": "Feature", "geometry": {"type": "Point", "coordinates": [2.926504, 49.000002]}, "properties": {"id_parcelle": "774830000I1230", "address": "2 CHE DES BUTTES", "sales": 2, "median_price": 240000.0, "median_price_per_sqm": 2666.6666666666665, "median_rooms": 2.0, "first_sale": "2024-04-27", "last_sale": "2024-04-27"}}, {"type": "Feature", "geometry": {"type": "Point", "coordinates": [2.92322, 49.001292]}, "properties": {"id_parcelle": "774830000I1119", "address": "LE VILLAGE OUEST", "sales": 2, "median_price": 263500.0, "median_price_per_sqm": null, "median_rooms": null, "first_sale": "2023-01-11", "last_sale": "2023-01-25"}}, {"type": "Feature", "geometry": {"type": "Point", "coordinates": [2.926505, 49.003684]}, "properties": {"id_parcelle": "774830000I1048", "address": "47 RUE VICTOR CLAIRET", "sales": 2, "median_price": 112000.0, "median_price_per_sqm": 2666.6666666666665, "median_rooms": 1.5, "first_sale": "2025-02-25", "last_sale": "2025-02-25"}}, {"type": "Feature", "geometry": {"type": "Point", "coordinates": [2.922962, 49.002703]}, "properties": {"id_parcelle": "774830000I1165", "address": "6 RUE DU BOURREAU", "sales": 2, "median_price": 225000.0, "median_price_per_sqm": 2556.818181818182, "median_rooms": 5.0, "first_sale": "2025-08-22", "last_sale": "2025-08-22"}}, {"type": "Feature", "geometry": {"type": "Point", "coordinates": [2.922844, 49.003116]}, "properties": {"id_parcelle": "774830000I1157", "address": "12 RUE DU BOURREAU", "sales": 2, "median_price": 332000.0, "median_price_per_sqm": 3816.0919540229884, "median_rooms": 4.0, "first_sale": "2021-02-09", "last_sale": "2021-02-09"}}, {"type": "Feature", "geometry": {"type": "Point", "coordinates": [2.930913, 49.001522]}, "properties": {"id_parcelle": "774830000I0483", "address": "LE VILLAGE EST", "sales": 2, "median_price": 252500.0, "median_price_per_sqm": null, "median_rooms": null, "first_sale": "2025-08-04", "last_sale": "2025-12-20"}}, {"type": "Feature", "geometry": {"type": "Point", "coordinates": [2.930112, 49.003006]}, "properties": {"id_parcelle": "774830000I0462", "address": "13 RUE NEUVE", "sales": 2, "median_price": 245165.0, "median_price_per_sqm": 3064.5625, "median_rooms": 2.0, "first_sale": "2021-07-16", "last_sale": "2021-07-16"}}, {"type": "Feature", "geometry": {"type": "Point", "coordinates": [2.928659, 49.002717]}, "properties": {"id_parcelle": "774830000I1609", "address": "31 RUE MOREAU DUCHESNE", "sales": 2, "median_price": 239500.0, "median_price_per_sqm": null, "median_rooms": null, "first_sale": "2023-03-06", "last_sale": "2023-09-25"}}, {"type": "Feature", "geometry": {"type": "Point", "coordinates": [2.935693, 49.000292]}, "properties": {"id_parcelle": "774830000I1480", "address": "2 ALL DU MOULIN", "sales": 2, "median_price": 296000.0, "median_price_per_sqm": 3288.8888888888887, "median_rooms": 2.0, "first_sale": "2025-09-11", "last_sale": "2025-09-11"}}, {"type": "Feature", "geometry": {"type": "Point", "coordinates": [2.928085, 49.003514]}, "properties": {"id_parcelle": "774830000I1654", "address": "5 RUE MOREAU DUCHESNE", "sales": 2, "median_price": 366000.0, "median_price_per_sqm": 2152.9411764705883, "median_rooms": 3.5, "first_sale": "2022-06-20", "last_sale": "2022-06-20"}}, {"type": "Feature", "geometry": {"type": "Point", "coordinates": [2.934335, 49.001069]}, "properties": {"id_parcelle": "774830000I1513", "address": "8 RUE DES OTAGES", "sales": 2, "median_price": 310000.0, "median_price_per_sqm": null, "median_rooms": null, "first_sale": "2024-12-05", "last_sale": "2024-12-05"}}, {"type": "Feature", "geometry": {"type": "Point", "coordinates": [2.93541, 49.000196]}, "properties": {"id_parcelle": "774830000I1494", "address": "4 ALL DU MOULIN", "sales": 2, "median_price": 296000.0, "median_price_per_sqm": 2573.913043478261, "median_rooms": 3.0, "first_sale": "2025-07-04", "last_sale": "2025-07-04"}}, {"type": "Feature", "geometry": {"type": "Point", "coordinates": [2.930722, 49.002745]}, "properties": {"id_parcelle": "774830000I1427", "address": "25 RUE NEUVE", "sales": 2, "median_price": 230000.0, "median_price_per_sqm": 3026.315789473684, "median_rooms": 4.0, "first_sale": "2022-06-07", "last_sale": "2022-06-07"}}, {"type": "Feature", "geometry": {"type": "Point", "coordinates": [2.931303, 49.005932]}, "properties": {"id_parcelle": "774830000I1761", "address": "105 RUE VICTOR CLAIRET", "sales": 2, "median_price": 203100.0, "median_price_per_sqm": 2282.0224719101125, "median_rooms": 2.0, "first_sale": "2024-02-06", "last_sale": "2024-02-06"}}, {"type": "Feature", "geometry": {"type": "Point", "coordinates": [2.922771, 49.002776]}, "properties": {"id_parcelle": "774830000I1724", "address": "8 RUE DU BOURREAU", "sales": 2, "median_price": 255000.0, "median_price_per_sqm": 3541.6666666666665, "median_rooms": 2.5, "first_sale": "2022-07-11", "last_sale": "2022-07-11"}}, {"type": "Feature", "geometry": {"type": "Point", "coordinates": [2.924729, 49.003336]}, "properties": {"id_parcelle": "774830000I1631", "address": "RUE VICTOR CLAIRET", "sales": 2, "median_price": 320000.0, "median_price_per_sqm": null, "median_rooms": null, "first_sale": "2022-07-01", "last_sale": "2022-07-01"}}, {"type": "Feature", "geometry": {"type": "Point", "coordinates": [2.931228, 49.005857]}, "properties": {"id_parcelle": "774830000I1766", "address": "103 RUE VICTOR CLAIRET", "sales": 2, "median_price": 248450.0, "median_price_per_sqm": null, "median_rooms": null, "first_sale": "2023-04-11", "last_sale": "2024-02-06"}}, {"type": "Feature", "geometry": {"type": "Point", "coordinates": [2.928232, 49.001417]}, "properties": {"id_parcelle": "774830000I1922", "address": "36 RUE MOREAU DUCHESNE", "sales": 2, "median_price": 115000.0, "median_price_per_sqm": 958.3333333333334, "median_rooms": 2.0, "first_sale": "2021-11-20", "last_sale": "2021-11-20"}}, {"type": "Feature", "geometry": {"type": "Point", "coordinates": [2.923327, 49.003073]}, "properties": {"id_parcelle": "774830000I1830", "address": "8 RUE DU BOURREAU", "sales": 2, "median_price": 500000.0, "median_price_per_sqm": 4065.040650406504, "median_rooms": 4.0, "first_sale": "2024-12-24", "last_sale": "2024-12-24"}}, {"type": "Feature", "geometry": {"type": "Point", "coordinates": [2.924013, 48.999769]}, "properties": {"id_parcelle": "774830000I1855", "address": "16 RUE D ORSOY", "sales": 2, "median_price": 315000.0, "median_price_per_sqm": 2916.6666666666665, "median_rooms": 5.0, "first_sale": "2021-05-21", "last_sale": "2021-05-21"}}, {"type": "Feature", "geometry": {"type": "Point", "coordinates": [2.928848, 49.001304]}, "properties": {"id_parcelle": "774830000I1921", "address": "38 RUE MOREAU DUCHESNE", "sales": 2, "median_price": 163000.0, "median_price_per_sqm": null, "median_rooms": null, "first_sale": "2023-11-04", "last_sale": "2023-11-04"}}, {"type": "Feature", "geometry": {"type": "Point", "coordinates": [2.929375, 49.004514]}, "properties": {"id_parcelle": "774830000I1968", "address": "1 RUE NEUVE", "sales": 2, "median_price": 45000.0, "median_price_per_sqm": 321.42857142857144, "median_rooms": 2.5, "first_sale": "2022-04-26", "last_sale": "2022-04-26"}}, {"type": "Feature", "geometry": {"type": "Point", "coordinates": [2.929929, 49.005319]}, "properties": {"id_parcelle": "774830000I1954", "address": "91 RUE VICTOR CLAIRET", "sales": 2, "median_price": 211000.0, "median_price_per_sqm": 3014.285714285714, "median_rooms": 4.0, "first_sale": "2021-04-14", "last_sale": "2025-05-28"}}, {"type": "Feature", "geometry": {"type": "Point", "coordinates": [2.93095, 49.001308]}, "properties": {"id_parcelle": "774830000I1934", "address": "39 RUE NEUVE", "sales": 2, "median_price": 225700.0, "median_price_per_sqm": 3319.1176470588234, "median_rooms": 1.0, "first_sale": "2021-10-13", "last_sale": "2021-10-13"}}, {"type": "Feature", "geometry": {"type": "Point", "coordinates": [2.932332, 49.005803]}, "properties": {"id_parcelle": "774830000I1972", "address": "84 RUE VICTOR CLAIRET", "sales": 2, "median_price": 90000.0, "median_price_per_sqm": null, "median_rooms": 0.0, "first_sale": "2023-07-24", "last_sale": "2023-07-24"}}, {"type": "Feature", "geometry": {"type": "Point", "coordinates": [2.923316, 49.001193]}, "properties": {"id_parcelle": "774830000I1976", "address": "4 RUE D ORSOY", "sales": 2, "median_price": 185000.0, "median_price_per_sqm": 1681.8181818181818, "median_rooms": 1.5, "first_sale": "2023-01-25", "last_sale": "2023-01-25"}}, {"type": "Feature", "geometry": {"type": "Point", "coordinates": [2.932267, 49.005959]}, "properties": {"id_parcelle": "774830000I1973", "address": "84 RUE VICTOR CLAIRET", "sales": 2, "median_price": 178000.0, "median_price_per_sqm": 2738.4615384615386, "median_rooms": 2.0, "first_sale": "2022-02-01", "last_sale": "2022-02-01"}}, {"type": "Feature", "geometry": {"type": "Point", "coordinates": [2.916007, 49.019783]}, "properties": {"id_parcelle": "77483000ZA0009", "address": "LE GROS NOYER", "sales": 2, "median_price": 155000.0, "median_price_per_sqm": null, "median_rooms": null, "first_sale": "2023-08-31", "last_sale": "2023-08-31"}}, {"type": "Feature", "geometry": {"type": "Point", "coordinates": [2.928162, 49.015464]}, "properties": {"id_parcelle": "77483000ZB0006", "address": "SUR LA PIERRE A SON", "sales": 2, "median_price": 33125.08, "median_price_per_sqm": null, "median_rooms": null, "first_sale": "2024-03-20", "last_sale": "2024-03-20"}}]}