{"type": "FeatureCollection", "features": [{"type": "Feature", "geometry": {"type": "Point", "coordinates": [2.964351, 48.802356]}, "properties": {"id_parcelle": "77063000AC0209", "address": "5 CHE DE L'ATTINERIE", "sales": 6, "median_price": 252000.0, "median_price_per_sqm": 2709.6774193548385, "median_rooms": 0.0, "first_sale": "2021-10-08", "last_sale": "2021-10-08"}}, {"type": "Feature", "geometry": {"type": "Point", "coordinates": [2.959812, 48.790532]}, "properties": {"id_parcelle": "77063000AD0180", "address": "12 RUE DE LA CELLE", "sales": 6, "median_price": 280000.0, "median_price_per_sqm": 2413.793103448276, "median_rooms": 0.0, "first_sale": "2024-09-20", "last_sale": "2024-09-20"}}, {"type": "Feature", "geometry": {"type": "Point", "coordinates": [2.971135, 48.812474]}, "properties": {"id_parcelle": "770630000A1245", "address": "17 RTE DU GRAND MORIN", "sales": 4, "median_price": 405000.0, "median_price_per_sqm": 2682.119205298013, "median_rooms": 2.5, "first_sale": "2025-07-28", "last_sale": "2025-07-28"}}, {"type": "Feature", "geometry": {"type": "Point", "coordinates": [2.971237, 48.804068]}, "properties": {"id_parcelle": "77063000AB0740", "address": "18 RUE DU CLOS CHARRETIER", "sales": 4, "median_price": 326500.0, "median_price_per_sqm": 3340.0272122555934, "median_rooms": 3.5, "first_sale": "2021-04-06", "last_sale": "2021-04-06"}}, {"type": "Feature", "geometry": {"type": "Point", "coordinates": [2.973526, 48.804417]}, "properties": {"id_parcelle": "77063000AB0766", "address": "10 RUE DU CLOS CHARRETIER", "sales": 4, "median_price": 262000.0, "median_price_per_sqm": 2278.2608695652175, "median_rooms": 1.5, "first_sale": "2025-02-03", "last_sale": "2025-02-03"}}, {"type": "Feature", "geometry": {"type": "Point", "coordinates": [2.970795, 48.80592]}, "properties": {"id_parcelle": "770630000C1307", "address": "21 RUE D EN BAS", "sales": 4, "median_price": 375000.0, "median_price_per_sqm": 7021.103896103896, "median_rooms": 1.0, "first_sale": "2022-03-29", "last_sale": "2022-03-29"}}, {"type": "Feature", "geometry": {"type": "Point", "coordinates": [2.974247, 48.804276]}, "properties": {"id_parcelle": "77063000AB0600", "address": "6 RUE DU CLOS CHARRETIER", "sales": 4, "median_price": 220000.0, "median_price_per_sqm": 2750.0, "median_rooms": 1.5, "first_sale": "2023-07-18", "last_sale": "2023-07-18"}}, {"type": "Feature", "geometry": {"type": "Point", "coordinates": [2.972587, 48.815493]}, "properties": {"id_parcelle": "770630000A1378", "address": "1 SEN DES PARES", "sales": 4, "median_price": 536000.0, "median_price_per_sqm": 2977.777777777778, "median_rooms": 3.0, "first_sale": "2023-01-25", "last_sale": "2023-01-25"}}, {"type": "Feature", "geometry": {"type": "Point", "coordinates": [2.971615, 48.812861]}, "properties": {"id_parcelle": "770630000A1475", "address": "19 RTE DU GRAND MORIN", "sales": 4, "median_price": 380000.0, "median_price_per_sqm": 2923.076923076923, "median_rooms": 2.5, "first_sale": "2021-11-05", "last_sale": "2021-11-05"}}, {"type": "Feature", "geometry": {"type": "Point", "coordinates": [2.976522, 48.819205]}, "properties": {"id_parcelle": "770630000A1299", "address": "67 RTE DU GRAND MORIN", "sales": 4, "median_price": 349000.0, "median_price_per_sqm": 2326.6666666666665, "median_rooms": 2.5, "first_sale": "2024-08-30", "last_sale": "2024-08-30"}}, {"type": "Feature", "geometry": {"type": "Point", "coordinates": [2.969435, 48.811445]}, "properties": {"id_parcelle": "770630000A1252", "address": "6 RUE DES CAMELIAS", "sales": 4, "median_price": 345000.0, "median_price_per_sqm": 4859.154929577465, "median_rooms": 2.0, "first_sale": "2022-11-17", "last_sale": "2022-11-17"}}, {"type": "Feature", "geometry": {"type": "Point", "coordinates": [2.952762, 48.790104]}, "properties": {"id_parcelle": "77063000AD0232", "address": "45 RUE DE LA CELLE", "sales": 4, "median_price": 200000.0, "median_price_per_sqm": 2380.9523809523807, "median_rooms": 2.0, "first_sale": "2022-11-08", "last_sale": "2022-11-08"}}, {"type": "Feature", "geometry": {"type": "Point", "coordinates": [2.966381, 48.801237]}, "properties": {"id_parcelle": "77063000AC0205", "address": "16 RUE DE MONTLEVON", "sales": 4, "median_price": 281500.0, "median_price_per_sqm": 2815.0, "median_rooms": 2.5, "first_sale": "2023-11-16", "last_sale": "2023-11-16"}}, {"type": "Feature", "geometry": {"type": "Point", "coordinates": [2.972039, 48.803648]}, "properties": {"id_parcelle": "77063000AB0616", "address": "17 RUE DU CLOS CHARRETIER", "sales": 4, "median_price": 155000.0, "median_price_per_sqm": 2980.769230769231, "median_rooms": 1.5, "first_sale": "2021-08-04", "last_sale": "2021-08-04"}}, {"type": "Feature", "geometry": {"type": "Point", "coordinates": [2.9664, 48.801101]}, "properties": {"id_parcelle": "77063000AC0204", "address": "18 RUE DE MONTLEVON", "sales": 4, "median_price": 319000.0, "median_price_per_sqm": 2126.6666666666665, "median_rooms": 3.5, "first_sale": "2021-08-27", "last_sale": "2021-08-27"}}, {"type": "Feature", "geometry": {"type": "Point", "coordinates": [2.967794, 48.80322]}, "properties": {"id_parcelle": "77063000AB0759", "address": "82 GRANDE RUE", "sales": 4, "median_price": 169000.0, "median_price_per_sqm": 1609.5238095238096, "median_rooms": 3.5, "first_sale": "2023-10-02", "last_sale": "2023-10-02"}}, {"type": "Feature", "geometry": {"type": "Point", "coordinates": [2.96938, 48.810836]}, "properties": {"id_parcelle": "770630000A1254", "address": "2 RUE DES CAMELIAS", "sales": 4, "median_price": 350000.0, "median_price_per_sqm": 2317.880794701987, "median_rooms": 3.5, "first_sale": "2022-02-21", "last_sale": "2022-02-21"}}, {"type": "Feature", "geometry": {"type": "Point", "coordinates": [2.966428, 48.801439]}, "properties": {"id_parcelle": "77063000AC0200", "address": "14 RUE DE MONTLEVON", "sales": 4, "median_price": 300000.0, "median_price_per_sqm": 3896.103896103896, "median_rooms": 2.0, "first_sale": "2025-09-24", "last_sale": "2025-09-24"}}, {"type": "Feature", "geometry": {"type": "Point", "coordinates": [2.958438, 48.789752]}, "properties": {"id_parcelle": "77063000AD0187", "address": "22 RUE DE LA CELLE", "sales": 4, "median_price": 285000.0, "median_price_per_sqm": 2794.1176470588234, "median_rooms": 2.0, "first_sale": "2025-02-20", "last_sale": "2025-02-20"}}, {"type": "Feature", "geometry": {"type": "Point", "coordinates": [2.976796, 48.817855]}, "properties": {"id_parcelle": "770630000B0425", "address": "56 RTE DU GRAND MORIN", "sales": 4, "median_price": 140000.0, "median_price_per_sqm": 2545.4545454545455, "median_rooms": 1.5, "first_sale": "2023-12-15", "last_sale": "2023-12-15"}}, {"type": "Feature", "geometry": {"type": "Point", "coordinates": [2.970034, 48.806427]}, "properties": {"id_parcelle": "770630000C0058", "address": "LES PETITS PRES", "sales": 3, "median_price": 6571.2, "median_price_per_sqm": null, "median_rooms": null, "first_sale": "2021-04-19", "last_sale": "2024-02-26"}}, {"type": "Feature", "geometry": {"type": "Point", "coordinates": [2.970268, 48.80613]}, "properties": {"id_parcelle": "770630000C0060", "address": "LES PETITS PRES", "sales": 3, "median_price": 6571.2, "median_price_per_sqm": null, "median_rooms": null, "first_sale": "2021-04-19", "last_sale": "2024-02-26"}}, {"type": "Feature", "geometry": {"type": "Point", "coordinates": [2.970314, 48.806145]}, "properties": {"id_parcelle": "770630000C0061", "address": "LES PETITS PRES", "sales": 3, "median_price": 6571.2, "median_price_per_sqm": null, "median_rooms": null, "first_sale": "2021-04-19", "last_sale": "2024-02-26"}}, {"type": "Feature", "geometry": {"type": "Point", "coordinates": [2.978368, 48.819712]}, "properties": {"id_parcelle": "770630000A1157", "address": "89 RTE DU GRAND MORIN", "sales": 3, "median_price": 229000.0, "median_price_per_sqm": 2201.923076923077, "median_rooms": 0.0, "first_sale": "2023-11-27", "last_sale": "2023-11-27"}}, {"type": "Feature", "geometry": {"type": "Point", "coordinates": [2.970104, 48.80643]}, "properties": {"id_parcelle": "770630000C0063", "address": "LES PETITS PRES", "sales": 3, "median_price": 6571.2, "median_price_per_sqm": null, "median_rooms": null, "first_sale": "2021-04-19", "last_sale": "2024-02-26"}}, {"type": "Feature", "geometry": {"type": "Point", "coordinates": [2.970187, 48.806534]}, "properties": {"id_parcelle": "770630000C0069", "address": "LES PETITS PRES", "sales": 3, "median_price": 6571.2, "median_price_per_sqm": null, "median_rooms": null, "first_sale": "2021-04-19", "last_sale": "2024-02-26"}}, {"type": "Feature", "geometry": {"type": "Point", "coordinates": [2.969791, 48.806653]}, "properties": {"id_parcelle": "770630000C0055", "address": "LES PETITS PRES", "sales": 3, "median_price": 6571.2, "median_price_per_sqm": null, "median_rooms": null, "first_sale": "2021-04-19", "last_sale": "2024-02-26"}}, {"type": "Feature", "geometry": {"type": "Point", "coordinates": [2.969625, 48.806258]}, "properties": {"id_parcelle": "770630000C0045", "address": "LES PETITS PRES", "sales": 3, "median_price": 6571.2, "median_price_per_sqm": null, "median_rooms": null, "first_sale": "2021-04-19", "last_sale": "2024-02-26"}}, {"type": "Feature", "geometry": {"type": "Point", "coordinates": [2.969627, 48.806447]}, "properties": {"id_parcelle": "770630000C0047", "address": "LES PETITS PRES", "sales": 3, "median_price": 6571.2, "median_price_per_sqm": null, "median_rooms": null, "first_sale": "2021-04-19", "last_sale": "2024-02-26"}}, {"type": "Feature", "geometry": {"type": "Point", "coordinates": [2.969863, 48.806164]}, "properties": {"id_parcelle": "770630000C0048", "address": "LES PETITS PRES", "sales": 3, "median_price": 6571.2, "median_price_per_sqm": null, "median_rooms": null, "first_sale": "2021-04-19", "last_sale": "2024-02-26"}}, {"type": "Feature", "geometry": {"type": "Point", "coordinates": [2.970152, 48.806472]}, "properties": {"id_parcelle": "770630000C0062", "address": "LES PETITS PRES", "sales": 3, "median_price": 6571.2, "median_price_per_sqm": null, "median_rooms": null, "first_sale": "2021-04-19", "last_sale": "2024-02-26"}}, {"type": "Feature", "geometry": {"type": "Point", "coordinates": [2.970039, 48.806138]}, "properties": {"id_parcelle": "770630000C0057", "address": "LES PETITS PRES", "sales": 3, "median_price": 6571.2, "median_price_per_sqm": null, "median_rooms": null, "first_sale": "2021-04-19", "last_sale": "2024-02-26"}}, {"type": "Feature", "geometry": {"type": "Point", "coordinates": [2.967778, 48.803014]}, "properties": {"id_parcelle": "77063000AB0763", "address": "82 GRANDE RUE", "sales": 3, "median_price": 205000.0, "median_price_per_sqm": null, "median_rooms": null, "first_sale": "2023-05-03", "last_sale": "2025-12-30"}}, {"type": "Feature", "geometry": {"type": "Point", "coordinates": [2.967874, 48.803132]}, "properties": {"id_parcelle": "77063000AB0761", "address": "82 GRANDE RUE", "sales": 3, "median_price": 205000.0, "median_price_per_sqm": 2277.777777777778, "median_rooms": 1.5, "first_sale": "2023-05-03", "last_sale": "2025-12-30"}}, {"type": "Feature", "geometry": {"type": "Point", "coordinates": [2.965664, 48.802912]}, "properties": {"id_parcelle": "77063000AC0277", "address": "3 COUR DU PALAIS", "sales": 3, "median_price": 180000.0, "median_price_per_sqm": 2195.121951219512, "median_rooms": 0.0, "first_sale": "2021-08-17", "last_sale": "2021-08-17"}}, {"type": "Feature", "geometry": {"type": "Point", "coordinates": [2.957453, 48.789367]}, "properties": {"id_parcelle": "77063000AD0045", "address": "3 COUR CENTRALE", "sales": 3, "median_price": 163000.0, "median_price_per_sqm": 1831.4606741573034, "median_rooms": 0.0, "first_sale": "2024-05-13", "last_sale": "2024-05-13"}}, {"type": "Feature", "geometry": {"type": "Point", "coordinates": [2.966808, 48.802933]}, "properties": {"id_parcelle": "77063000AC0186", "address": "69 GRANDE RUE", "sales": 3, "median_price": 152000.0, "median_price_per_sqm": 1357.142857142857, "median_rooms": 0.0, "first_sale": "2025-07-07", "last_sale": "2025-07-07"}}, {"type": "Feature", "geometry": {"type": "Point", "coordinates": [2.970712, 48.806131]}, "properties": {"id_parcelle": "770630000C0086", "address": "LES PETITS PRES", "sales": 3, "median_price": 6571.2, "median_price_per_sqm": null, "median_rooms": null, "first_sale": "2021-04-19", "last_sale": "2024-02-26"}}, {"type": "Feature", "geometry": {"type": "Point", "coordinates": [2.97034, 48.806633]}, "properties": {"id_parcelle": "770630000C0081", "address": "LES PETITS PRES", "sales": 3, "median_price": 6571.2, "median_price_per_sqm": null, "median_rooms": null, "first_sale": "2021-04-19", "last_sale": "2024-02-26"}}, {"type": "Feature", "geometry": {"type": "Point", "coordinates": [2.970633, 48.804986]}, "properties": {"id_parcelle": "770630000D0260", "address": "4 CHE DE LA PISSEROTTE", "sales": 3, "median_price": 105659.7, "median_price_per_sqm": 1320.74625, "median_rooms": 0.0, "first_sale": "2023-05-24", "last_sale": "2023-05-24"}}, {"type": "Feature", "geometry": {"type": "Point", "coordinates": [2.978377, 48.805967]}, "properties": {"id_parcelle": "770630000C1119", "address": "LE CHP DU MERISIER", "sales": 3, "median_price": 6571.2, "median_price_per_sqm": null, "median_rooms": null, "first_sale": "2021-04-19", "last_sale": "2024-02-26"}}, {"type": "Feature", "geometry": {"type": "Point", "coordinates": [2.979312, 48.805007]}, "properties": {"id_parcelle": "770630000C0666", "address": "LE CHP DU NEFLIER", "sales": 3, "median_price": 6571.2, "median_price_per_sqm": null, "median_rooms": null, "first_sale": "2021-04-19", "last_sale": "2024-02-26"}}, {"type": "Feature", "geometry": {"type": "Point", "coordinates": [2.96971, 48.802339]}, "properties": {"id_parcelle": "77063000AB0555", "address": "5572 COUR DES VITRYS", "sales": 3, "median_price": 188000.0, "median_price_per_sqm": null, "median_rooms": 0.0, "first_sale": "2021-11-26", "last_sale": "2021-11-26"}}, {"type": "Feature", "geometry": {"type": "Point", "coordinates": [2.9709, 48.802929]}, "properties": {"id_parcelle": "77063000AB0234", "address": "38 GRANDE RUE", "sales": 3, "median_price": 242000.0, "median_price_per_sqm": 1562.9166666666665, "median_rooms": 0.0, "first_sale": "2025-06-11", "last_sale": "2025-06-11"}}, {"type": "Feature", "geometry": {"type": "Point", "coordinates": [2.970073, 48.806708]}, "properties": {"id_parcelle": "770630000C0068", "address": "LES PETITS PRES", "sales": 3, "median_price": 6571.2, "median_price_per_sqm": null, "median_rooms": null, "first_sale": "2021-04-19", "last_sale": "2024-02-26"}}, {"type": "Feature", "geometry": {"type": "Point", "coordinates": [2.981153, 48.807025]}, "properties": {"id_parcelle": "770630000C0405", "address": "LE CLOS JOLI MARTIN", "sales": 3, "median_price": 6571.2, "median_price_per_sqm": null, "median_rooms": null, "first_sale": "2021-04-19", "last_sale": "2024-02-26"}}, {"type": "Feature", "geometry": {"type": "Point", "coordinates": [2.981174, 48.806566]}, "properties": {"id_parcelle": "770630000C0417", "address": "LE CLOS JOLI MARTIN", "sales": 3, "median_price": 6571.2, "median_price_per_sqm": null, "median_rooms": null, "first_sale": "2021-04-19", "last_sale": "2024-02-26"}}, {"type": "Feature", "geometry": {"type": "Point", "coordinates": [2.97065, 48.802954]}, "properties": {"id_parcelle": "77063000AB0737", "address": "44 GRANDE RUE", "sales": 3, "median_price": 196000.0, "median_price_per_sqm": 1781.8181818181818, "median_rooms": 0.0, "first_sale": "2024-04-30", "last_sale": "2024-04-30"}}, {"type": "Feature", "geometry": {"type": "Point", "coordinates": [2.973322, 48.80262]}, "properties": {"id_parcelle": "77063000AB0212", "address": "14 GRANDE RUE", "sales": 3, "median_price": 273000.0, "median_price_per_sqm": 4475.4098360655735, "median_rooms": 3.0, "first_sale": "2021-12-30", "last_sale": "2021-12-30"}}, {"type": "Feature", "geometry": {"type": "Point", "coordinates": [2.970791, 48.806357]}, "properties": {"id_parcelle": "770630000C0089", "address": "LES PETITS PRES", "sales": 3, "median_price": 6571.2, "median_price_per_sqm": null, "median_rooms": null, "first_sale": "2021-04-19", "last_sale": "2024-02-26"}}, {"type": "Feature", "geometry": {"type": "Point", "coordinates": [2.970375, 48.806208]}, "properties": {"id_parcelle": "770630000C0070", "address": "LES PETITS PRES", "sales": 3, "median_price": 6571.2, "median_price_per_sqm": null, "median_rooms": null, "first_sale": "2021-04-19", "last_sale": "2024-02-26"}}, {"type": "Feature", "geometry": {"type": "Point", "coordinates": [2.976598, 48.821929]}, "properties": {"id_parcelle": "770630000A0023", "address": "LES BOIS DU CAS ROUGE", "sales": 2, "median_price": 680000.0, "median_price_per_sqm": null, "median_rooms": null, "first_sale": "2024-10-10", "last_sale": "2024-10-10"}}, {"type": "Feature", "geometry": {"type": "Point", "coordinates": [2.975258, 48.823161]}, "properties": {"id_parcelle": "770630000A0017", "address": "LES BOIS DU CAS ROUGE", "sales": 2, "median_price": 680000.0, "median_price_per_sqm": null, "median_rooms": null, "first_sale": "2024-10-10", "last_sale": "2024-10-10"}}, {"type": "Feature", "geometry": {"type": "Point", "coordinates": [2.974799, 48.822594]}, "properties": {"id_parcelle": "770630000A0019", "address": "LES BOIS DU CAS ROUGE", "sales": 2, "median_price": 680000.0, "median_price_per_sqm": null, "median_rooms": null, "first_sale": "2024-10-10", "last_sale": "2024-10-10"}}, {"type": "Feature", "geometry": {"type": "Point", "coordinates": [2.975331, 48.822388]}, "properties": {"id_parcelle": "770630000A0021", "address": "LES BOIS DU CAS ROUGE", "sales": 2, "median_price": 680000.0, "median_price_per_sqm": null, "median_rooms": null, "first_sale": "2024-10-10", "last_sale": "2024-10-10"}}, {"type": "Feature", "geometry": {"type": "Point", "coordinates": [2.976454, 48.822409]}, "properties": {"id_parcelle": "770630000A0045", "address": "LES BOIS DU CAS ROUGE", "sales": 2, "median_price": 680000.0, "median_price_per_sqm": null, "median_rooms": null, "first_sale": "2024-10-10", "last_sale": "2024-10-10"}}, {"type": "Feature", "geometry": {"type": "Point", "coordinates": [2.977127, 48.822117]}, "properties": {"id_parcelle": "770630000A0047", "address": "LES BOIS DU CAS ROUGE", "sales": 2, "median_price": 680000.0, "median_price_per_sqm": null, "median_rooms": null, "first_sale": "2024-10-10", "last_sale": "2024-10-10"}}, {"type": "Feature", "geometry": {"type": "Point", "coordinates": [2.977443, 48.822229]}, "properties": {"id_parcelle": "770630000A0048", "address": "LES BOIS DU CAS ROUGE", "sales": 2, "median_price": 680000.0, "median_price_per_sqm": null, "median_rooms": null, "first_sale": "2024-10-10", "last_sale": "2024-10-10"}}, {"type": "Feature", "geometry": {"type": "Point", "coordinates": [2.977075, 48.822465]}, "properties": {"id_parcelle": "770630000A0050", "address": "LES BOIS DU CAS ROUGE", "sales": 2, "median_price": 680000.0, "median_price_per_sqm": null, "median_rooms": null, "first_sale": "2024-10-10", "last_sale": "2024-10-10"}}, {"type": "Feature", "geometry": {"type": "Point", "coordinates": [2.976846, 48.822486]}, "properties": {"id_parcelle": "770630000A0052", "address": "LES BOIS DU CAS ROUGE", "sales": 2, "median_price": 680000.0, "median_price_per_sqm": null, "median_rooms": null, "first_sale": "2024-10-10", "last_sale": "2024-10-10"}}, {"type": "Feature", "geometry": {"type": "Point", "coordinates": [2.977096, 48.821807]}, "properties": {"id_parcelle": "770630000A0025", "address": "LES BOIS DU CAS ROUGE", "sales": 2, "median_price": 680000.0, "median_price_per_sqm": null, "median_rooms": null, "first_sale": "2024-10-10", "last_sale": "2024-10-10"}}, {"type": "Feature", "geometry": {"type": "Point", "coordinates": [2.975921, 48.82244]}, "properties": {"id_parcelle": "770630000A0037", "address": "LES BOIS DU CAS ROUGE", "sales": 2, "median_price": 680000.0, "median_price_per_sqm": null, "median_rooms": null, "first_sale": "2024-10-10", "last_sale": "2024-10-10"}}, {"type": "Feature", "geometry": {"type": "Point", "coordinates": [2.97593, 48.822704]}, "properties": {"id_parcelle": "770630000A0040", "address": "LES BOIS DU CAS ROUGE", "sales": 2, "median_price": 680000.0, "median_price_per_sqm": null, "median_rooms": null, "first_sale": "2024-10-10", "last_sale": "2024-10-10"}}, {"type": "Feature", "geometry": {"type": "Point", "coordinates": [2.973962, 48.821502]}, "properties": {"id_parcelle": "770630000A0586", "address": "LES CENT SIX VINGTS ARPENT", "sales": 2, "median_price": 680000.0, "median_price_per_sqm": null, "median_rooms": null, "first_sale": "2024-10-10", "last_sale": "2024-10-10"}}, {"type": "Feature", "geometry": {"type": "Point", "coordinates": [2.973761, 48.821363]}, "properties": {"id_parcelle": "770630000A0570", "address": "LES CENT SIX VINGTS ARPENT", "sales": 2, "median_price": 680000.0, "median_price_per_sqm": null, "median_rooms": null, "first_sale": "2024-10-10", "last_sale": "2024-10-10"}}, {"type": "Feature", "geometry": {"type": "Point", "coordinates": [2.97442, 48.820766]}, "properties": {"id_parcelle": "770630000A0563", "address": "LES CENT SIX VINGTS ARPENT", "sales": 2, "median_price": 680000.0, "median_price_per_sqm": null, "median_rooms": null, "first_sale": "2024-10-10", "last_sale": "2024-10-10"}}, {"type": "Feature", "geometry": {"type": "Point", "coordinates": [2.972817, 48.821478]}, "properties": {"id_parcelle": "770630000A0557", "address": "LES CENT SIX VINGTS ARPENT", "sales": 2, "median_price": 680000.0, "median_price_per_sqm": null, "median_rooms": null, "first_sale": "2024-10-10", "last_sale": "2024-10-10"}}, {"type": "Feature", "geometry": {"type": "Point", "coordinates": [2.973366, 48.821067]}, "properties": {"id_parcelle": "770630000A0549", "address": "LES CENT SIX VINGTS ARPENT", "sales": 2, "median_price": 680000.0, "median_price_per_sqm": null, "median_rooms": null, "first_sale": "2024-10-10", "last_sale": "2024-10-10"}}, {"type": "Feature", "geometry": {"type": "Point", "coordinates": [2.973196, 48.820797]}, "properties": {"id_parcelle": "770630000A0547", "address": "LES CENT SIX VINGTS ARPENT", "sales": 2, "median_price": 680000.0, "median_price_per_sqm": null, "median_rooms": null, "first_sale": "2024-10-10", "last_sale": "2024-10-10"}}, {"type": "Feature", "geometry": {"type": "Point", "coordinates": [2.972994, 48.820667]}, "properties": {"id_parcelle": "770630000A0529", "address": "LES CENT SIX VINGTS ARPENT", "sales": 2, "median_price": 680000.0, "median_price_per_sqm": null, "median_rooms": null, "first_sale": "2024-10-10", "last_sale": "2024-10-10"}}, {"type": "Feature", "geometry": {"type": "Point", "coordinates": [2.973201, 48.820456]}, "properties": {"id_parcelle": "770630000A0526", "address": "LES CENT SIX VINGTS ARPENT", "sales": 2, "median_price": 680000.0, "median_price_per_sqm": null, "median_rooms": null, "first_sale": "2024-10-10", "last_sale": "2024-10-10"}}, {"type": "Feature", "geometry": {"type": "Point", "coordinates": [2.974192, 48.820095]}, "properties": {"id_parcelle": "770630000A0524", "address": "LES CENT SIX VINGTS ARPENT", "sales": 2, "median_price": 680000.0, "median_price_per_sqm": null, "median_rooms": null, "first_sale": "2024-10-10", "last_sale": "2024-10-10"}}, {"type": "Feature", "geometry": {"type": "Point", "coordinates": [2.973592, 48.820019]}, "properties": {"id_parcelle": "770630000A0516", "address": "LES CENT SIX VINGTS ARPENT", "sales": 2, "median_price": 680000.0, "median_price_per_sqm": null, "median_rooms": null, "first_sale": "2024-10-10", "last_sale": "2024-10-10"}}, {"type": "Feature", "geometry": {"type": "Point", "coordinates": [2.973576, 48.820117]}, "properties": {"id_parcelle": "770630000A0515", "address": "LES CENT SIX VINGTS ARPENT", "sales": 2, "median_price": 680000.0, "median_price_per_sqm": null, "median_rooms": null, "first_sale": "2024-10-10", "last_sale": "2024-10-10"}}, {"type": "Feature", "geometry": {"type": "Point", "coordinates": [2.973189, 48.819963]}, "properties": {"id_parcelle": "770630000A0504", "address": "LES CENT SIX VINGTS ARPENT", "sales": 2, "median_price": 680000.0, "median_price_per_sqm": null, "median_rooms": null, "first_sale": "2024-10-10", "last_sale": "2024-10-10"}}, {"type": "Feature", "geometry": {"type": "Point", "coordinates": [2.972876, 48.819681]}, "properties": {"id_parcelle": "770630000A0493", "address": "LES CENT SIX VINGTS ARPENT", "sales": 2, "median_price": 680000.0, "median_price_per_sqm": null, "median_rooms": null, "first_sale": "2024-10-10", "last_sale": "2024-10-10"}}, {"type": "Feature", "geometry": {"type": "Point", "coordinates": [2.972934, 48.819477]}, "properties": {"id_parcelle": "770630000A0477", "address": "LES CENT SIX VINGTS ARPENT", "sales": 2, "median_price": 680000.0, "median_price_per_sqm": null, "median_rooms": null, "first_sale": "2024-10-10", "last_sale": "2024-10-10"}}, {"type": "Feature", "geometry": {"type": "Point", "coordinates": [2.971867, 48.81969]}, "properties": {"id_parcelle": "770630000A0470", "address": "LES CENT SIX VINGTS ARPENT", "sales": 2, "median_price": 680000.0, "median_price_per_sqm": null, "median_rooms": null, "first_sale": "2024-10-10", "last_sale": "2024-10-10"}}, {"type": "Feature", "geometry": {"type": "Point", "coordinates": [2.972786, 48.819025]}, "properties": {"id_parcelle": "770630000A0454", "address": "LES CENT SIX VINGTS ARPENT", "sales": 2, "median_price": 680000.0, "median_price_per_sqm": null, "median_rooms": null, "first_sale": "2024-10-10", "last_sale": "2024-10-10"}}, {"type": "Feature", "geometry": {"type": "Point", "coordinates": [2.973128, 48.818839]}, "properties": {"id_parcelle": "770630000A0451", "address": "LES CENT SIX VINGTS ARPENT", "sales": 2, "median_price": 680000.0, "median_price_per_sqm": null, "median_rooms": null, "first_sale": "2024-10-10", "last_sale": "2024-10-10"}}, {"type": "Feature", "geometry": {"type": "Point", "coordinates": [2.972224, 48.819018]}, "properties": {"id_parcelle": "770630000A0449", "address": "LES CENT SIX VINGTS ARPENT", "sales": 2, "median_price": 680000.0, "median_price_per_sqm": null, "median_rooms": null, "first_sale": "2024-10-10", "last_sale": "2024-10-10"}}, {"type": "Feature", "geometry": {"type": "Point", "coordinates": [2.971679, 48.819302]}, "properties": {"id_parcelle": "770630000A0442", "address": "LES CENT SIX VINGTS ARPENT", "sales": 2, "median_price": 680000.0, "median_price_per_sqm": null, "median_rooms": null, "first_sale": "2024-10-10", "last_sale": "2024-10-10"}}, {"type": "Feature", "geometry": {"type": "Point", "coordinates": [2.97231, 48.818784]}, "properties": {"id_parcelle": "770630000A0429", "address": "LES CENT SIX VINGTS ARPENT", "sales": 2, "median_price": 680000.0, "median_price_per_sqm": null, "median_rooms": null, "first_sale": "2024-10-10", "last_sale": "2024-10-10"}}, {"type": "Feature", "geometry": {"type": "Point", "coordinates": [2.9716, 48.818926]}, "properties": {"id_parcelle": "770630000A0426", "address": "LES CENT SIX VINGTS ARPENT", "sales": 2, "median_price": 680000.0, "median_price_per_sqm": null, "median_rooms": null, "first_sale": "2024-10-10", "last_sale": "2024-10-10"}}, {"type": "Feature", "geometry": {"type": "Point", "coordinates": [2.972912, 48.818512]}, "properties": {"id_parcelle": "770630000A0418", "address": "LES CENT SIX VINGTS ARPENT", "sales": 2, "median_price": 680000.0, "median_price_per_sqm": null, "median_rooms": null, "first_sale": "2024-10-10", "last_sale": "2024-10-10"}}, {"type": "Feature", "geometry": {"type": "Point", "coordinates": [2.971649, 48.818569]}, "properties": {"id_parcelle": "770630000A0411", "address": "LES CENT SIX VINGTS ARPENT", "sales": 2, "median_price": 680000.0, "median_price_per_sqm": null, "median_rooms": null, "first_sale": "2024-10-10", "last_sale": "2024-10-10"}}, {"type": "Feature", "geometry": {"type": "Point", "coordinates": [2.971636, 48.81796]}, "properties": {"id_parcelle": "770630000A0390", "address": "LES CENT SIX VINGTS ARPENT", "sales": 2, "median_price": 680000.0, "median_price_per_sqm": null, "median_rooms": null, "first_sale": "2024-10-10", "last_sale": "2024-10-10"}}, {"type": "Feature", "geometry": {"type": "Point", "coordinates": [2.970199, 48.818149]}, "properties": {"id_parcelle": "770630000A0386", "address": "LES CENT SIX VINGTS ARPENT", "sales": 2, "median_price": 680000.0, "median_price_per_sqm": null, "median_rooms": null, "first_sale": "2024-10-10", "last_sale": "2024-10-10"}}, {"type": "Feature", "geometry": {"type": "Point", "coordinates": [2.97097, 48.818004]}, "properties": {"id_parcelle": "770630000A0383", "address": "LES CENT SIX VINGTS ARPENT", "sales": 2, "median_price": 680000.0, "median_price_per_sqm": null, "median_rooms": null, "first_sale": "2024-10-10", "last_sale": "2024-10-10"}}, {"type": "Feature", "geometry": {"type": "Point", "coordinates": [2.970178, 48.818047]}, "properties": {"id_parcelle": "770630000A0375", "address": "LES CENT SIX VINGTS ARPENT", "sales": 2, "median_price": 680000.0, "median_price_per_sqm": null, "median_rooms": null, "first_sale": "2024-10-10", "last_sale": "2024-10-10"}}, {"type": "Feature", "geometry": {"type": "Point", "coordinates": [2.970388, 48.817907]}, "properties": {"id_parcelle": "770630000A0372", "address": "LES CENT SIX VINGTS ARPENT", "sales": 2, "median_price": 680000.0, "median_price_per_sqm": null, "median_rooms": null, "first_sale": "2024-10-10", "last_sale": "2024-10-10"}}, {"type": "Feature", "geometry": {"type": "Point", "coordinates": [2.970782, 48.817919]}, "properties": {"id_parcelle": "770630000A0371", "address": "LES CENT SIX VINGTS ARPENT", "sales": 2, "median_price": 680000.0, "median_price_per_sqm": null, "median_rooms": null, "first_sale": "2024-10-10", "last_sale": "2024-10-10"}}, {"type": "Feature", "geometry": {"type": "Point", "coordinates": [2.971365, 48.817527]}, "properties": {"id_parcelle": "770630000A0354", "address": "LES CENT SIX VINGTS ARPENT", "sales": 2, "median_price": 680000.0, "median_price_per_sqm": null, "median_rooms": null, "first_sale": "2024-10-10", "last_sale": "2024-10-10"}}, {"type": "Feature", "geometry": {"type": "Point", "coordinates": [2.969864, 48.817539]}, "properties": {"id_parcelle": "770630000A0345", "address": "LES CENT SIX VINGTS ARPENT", "sales": 2, "median_price": 680000.0, "median_price_per_sqm": null, "median_rooms": null, "first_sale": "2024-10-10", "last_sale": "2024-10-10"}}, {"type": "Feature", "geometry": {"type": "Point", "coordinates": [2.971133, 48.817178]}, "properties": {"id_parcelle": "770630000A0341", "address": "LES CENT SIX VINGTS ARPENT", "sales": 2, "median_price": 680000.0, "median_price_per_sqm": null, "median_rooms": null, "first_sale": "2024-10-10", "last_sale": "2024-10-10"}}, {"type": "Feature", "geometry": {"type": "Point", "coordinates": [2.969907, 48.817326]}, "properties": {"id_parcelle": "770630000A0339", "address": "LES CENT SIX VINGTS ARPENT", "sales": 2, "median_price": 680000.0, "median_price_per_sqm": null, "median_rooms": null, "first_sale": "2024-10-10", "last_sale": "2024-10-10"}}, {"type": "Feature", "geometry": {"type": "Point", "coordinates": [2.971309, 48.817048]}, "properties": {"id_parcelle": "770630000A0335", "address": "LES CENT SIX VINGTS ARPENT", "sales": 2, "median_price": 680000.0, "median_price_per_sqm": null, "median_rooms": null, "first_sale": "2024-10-10", "last_sale": "2024-10-10"}}, {"type": "Feature", "geometry": {"type": "Point", "coordinates": [2.970428, 48.816705]}, "properties": {"id_parcelle": "770630000A0308", "address": "LES CENT SIX VINGTS ARPENT", "sales": 2, "median_price": 680000.0, "median_price_per_sqm": null, "median_rooms": null, "first_sale": "2024-10-10", "last_sale": "2024-10-10"}}, {"type": "Feature", "geometry": {"type": "Point", "coordinates": [2.97178, 48.816573]}, "properties": {"id_parcelle": "770630000A0299", "address": "LES CENT SIX VINGTS ARPENT", "sales": 2, "median_price": 680000.0, "median_price_per_sqm": null, "median_rooms": null, "first_sale": "2024-10-10", "last_sale": "2024-10-10"}}, {"type": "Feature", "geometry": {"type": "Point", "coordinates": [2.972856, 48.816884]}, "properties": {"id_parcelle": "770630000A0282", "address": "LES CENT SIX VINGTS ARPENT", "sales": 2, "median_price": 1442.0, "median_price_per_sqm": null, "median_rooms": null, "first_sale": "2024-06-05", "last_sale": "2024-06-05"}}, {"type": "Feature", "geometry": {"type": "Point", "coordinates": [2.970267, 48.816411]}, "properties": {"id_parcelle": "770630000A0207", "address": "LE HT DE LA HUETTE", "sales": 2, "median_price": 680000.0, "median_price_per_sqm": null, "median_rooms": null, "first_sale": "2024-10-10", "last_sale": "2024-10-10"}}, {"type": "Feature", "geometry": {"type": "Point", "coordinates": [2.9695, 48.814885]}, "properties": {"id_parcelle": "770630000A0159", "address": "LE HT DE LA HUETTE", "sales": 2, "median_price": 680000.0, "median_price_per_sqm": null, "median_rooms": null, "first_sale": "2024-10-10", "last_sale": "2024-10-10"}}, {"type": "Feature", "geometry": {"type": "Point", "coordinates": [2.979157, 48.82068]}, "properties": {"id_parcelle": "770630000A0150", "address": "4 RUE DE LA ROBILLARDE", "sales": 2, "median_price": 243380.0, "median_price_per_sqm": 2212.5454545454545, "median_rooms": 2.0, "first_sale": "2022-09-07", "last_sale": "2022-09-07"}}, {"type": "Feature", "geometry": {"type": "Point", "coordinates": [2.980414, 48.822169]}, "properties": {"id_parcelle": "770630000A0114", "address": "LES FICHES", "sales": 2, "median_price": 680000.0, "median_price_per_sqm": null, "median_rooms": null, "first_sale": "2024-10-10", "last_sale": "2024-10-10"}}, {"type": "Feature", "geometry": {"type": "Point", "coordinates": [2.980448, 48.822274]}, "properties": {"id_parcelle": "770630000A0112", "address": "LES FICHES", "sales": 2, "median_price": 680000.0, "median_price_per_sqm": null, "median_rooms": null, "first_sale": "2024-10-10", "last_sale": "2024-10-10"}}, {"type": "Feature", "geometry": {"type": "Point", "coordinates": [2.978761, 48.822631]}, "properties": {"id_parcelle": "770630000A0105", "address": "LES FICHES", "sales": 2, "median_price": 680000.0, "median_price_per_sqm": null, "median_rooms": null, "first_sale": "2024-10-10", "last_sale": "2024-10-10"}}, {"type": "Feature", "geometry": {"type": "Point", "coordinates": [2.980515, 48.822373]}, "properties": {"id_parcelle": "770630000A0099", "address": "LES FICHES", "sales": 2, "median_price": 680000.0, "median_price_per_sqm": null, "median_rooms": null, "first_sale": "2024-10-10", "last_sale": "2024-10-10"}}, {"type": "Feature", "geometry": {"type": "Point", "coordinates": [2.980889, 48.822878]}, "properties": {"id_parcelle": "770630000A0083", "address": "LES FICHES", "sales": 2, "median_price": 680000.0, "median_price_per_sqm": null, "median_rooms": null, "first_sale": "2024-10-10", "last_sale": "2024-10-10"}}, {"type": "Feature", "geometry": {"type": "Point", "coordinates": [2.981721, 48.823172]}, "properties": {"id_parcelle": "770630000A0074", "address": "LES FICHES", "sales": 2, "median_price": 340350.0, "median_price_per_sqm": null, "median_rooms": null, "first_sale": "2022-04-28", "last_sale": "2024-10-10"}}, {"type": "Feature", "geometry": {"type": "Point", "coordinates": [2.981894, 48.823197]}, "properties": {"id_parcelle": "770630000A0073", "address": "LES FICHES", "sales": 2, "median_price": 340350.0, "median_price_per_sqm": null, "median_rooms": null, "first_sale": "2022-04-28", "last_sale": "2024-10-10"}}, {"type": "Feature", "geometry": {"type": "Point", "coordinates": [2.981148, 48.823481]}, "properties": {"id_parcelle": "770630000A0071", "address": "LES FICHES", "sales": 2, "median_price": 680000.0, "median_price_per_sqm": null, "median_rooms": null, "first_sale": "2024-10-10", "last_sale": "2024-10-10"}}, {"type": "Feature", "geometry": {"type": "Point", "coordinates": [2.977417, 48.82251]}, "properties": {"id_parcelle": "770630000A0068", "address": "LES BOIS DU CAS ROUGE", "sales": 2, "median_price": 680000.0, "median_price_per_sqm": null, "median_rooms": null, "first_sale": "2024-10-10", "last_sale": "2024-10-10"}}, {"type": "Feature", "geometry": {"type": "Point", "coordinates": [2.976821, 48.822796]}, "properties": {"id_parcelle": "770630000A0062", "address": "LES BOIS DU CAS ROUGE", "sales": 2, "median_price": 680000.0, "median_price_per_sqm": null, "median_rooms": null, "first_sale": "2024-10-10", "last_sale": "2024-10-10"}}, {"type": "Feature", "geometry": {"type": "Point", "coordinates": [2.976271, 48.822726]}, "properties": {"id_parcelle": "770630000A0057", "address": "LES BOIS DU CAS ROUGE", "sales": 2, "median_price": 680000.0, "median_price_per_sqm": null, "median_rooms": null, "first_sale": "2024-10-10", "last_sale": "2024-10-10"}}, {"type": "Feature", "geometry": {"type": "Point", "coordinates": [2.977274, 48.82377]}, "properties": {"id_parcelle": "770630000A1151", "address": "LES BOIS DU CAS ROUGE", "sales": 2, "median_price": 680000.0, "median_price_per_sqm": null, "median_rooms": null, "first_sale": "2024-10-10", "last_sale": "2024-10-10"}}, {"type": "Feature", "geometry": {"type": "Point", "coordinates": [2.975723, 48.821481]}, "properties": {"id_parcelle": "770630000A0619", "address": "LES CENT SIX VINGTS ARPENT", "sales": 2, "median_price": 680000.0, "median_price_per_sqm": null, "median_rooms": null, "first_sale": "2024-10-10", "last_sale": "2024-10-10"}}, {"type": "Feature", "geometry": {"type": "Point", "coordinates": [2.974563, 48.821022]}, "properties": {"id_parcelle": "770630000A0592", "address": "LES CENT SIX VINGTS ARPENT", "sales": 2, "median_price": 680000.0, "median_price_per_sqm": null, "median_rooms": null, "first_sale": "2024-10-10", "last_sale": "2024-10-10"}}, {"type": "Feature", "geometry": {"type": "Point", "coordinates": [2.974962, 48.82121]}, "properties": {"id_parcelle": "770630000A0598", "address": "LES CENT SIX VINGTS ARPENT", "sales": 2, "median_price": 680000.0, "median_price_per_sqm": null, "median_rooms": null, "first_sale": "2024-10-10", "last_sale": "2024-10-10"}}, {"type": "Feature", "geometry": {"type": "Point", "coordinates": [2.97455, 48.821171]}, "properties": {"id_parcelle": "770630000A0596", "address": "LES CENT SIX VINGTS ARPENT", "sales": 2, "median_price": 680000.0, "median_price_per_sqm": null, "median_rooms": null, "first_sale": "2024-10-10", "last_sale": "2024-10-10"}}, {"type": "Feature", "geometry": {"type": "Point", "coordinates": [2.974446, 48.822373]}, "properties": {"id_parcelle": "770630000A0632", "address": "LES CENT SIX VINGTS ARPENT", "sales": 2, "median_price": 680000.0, "median_price_per_sqm": null, "median_rooms": null, "first_sale": "2024-10-10", "last_sale": "2024-10-10"}}, {"type": "Feature", "geometry": {"type": "Point", "coordinates": [2.975245, 48.821833]}, "properties": {"id_parcelle": "770630000A0633", "address": "LES CENT SIX VINGTS ARPENT", "sales": 2, "median_price": 680000.0, "median_price_per_sqm": null, "median_rooms": null, "first_sale": "2024-10-10", "last_sale": "2024-10-10"}}, {"type": "Feature", "geometry": {"type": "Point", "coordinates": [2.975714, 48.8221]}, "properties": {"id_parcelle": "770630000A0642", "address": "LES CENT SIX VINGTS ARPENT", "sales": 2, "median_price": 680000.0, "median_price_per_sqm": null, "median_rooms": null, "first_sale": "2024-10-10", "last_sale": "2024-10-10"}}, {"type": "Feature", "geometry": {"type": "Point", "coordinates": [2.975779, 48.821614]}, "properties": {"id_parcelle": "770630000A0675", "address": "LES CENT SIX VINGTS ARPENT", "sales": 2, "median_price": 680000.0, "median_price_per_sqm": null, "median_rooms": null, "first_sale": "2024-10-10", "last_sale": "2024-10-10"}}, {"type": "Feature", "geometry": {"type": "Point", "coordinates": [2.97578, 48.820789]}, "properties": {"id_parcelle": "770630000A0706", "address": "LES CENT SIX VINGTS ARPENT", "sales": 2, "median_price": 680000.0, "median_price_per_sqm": null, "median_rooms": null, "first_sale": "2024-10-10", "last_sale": "2024-10-10"}}, {"type": "Feature", "geometry": {"type": "Point", "coordinates": [2.975105, 48.821558]}, "properties": {"id_parcelle": "770630000A0623", "address": "LES CENT SIX VINGTS ARPENT", "sales": 2, "median_price": 680000.0, "median_price_per_sqm": null, "median_rooms": null, "first_sale": "2024-10-10", "last_sale": "2024-10-10"}}, {"type": "Feature", "geometry": {"type": "Point", "coordinates": [2.974091, 48.821898]}, "properties": {"id_parcelle": "770630000A0626", "address": "LES CENT SIX VINGTS ARPENT", "sales": 2, "median_price": 680000.0, "median_price_per_sqm": null, "median_rooms": null, "first_sale": "2024-10-10", "last_sale": "2024-10-10"}}, {"type": "Feature", "geometry": {"type": "Point", "coordinates": [2.975795, 48.821261]}, "properties": {"id_parcelle": "770630000A0615", "address": "LES CENT SIX VINGTS ARPENT", "sales": 2, "median_price": 680000.0, "median_price_per_sqm": null, "median_rooms": null, "first_sale": "2024-10-10", "last_sale": "2024-10-10"}}, {"type": "Feature", "geometry": {"type": "Point", "coordinates": [2.983036, 48.817207]}, "properties": {"id_parcelle": "770630000B1908", "address": "25 RUE DU BOIS", "sales": 2, "median_price": 300000.0, "median_price_per_sqm": null, "median_rooms": 0.0, "first_sale": "2023-05-24", "last_sale": "2023-05-24"}}, {"type": "Feature", "geometry": {"type": "Point", "coordinates": [2.982727, 48.816729]}, "properties": {"id_parcelle": "770630000B1903", "address": "24 RUE DU BOIS", "sales": 2, "median_price": 225000.0, "median_price_per_sqm": null, "median_rooms": null, "first_sale": "2023-05-24", "last_sale": "2024-01-31"}}, {"type": "Feature", "geometry": {"type": "Point", "coordinates": [2.982605, 48.816838]}, "properties": {"id_parcelle": "770630000B1896", "address": "24 RUE DU BOIS", "sales": 2, "median_price": 225000.0, "median_price_per_sqm": null, "median_rooms": null, "first_sale": "2023-05-24", "last_sale": "2024-01-31"}}, {"type": "Feature", "geometry": {"type": "Point", "coordinates": [2.982789, 48.816675]}, "properties": {"id_parcelle": "770630000B1895", "address": "5090 RUE DU BOIS", "sales": 2, "median_price": 225000.0, "median_price_per_sqm": null, "median_rooms": 0.0, "first_sale": "2023-05-24", "last_sale": "2024-01-31"}}, {"type": "Feature", "geometry": {"type": "Point", "coordinates": [2.98393, 48.822453]}, "properties": {"id_parcelle": "770630000B0158", "address": "14 CHE DES BRUYERES", "sales": 2, "median_price": 87000.0, "median_price_per_sqm": 3480.0, "median_rooms": 1.0, "first_sale": "2022-03-17", "last_sale": "2022-03-17"}}, {"type": "Feature", "geometry": {"type": "Point", "coordinates": [2.979513, 48.820197]}, "properties": {"id_parcelle": "770630000B1705", "address": "1 CHE DU MESNIL", "sales": 2, "median_price": 350760.0, "median_price_per_sqm": 2875.0819672131147, "median_rooms": 2.5, "first_sale": "2023-02-02", "last_sale": "2023-02-02"}}, {"type": "Feature", "geometry": {"type": "Point", "coordinates": [2.980177, 48.821038]}, "properties": {"id_parcelle": "770630000B1822", "address": "104 RTE DU GRAND MORIN", "sales": 2, "median_price": 221000.0, "median_price_per_sqm": 3810.344827586207, "median_rooms": 3.0, "first_sale": "2021-01-20", "last_sale": "2022-06-01"}}, {"type": "Feature", "geometry": {"type": "Point", "coordinates": [2.968368, 48.810471]}, "properties": {"id_parcelle": "770630000A1230", "address": "3 RTE DU GRAND MORIN", "sales": 2, "median_price": 265000.0, "median_price_per_sqm": 2704.081632653061, "median_rooms": 5.0, "first_sale": "2024-09-09", "last_sale": "2024-09-09"}}, {"type": "Feature", "geometry": {"type": "Point", "coordinates": [2.968044, 48.812373]}, "properties": {"id_parcelle": "770630000A1344", "address": "4 CHE DE LA DRAGEE", "sales": 2, "median_price": 470000.0, "median_price_per_sqm": 4433.962264150943, "median_rooms": 3.0, "first_sale": "2023-10-18", "last_sale": "2023-10-18"}}, {"type": "Feature", "geometry": {"type": "Point", "coordinates": [2.970631, 48.811433]}, "properties": {"id_parcelle": "770630000A1247", "address": "9 RTE DU GRAND MORIN", "sales": 2, "median_price": 315000.0, "median_price_per_sqm": 2368.4210526315787, "median_rooms": 6.0, "first_sale": "2025-12-30", "last_sale": "2025-12-30"}}, {"type": "Feature", "geometry": {"type": "Point", "coordinates": [2.980393, 48.821166]}, "properties": {"id_parcelle": "770630000B0030", "address": "110 RTE DU GRAND MORIN", "sales": 2, "median_price": 320000.0, "median_price_per_sqm": 2990.654205607477, "median_rooms": 2.0, "first_sale": "2024-02-09", "last_sale": "2024-02-09"}}, {"type": "Feature", "geometry": {"type": "Point", "coordinates": [2.978077, 48.819757]}, "properties": {"id_parcelle": "770630000A1386", "address": "87 RTE DU GRAND MORIN", "sales": 2, "median_price": 270000.0, "median_price_per_sqm": 2125.984251968504, "median_rooms": 2.0, "first_sale": "2024-09-13", "last_sale": "2024-09-13"}}, {"type": "Feature", "geometry": {"type": "Point", "coordinates": [2.974928, 48.816451]}, "properties": {"id_parcelle": "770630000B1841", "address": "40 RTE DU GRAND MORIN", "sales": 2, "median_price": 215000.0, "median_price_per_sqm": 2905.4054054054054, "median_rooms": 3.0, "first_sale": "2025-02-19", "last_sale": "2025-02-19"}}, {"type": "Feature", "geometry": {"type": "Point", "coordinates": [2.9753, 48.820639]}, "properties": {"id_parcelle": "770630000A0740", "address": "LES CENT SIX VINGTS ARPENT", "sales": 2, "median_price": 680000.0, "median_price_per_sqm": null, "median_rooms": null, "first_sale": "2024-10-10", "last_sale": "2024-10-10"}}, {"type": "Feature", "geometry": {"type": "Point", "coordinates": [2.974824, 48.819645]}, "properties": {"id_parcelle": "770630000A0803", "address": "LES CENT SIX VINGTS ARPENT", "sales": 2, "median_price": 680000.0, "median_price_per_sqm": null, "median_rooms": null, "first_sale": "2024-10-10", "last_sale": "2024-10-10"}}, {"type": "Feature", "geometry": {"type": "Point", "coordinates": [2.974051, 48.822131]}, "properties": {"id_parcelle": "770630000A0630", "address": "LES CENT SIX VINGTS ARPENT", "sales": 2, "median_price": 680000.0, "median_price_per_sqm": null, "median_rooms": null, "first_sale": "2024-10-10", "last_sale": "2024-10-10"}}, {"type": "Feature", "geometry": {"type": "Point", "coordinates": [2.974845, 48.81952]}, "properties": {"id_parcelle": "770630000A0806", "address": "LES CENT SIX VINGTS ARPENT", "sales": 2, "median_price": 680000.0, "median_price_per_sqm": null, "median_rooms": null, "first_sale": "2024-10-10", "last_sale": "2024-10-10"}}, {"type": "Feature", "geometry": {"type": "Point", "coordinates": [2.974606, 48.81941]}, "properties": {"id_parcelle": "770630000A0832", "address": "LES CENT SIX VINGTS ARPENT", "sales": 2, "median_price": 680000.0, "median_price_per_sqm": null, "median_rooms": null, "first_sale": "2024-10-10", "last_sale": "2024-10-10"}}, {"type": "Feature", "geometry": {"type": "Point", "coordinates": [2.974109, 48.81891]}, "properties": {"id_parcelle": "770630000A0872", "address": "LES CENT SIX VINGTS ARPENT", "sales": 2, "median_price": 680000.0, "median_price_per_sqm": null, "median_rooms": null, "first_sale": "2024-10-10", "last_sale": "2024-10-10"}}, {"type": "Feature", "geometry": {"type": "Point", "coordinates": [2.976083, 48.818408]}, "properties": {"id_parcelle": "770630000A0848", "address": "55 RTE DU GRAND MORIN", "sales": 2, "median_price": 465000.0, "median_price_per_sqm": 3059.2105263157896, "median_rooms": 5.0, "first_sale": "2022-01-18", "last_sale": "2022-01-18"}}, {"type": "Feature", "geometry": {"type": "Point", "coordinates": [2.973531, 48.818755]}, "properties": {"id_parcelle": "770630000A0888", "address": "LES CENT SIX VINGTS ARPENT", "sales": 2, "median_price": 680000.0, "median_price_per_sqm": null, "median_rooms": null, "first_sale": "2024-10-10", "last_sale": "2024-10-10"}}, {"type": "Feature", "geometry": {"type": "Point", "coordinates": [2.973083, 48.818697]}, "properties": {"id_parcelle": "770630000A0892", "address": "LES CENT SIX VINGTS ARPENT", "sales": 2, "median_price": 680000.0, "median_price_per_sqm": null, "median_rooms": null, "first_sale": "2024-10-10", "last_sale": "2024-10-10"}}, {"type": "Feature", "geometry": {"type": "Point", "coordinates": [2.973518, 48.81853]}, "properties": {"id_parcelle": "770630000A0902", "address": "LES CENT SIX VINGTS ARPENT", "sales": 2, "median_price": 680000.0, "median_price_per_sqm": null, "median_rooms": null, "first_sale": "2024-10-10", "last_sale": "2024-10-10"}}, {"type": "Feature", "geometry": {"type": "Point", "coordinates": [2.973842, 48.818793]}, "properties": {"id_parcelle": "770630000A0882", "address": "LES CENT SIX VINGTS ARPENT", "sales": 2, "median_price": 680000.0, "median_price_per_sqm": null, "median_rooms": null, "first_sale": "2024-10-10", "last_sale": "2024-10-10"}}, {"type": "Feature", "geometry": {"type": "Point", "coordinates": [2.97342, 48.818138]}, "properties": {"id_parcelle": "770630000A0923", "address": "LES CENT SIX VINGTS ARPENT", "sales": 2, "median_price": 680000.0, "median_price_per_sqm": null, "median_rooms": null, "first_sale": "2024-10-10", "last_sale": "2024-10-10"}}, {"type": "Feature", "geometry": {"type": "Point", "coordinates": [2.973575, 48.817979]}, "properties": {"id_parcelle": "770630000A0924", "address": "LES CENT SIX VINGTS ARPENT", "sales": 2, "median_price": 680000.0, "median_price_per_sqm": null, "median_rooms": null, "first_sale": "2024-10-10", "last_sale": "2024-10-10"}}, {"type": "Feature", "geometry": {"type": "Point", "coordinates": [2.964758, 48.811457]}, "properties": {"id_parcelle": "770630000A0983", "address": "LES PRES DE LA CLAYE", "sales": 2, "median_price": 33550.0, "median_price_per_sqm": null, "median_rooms": null, "first_sale": "2025-09-19", "last_sale": "2025-11-24"}}, {"type": "Feature", "geometry": {"type": "Point", "coordinates": [2.973198, 48.817973]}, "properties": {"id_parcelle": "770630000A0942", "address": "LES CENT SIX VINGTS ARPENT", "sales": 2, "median_price": 680000.0, "median_price_per_sqm": null, "median_rooms": null, "first_sale": "2024-10-10", "last_sale": "2024-10-10"}}, {"type": "Feature", "geometry": {"type": "Point", "coordinates": [2.966756, 48.811014]}, "properties": {"id_parcelle": "770630000A1027", "address": "LA PENTE DE LA HUETTE", "sales": 2, "median_price": 33550.0, "median_price_per_sqm": null, "median_rooms": null, "first_sale": "2025-09-19", "last_sale": "2025-11-24"}}, {"type": "Feature", "geometry": {"type": "Point", "coordinates": [2.966247, 48.810879]}, "properties": {"id_parcelle": "770630000A1028", "address": "LA PENTE DE LA HUETTE", "sales": 2, "median_price": 33550.0, "median_price_per_sqm": null, "median_rooms": null, "first_sale": "2025-09-19", "last_sale": "2025-11-24"}}, {"type": "Feature", "geometry": {"type": "Point", "coordinates": [2.966323, 48.81075]}, "properties": {"id_parcelle": "770630000A1029", "address": "LA PENTE DE LA HUETTE", "sales": 2, "median_price": 33550.0, "median_price_per_sqm": null, "median_rooms": null, "first_sale": "2025-09-19", "last_sale": "2025-11-24"}}, {"type": "Feature", "geometry": {"type": "Point", "coordinates": [2.974557, 48.805697]}, "properties": {"id_parcelle": "770630000C1034", "address": "8 CHE DU CHEMIN DE FER", "sales": 2, "median_price": 195000.0, "median_price_per_sqm": 4239.130434782609, "median_rooms": 1.5, "first_sale": "2023-02-13", "last_sale": "2023-02-13"}}, {"type": "Feature", "geometry": {"type": "Point", "coordinates": [2.967166, 48.802869]}, "properties": {"id_parcelle": "77063000AB0699", "address": "1 RUE DE MONTLEVON", "sales": 2, "median_price": 218000.0, "median_price_per_sqm": 1929.203539823009, "median_rooms": 2.0, "first_sale": "2025-07-28", "last_sale": "2025-07-28"}}, {"type": "Feature", "geometry": {"type": "Point", "coordinates": [2.976984, 48.804713]}, "properties": {"id_parcelle": "77063000AB0589", "address": "4 RUE DE LA BARRE", "sales": 2, "median_price": 269000.0, "median_price_per_sqm": 3202.3809523809523, "median_rooms": 1.5, "first_sale": "2021-07-28", "last_sale": "2021-07-28"}}, {"type": "Feature", "geometry": {"type": "Point", "coordinates": [2.968146, 48.803793]}, "properties": {"id_parcelle": "77063000AB0533", "address": "82 GRANDE RUE", "sales": 2, "median_price": 90000.0, "median_price_per_sqm": 891.0891089108911, "median_rooms": 4.0, "first_sale": "2023-03-31", "last_sale": "2023-03-31"}}, {"type": "Feature", "geometry": {"type": "Point", "coordinates": [2.971701, 48.801881]}, "properties": {"id_parcelle": "77063000AB0575", "address": "19 GRANDE RUE", "sales": 2, "median_price": 75000.0, "median_price_per_sqm": null, "median_rooms": null, "first_sale": "2021-12-08", "last_sale": "2021-12-08"}}, {"type": "Feature", "geometry": {"type": "Point", "coordinates": [2.976084, 48.803665]}, "properties": {"id_parcelle": "77063000AB0502", "address": "2 SEN DE MONTBARDON", "sales": 2, "median_price": 300000.0, "median_price_per_sqm": 1785.7142857142858, "median_rooms": 6.0, "first_sale": "2025-01-22", "last_sale": "2025-01-22"}}, {"type": "Feature", "geometry": {"type": "Point", "coordinates": [2.974331, 48.801571]}, "properties": {"id_parcelle": "77063000AB0434", "address": "LE BOUT DU CHEMIN", "sales": 2, "median_price": 4000.0, "median_price_per_sqm": null, "median_rooms": null, "first_sale": "2023-06-05", "last_sale": "2023-06-05"}}, {"type": "Feature", "geometry": {"type": "Point", "coordinates": [2.96995, 48.802798]}, "properties": {"id_parcelle": "77063000AB0476", "address": "54 GRANDE RUE", "sales": 2, "median_price": 125000.0, "median_price_per_sqm": 1666.6666666666667, "median_rooms": 1.5, "first_sale": "2025-02-19", "last_sale": "2025-02-19"}}, {"type": "Feature", "geometry": {"type": "Point", "coordinates": [2.973117, 48.803786]}, "properties": {"id_parcelle": "77063000AB0488", "address": "11 RUE DU CLOS CHARRETIER", "sales": 2, "median_price": 374950.0, "median_price_per_sqm": 4411.176470588235, "median_rooms": 3.0, "first_sale": "2021-09-30", "last_sale": "2021-09-30"}}, {"type": "Feature", "geometry": {"type": "Point", "coordinates": [2.970634, 48.802861]}, "properties": {"id_parcelle": "77063000AB0238", "address": "GRANDE RUE", "sales": 2, "median_price": 172000.0, "median_price_per_sqm": null, "median_rooms": null, "first_sale": "2022-10-03", "last_sale": "2024-04-30"}}, {"type": "Feature", "geometry": {"type": "Point", "coordinates": [2.96953, 48.802442]}, "properties": {"id_parcelle": "77063000AB0152", "address": "5592 COUR DES VITRYS", "sales": 2, "median_price": 129500.0, "median_price_per_sqm": null, "median_rooms": 0.0, "first_sale": "2024-11-06", "last_sale": "2024-11-06"}}, {"type": "Feature", "geometry": {"type": "Point", "coordinates": [2.976905, 48.8046]}, "properties": {"id_parcelle": "77063000AB0352", "address": "5241 RUE CREUSE", "sales": 2, "median_price": 269000.0, "median_price_per_sqm": null, "median_rooms": 0.0, "first_sale": "2021-07-28", "last_sale": "2021-07-28"}}, {"type": "Feature", "geometry": {"type": "Point", "coordinates": [2.97439, 48.806032]}, "properties": {"id_parcelle": "770630000C1042", "address": "LA FOLLE EMPRISE", "sales": 2, "median_price": 195000.0, "median_price_per_sqm": null, "median_rooms": null, "first_sale": "2023-02-13", "last_sale": "2023-02-13"}}, {"type": "Feature", "geometry": {"type": "Point", "coordinates": [2.966755, 48.805594]}, "properties": {"id_parcelle": "770630000D0225", "address": "6 RUE DES ROCHES", "sales": 2, "median_price": 150000.0, "median_price_per_sqm": 1111.111111111111, "median_rooms": 5.0, "first_sale": "2025-09-16", "last_sale": "2025-09-16"}}, {"type": "Feature", "geometry": {"type": "Point", "coordinates": [2.969966, 48.80291]}, "properties": {"id_parcelle": "77063000AB0057", "address": "GRANDE RUE", "sales": 2, "median_price": 62575.0, "median_price_per_sqm": null, "median_rooms": null, "first_sale": "2024-03-19", "last_sale": "2025-02-19"}}, {"type": "Feature", "geometry": {"type": "Point", "coordinates": [2.967194, 48.802679]}, "properties": {"id_parcelle": "77063000AB0102", "address": "3 RUE DE MONTLEVON", "sales": 2, "median_price": 240000.0, "median_price_per_sqm": 3529.4117647058824, "median_rooms": 1.5, "first_sale": "2022-02-24", "last_sale": "2022-02-24"}}, {"type": "Feature", "geometry": {"type": "Point", "coordinates": [2.968984, 48.802488]}, "properties": {"id_parcelle": "77063000AB0147", "address": "43 GRANDE RUE", "sales": 2, "median_price": 89000.0, "median_price_per_sqm": 2022.7272727272727, "median_rooms": 1.0, "first_sale": "2023-03-09", "last_sale": "2023-03-09"}}, {"type": "Feature", "geometry": {"type": "Point", "coordinates": [2.966578, 48.802947]}, "properties": {"id_parcelle": "77063000AC0062", "address": "GRANDE RUE", "sales": 2, "median_price": 82000.0, "median_price_per_sqm": null, "median_rooms": null, "first_sale": "2024-03-25", "last_sale": "2025-07-15"}}, {"type": "Feature", "geometry": {"type": "Point", "coordinates": [2.966718, 48.803008]}, "properties": {"id_parcelle": "77063000AC0059", "address": "71 GRANDE RUE", "sales": 2, "median_price": 149000.0, "median_price_per_sqm": 1693.1818181818182, "median_rooms": 2.0, "first_sale": "2025-07-15", "last_sale": "2025-07-15"}}, {"type": "Feature", "geometry": {"type": "Point", "coordinates": [2.966585, 48.802807]}, "properties": {"id_parcelle": "77063000AC0071", "address": "5514 GRANDE RUE", "sales": 2, "median_price": 15000.0, "median_price_per_sqm": null, "median_rooms": 0.0, "first_sale": "2024-03-25", "last_sale": "2024-03-25"}}, {"type": "Feature", "geometry": {"type": "Point", "coordinates": [2.971227, 48.803696]}, "properties": {"id_parcelle": "77063000AB0722", "address": "21 RUE DU CLOS CHARRETIER", "sales": 2, "median_price": 240000.0, "median_price_per_sqm": 2580.6451612903224, "median_rooms": 0.5, "first_sale": "2025-06-04", "last_sale": "2025-06-04"}}, {"type": "Feature", "geometry": {"type": "Point", "coordinates": [2.967894, 48.803239]}, "properties": {"id_parcelle": "77063000AB0755", "address": "82 GRANDE RUE", "sales": 2, "median_price": 195000.0, "median_price_per_sqm": null, "median_rooms": 0.0, "first_sale": "2023-05-03", "last_sale": "2024-04-16"}}, {"type": "Feature", "geometry": {"type": "Point", "coordinates": [2.965494, 48.800998]}, "properties": {"id_parcelle": "77063000AC0291", "address": "1 SEN DE VILLENEUVE LE COMTE", "sales": 2, "median_price": 152000.0, "median_price_per_sqm": 1357.142857142857, "median_rooms": 2.0, "first_sale": "2025-10-02", "last_sale": "2025-10-02"}}, {"type": "Feature", "geometry": {"type": "Point", "coordinates": [2.956816, 48.789635]}, "properties": {"id_parcelle": "77063000AD0035", "address": "29 RUE DE LA CELLE", "sales": 2, "median_price": 269000.0, "median_price_per_sqm": 3539.4736842105262, "median_rooms": 2.0, "first_sale": "2022-03-11", "last_sale": "2022-03-11"}}, {"type": "Feature", "geometry": {"type": "Point", "coordinates": [2.96669, 48.802038]}, "properties": {"id_parcelle": "77063000AC0234", "address": "10 RUE DE MONTLEVON", "sales": 2, "median_price": 298990.0, "median_price_per_sqm": 3397.6136363636365, "median_rooms": 2.0, "first_sale": "2023-05-16", "last_sale": "2023-05-16"}}, {"type": "Feature", "geometry": {"type": "Point", "coordinates": [2.957491, 48.789519]}, "properties": {"id_parcelle": "77063000AD0051", "address": "COURBON", "sales": 2, "median_price": 191000.0, "median_price_per_sqm": null, "median_rooms": null, "first_sale": "2021-07-30", "last_sale": "2024-05-13"}}, {"type": "Feature", "geometry": {"type": "Point", "coordinates": [2.957378, 48.789657]}, "properties": {"id_parcelle": "77063000AD0039", "address": "7 COUR CENTRALE", "sales": 2, "median_price": 219000.0, "median_price_per_sqm": 2066.0377358490564, "median_rooms": 2.5, "first_sale": "2021-07-30", "last_sale": "2021-07-30"}}, {"type": "Feature", "geometry": {"type": "Point", "coordinates": [2.958755, 48.789825]}, "properties": {"id_parcelle": "77063000AD0186", "address": "22 RUE DE LA CELLE", "sales": 2, "median_price": 368000.0, "median_price_per_sqm": 2852.7131782945735, "median_rooms": 5.0, "first_sale": "2022-12-05", "last_sale": "2022-12-05"}}, {"type": "Feature", "geometry": {"type": "Point", "coordinates": [2.959173, 48.789878]}, "properties": {"id_parcelle": "77063000AD0185", "address": "20 RUE DE LA CELLE", "sales": 2, "median_price": 430000.0, "median_price_per_sqm": 2275.132275132275, "median_rooms": 6.0, "first_sale": "2022-11-02", "last_sale": "2022-11-02"}}, {"type": "Feature", "geometry": {"type": "Point", "coordinates": [2.960001, 48.788033]}, "properties": {"id_parcelle": "77063000AD0195", "address": "8 CHE DU PETIT MARLY", "sales": 2, "median_price": 290000.0, "median_price_per_sqm": 2071.4285714285716, "median_rooms": 5.0, "first_sale": "2021-11-04", "last_sale": "2021-11-04"}}, {"type": "Feature", "geometry": {"type": "Point", "coordinates": [2.957055, 48.790284]}, "properties": {"id_parcelle": "77063000AD0197", "address": "30 RUE DE LA CELLE", "sales": 2, "median_price": 571900.0, "median_price_per_sqm": 2102.573529411765, "median_rooms": 6.0, "first_sale": "2025-01-23", "last_sale": "2025-01-23"}}, {"type": "Feature", "geometry": {"type": "Point", "coordinates": [2.957322, 48.791311]}, "properties": {"id_parcelle": "77063000AD0203", "address": "COURBON", "sales": 2, "median_price": 571900.0, "median_price_per_sqm": null, "median_rooms": null, "first_sale": "2025-01-23", "last_sale": "2025-01-23"}}, {"type": "Feature", "geometry": {"type": "Point", "coordinates": [2.95983, 48.788084]}, "properties": {"id_parcelle": "77063000ZD0092", "address": "LE CHP DE LA BONNE", "sales": 2, "median_price": 290000.0, "median_price_per_sqm": null, "median_rooms": null, "first_sale": "2021-11-04", "last_sale": "2021-11-04"}}]}