{"type": "FeatureCollection", "features": [{"type": "Feature", "geometry": {"type": "Point", "coordinates": [3.097375, 49.047664]}, "properties": {"id_parcelle": "77490000ZH0115", "address": "3 RUE DES BRULIS", "sales": 8, "median_price": 224000.0, "median_price_per_sqm": 2731.7073170731705, "median_rooms": 2.0, "first_sale": "2021-05-28", "last_sale": "2025-07-04"}}, {"type": "Feature", "geometry": {"type": "Point", "coordinates": [3.111547, 49.046515]}, "properties": {"id_parcelle": "77490000ZI0011", "address": "LES MARGALOTS", "sales": 8, "median_price": 679893.11, "median_price_per_sqm": null, "median_rooms": null, "first_sale": "2025-12-10", "last_sale": "2025-12-10"}}, {"type": "Feature", "geometry": {"type": "Point", "coordinates": [3.108282, 49.031414]}, "properties": {"id_parcelle": "774900000C0920", "address": "11 RUE SAINT VINCENT CHATON", "sales": 4, "median_price": 233000.0, "median_price_per_sqm": 2330.0, "median_rooms": 0.0, "first_sale": "2025-04-22", "last_sale": "2025-04-22"}}, {"type": "Feature", "geometry": {"type": "Point", "coordinates": [3.086742, 49.053102]}, "properties": {"id_parcelle": "77490000ZD0019", "address": "LE CHEMIN DE REIMS", "sales": 4, "median_price": 679893.11, "median_price_per_sqm": null, "median_rooms": null, "first_sale": "2025-12-10", "last_sale": "2025-12-10"}}, {"type": "Feature", "geometry": {"type": "Point", "coordinates": [3.087192, 49.057221]}, "properties": {"id_parcelle": "77490000ZD0002", "address": "LA PIECE JEAN PORTE", "sales": 4, "median_price": 679893.11, "median_price_per_sqm": null, "median_rooms": null, "first_sale": "2025-12-10", "last_sale": "2025-12-10"}}, {"type": "Feature", "geometry": {"type": "Point", "coordinates": [3.084028, 49.056155]}, "properties": {"id_parcelle": "77490000ZD0001", "address": "LA PIECE JEAN PORTE", "sales": 4, "median_price": 679893.11, "median_price_per_sqm": null, "median_rooms": null, "first_sale": "2025-12-10", "last_sale": "2025-12-10"}}, {"type": "Feature", "geometry": {"type": "Point", "coordinates": [3.109073, 49.031093]}, "properties": {"id_parcelle": "774900000C0923", "address": "3 RUE DE LA MARMOULEE-CHATON", "sales": 3, "median_price": 335000.0, "median_price_per_sqm": 1634.1463414634147, "median_rooms": 0.0, "first_sale": "2021-07-02", "last_sale": "2021-07-02"}}, {"type": "Feature", "geometry": {"type": "Point", "coordinates": [3.093164, 49.045645]}, "properties": {"id_parcelle": "774900000E0062", "address": "8 RUE JULIENNE", "sales": 3, "median_price": 166600.0, "median_price_per_sqm": 2563.076923076923, "median_rooms": 0.0, "first_sale": "2023-07-25", "last_sale": "2023-07-25"}}, {"type": "Feature", "geometry": {"type": "Point", "coordinates": [3.109389, 49.031857]}, "properties": {"id_parcelle": "774900000C0927", "address": "6 RUE DE TROUSSEVACHE CHATON", "sales": 3, "median_price": 370000.0, "median_price_per_sqm": 2740.740740740741, "median_rooms": 0.0, "first_sale": "2024-08-29", "last_sale": "2024-08-29"}}, {"type": "Feature", "geometry": {"type": "Point", "coordinates": [3.089845, 49.046025]}, "properties": {"id_parcelle": "77490000ZL0094", "address": "RUE DE LIZY-VENDREST", "sales": 3, "median_price": 275000.0, "median_price_per_sqm": null, "median_rooms": null, "first_sale": "2021-05-19", "last_sale": "2023-06-01"}}, {"type": "Feature", "geometry": {"type": "Point", "coordinates": [3.118046, 49.04507]}, "properties": {"id_parcelle": "77490000ZI0014", "address": "LES MARGALOTS", "sales": 3, "median_price": 679893.11, "median_price_per_sqm": null, "median_rooms": null, "first_sale": "2025-12-10", "last_sale": "2025-12-10"}}, {"type": "Feature", "geometry": {"type": "Point", "coordinates": [3.092406, 49.046371]}, "properties": {"id_parcelle": "774900000E0910", "address": "3 RUE DU PRESBYTERE NEUF", "sales": 3, "median_price": 165000.0, "median_price_per_sqm": 2750.0, "median_rooms": 0.0, "first_sale": "2022-12-22", "last_sale": "2022-12-22"}}, {"type": "Feature", "geometry": {"type": "Point", "coordinates": [3.093736, 49.046093]}, "properties": {"id_parcelle": "774900000E0075", "address": "6 RUE DE LA RECETTE", "sales": 3, "median_price": 275500.0, "median_price_per_sqm": 2550.925925925926, "median_rooms": 0.0, "first_sale": "2021-12-14", "last_sale": "2021-12-14"}}, {"type": "Feature", "geometry": {"type": "Point", "coordinates": [3.09488, 49.047705]}, "properties": {"id_parcelle": "774900000E0118", "address": "1 RUE DE LA BIDONNE", "sales": 3, "median_price": 130000.0, "median_price_per_sqm": 1805.5555555555557, "median_rooms": 0.0, "first_sale": "2023-12-15", "last_sale": "2023-12-15"}}, {"type": "Feature", "geometry": {"type": "Point", "coordinates": [3.10456, 49.036882]}, "properties": {"id_parcelle": "774900000C0768", "address": "5125 LES 3 CORNETS", "sales": 2, "median_price": 35000.0, "median_price_per_sqm": 1166.6666666666667, "median_rooms": 1.0, "first_sale": "2022-12-27", "last_sale": "2022-12-27"}}, {"type": "Feature", "geometry": {"type": "Point", "coordinates": [3.105505, 49.032799]}, "properties": {"id_parcelle": "774900000C0857", "address": "10 RUE DE LA FORGE-CHATON", "sales": 2, "median_price": 40000.0, "median_price_per_sqm": null, "median_rooms": 0.0, "first_sale": "2021-11-18", "last_sale": "2021-11-18"}}, {"type": "Feature", "geometry": {"type": "Point", "coordinates": [3.106772, 49.031801]}, "properties": {"id_parcelle": "774900000C0901", "address": "1 COUR MORIENVAL - CHATON", "sales": 2, "median_price": 88000.0, "median_price_per_sqm": 1100.0, "median_rooms": 1.5, "first_sale": "2022-08-01", "last_sale": "2022-08-01"}}, {"type": "Feature", "geometry": {"type": "Point", "coordinates": [3.122249, 49.04566]}, "properties": {"id_parcelle": "774900000B1327", "address": "SOUS LES PRES BICHETS", "sales": 2, "median_price": 679893.11, "median_price_per_sqm": null, "median_rooms": null, "first_sale": "2025-12-10", "last_sale": "2025-12-10"}}, {"type": "Feature", "geometry": {"type": "Point", "coordinates": [3.11427, 49.033539]}, "properties": {"id_parcelle": "774900000B1290", "address": "9001 TROUSSE VACHE", "sales": 2, "median_price": 520000.0, "median_price_per_sqm": 2321.4285714285716, "median_rooms": 4.0, "first_sale": "2023-03-30", "last_sale": "2023-03-30"}}, {"type": "Feature", "geometry": {"type": "Point", "coordinates": [3.11424, 49.02751]}, "properties": {"id_parcelle": "774900000B1175", "address": "PETIT BOIS", "sales": 2, "median_price": 16341.0, "median_price_per_sqm": null, "median_rooms": null, "first_sale": "2025-08-28", "last_sale": "2025-08-28"}}, {"type": "Feature", "geometry": {"type": "Point", "coordinates": [3.080357, 49.047596]}, "properties": {"id_parcelle": "774900000A0679", "address": "LE FOND DES NUES", "sales": 2, "median_price": 323452.66, "median_price_per_sqm": null, "median_rooms": null, "first_sale": "2022-11-02", "last_sale": "2022-11-02"}}, {"type": "Feature", "geometry": {"type": "Point", "coordinates": [3.115654, 49.03493]}, "properties": {"id_parcelle": "774900000B0684", "address": "TROUSSE VACHE", "sales": 2, "median_price": 59914.0, "median_price_per_sqm": null, "median_rooms": null, "first_sale": "2023-12-21", "last_sale": "2023-12-21"}}, {"type": "Feature", "geometry": {"type": "Point", "coordinates": [3.074008, 49.045363]}, "properties": {"id_parcelle": "774900000A0007", "address": "LE FOND DES NUES", "sales": 2, "median_price": 323452.66, "median_price_per_sqm": null, "median_rooms": null, "first_sale": "2022-11-02", "last_sale": "2022-11-02"}}, {"type": "Feature", "geometry": {"type": "Point", "coordinates": [3.105726, 49.037185]}, "properties": {"id_parcelle": "774900000C0766", "address": "5289 SAVART GUILLEMAIN", "sales": 2, "median_price": 15000.0, "median_price_per_sqm": 625.0, "median_rooms": 1.0, "first_sale": "2021-09-24", "last_sale": "2021-09-24"}}, {"type": "Feature", "geometry": {"type": "Point", "coordinates": [3.114772, 49.033651]}, "properties": {"id_parcelle": "774900000B1291", "address": "TROUSSE VACHE", "sales": 2, "median_price": 520000.0, "median_price_per_sqm": null, "median_rooms": null, "first_sale": "2023-03-30", "last_sale": "2023-03-30"}}, {"type": "Feature", "geometry": {"type": "Point", "coordinates": [3.080997, 49.038478]}, "properties": {"id_parcelle": "774900000D0022", "address": "1 RUE DE CREPOIL-RADEMONT", "sales": 2, "median_price": 127000.0, "median_price_per_sqm": 2152.5423728813557, "median_rooms": 1.5, "first_sale": "2021-11-02", "last_sale": "2021-11-02"}}, {"type": "Feature", "geometry": {"type": "Point", "coordinates": [3.103973, 49.033793]}, "properties": {"id_parcelle": "774900000C1456", "address": "28 RUE DE LA FORGE-CHATON", "sales": 2, "median_price": 171163.0, "median_price_per_sqm": 2517.1029411764707, "median_rooms": 1.5, "first_sale": "2022-09-06", "last_sale": "2022-09-06"}}, {"type": "Feature", "geometry": {"type": "Point", "coordinates": [3.106954, 49.029506]}, "properties": {"id_parcelle": "774900000C1357", "address": "CHATON", "sales": 2, "median_price": 59914.0, "median_price_per_sqm": null, "median_rooms": null, "first_sale": "2023-12-21", "last_sale": "2023-12-21"}}, {"type": "Feature", "geometry": {"type": "Point", "coordinates": [3.092242, 49.04691]}, "properties": {"id_parcelle": "774900000E0692", "address": "RUE DU PRESBYTERE NEUF", "sales": 2, "median_price": 159000.0, "median_price_per_sqm": null, "median_rooms": null, "first_sale": "2024-02-02", "last_sale": "2025-06-20"}}, {"type": "Feature", "geometry": {"type": "Point", "coordinates": [3.093217, 49.047031]}, "properties": {"id_parcelle": "774900000E0687", "address": "3 RUE DE L EGLISE", "sales": 2, "median_price": 120000.0, "median_price_per_sqm": 1500.0, "median_rooms": 1.5, "first_sale": "2021-08-10", "last_sale": "2021-08-10"}}, {"type": "Feature", "geometry": {"type": "Point", "coordinates": [3.092198, 49.045449]}, "properties": {"id_parcelle": "774900000E0233", "address": "4 RUE MOUSSEAU", "sales": 2, "median_price": 290000.0, "median_price_per_sqm": 2589.285714285714, "median_rooms": 2.5, "first_sale": "2022-01-07", "last_sale": "2022-01-07"}}, {"type": "Feature", "geometry": {"type": "Point", "coordinates": [3.092333, 49.046514]}, "properties": {"id_parcelle": "774900000E0194", "address": "VENDREST", "sales": 2, "median_price": 127500.0, "median_price_per_sqm": null, "median_rooms": null, "first_sale": "2022-12-22", "last_sale": "2024-06-06"}}, {"type": "Feature", "geometry": {"type": "Point", "coordinates": [3.093417, 49.045912]}, "properties": {"id_parcelle": "774900000E0070", "address": "10 RUE DE LA JULIENNE", "sales": 2, "median_price": 150000.0, "median_price_per_sqm": null, "median_rooms": 0.0, "first_sale": "2024-08-09", "last_sale": "2024-08-09"}}, {"type": "Feature", "geometry": {"type": "Point", "coordinates": [3.093026, 49.046077]}, "properties": {"id_parcelle": "774900000E0071", "address": "7 RUE DES ECOLES", "sales": 2, "median_price": 361800.0, "median_price_per_sqm": 3015.0, "median_rooms": 2.0, "first_sale": "2024-08-09", "last_sale": "2024-08-09"}}, {"type": "Feature", "geometry": {"type": "Point", "coordinates": [3.094979, 49.04645]}, "properties": {"id_parcelle": "774900000E0025", "address": "9 RUE DE LA JULIENNE", "sales": 2, "median_price": 209000.0, "median_price_per_sqm": 3800.0, "median_rooms": 1.5, "first_sale": "2025-12-08", "last_sale": "2025-12-08"}}, {"type": "Feature", "geometry": {"type": "Point", "coordinates": [3.093749, 49.045505]}, "properties": {"id_parcelle": "774900000E0042", "address": "3 RUE DE LA JULIENNE", "sales": 2, "median_price": 175000.0, "median_price_per_sqm": 2187.5, "median_rooms": 1.5, "first_sale": "2025-12-11", "last_sale": "2025-12-11"}}, {"type": "Feature", "geometry": {"type": "Point", "coordinates": [3.115236, 49.055626]}, "properties": {"id_parcelle": "77490000YA0034", "address": "LE GROS BUISSON", "sales": 2, "median_price": 323452.66, "median_price_per_sqm": null, "median_rooms": null, "first_sale": "2022-11-02", "last_sale": "2022-11-02"}}, {"type": "Feature", "geometry": {"type": "Point", "coordinates": [3.092244, 49.046763]}, "properties": {"id_parcelle": "774900000E0696", "address": "RUE DU PRESBYTERE NEUF", "sales": 2, "median_price": 159000.0, "median_price_per_sqm": null, "median_rooms": null, "first_sale": "2024-02-02", "last_sale": "2025-06-20"}}, {"type": "Feature", "geometry": {"type": "Point", "coordinates": [3.095854, 49.047707]}, "properties": {"id_parcelle": "774900000E0780", "address": "12 RUE DE LA BIDONNE", "sales": 2, "median_price": 225000.0, "median_price_per_sqm": 1347.3053892215569, "median_rooms": 2.5, "first_sale": "2024-09-27", "last_sale": "2024-09-27"}}, {"type": "Feature", "geometry": {"type": "Point", "coordinates": [3.121179, 49.053526]}, "properties": {"id_parcelle": "77490000YA0022", "address": "LES BRULIS", "sales": 2, "median_price": 50000.0, "median_price_per_sqm": null, "median_rooms": null, "first_sale": "2021-02-08", "last_sale": "2021-02-08"}}, {"type": "Feature", "geometry": {"type": "Point", "coordinates": [3.108111, 49.05408]}, "properties": {"id_parcelle": "77490000ZH0009", "address": "LE THIOLET", "sales": 2, "median_price": 679893.11, "median_price_per_sqm": null, "median_rooms": null, "first_sale": "2025-12-10", "last_sale": "2025-12-10"}}, {"type": "Feature", "geometry": {"type": "Point", "coordinates": [3.099735, 49.04893]}, "properties": {"id_parcelle": "77490000ZH0025", "address": "LE COURTIL GENARD", "sales": 2, "median_price": 2000.0, "median_price_per_sqm": null, "median_rooms": null, "first_sale": "2023-06-17", "last_sale": "2023-06-17"}}, {"type": "Feature", "geometry": {"type": "Point", "coordinates": [3.109875, 49.040251]}, "properties": {"id_parcelle": "77490000ZI0029", "address": "LA MARE COURTEAU", "sales": 2, "median_price": 59914.0, "median_price_per_sqm": null, "median_rooms": null, "first_sale": "2023-12-21", "last_sale": "2023-12-21"}}, {"type": "Feature", "geometry": {"type": "Point", "coordinates": [3.089667, 49.046011]}, "properties": {"id_parcelle": "77490000ZL0095", "address": "6 RUE DE LIZY-VENDREST", "sales": 2, "median_price": 170766.0, "median_price_per_sqm": 2165.3543307086616, "median_rooms": 5.0, "first_sale": "2021-05-19", "last_sale": "2023-06-01"}}]}