{"type": "FeatureCollection", "features": [{"type": "Feature", "geometry": {"type": "Polygon", "coordinates": [[[3.038584, 48.782481], [3.038063, 48.780628], [3.037973, 48.780325], [3.037583, 48.778918], [3.037255, 48.777848], [3.037182, 48.777551], [3.037059, 48.777448], [3.037119, 48.777337], [3.037147, 48.777092], [3.037178, 48.776324], [3.037211, 48.774941], [3.037209, 48.77444], [3.03716, 48.774206], [3.037062, 48.773914], [3.036896, 48.773598], [3.035294, 48.770918], [3.03526, 48.770679], [3.035296, 48.770473], [3.034926, 48.770461], [3.034937, 48.770382], [3.034755, 48.770134], [3.034605, 48.770007], [3.034221, 48.769758], [3.033698, 48.769518], [3.033338, 48.769415], [3.033064, 48.769264], [3.032748, 48.769128], [3.032378, 48.768917], [3.032227, 48.768807], [3.031976, 48.768498], [3.031407, 48.767713], [3.031251, 48.767541], [3.03082, 48.766906], [3.030643, 48.766834], [3.030495, 48.766613], [3.030585, 48.766585], [3.030495, 48.766406], [3.030396, 48.766419], [3.030318, 48.766101], [3.030206, 48.765758], [3.030556, 48.765567], [3.031679, 48.764821], [3.030094, 48.764051], [3.029843, 48.763539], [3.029375, 48.76282], [3.029008, 48.76232], [3.028569, 48.761847], [3.028355, 48.761624], [3.027917, 48.761096], [3.027756, 48.760875], [3.027226, 48.760047], [3.026981, 48.759642], [3.026524, 48.758677], [3.026281, 48.758349], [3.026024, 48.758712], [3.024534, 48.760669], [3.024201, 48.760621], [3.023868, 48.760662], [3.023541, 48.760805], [3.023384, 48.76096], [3.023351, 48.761071], [3.023052, 48.761203], [3.02261, 48.761437], [3.02237, 48.761589], [3.02097, 48.762533], [3.020699, 48.762745], [3.020609, 48.762914], [3.020423, 48.763371], [3.020135, 48.764365], [3.020029, 48.764478], [3.019573, 48.764868], [3.018892, 48.765507], [3.018236, 48.766198], [3.016765, 48.768185], [3.016177, 48.768924], [3.016037, 48.769126], [3.015197, 48.770443], [3.014529, 48.771418], [3.014301, 48.771711], [3.014438, 48.771769], [3.013705, 48.772887], [3.0132, 48.773642], [3.012264, 48.775061], [3.011452, 48.776269], [3.011486, 48.776437], [3.011444, 48.776654], [3.01117, 48.777627], [3.011145, 48.77802], [3.01123, 48.778568], [3.01143, 48.779227], [3.01145, 48.779394], [3.011467, 48.780136], [3.011448, 48.780375], [3.011331, 48.780685], [3.01118, 48.780855], [3.011104, 48.781048], [3.011004, 48.781461], [3.010912, 48.782073], [3.010762, 48.782438], [3.010483, 48.78291], [3.010244, 48.78345], [3.010093, 48.783885], [3.00995, 48.784125], [3.009677, 48.7845], [3.008263, 48.785955], [3.008037, 48.786136], [3.007931, 48.786327], [3.007565, 48.78672], [3.007321, 48.787083], [3.007112, 48.787462], [3.006888, 48.787991], [3.007055, 48.788329], [3.007185, 48.788508], [3.007659, 48.78882], [3.007957, 48.788983], [3.008247, 48.789187], [3.008375, 48.789333], [3.0085, 48.789651], [3.008604, 48.790098], [3.008702, 48.79092], [3.008776, 48.791248], [3.00901, 48.791663], [3.009489, 48.792394], [3.009659, 48.792602], [3.009729, 48.792755], [3.009835, 48.793326], [3.009899, 48.793775], [3.010023, 48.794232], [3.010088, 48.794761], [3.010068, 48.795295], [3.010101, 48.795792], [3.010057, 48.796353], [3.01058, 48.796353], [3.01174, 48.796424], [3.012486, 48.796415], [3.012594, 48.796433], [3.012777, 48.796555], [3.013075, 48.796489], [3.013745, 48.796466], [3.014591, 48.796411], [3.015857, 48.796312], [3.016189, 48.796324], [3.016887, 48.796449], [3.017151, 48.796452], [3.017539, 48.796333], [3.01762, 48.796693], [3.017695, 48.797383], [3.017881, 48.797912], [3.018117, 48.798787], [3.018282, 48.799047], [3.018513, 48.799176], [3.019014, 48.799229], [3.019171, 48.799293], [3.019239, 48.799454], [3.019325, 48.800044], [3.019339, 48.800324], [3.019265, 48.800605], [3.019199, 48.801005], [3.019176, 48.801435], [3.019255, 48.801786], [3.019337, 48.801954], [3.01953, 48.802069], [3.020252, 48.802012], [3.02043, 48.802041], [3.020561, 48.802155], [3.020701, 48.802604], [3.020949, 48.803286], [3.02096, 48.803599], [3.020884, 48.804295], [3.020895, 48.804515], [3.020992, 48.805059], [3.020949, 48.805369], [3.021032, 48.80541], [3.021819, 48.805505], [3.022001, 48.80554], [3.022662, 48.805781], [3.023008, 48.805992], [3.023463, 48.806217], [3.024039, 48.806357], [3.024371, 48.806404], [3.025485, 48.806669], [3.026005, 48.806832], [3.025911, 48.807029], [3.025817, 48.807326], [3.025714, 48.807804], [3.025499, 48.808661], [3.025219, 48.80908], [3.025706, 48.808934], [3.025984, 48.808816], [3.026529, 48.808679], [3.026879, 48.808641], [3.027336, 48.808544], [3.027962, 48.808471], [3.028992, 48.808324], [3.029415, 48.808241], [3.030473, 48.80795], [3.031242, 48.807729], [3.031562, 48.80766], [3.032221, 48.807561], [3.032681, 48.807516], [3.033449, 48.807403], [3.03397, 48.807276], [3.034648, 48.807088], [3.0361, 48.806704], [3.036172, 48.806812], [3.036686, 48.807443], [3.03709, 48.807867], [3.03745, 48.808178], [3.037714, 48.808461], [3.037836, 48.808684], [3.038004, 48.809207], [3.037963, 48.809551], [3.037913, 48.810302], [3.038037, 48.810716], [3.038152, 48.81126], [3.0382, 48.811795], [3.038162, 48.812082], [3.037964, 48.812767], [3.037852, 48.812949], [3.037665, 48.813359], [3.037578, 48.81365], [3.037331, 48.814789], [3.037225, 48.815089], [3.037275, 48.815267], [3.037432, 48.815495], [3.037975, 48.815377], [3.038354, 48.815329], [3.038922, 48.815354], [3.039202, 48.815293], [3.040147, 48.814517], [3.040363, 48.814377], [3.041353, 48.813856], [3.041926, 48.813457], [3.042265, 48.813187], [3.042504, 48.812966], [3.04278, 48.812746], [3.043291, 48.8124], [3.044039, 48.811998], [3.044158, 48.811952], [3.044535, 48.811705], [3.046202, 48.810416], [3.046407, 48.810327], [3.046891, 48.810233], [3.047913, 48.810123], [3.048391, 48.810026], [3.048507, 48.809962], [3.049276, 48.809863], [3.050263, 48.809895], [3.050839, 48.809944], [3.051494, 48.809901], [3.051992, 48.809802], [3.051733, 48.809199], [3.051746, 48.808172], [3.05176, 48.807922], [3.051835, 48.807648], [3.05184, 48.80747], [3.051722, 48.806725], [3.051632, 48.806504], [3.051566, 48.805911], [3.051681, 48.805667], [3.051887, 48.805336], [3.05217, 48.804734], [3.052155, 48.804529], [3.052032, 48.804205], [3.051827, 48.803777], [3.051333, 48.802816], [3.051007, 48.802121], [3.05083, 48.801774], [3.051748, 48.801412], [3.052487, 48.801093], [3.053716, 48.8006], [3.05421, 48.800422], [3.05531, 48.799995], [3.056537, 48.799482], [3.05718, 48.799238], [3.057863, 48.798944], [3.058528, 48.798601], [3.058159, 48.798201], [3.057868, 48.797862], [3.057675, 48.797892], [3.056545, 48.797813], [3.053083, 48.797639], [3.045539, 48.797215], [3.042071, 48.797016], [3.040086, 48.796927], [3.040156, 48.795944], [3.040226, 48.795166], [3.040309, 48.793539], [3.040325, 48.7929], [3.040343, 48.791379], [3.040351, 48.789868], [3.040262, 48.789113], [3.040077, 48.788104], [3.039978, 48.787645], [3.039454, 48.785588], [3.039185, 48.784561], [3.038584, 48.782481]]]}, "properties": {"code_iris": "774000000", "nom_iris": "Saint-Augustin (commune entière)", "type_iris": "Z", "lat": 48.7869, "lng": 3.0327, "dvf_sales_total": 920, "dvf_sales_appt": 0, "dvf_sales_maison": 0, "dvf_median_price": 268000.0, "dvf_median_ppsqm": 2635.6589147286822, "dvf_by_year": "[{\"year\": 2021, \"sales\": 203, \"median_price\": 266000.0}, {\"year\": 2022, \"sales\": 260, \"median_price\": 315000.0}, {\"year\": 2023, \"sales\": 142, \"median_price\": 285000.0}, {\"year\": 2024, \"sales\": 170, \"median_price\": 89000.0}, {\"year\": 2025, \"sales\": 145, \"median_price\": 300800.0}]", "population": 1888, "n_log": null, "n_rp": null, "pct_proprio": null, "pct_hlm": null, "pct_appart": null, "pct_cadres": null, "pct_bac5p": null, "pct_etrangers": null, "pct_0_14": null, "pct_65p": null, "bpe_total": null, "bpe_commerces": null, "bpe_enseignement": null, "bpe_sante": null, "dpe": null, "attractivity_score": null, "rank_attractivity_score": null, "rank_total_attractivity_score": 1, "commune_avg": null, "is_stub": true}}]}