{"type": "FeatureCollection", "features": [{"type": "Feature", "geometry": {"type": "Point", "coordinates": [3.2524765, 48.957557]}, "properties": {"street_name": "LES BAUDICHONNES", "sales": 32, "sales_appt": 0, "sales_maison": 8, "median_price": 5502.4, "median_price_per_sqm": 306.8666666666667, "turnover_score": 100.0, "turnover_rank": 1, "first_year": 2021, "last_year": 2025, "years_active": 3}}, {"type": "Feature", "geometry": {"type": "Point", "coordinates": [3.240084, 48.967919]}, "properties": {"street_name": "RUE DE PAVANT", "sales": 28, "sales_appt": 0, "sales_maison": 13, "median_price": 189000.0, "median_price_per_sqm": 1965.7534246575342, "turnover_score": 87.5, "turnover_rank": 2, "first_year": 2021, "last_year": 2025, "years_active": 5}}, {"type": "Feature", "geometry": {"type": "Point", "coordinates": [3.237206, 48.970654]}, "properties": {"street_name": "LE CHATEAU DE CITRY", "sales": 24, "sales_appt": 13, "sales_maison": 0, "median_price": 108000.0, "median_price_per_sqm": 1471.698113207547, "turnover_score": 75.0, "turnover_rank": 3, "first_year": 2021, "last_year": 2025, "years_active": 5}}, {"type": "Feature", "geometry": {"type": "Point", "coordinates": [3.2419944999999997, 48.957240999999996]}, "properties": {"street_name": "RUE DU PLESSIER", "sales": 20, "sales_appt": 0, "sales_maison": 10, "median_price": 179000.0, "median_price_per_sqm": 1946.6230936819172, "turnover_score": 62.5, "turnover_rank": 4, "first_year": 2021, "last_year": 2025, "years_active": 4}}, {"type": "Feature", "geometry": {"type": "Point", "coordinates": [3.23577, 48.965105]}, "properties": {"street_name": "RUE DE VILLARE", "sales": 20, "sales_appt": 0, "sales_maison": 11, "median_price": 200250.0, "median_price_per_sqm": 2111.1111111111113, "turnover_score": 62.5, "turnover_rank": 4, "first_year": 2021, "last_year": 2025, "years_active": 5}}, {"type": "Feature", "geometry": {"type": "Point", "coordinates": [3.23964, 48.968353]}, "properties": {"street_name": "CITRY", "sales": 20, "sales_appt": 0, "sales_maison": 0, "median_price": 162750.0, "median_price_per_sqm": null, "turnover_score": 62.5, "turnover_rank": 4, "first_year": 2021, "last_year": 2025, "years_active": 4}}, {"type": "Feature", "geometry": {"type": "Point", "coordinates": [3.242317, 48.958052]}, "properties": {"street_name": "VILLARE", "sales": 15, "sales_appt": 0, "sales_maison": 0, "median_price": 114000.0, "median_price_per_sqm": null, "turnover_score": 46.9, "turnover_rank": 5, "first_year": 2021, "last_year": 2025, "years_active": 4}}, {"type": "Feature", "geometry": {"type": "Point", "coordinates": [3.253572, 48.956185]}, "properties": {"street_name": "LE PARADIS", "sales": 13, "sales_appt": 0, "sales_maison": 2, "median_price": 112000.0, "median_price_per_sqm": 1750.0, "turnover_score": 40.6, "turnover_rank": 6, "first_year": 2021, "last_year": 2021, "years_active": 1}}, {"type": "Feature", "geometry": {"type": "Point", "coordinates": [3.237955, 48.968206]}, "properties": {"street_name": "RUE DE SAACY", "sales": 11, "sales_appt": 0, "sales_maison": 5, "median_price": 170500.0, "median_price_per_sqm": 2183.3333333333335, "turnover_score": 34.4, "turnover_rank": 7, "first_year": 2021, "last_year": 2024, "years_active": 2}}, {"type": "Feature", "geometry": {"type": "Point", "coordinates": [3.238611, 48.96977]}, "properties": {"street_name": "RUE DES PALIS", "sales": 11, "sales_appt": 0, "sales_maison": 3, "median_price": 143000.0, "median_price_per_sqm": 1522.1238938053098, "turnover_score": 34.4, "turnover_rank": 7, "first_year": 2021, "last_year": 2024, "years_active": 3}}, {"type": "Feature", "geometry": {"type": "Point", "coordinates": [3.234378, 48.97004]}, "properties": {"street_name": "LA VIGNETTE", "sales": 10, "sales_appt": 0, "sales_maison": 0, "median_price": 10000.0, "median_price_per_sqm": null, "turnover_score": 31.2, "turnover_rank": 8, "first_year": 2022, "last_year": 2022, "years_active": 1}}, {"type": "Feature", "geometry": {"type": "Point", "coordinates": [3.2520805, 48.951900499999994]}, "properties": {"street_name": "LES TERRES NOIRES", "sales": 10, "sales_appt": 0, "sales_maison": 2, "median_price": 72000.0, "median_price_per_sqm": 2057.1428571428573, "turnover_score": 31.2, "turnover_rank": 8, "first_year": 2023, "last_year": 2025, "years_active": 2}}, {"type": "Feature", "geometry": {"type": "Point", "coordinates": [3.240088, 48.966166]}, "properties": {"street_name": "LES QUARTERONS", "sales": 9, "sales_appt": 0, "sales_maison": 0, "median_price": 110000.0, "median_price_per_sqm": null, "turnover_score": 28.1, "turnover_rank": 9, "first_year": 2021, "last_year": 2025, "years_active": 2}}, {"type": "Feature", "geometry": {"type": "Point", "coordinates": [3.237885, 48.96397]}, "properties": {"street_name": "LES MEULIERES", "sales": 7, "sales_appt": 0, "sales_maison": 2, "median_price": 251150.0, "median_price_per_sqm": 2347.196261682243, "turnover_score": 21.9, "turnover_rank": 10, "first_year": 2021, "last_year": 2023, "years_active": 2}}, {"type": "Feature", "geometry": {"type": "Point", "coordinates": [3.25061, 48.956273]}, "properties": {"street_name": "LES JULIENNES", "sales": 7, "sales_appt": 0, "sales_maison": 0, "median_price": 5000.0, "median_price_per_sqm": null, "turnover_score": 21.9, "turnover_rank": 10, "first_year": 2024, "last_year": 2024, "years_active": 1}}, {"type": "Feature", "geometry": {"type": "Point", "coordinates": [3.24319, 48.959172]}, "properties": {"street_name": "LES PALANSONNES", "sales": 7, "sales_appt": 0, "sales_maison": 0, "median_price": 116000.0, "median_price_per_sqm": null, "turnover_score": 21.9, "turnover_rank": 10, "first_year": 2021, "last_year": 2024, "years_active": 3}}, {"type": "Feature", "geometry": {"type": "Point", "coordinates": [3.2390635, 48.9565835]}, "properties": {"street_name": "RUE DU CHATEAU D EAU", "sales": 6, "sales_appt": 0, "sales_maison": 0, "median_price": 16500.0, "median_price_per_sqm": 83.75634517766497, "turnover_score": 18.8, "turnover_rank": 11, "first_year": 2024, "last_year": 2025, "years_active": 2}}, {"type": "Feature", "geometry": {"type": "Point", "coordinates": [3.251258, 48.957988]}, "properties": {"street_name": "LE GRAND RU", "sales": 6, "sales_appt": 0, "sales_maison": 1, "median_price": 65000.0, "median_price_per_sqm": 2321.4285714285716, "turnover_score": 18.8, "turnover_rank": 11, "first_year": 2022, "last_year": 2025, "years_active": 2}}, {"type": "Feature", "geometry": {"type": "Point", "coordinates": [3.248539, 48.960072]}, "properties": {"street_name": "LES GRANDES MONTAGNES", "sales": 5, "sales_appt": 0, "sales_maison": 1, "median_price": 5000.0, "median_price_per_sqm": 6.457142857142857, "turnover_score": 15.6, "turnover_rank": 12, "first_year": 2021, "last_year": 2025, "years_active": 4}}, {"type": "Feature", "geometry": {"type": "Point", "coordinates": [3.242307, 48.967132]}, "properties": {"street_name": "RUE DE LA MOUSSELLE", "sales": 5, "sales_appt": 0, "sales_maison": 2, "median_price": 165000.0, "median_price_per_sqm": 3218.75, "turnover_score": 15.6, "turnover_rank": 12, "first_year": 2023, "last_year": 2023, "years_active": 1}}, {"type": "Feature", "geometry": {"type": "Point", "coordinates": [3.245416, 48.962339]}, "properties": {"street_name": "LA RUE DES VACHES", "sales": 5, "sales_appt": 0, "sales_maison": 0, "median_price": 2000.0, "median_price_per_sqm": null, "turnover_score": 15.6, "turnover_rank": 12, "first_year": 2021, "last_year": 2025, "years_active": 2}}, {"type": "Feature", "geometry": {"type": "Point", "coordinates": [3.241184, 48.966988]}, "properties": {"street_name": "RUE MICHAUD", "sales": 5, "sales_appt": 0, "sales_maison": 3, "median_price": 135000.0, "median_price_per_sqm": 1928.5714285714287, "turnover_score": 15.6, "turnover_rank": 12, "first_year": 2021, "last_year": 2025, "years_active": 3}}, {"type": "Feature", "geometry": {"type": "Point", "coordinates": [3.243611, 48.963807]}, "properties": {"street_name": "LES TERRES BLANCHES", "sales": 5, "sales_appt": 0, "sales_maison": 0, "median_price": 200.0, "median_price_per_sqm": null, "turnover_score": 15.6, "turnover_rank": 12, "first_year": 2022, "last_year": 2025, "years_active": 2}}, {"type": "Feature", "geometry": {"type": "Point", "coordinates": [3.238802, 48.967383]}, "properties": {"street_name": "LES VIEILLES VIGNES", "sales": 5, "sales_appt": 0, "sales_maison": 0, "median_price": 42295.0, "median_price_per_sqm": null, "turnover_score": 15.6, "turnover_rank": 12, "first_year": 2021, "last_year": 2024, "years_active": 2}}, {"type": "Feature", "geometry": {"type": "Point", "coordinates": [3.245468, 48.956572]}, "properties": {"street_name": "RUE PIERREUSE", "sales": 5, "sales_appt": 0, "sales_maison": 5, "median_price": 216000.0, "median_price_per_sqm": 2226.8041237113403, "turnover_score": 15.6, "turnover_rank": 12, "first_year": 2022, "last_year": 2025, "years_active": 3}}, {"type": "Feature", "geometry": {"type": "Point", "coordinates": [3.23756, 48.9624145]}, "properties": {"street_name": "BELLEVUE", "sales": 4, "sales_appt": 0, "sales_maison": 0, "median_price": 306.25, "median_price_per_sqm": null, "turnover_score": 12.5, "turnover_rank": 13, "first_year": 2022, "last_year": 2022, "years_active": 1}}, {"type": "Feature", "geometry": {"type": "Point", "coordinates": [3.2487075, 48.960781499999996]}, "properties": {"street_name": "LES PLANTES D EN HAUT", "sales": 4, "sales_appt": 0, "sales_maison": 0, "median_price": 844.5, "median_price_per_sqm": null, "turnover_score": 12.5, "turnover_rank": 13, "first_year": 2021, "last_year": 2023, "years_active": 2}}, {"type": "Feature", "geometry": {"type": "Point", "coordinates": [3.246666, 48.9628655]}, "properties": {"street_name": "LES PLANTES DES SABLONS", "sales": 4, "sales_appt": 0, "sales_maison": 2, "median_price": 10000.0, "median_price_per_sqm": 500.0, "turnover_score": 12.5, "turnover_rank": 13, "first_year": 2021, "last_year": 2021, "years_active": 1}}, {"type": "Feature", "geometry": {"type": "Point", "coordinates": [3.2500264999999997, 48.9723605]}, "properties": {"street_name": "LE MOULIN SAINT FARON", "sales": 4, "sales_appt": 0, "sales_maison": 0, "median_price": 6000.0, "median_price_per_sqm": null, "turnover_score": 12.5, "turnover_rank": 13, "first_year": 2022, "last_year": 2025, "years_active": 3}}, {"type": "Feature", "geometry": {"type": "Point", "coordinates": [3.2572795, 48.95188]}, "properties": {"street_name": "LA CENSE DE CHAMPETRET", "sales": 4, "sales_appt": 0, "sales_maison": 1, "median_price": 145000.0, "median_price_per_sqm": 1933.3333333333333, "turnover_score": 12.5, "turnover_rank": 13, "first_year": 2021, "last_year": 2024, "years_active": 2}}, {"type": "Feature", "geometry": {"type": "Point", "coordinates": [3.2373475000000003, 48.958197999999996]}, "properties": {"street_name": "RUE DE CHEVAUDRIE", "sales": 4, "sales_appt": 0, "sales_maison": 1, "median_price": 85000.0, "median_price_per_sqm": 1835.4430379746836, "turnover_score": 12.5, "turnover_rank": 13, "first_year": 2021, "last_year": 2023, "years_active": 2}}, {"type": "Feature", "geometry": {"type": "Point", "coordinates": [3.2379420000000003, 48.96349]}, "properties": {"street_name": "RUE DES MEULIERES", "sales": 4, "sales_appt": 0, "sales_maison": 0, "median_price": 36285.0, "median_price_per_sqm": null, "turnover_score": 12.5, "turnover_rank": 13, "first_year": 2021, "last_year": 2021, "years_active": 1}}, {"type": "Feature", "geometry": {"type": "Point", "coordinates": [3.238524, 48.959063]}, "properties": {"street_name": "RUE DE LA CROIX", "sales": 3, "sales_appt": 0, "sales_maison": 0, "median_price": 85000.0, "median_price_per_sqm": null, "turnover_score": 9.4, "turnover_rank": 14, "first_year": 2022, "last_year": 2023, "years_active": 2}}, {"type": "Feature", "geometry": {"type": "Point", "coordinates": [3.243451, 48.966894]}, "properties": {"street_name": "LA RUE NEUVE", "sales": 3, "sales_appt": 0, "sales_maison": 0, "median_price": 55000.0, "median_price_per_sqm": null, "turnover_score": 9.4, "turnover_rank": 14, "first_year": 2023, "last_year": 2023, "years_active": 1}}, {"type": "Feature", "geometry": {"type": "Point", "coordinates": [3.246255, 48.956952]}, "properties": {"street_name": "RUE DU MOULIN A VENT", "sales": 3, "sales_appt": 0, "sales_maison": 1, "median_price": 85000.0, "median_price_per_sqm": 1062.5, "turnover_score": 9.4, "turnover_rank": 14, "first_year": 2021, "last_year": 2023, "years_active": 2}}, {"type": "Feature", "geometry": {"type": "Point", "coordinates": [3.247013, 48.956536]}, "properties": {"street_name": "LA SOUCHOTTE", "sales": 3, "sales_appt": 0, "sales_maison": 0, "median_price": 6300.0, "median_price_per_sqm": null, "turnover_score": 9.4, "turnover_rank": 14, "first_year": 2024, "last_year": 2024, "years_active": 1}}, {"type": "Feature", "geometry": {"type": "Point", "coordinates": [3.234011, 48.963427]}, "properties": {"street_name": "LES MEULES", "sales": 3, "sales_appt": 0, "sales_maison": 0, "median_price": 1164.5, "median_price_per_sqm": null, "turnover_score": 9.4, "turnover_rank": 14, "first_year": 2024, "last_year": 2024, "years_active": 1}}, {"type": "Feature", "geometry": {"type": "Point", "coordinates": [3.240402, 48.964169]}, "properties": {"street_name": "LES MONTREMIS", "sales": 3, "sales_appt": 0, "sales_maison": 0, "median_price": 237920.0, "median_price_per_sqm": null, "turnover_score": 9.4, "turnover_rank": 14, "first_year": 2024, "last_year": 2024, "years_active": 1}}, {"type": "Feature", "geometry": {"type": "Point", "coordinates": [3.250162, 48.956021]}, "properties": {"street_name": "LES SAUVAGES", "sales": 3, "sales_appt": 0, "sales_maison": 0, "median_price": 5000.0, "median_price_per_sqm": null, "turnover_score": 9.4, "turnover_rank": 14, "first_year": 2024, "last_year": 2024, "years_active": 1}}, {"type": "Feature", "geometry": {"type": "Point", "coordinates": [3.249511, 48.96122]}, "properties": {"street_name": "LES PLANTES D EN BAS", "sales": 3, "sales_appt": 0, "sales_maison": 0, "median_price": 992.8, "median_price_per_sqm": null, "turnover_score": 9.4, "turnover_rank": 14, "first_year": 2021, "last_year": 2022, "years_active": 2}}, {"type": "Feature", "geometry": {"type": "Point", "coordinates": [3.239536, 48.964868]}, "properties": {"street_name": "LES SABLONS", "sales": 3, "sales_appt": 0, "sales_maison": 0, "median_price": 103760.0, "median_price_per_sqm": null, "turnover_score": 9.4, "turnover_rank": 14, "first_year": 2021, "last_year": 2023, "years_active": 2}}, {"type": "Feature", "geometry": {"type": "Point", "coordinates": [3.246246, 48.962558]}, "properties": {"street_name": "CHE DES MONTAGNES", "sales": 2, "sales_appt": 0, "sales_maison": 0, "median_price": 28000.0, "median_price_per_sqm": null, "turnover_score": 6.2, "turnover_rank": 15, "first_year": 2023, "last_year": 2023, "years_active": 1}}, {"type": "Feature", "geometry": {"type": "Point", "coordinates": [3.2357585, 48.9616405]}, "properties": {"street_name": "LA MADELEINE", "sales": 2, "sales_appt": 0, "sales_maison": 0, "median_price": 232000.0, "median_price_per_sqm": null, "turnover_score": 6.2, "turnover_rank": 15, "first_year": 2023, "last_year": 2023, "years_active": 1}}, {"type": "Feature", "geometry": {"type": "Point", "coordinates": [3.2387215, 48.9650905]}, "properties": {"street_name": "LES PETITES RUES", "sales": 2, "sales_appt": 0, "sales_maison": 0, "median_price": 103760.0, "median_price_per_sqm": null, "turnover_score": 6.2, "turnover_rank": 15, "first_year": 2021, "last_year": 2021, "years_active": 1}}, {"type": "Feature", "geometry": {"type": "Point", "coordinates": [3.2364430000000004, 48.9727385]}, "properties": {"street_name": "PARC DE CITRY", "sales": 2, "sales_appt": 0, "sales_maison": 0, "median_price": 5000.0, "median_price_per_sqm": null, "turnover_score": 6.2, "turnover_rank": 15, "first_year": 2025, "last_year": 2025, "years_active": 1}}, {"type": "Feature", "geometry": {"type": "Point", "coordinates": [3.2387145000000004, 48.9610045]}, "properties": {"street_name": "LE CHAMP DE LA GARENNE", "sales": 2, "sales_appt": 0, "sales_maison": 0, "median_price": 2200.0, "median_price_per_sqm": null, "turnover_score": 6.2, "turnover_rank": 15, "first_year": 2021, "last_year": 2021, "years_active": 1}}, {"type": "Feature", "geometry": {"type": "Point", "coordinates": [3.243263, 48.962819499999995]}, "properties": {"street_name": "LES MONTOIS", "sales": 2, "sales_appt": 0, "sales_maison": 0, "median_price": 20000.0, "median_price_per_sqm": null, "turnover_score": 6.2, "turnover_rank": 15, "first_year": 2023, "last_year": 2023, "years_active": 1}}, {"type": "Feature", "geometry": {"type": "Point", "coordinates": [3.247125, 48.957406]}, "properties": {"street_name": "LE MOULIN A VENT", "sales": 1, "sales_appt": 0, "sales_maison": 0, "median_price": 85000.0, "median_price_per_sqm": null, "turnover_score": 3.1, "turnover_rank": 16, "first_year": 2021, "last_year": 2021, "years_active": 1}}, {"type": "Feature", "geometry": {"type": "Point", "coordinates": [3.251541, 48.948005]}, "properties": {"street_name": "LE CHAMP DE L EPINE NOBLE", "sales": 1, "sales_appt": 0, "sales_maison": 0, "median_price": 10000.0, "median_price_per_sqm": null, "turnover_score": 3.1, "turnover_rank": 16, "first_year": 2021, "last_year": 2021, "years_active": 1}}, {"type": "Feature", "geometry": {"type": "Point", "coordinates": [3.237007, 48.959602]}, "properties": {"street_name": "LA CHEVAUDRIE", "sales": 1, "sales_appt": 0, "sales_maison": 0, "median_price": 36000.0, "median_price_per_sqm": null, "turnover_score": 3.1, "turnover_rank": 16, "first_year": 2023, "last_year": 2023, "years_active": 1}}, {"type": "Feature", "geometry": {"type": "Point", "coordinates": [3.245498, 48.96027]}, "properties": {"street_name": "LES MONTARBEAUX", "sales": 1, "sales_appt": 0, "sales_maison": 0, "median_price": 178000.0, "median_price_per_sqm": null, "turnover_score": 3.1, "turnover_rank": 16, "first_year": 2021, "last_year": 2021, "years_active": 1}}, {"type": "Feature", "geometry": {"type": "Point", "coordinates": [3.251344, 48.95428]}, "properties": {"street_name": "LES HARONNIERES", "sales": 1, "sales_appt": 0, "sales_maison": 0, "median_price": 216000.0, "median_price_per_sqm": null, "turnover_score": 3.1, "turnover_rank": 16, "first_year": 2025, "last_year": 2025, "years_active": 1}}, {"type": "Feature", "geometry": {"type": "Point", "coordinates": [3.249871, 48.956191]}, "properties": {"street_name": "LES GRANDS CLOS", "sales": 1, "sales_appt": 0, "sales_maison": 0, "median_price": 6300.0, "median_price_per_sqm": null, "turnover_score": 3.1, "turnover_rank": 16, "first_year": 2024, "last_year": 2024, "years_active": 1}}, {"type": "Feature", "geometry": {"type": "Point", "coordinates": [3.24587, 48.961752]}, "properties": {"street_name": "LE PETIT BOIS", "sales": 1, "sales_appt": 0, "sales_maison": 0, "median_price": 2000.0, "median_price_per_sqm": null, "turnover_score": 3.1, "turnover_rank": 16, "first_year": 2021, "last_year": 2021, "years_active": 1}}, {"type": "Feature", "geometry": {"type": "Point", "coordinates": [3.248982, 48.958479]}, "properties": {"street_name": "LE RUISSEAU", "sales": 1, "sales_appt": 0, "sales_maison": 0, "median_price": 5000.0, "median_price_per_sqm": null, "turnover_score": 3.1, "turnover_rank": 16, "first_year": 2024, "last_year": 2024, "years_active": 1}}, {"type": "Feature", "geometry": {"type": "Point", "coordinates": [3.24485, 48.961137]}, "properties": {"street_name": "LE TILLET", "sales": 1, "sales_appt": 0, "sales_maison": 0, "median_price": 178000.0, "median_price_per_sqm": null, "turnover_score": 3.1, "turnover_rank": 16, "first_year": 2021, "last_year": 2021, "years_active": 1}}, {"type": "Feature", "geometry": {"type": "Point", "coordinates": [3.243689, 48.963654]}, "properties": {"street_name": "LES BARLETTES", "sales": 1, "sales_appt": 0, "sales_maison": 0, "median_price": 750.0, "median_price_per_sqm": null, "turnover_score": 3.1, "turnover_rank": 16, "first_year": 2022, "last_year": 2022, "years_active": 1}}, {"type": "Feature", "geometry": {"type": "Point", "coordinates": [3.244875, 48.959095]}, "properties": {"street_name": "LES GLAISES", "sales": 1, "sales_appt": 0, "sales_maison": 0, "median_price": 5000.0, "median_price_per_sqm": null, "turnover_score": 3.1, "turnover_rank": 16, "first_year": 2025, "last_year": 2025, "years_active": 1}}, {"type": "Feature", "geometry": {"type": "Point", "coordinates": [3.253421, 48.960682]}, "properties": {"street_name": "LA RANGEE", "sales": 1, "sales_appt": 0, "sales_maison": 0, "median_price": 13285.0, "median_price_per_sqm": null, "turnover_score": 3.1, "turnover_rank": 16, "first_year": 2024, "last_year": 2024, "years_active": 1}}, {"type": "Feature", "geometry": {"type": "Point", "coordinates": [3.241794, 48.959898]}, "properties": {"street_name": "LA GARENNE", "sales": 1, "sales_appt": 0, "sales_maison": 0, "median_price": 105510.0, "median_price_per_sqm": null, "turnover_score": 3.1, "turnover_rank": 16, "first_year": 2021, "last_year": 2021, "years_active": 1}}, {"type": "Feature", "geometry": {"type": "Point", "coordinates": [3.249181, 48.973848]}, "properties": {"street_name": "ILE DU MOULIN SAINT FARON", "sales": 1, "sales_appt": 0, "sales_maison": 0, "median_price": 7900.0, "median_price_per_sqm": null, "turnover_score": 3.1, "turnover_rank": 16, "first_year": 2022, "last_year": 2022, "years_active": 1}}, {"type": "Feature", "geometry": {"type": "Point", "coordinates": [3.242482, 48.965276]}, "properties": {"street_name": "LES MOUSSELLES", "sales": 1, "sales_appt": 0, "sales_maison": 0, "median_price": 1164.5, "median_price_per_sqm": null, "turnover_score": 3.1, "turnover_rank": 16, "first_year": 2024, "last_year": 2024, "years_active": 1}}, {"type": "Feature", "geometry": {"type": "Point", "coordinates": [3.249348, 48.959876]}, "properties": {"street_name": "LES RELIGIEUSES", "sales": 1, "sales_appt": 0, "sales_maison": 0, "median_price": 20000.0, "median_price_per_sqm": null, "turnover_score": 3.1, "turnover_rank": 16, "first_year": 2023, "last_year": 2023, "years_active": 1}}, {"type": "Feature", "geometry": {"type": "Point", "coordinates": [3.243743, 48.961283]}, "properties": {"street_name": "LES PIERRERIES", "sales": 1, "sales_appt": 0, "sales_maison": 0, "median_price": 178000.0, "median_price_per_sqm": null, "turnover_score": 3.1, "turnover_rank": 16, "first_year": 2021, "last_year": 2021, "years_active": 1}}, {"type": "Feature", "geometry": {"type": "Point", "coordinates": [3.239662, 48.970494]}, "properties": {"street_name": "RUE DES BUTTES", "sales": 1, "sales_appt": 0, "sales_maison": 1, "median_price": 8000.0, "median_price_per_sqm": 533.3333333333334, "turnover_score": 3.1, "turnover_rank": 16, "first_year": 2025, "last_year": 2025, "years_active": 1}}, {"type": "Feature", "geometry": {"type": "Point", "coordinates": [3.248245, 48.9582]}, "properties": {"street_name": "SOUS LE MOULIN A VENT", "sales": 1, "sales_appt": 0, "sales_maison": 0, "median_price": 200.0, "median_price_per_sqm": null, "turnover_score": 3.1, "turnover_rank": 16, "first_year": 2024, "last_year": 2024, "years_active": 1}}]}