{"type": "FeatureCollection", "features": [{"type": "Feature", "geometry": {"type": "Polygon", "coordinates": [[[2.626126, 48.352258], [2.626335, 48.352171], [2.626295, 48.351683], [2.626177, 48.350791], [2.624506, 48.3491], [2.624163, 48.348686], [2.623838, 48.348355], [2.624438, 48.348242], [2.624372, 48.348039], [2.624056, 48.347442], [2.624045, 48.347279], [2.623916, 48.34707], [2.623435, 48.346131], [2.622931, 48.345057], [2.622703, 48.344476], [2.621886, 48.342686], [2.621449, 48.341768], [2.621097, 48.340941], [2.62054, 48.339466], [2.620457, 48.339171], [2.620119, 48.338332], [2.619944, 48.338061], [2.61875, 48.335869], [2.618334, 48.335094], [2.617833, 48.334198], [2.615262, 48.331477], [2.61463, 48.330852], [2.61457, 48.330764], [2.614587, 48.330581], [2.614687, 48.330427], [2.613756, 48.330398], [2.612795, 48.330383], [2.6122, 48.330399], [2.610941, 48.330316], [2.608949, 48.330158], [2.608242, 48.330146], [2.606775, 48.330138], [2.60493, 48.330393], [2.603445, 48.330663], [2.603071, 48.329667], [2.60302, 48.32968], [2.602238, 48.328537], [2.602195, 48.32849], [2.600625, 48.326231], [2.599579, 48.32672], [2.598919, 48.326933], [2.597898, 48.32707], [2.595849, 48.327354], [2.595784, 48.327334], [2.591284, 48.326854], [2.591321, 48.326778], [2.588986, 48.326084], [2.586418, 48.325316], [2.585943, 48.32517], [2.585981, 48.325037], [2.585362, 48.324921], [2.585497, 48.323892], [2.585234, 48.323889], [2.58401, 48.326044], [2.58241, 48.326018], [2.582097, 48.326203], [2.581961, 48.32622], [2.580045, 48.327368], [2.57851, 48.328045], [2.576815, 48.328814], [2.577014, 48.329657], [2.576984, 48.329669], [2.577031, 48.329781], [2.57715, 48.330287], [2.577454, 48.331354], [2.577812, 48.332447], [2.578226, 48.333349], [2.578268, 48.333343], [2.578464, 48.33379], [2.578706, 48.334416], [2.578236, 48.334517], [2.578003, 48.33454], [2.578213, 48.336032], [2.578452, 48.337503], [2.578504, 48.338551], [2.578566, 48.339145], [2.578676, 48.339378], [2.578891, 48.339658], [2.579427, 48.340272], [2.579717, 48.340581], [2.578926, 48.340822], [2.579822, 48.342455], [2.579826, 48.34253], [2.579967, 48.34276], [2.580131, 48.342899], [2.580482, 48.343299], [2.581347, 48.344374], [2.581715, 48.344815], [2.582261, 48.345506], [2.582523, 48.345739], [2.583362, 48.346316], [2.583072, 48.346527], [2.582451, 48.346888], [2.581943, 48.347156], [2.583418, 48.348537], [2.584466, 48.349752], [2.584762, 48.350108], [2.584966, 48.35032], [2.585053, 48.350455], [2.58604, 48.351683], [2.586197, 48.351807], [2.586411, 48.352044], [2.587018, 48.352781], [2.587169, 48.353044], [2.587622, 48.354189], [2.588051, 48.355216], [2.588551, 48.356467], [2.588705, 48.35687], [2.588561, 48.357954], [2.589263, 48.358131], [2.589277, 48.357898], [2.589459, 48.356872], [2.589899, 48.354203], [2.589896, 48.35338], [2.589876, 48.35302], [2.589908, 48.352839], [2.589983, 48.352713], [2.590155, 48.352543], [2.59066, 48.352169], [2.59119, 48.351699], [2.591646, 48.351358], [2.592037, 48.351187], [2.592265, 48.351127], [2.593795, 48.350828], [2.595348, 48.350575], [2.595757, 48.350526], [2.596098, 48.350259], [2.596217, 48.350205], [2.596565, 48.350154], [2.596826, 48.35016], [2.597073, 48.350263], [2.59717, 48.350372], [2.597318, 48.350863], [2.597406, 48.3509], [2.598326, 48.35089], [2.599772, 48.350957], [2.599901, 48.351127], [2.599981, 48.351348], [2.600183, 48.351492], [2.601347, 48.352137], [2.601634, 48.352311], [2.601872, 48.352504], [2.60254, 48.353585], [2.602688, 48.353747], [2.602931, 48.353908], [2.603477, 48.354396], [2.603714, 48.354676], [2.603815, 48.354856], [2.60387, 48.355068], [2.603974, 48.355291], [2.604242, 48.355751], [2.604273, 48.355954], [2.604858, 48.357346], [2.605351, 48.357273], [2.606039, 48.35715], [2.606362, 48.357108], [2.607384, 48.356876], [2.608278, 48.356688], [2.608669, 48.356582], [2.608838, 48.356484], [2.608857, 48.355983], [2.608758, 48.355699], [2.608735, 48.355498], [2.611323, 48.355269], [2.61173, 48.354959], [2.612292, 48.354418], [2.613515, 48.353718], [2.615148, 48.352838], [2.615174, 48.352684], [2.614794, 48.351867], [2.61554, 48.351563], [2.61735, 48.350843], [2.61807, 48.35042], [2.618279, 48.350245], [2.618528, 48.350431], [2.618949, 48.350598], [2.619444, 48.350694], [2.61958, 48.350703], [2.620535, 48.350697], [2.621138, 48.350614], [2.622041, 48.350462], [2.623245, 48.350443], [2.623439, 48.350485], [2.623485, 48.350615], [2.623619, 48.35074], [2.625129, 48.351668], [2.625577, 48.351966], [2.626126, 48.352258]]]}, "properties": {"code_iris": "774770000", "nom_iris": "Ury (commune entière)", "type_iris": "Z", "lat": 48.341, "lng": 2.6016, "dvf_sales_total": 288, "dvf_sales_appt": 0, "dvf_sales_maison": 0, "dvf_median_price": 292000.0, "dvf_median_ppsqm": 2714.3659383295894, "dvf_by_year": "[{\"year\": 2021, \"sales\": 50, \"median_price\": 255000.0}, {\"year\": 2022, \"sales\": 96, \"median_price\": 225500.0}, {\"year\": 2023, \"sales\": 59, \"median_price\": 365600.0}, {\"year\": 2024, \"sales\": 58, \"median_price\": 390000.0}, {\"year\": 2025, \"sales\": 25, \"median_price\": 240000.0}]", "population": 882, "n_log": null, "n_rp": null, "pct_proprio": null, "pct_hlm": null, "pct_appart": null, "pct_cadres": null, "pct_bac5p": null, "pct_etrangers": null, "pct_0_14": null, "pct_65p": null, "bpe_total": null, "bpe_commerces": null, "bpe_enseignement": null, "bpe_sante": null, "dpe": null, "attractivity_score": null, "rank_attractivity_score": null, "rank_total_attractivity_score": 1, "commune_avg": null, "is_stub": true}}]}