{"type": "FeatureCollection", "features": [{"type": "Feature", "geometry": {"type": "Point", "coordinates": [3.016667, 48.632275]}, "properties": {"id_parcelle": "772010000X0186", "address": "45 RUE DU MOULIN", "sales": 8, "median_price": 177000.0, "median_price_per_sqm": 3051.7241379310344, "median_rooms": 1.5, "first_sale": "2021-06-29", "last_sale": "2025-08-12"}}, {"type": "Feature", "geometry": {"type": "Point", "coordinates": [3.023918, 48.629633]}, "properties": {"id_parcelle": "772010000C0617", "address": "40 GRANDE RUE", "sales": 6, "median_price": 303000.0, "median_price_per_sqm": 4797.5, "median_rooms": 2.0, "first_sale": "2025-10-06", "last_sale": "2025-10-06"}}, {"type": "Feature", "geometry": {"type": "Point", "coordinates": [3.020114, 48.628414]}, "properties": {"id_parcelle": "772010000C0203", "address": "6 PL COLUCHE", "sales": 6, "median_price": 314000.0, "median_price_per_sqm": 3925.0, "median_rooms": 0.0, "first_sale": "2023-01-06", "last_sale": "2024-09-27"}}, {"type": "Feature", "geometry": {"type": "Point", "coordinates": [3.020788, 48.627087]}, "properties": {"id_parcelle": "772010000C0177", "address": "15 PL DE L EGLISE", "sales": 5, "median_price": 347000.0, "median_price_per_sqm": 2496.4028776978416, "median_rooms": 0.0, "first_sale": "2021-12-17", "last_sale": "2021-12-17"}}, {"type": "Feature", "geometry": {"type": "Point", "coordinates": [3.02391, 48.630123]}, "properties": {"id_parcelle": "772010000C0069", "address": "41 GRANDE RUE", "sales": 5, "median_price": 105000.0, "median_price_per_sqm": 1750.0, "median_rooms": 0.0, "first_sale": "2025-04-14", "last_sale": "2025-04-14"}}, {"type": "Feature", "geometry": {"type": "Point", "coordinates": [3.018635, 48.64476]}, "properties": {"id_parcelle": "772010000Z0206", "address": "5002 VAUX", "sales": 5, "median_price": 309219.0, "median_price_per_sqm": 2555.528925619835, "median_rooms": 0.0, "first_sale": "2023-01-11", "last_sale": "2023-01-11"}}, {"type": "Feature", "geometry": {"type": "Point", "coordinates": [3.013951, 48.630796]}, "properties": {"id_parcelle": "772010000X0325", "address": "30 RUE DE LA MARE PLATE", "sales": 4, "median_price": 278500.0, "median_price_per_sqm": 2652.3809523809523, "median_rooms": 5.0, "first_sale": "2021-11-03", "last_sale": "2025-08-07"}}, {"type": "Feature", "geometry": {"type": "Point", "coordinates": [3.018121, 48.630839]}, "properties": {"id_parcelle": "772010000C0222", "address": "5 RLE MOUVANTE", "sales": 4, "median_price": 280000.0, "median_price_per_sqm": 1806.4516129032259, "median_rooms": 2.5, "first_sale": "2021-11-06", "last_sale": "2021-11-06"}}, {"type": "Feature", "geometry": {"type": "Point", "coordinates": [3.023147, 48.629597]}, "properties": {"id_parcelle": "772010000C0458", "address": "32 GRANDE RUE", "sales": 4, "median_price": 205000.0, "median_price_per_sqm": 1553.030303030303, "median_rooms": 0.0, "first_sale": "2025-09-26", "last_sale": "2025-09-26"}}, {"type": "Feature", "geometry": {"type": "Point", "coordinates": [3.022168, 48.629725]}, "properties": {"id_parcelle": "772010000C0379", "address": "GASTINS", "sales": 3, "median_price": 210000.0, "median_price_per_sqm": null, "median_rooms": null, "first_sale": "2024-06-14", "last_sale": "2025-06-16"}}, {"type": "Feature", "geometry": {"type": "Point", "coordinates": [3.024572, 48.630207]}, "properties": {"id_parcelle": "772010000C0402", "address": "51 GR GRANDE RUE", "sales": 3, "median_price": 239000.0, "median_price_per_sqm": 2276.190476190476, "median_rooms": 0.0, "first_sale": "2022-08-31", "last_sale": "2022-08-31"}}, {"type": "Feature", "geometry": {"type": "Point", "coordinates": [3.025525, 48.630428]}, "properties": {"id_parcelle": "772010000C0090", "address": "5059 GR GRANDE RUE", "sales": 3, "median_price": 17700.0, "median_price_per_sqm": null, "median_rooms": 0.0, "first_sale": "2021-03-01", "last_sale": "2021-06-02"}}, {"type": "Feature", "geometry": {"type": "Point", "coordinates": [3.022582, 48.631483]}, "properties": {"id_parcelle": "772010000C0371", "address": "GASTINS", "sales": 3, "median_price": 257000.0, "median_price_per_sqm": null, "median_rooms": null, "first_sale": "2021-05-10", "last_sale": "2024-07-29"}}, {"type": "Feature", "geometry": {"type": "Point", "coordinates": [3.013624, 48.620979]}, "properties": {"id_parcelle": "77201000ZM0018", "address": "LA LONGUE RAIE", "sales": 3, "median_price": 187975.8, "median_price_per_sqm": null, "median_rooms": null, "first_sale": "2022-06-13", "last_sale": "2022-06-13"}}, {"type": "Feature", "geometry": {"type": "Point", "coordinates": [3.017004, 48.633611]}, "properties": {"id_parcelle": "772010000X0356", "address": "40 RUE DU MOULIN", "sales": 3, "median_price": 150000.0, "median_price_per_sqm": 2928.5714285714284, "median_rooms": 0.0, "first_sale": "2024-06-13", "last_sale": "2024-06-13"}}, {"type": "Feature", "geometry": {"type": "Point", "coordinates": [3.015067, 48.638865]}, "properties": {"id_parcelle": "772010000Z0004", "address": "PIECE DE VAUX", "sales": 3, "median_price": 270000.0, "median_price_per_sqm": null, "median_rooms": null, "first_sale": "2023-06-20", "last_sale": "2023-06-20"}}, {"type": "Feature", "geometry": {"type": "Point", "coordinates": [3.025713, 48.630109]}, "properties": {"id_parcelle": "772010000C0364", "address": "1 RUE DU CHESNOY", "sales": 2, "median_price": 247000.0, "median_price_per_sqm": 3478.8732394366198, "median_rooms": 2.0, "first_sale": "2022-04-22", "last_sale": "2022-04-22"}}, {"type": "Feature", "geometry": {"type": "Point", "coordinates": [3.022309, 48.629914]}, "properties": {"id_parcelle": "772010000C0037", "address": "31 GR GRANDE RUE", "sales": 2, "median_price": 169000.0, "median_price_per_sqm": null, "median_rooms": 0.0, "first_sale": "2025-03-07", "last_sale": "2025-03-07"}}, {"type": "Feature", "geometry": {"type": "Point", "coordinates": [3.022197, 48.629965]}, "properties": {"id_parcelle": "772010000C0033", "address": "GASTINS", "sales": 2, "median_price": 192000.0, "median_price_per_sqm": null, "median_rooms": null, "first_sale": "2025-03-07", "last_sale": "2025-06-16"}}, {"type": "Feature", "geometry": {"type": "Point", "coordinates": [3.019486, 48.628309]}, "properties": {"id_parcelle": "772010000C0202", "address": "GASTINS", "sales": 2, "median_price": 314000.0, "median_price_per_sqm": null, "median_rooms": null, "first_sale": "2023-01-06", "last_sale": "2024-09-27"}}, {"type": "Feature", "geometry": {"type": "Point", "coordinates": [3.02005, 48.628453]}, "properties": {"id_parcelle": "772010000C0298", "address": "GASTINS", "sales": 2, "median_price": 314000.0, "median_price_per_sqm": null, "median_rooms": null, "first_sale": "2023-01-06", "last_sale": "2024-09-27"}}, {"type": "Feature", "geometry": {"type": "Point", "coordinates": [3.025519, 48.63047]}, "properties": {"id_parcelle": "772010000C0544", "address": "GASTINS", "sales": 2, "median_price": 103850.0, "median_price_per_sqm": null, "median_rooms": null, "first_sale": "2021-03-01", "last_sale": "2021-06-02"}}, {"type": "Feature", "geometry": {"type": "Point", "coordinates": [3.023273, 48.629658]}, "properties": {"id_parcelle": "772010000C0459", "address": "36 GR GRANDE RUE", "sales": 2, "median_price": 273500.0, "median_price_per_sqm": 2486.3636363636365, "median_rooms": 5.0, "first_sale": "2021-10-29", "last_sale": "2023-11-13"}}, {"type": "Feature", "geometry": {"type": "Point", "coordinates": [3.023139, 48.629669]}, "properties": {"id_parcelle": "772010000C0457", "address": "34 GRANDE RUE", "sales": 2, "median_price": 205000.0, "median_price_per_sqm": null, "median_rooms": 0.0, "first_sale": "2025-09-26", "last_sale": "2025-09-26"}}, {"type": "Feature", "geometry": {"type": "Point", "coordinates": [3.02216, 48.629671]}, "properties": {"id_parcelle": "772010000C0380", "address": "23 GR GRANDE RUE", "sales": 2, "median_price": 210000.0, "median_price_per_sqm": 2100.0, "median_rooms": 1.5, "first_sale": "2024-06-14", "last_sale": "2024-06-14"}}, {"type": "Feature", "geometry": {"type": "Point", "coordinates": [3.02, 48.62834]}, "properties": {"id_parcelle": "772010000C0300", "address": "GASTINS", "sales": 2, "median_price": 314000.0, "median_price_per_sqm": null, "median_rooms": null, "first_sale": "2023-01-06", "last_sale": "2024-09-27"}}, {"type": "Feature", "geometry": {"type": "Point", "coordinates": [3.022898, 48.631516]}, "properties": {"id_parcelle": "772010000C0351", "address": "GASTINS", "sales": 2, "median_price": 258160.0, "median_price_per_sqm": null, "median_rooms": null, "first_sale": "2021-05-10", "last_sale": "2024-07-29"}}, {"type": "Feature", "geometry": {"type": "Point", "coordinates": [3.021223, 48.627408]}, "properties": {"id_parcelle": "772010000C0357", "address": "10 PL DE L EGLISE", "sales": 2, "median_price": 315000.0, "median_price_per_sqm": 3028.846153846154, "median_rooms": 2.0, "first_sale": "2022-09-14", "last_sale": "2022-09-14"}}, {"type": "Feature", "geometry": {"type": "Point", "coordinates": [3.022788, 48.629623]}, "properties": {"id_parcelle": "772010000C0630", "address": "28 GR GRANDE RUE", "sales": 2, "median_price": 194000.0, "median_price_per_sqm": 3880.0, "median_rooms": 1.5, "first_sale": "2023-11-02", "last_sale": "2023-11-02"}}, {"type": "Feature", "geometry": {"type": "Point", "coordinates": [3.01746, 48.634206]}, "properties": {"id_parcelle": "772010000X0084", "address": "40 RUE DU MOULIN", "sales": 2, "median_price": 150000.0, "median_price_per_sqm": 57.449253159708924, "median_rooms": 0.0, "first_sale": "2024-06-13", "last_sale": "2024-06-13"}}, {"type": "Feature", "geometry": {"type": "Point", "coordinates": [3.019891, 48.630839]}, "properties": {"id_parcelle": "772010000C0654", "address": "10 RUE DU MOULIN", "sales": 2, "median_price": 187250.0, "median_price_per_sqm": 3120.8333333333335, "median_rooms": 3.0, "first_sale": "2023-09-14", "last_sale": "2024-11-05"}}, {"type": "Feature", "geometry": {"type": "Point", "coordinates": [3.022387, 48.629808]}, "properties": {"id_parcelle": "772010000C0633", "address": "GASTINS", "sales": 2, "median_price": 192000.0, "median_price_per_sqm": null, "median_rooms": null, "first_sale": "2025-03-07", "last_sale": "2025-06-16"}}, {"type": "Feature", "geometry": {"type": "Point", "coordinates": [3.016521, 48.632403]}, "properties": {"id_parcelle": "772010000X0185", "address": "47 RUE DU MOULIN", "sales": 2, "median_price": 229500.0, "median_price_per_sqm": 3701.6129032258063, "median_rooms": 3.0, "first_sale": "2021-04-06", "last_sale": "2021-04-06"}}, {"type": "Feature", "geometry": {"type": "Point", "coordinates": [3.018438, 48.631814]}, "properties": {"id_parcelle": "772010000X0274", "address": "26 RUE DU MOULIN", "sales": 2, "median_price": 253000.0, "median_price_per_sqm": 3465.753424657534, "median_rooms": 4.0, "first_sale": "2021-04-16", "last_sale": "2021-04-16"}}, {"type": "Feature", "geometry": {"type": "Point", "coordinates": [3.025658, 48.630416]}, "properties": {"id_parcelle": "772010000C0546", "address": "GASTINS", "sales": 2, "median_price": 103850.0, "median_price_per_sqm": null, "median_rooms": null, "first_sale": "2021-03-01", "last_sale": "2021-06-02"}}, {"type": "Feature", "geometry": {"type": "Point", "coordinates": [3.025711, 48.63055]}, "properties": {"id_parcelle": "772010000C0621", "address": "63 GR GRANDE RUE", "sales": 2, "median_price": 221000.0, "median_price_per_sqm": 2046.2962962962963, "median_rooms": 2.0, "first_sale": "2022-01-14", "last_sale": "2022-01-14"}}, {"type": "Feature", "geometry": {"type": "Point", "coordinates": [3.01908, 48.630251]}, "properties": {"id_parcelle": "772010000C0629", "address": "11 RUE DU MOULIN", "sales": 2, "median_price": 232000.0, "median_price_per_sqm": 3515.151515151515, "median_rooms": 1.5, "first_sale": "2025-12-30", "last_sale": "2025-12-30"}}, {"type": "Feature", "geometry": {"type": "Point", "coordinates": [3.014721, 48.630812]}, "properties": {"id_parcelle": "772010000X0294", "address": "22 RUE DE LA MARE PLATE", "sales": 2, "median_price": 109000.0, "median_price_per_sqm": 2018.5185185185185, "median_rooms": 1.0, "first_sale": "2022-01-27", "last_sale": "2022-01-27"}}, {"type": "Feature", "geometry": {"type": "Point", "coordinates": [3.016928, 48.630828]}, "properties": {"id_parcelle": "772010000X0320", "address": "2 RLE MOUVANTE", "sales": 2, "median_price": 231000.0, "median_price_per_sqm": 2566.6666666666665, "median_rooms": 4.0, "first_sale": "2021-05-17", "last_sale": "2021-05-17"}}, {"type": "Feature", "geometry": {"type": "Point", "coordinates": [3.01778, 48.631687]}, "properties": {"id_parcelle": "772010000X0193", "address": "2 RUE DE LA MARE PLATE", "sales": 2, "median_price": 302000.0, "median_price_per_sqm": 4507.462686567164, "median_rooms": 3.0, "first_sale": "2021-08-02", "last_sale": "2021-08-02"}}, {"type": "Feature", "geometry": {"type": "Point", "coordinates": [3.02128, 48.625355]}, "properties": {"id_parcelle": "772010000Y0249", "address": "16 RUE DE LA CROIX", "sales": 2, "median_price": 241000.0, "median_price_per_sqm": 2802.3255813953488, "median_rooms": 3.0, "first_sale": "2022-07-18", "last_sale": "2022-07-18"}}, {"type": "Feature", "geometry": {"type": "Point", "coordinates": [3.032207, 48.63793]}, "properties": {"id_parcelle": "77201000ZH0007", "address": "CHEVRESSON", "sales": 2, "median_price": 56158.9, "median_price_per_sqm": null, "median_rooms": null, "first_sale": "2025-05-14", "last_sale": "2025-05-14"}}, {"type": "Feature", "geometry": {"type": "Point", "coordinates": [3.032496, 48.638166]}, "properties": {"id_parcelle": "77201000ZH0009", "address": "CHEVRESSON", "sales": 2, "median_price": 56158.9, "median_price_per_sqm": null, "median_rooms": null, "first_sale": "2025-05-14", "last_sale": "2025-05-14"}}, {"type": "Feature", "geometry": {"type": "Point", "coordinates": [3.034848, 48.640819]}, "properties": {"id_parcelle": "77201000ZH0013", "address": "CHEVRESSON", "sales": 2, "median_price": 56158.9, "median_price_per_sqm": null, "median_rooms": null, "first_sale": "2025-05-14", "last_sale": "2025-05-14"}}, {"type": "Feature", "geometry": {"type": "Point", "coordinates": [3.024198, 48.634037]}, "properties": {"id_parcelle": "772010000Z0166", "address": "32 RUE DE LIENNE", "sales": 2, "median_price": 221425.0, "median_price_per_sqm": 1959.513274336283, "median_rooms": 5.0, "first_sale": "2023-11-10", "last_sale": "2023-11-10"}}, {"type": "Feature", "geometry": {"type": "Point", "coordinates": [3.031677, 48.628729]}, "properties": {"id_parcelle": "77201000ZI0001", "address": "LE NOCHETON", "sales": 2, "median_price": 187975.8, "median_price_per_sqm": null, "median_rooms": null, "first_sale": "2022-06-13", "last_sale": "2022-06-13"}}, {"type": "Feature", "geometry": {"type": "Point", "coordinates": [3.034867, 48.628221]}, "properties": {"id_parcelle": "77201000ZI0004", "address": "LE NOCHETON", "sales": 2, "median_price": 187975.8, "median_price_per_sqm": null, "median_rooms": null, "first_sale": "2022-06-13", "last_sale": "2022-06-13"}}, {"type": "Feature", "geometry": {"type": "Point", "coordinates": [3.026925, 48.625502]}, "properties": {"id_parcelle": "77201000ZL0007", "address": "REVILLON", "sales": 2, "median_price": 66570.0, "median_price_per_sqm": null, "median_rooms": null, "first_sale": "2021-10-07", "last_sale": "2021-10-07"}}, {"type": "Feature", "geometry": {"type": "Point", "coordinates": [3.037184, 48.62611]}, "properties": {"id_parcelle": "77201000ZI0011", "address": "LE NOCHETON", "sales": 2, "median_price": 98622.0, "median_price_per_sqm": null, "median_rooms": null, "first_sale": "2021-07-23", "last_sale": "2021-07-23"}}, {"type": "Feature", "geometry": {"type": "Point", "coordinates": [3.020253, 48.623839]}, "properties": {"id_parcelle": "77201000ZL0039", "address": "LES TERRES FORTES", "sales": 2, "median_price": 3360.0, "median_price_per_sqm": null, "median_rooms": null, "first_sale": "2025-09-20", "last_sale": "2025-09-20"}}, {"type": "Feature", "geometry": {"type": "Point", "coordinates": [3.003623, 48.637813]}, "properties": {"id_parcelle": "77201000ZN0015", "address": "LES SAULES", "sales": 2, "median_price": 150991.75, "median_price_per_sqm": null, "median_rooms": null, "first_sale": "2024-07-09", "last_sale": "2024-07-09"}}, {"type": "Feature", "geometry": {"type": "Point", "coordinates": [3.016327, 48.628127]}, "properties": {"id_parcelle": "77201000ZO0019", "address": "LES PETITS OISEAUX", "sales": 2, "median_price": 56379.75, "median_price_per_sqm": null, "median_rooms": null, "first_sale": "2023-03-15", "last_sale": "2023-03-15"}}, {"type": "Feature", "geometry": {"type": "Point", "coordinates": [3.012497, 48.63972]}, "properties": {"id_parcelle": "77201000ZP0002", "address": "LA JUSTICE", "sales": 2, "median_price": 98622.0, "median_price_per_sqm": null, "median_rooms": null, "first_sale": "2021-07-23", "last_sale": "2021-07-23"}}]}