{"type": "FeatureCollection", "features": [{"type": "Feature", "geometry": {"type": "Point", "coordinates": [2.675801, 48.878146]}, "properties": {"id_parcelle": "77372000BD0024", "address": "31 IMP DU VIEUX LAVOIR", "sales": 32, "median_price": 205000.0, "median_price_per_sqm": 3933.125, "median_rooms": 0.0, "first_sale": "2021-02-24", "last_sale": "2025-12-09"}}, {"type": "Feature", "geometry": {"type": "Point", "coordinates": [2.699319, 48.881186]}, "properties": {"id_parcelle": "77372000BK0074", "address": "2 QUAI EUGENE GAUDINEAU", "sales": 24, "median_price": 182475.0, "median_price_per_sqm": 3914.4736842105262, "median_rooms": 1.0, "first_sale": "2022-06-23", "last_sale": "2025-08-27"}}, {"type": "Feature", "geometry": {"type": "Point", "coordinates": [2.702895, 48.881153]}, "properties": {"id_parcelle": "77372000BK0014", "address": "14 QUAI BIZEAU", "sales": 21, "median_price": 145000.0, "median_price_per_sqm": 3433.3333333333335, "median_rooms": 0.0, "first_sale": "2022-08-26", "last_sale": "2022-11-22"}}, {"type": "Feature", "geometry": {"type": "Point", "coordinates": [2.702154, 48.882498]}, "properties": {"id_parcelle": "77372000BI0125", "address": "7 RUE DE LA GARE", "sales": 21, "median_price": 130000.0, "median_price_per_sqm": 4250.0, "median_rooms": 0.0, "first_sale": "2021-08-06", "last_sale": "2025-02-18"}}, {"type": "Feature", "geometry": {"type": "Point", "coordinates": [2.672919, 48.878614]}, "properties": {"id_parcelle": "77372000BD0088", "address": "69 RUE DE PARIS", "sales": 20, "median_price": 221065.0, "median_price_per_sqm": 3803.0776826859774, "median_rooms": 1.0, "first_sale": "2021-06-16", "last_sale": "2024-02-14"}}, {"type": "Feature", "geometry": {"type": "Point", "coordinates": [2.699956, 48.88091]}, "properties": {"id_parcelle": "77372000BK0077", "address": "4 RUE MAURICE LAINE", "sales": 19, "median_price": 260000.0, "median_price_per_sqm": 4573.170731707317, "median_rooms": 2.0, "first_sale": "2021-06-21", "last_sale": "2025-12-05"}}, {"type": "Feature", "geometry": {"type": "Point", "coordinates": [2.700079, 48.88245]}, "properties": {"id_parcelle": "77372000BI0134", "address": "83 RUE DU GENERAL LECLERC", "sales": 18, "median_price": 190000.0, "median_price_per_sqm": 4378.333333333333, "median_rooms": 0.0, "first_sale": "2021-03-16", "last_sale": "2025-10-28"}}, {"type": "Feature", "geometry": {"type": "Point", "coordinates": [2.703059, 48.881372]}, "properties": {"id_parcelle": "77372000BK0015", "address": "12 RUE DE MARNE", "sales": 15, "median_price": 212000.0, "median_price_per_sqm": 4433.962264150943, "median_rooms": 0.0, "first_sale": "2021-02-05", "last_sale": "2025-12-10"}}, {"type": "Feature", "geometry": {"type": "Point", "coordinates": [2.700452, 48.882576]}, "properties": {"id_parcelle": "77372000BI0130", "address": "85 RUE DU GENERAL LECLERC", "sales": 14, "median_price": 192000.0, "median_price_per_sqm": 4268.292682926829, "median_rooms": 0.5, "first_sale": "2021-01-08", "last_sale": "2024-04-26"}}, {"type": "Feature", "geometry": {"type": "Point", "coordinates": [2.683734, 48.880316]}, "properties": {"id_parcelle": "77372000BE0023", "address": "7 ALL DU PRIEURE", "sales": 12, "median_price": 187000.0, "median_price_per_sqm": 3267.65601217656, "median_rooms": 1.0, "first_sale": "2021-04-22", "last_sale": "2024-07-05"}}, {"type": "Feature", "geometry": {"type": "Point", "coordinates": [2.665275, 48.886068]}, "properties": {"id_parcelle": "77372000BC0092", "address": "25 RUE DE LA LIBERATION", "sales": 10, "median_price": 390000.0, "median_price_per_sqm": 6331.168831168831, "median_rooms": 0.0, "first_sale": "2021-09-29", "last_sale": "2021-09-29"}}, {"type": "Feature", "geometry": {"type": "Point", "coordinates": [2.666186, 48.888177]}, "properties": {"id_parcelle": "77372000BC0078", "address": "4 AV DE L IMPERATRICE", "sales": 10, "median_price": 859630.0, "median_price_per_sqm": 3070.1071428571427, "median_rooms": 0.0, "first_sale": "2021-10-13", "last_sale": "2021-10-13"}}, {"type": "Feature", "geometry": {"type": "Point", "coordinates": [2.658954, 48.895138]}, "properties": {"id_parcelle": "77372000BA0046", "address": "4 ALL DU DOM DE LA POMPONNETTE", "sales": 10, "median_price": 837000.0, "median_price_per_sqm": 7881.387445021992, "median_rooms": 0.0, "first_sale": "2024-03-21", "last_sale": "2024-03-21"}}, {"type": "Feature", "geometry": {"type": "Point", "coordinates": [2.701538, 48.884781]}, "properties": {"id_parcelle": "77372000BI0181", "address": "14 RUE DES CHENES", "sales": 8, "median_price": 342100.0, "median_price_per_sqm": 4276.25, "median_rooms": 0.0, "first_sale": "2021-07-12", "last_sale": "2021-07-12"}}, {"type": "Feature", "geometry": {"type": "Point", "coordinates": [2.692278, 48.882957]}, "properties": {"id_parcelle": "77372000BH0196", "address": "10 RUE DE BORDEAUX", "sales": 8, "median_price": 607276.0, "median_price_per_sqm": 3892.7948717948716, "median_rooms": 0.0, "first_sale": "2022-09-29", "last_sale": "2024-08-19"}}, {"type": "Feature", "geometry": {"type": "Point", "coordinates": [2.699652, 48.885492]}, "properties": {"id_parcelle": "77372000BI0187", "address": "21 RUE BERTHELOT", "sales": 8, "median_price": 740000.0, "median_price_per_sqm": 4484.848484848485, "median_rooms": 0.0, "first_sale": "2021-09-29", "last_sale": "2021-09-29"}}, {"type": "Feature", "geometry": {"type": "Point", "coordinates": [2.679791, 48.880189]}, "properties": {"id_parcelle": "77372000BD0070", "address": "7 RUE DE PARIS", "sales": 7, "median_price": 1227000.0, "median_price_per_sqm": 28534.883720930233, "median_rooms": 0.0, "first_sale": "2025-04-25", "last_sale": "2025-04-25"}}, {"type": "Feature", "geometry": {"type": "Point", "coordinates": [2.695794, 48.882834]}, "properties": {"id_parcelle": "77372000BH0323", "address": "49 RUE DU GENERAL LECLERC", "sales": 7, "median_price": 700000.0, "median_price_per_sqm": 3375.0, "median_rooms": 0.0, "first_sale": "2025-09-25", "last_sale": "2025-09-25"}}, {"type": "Feature", "geometry": {"type": "Point", "coordinates": [2.698029, 48.880641]}, "properties": {"id_parcelle": "77372000BK0031", "address": "8 QUAI EUGENE GAUDINEAU", "sales": 7, "median_price": 393000.0, "median_price_per_sqm": 9357.142857142857, "median_rooms": 0.0, "first_sale": "2021-10-28", "last_sale": "2021-10-28"}}, {"type": "Feature", "geometry": {"type": "Point", "coordinates": [2.654829, 48.888407]}, "properties": {"id_parcelle": "77372000BB0164", "address": "4 ALL DE L ABBE PIERRE", "sales": 6, "median_price": 590000.0, "median_price_per_sqm": 3105.2631578947367, "median_rooms": 0.0, "first_sale": "2022-09-08", "last_sale": "2022-09-08"}}, {"type": "Feature", "geometry": {"type": "Point", "coordinates": [2.664349, 48.887294]}, "properties": {"id_parcelle": "77372000BC0059", "address": "15 AV DE L IMPERATRICE", "sales": 6, "median_price": 910000.0, "median_price_per_sqm": 5027.624309392265, "median_rooms": 0.0, "first_sale": "2022-03-17", "last_sale": "2022-03-17"}}, {"type": "Feature", "geometry": {"type": "Point", "coordinates": [2.693107, 48.882151]}, "properties": {"id_parcelle": "77372000BH0306", "address": "19 RUE DU GENERAL LECLERC", "sales": 6, "median_price": 190000.0, "median_price_per_sqm": 6175.0, "median_rooms": 1.0, "first_sale": "2021-12-06", "last_sale": "2021-12-06"}}, {"type": "Feature", "geometry": {"type": "Point", "coordinates": [2.702314, 48.881179]}, "properties": {"id_parcelle": "77372000BK0018", "address": "20 QUAI BIZEAU", "sales": 6, "median_price": 250000.0, "median_price_per_sqm": 4583.333333333334, "median_rooms": 0.0, "first_sale": "2021-09-30", "last_sale": "2021-09-30"}}, {"type": "Feature", "geometry": {"type": "Point", "coordinates": [2.702949, 48.88274]}, "properties": {"id_parcelle": "77372000BI0116", "address": "7 RUE DE LA MADELEINE", "sales": 6, "median_price": 164000.0, "median_price_per_sqm": 4162.745098039216, "median_rooms": 0.0, "first_sale": "2021-07-30", "last_sale": "2022-08-10"}}, {"type": "Feature", "geometry": {"type": "Point", "coordinates": [2.6613, 48.884563]}, "properties": {"id_parcelle": "77372000BC0118", "address": "9 RUE DE LA LIBERATION", "sales": 6, "median_price": 875000.0, "median_price_per_sqm": 2500.0, "median_rooms": 0.0, "first_sale": "2023-08-14", "last_sale": "2023-08-14"}}, {"type": "Feature", "geometry": {"type": "Point", "coordinates": [2.69392, 48.881751]}, "properties": {"id_parcelle": "77372000BH0257", "address": "25 RUE DU GENERAL LECLERC", "sales": 6, "median_price": 161500.0, "median_price_per_sqm": 4965.3125, "median_rooms": 0.0, "first_sale": "2022-09-08", "last_sale": "2025-07-11"}}, {"type": "Feature", "geometry": {"type": "Point", "coordinates": [2.701167, 48.882644]}, "properties": {"id_parcelle": "77372000BI0102", "address": "1 RUE DE LA GARE", "sales": 6, "median_price": 1350000.0, "median_price_per_sqm": 7500.0, "median_rooms": 0.0, "first_sale": "2022-06-24", "last_sale": "2022-06-24"}}, {"type": "Feature", "geometry": {"type": "Point", "coordinates": [2.675557, 48.878471]}, "properties": {"id_parcelle": "77372000BD0023", "address": "IMP DU VIEUX LAVOIR", "sales": 5, "median_price": 205000.0, "median_price_per_sqm": null, "median_rooms": null, "first_sale": "2023-01-26", "last_sale": "2025-09-03"}}, {"type": "Feature", "geometry": {"type": "Point", "coordinates": [2.675423, 48.879126]}, "properties": {"id_parcelle": "77372000BD0030", "address": "IMP DU VIEUX LAVOIR", "sales": 5, "median_price": 205000.0, "median_price_per_sqm": null, "median_rooms": null, "first_sale": "2023-01-26", "last_sale": "2025-09-03"}}, {"type": "Feature", "geometry": {"type": "Point", "coordinates": [2.693993, 48.883887]}, "properties": {"id_parcelle": "77372000BH0322", "address": "47 RUE DES CHENES", "sales": 5, "median_price": 220000.0, "median_price_per_sqm": null, "median_rooms": null, "first_sale": "2023-02-03", "last_sale": "2025-09-24"}}, {"type": "Feature", "geometry": {"type": "Point", "coordinates": [2.698315, 48.883122]}, "properties": {"id_parcelle": "77372000BI0154", "address": "21 RUE BEAUSEJOUR", "sales": 4, "median_price": 420000.0, "median_price_per_sqm": 2333.3333333333335, "median_rooms": 4.0, "first_sale": "2022-04-27", "last_sale": "2022-04-27"}}, {"type": "Feature", "geometry": {"type": "Point", "coordinates": [2.666106, 48.887859]}, "properties": {"id_parcelle": "77372000BC0236", "address": "6 AV DE L IMPERATRICE", "sales": 4, "median_price": 592600.0, "median_price_per_sqm": 4144.055944055944, "median_rooms": 4.0, "first_sale": "2023-09-14", "last_sale": "2023-09-14"}}, {"type": "Feature", "geometry": {"type": "Point", "coordinates": [2.659535, 48.893418]}, "properties": {"id_parcelle": "77372000BA0075", "address": "2 AV ALLOU", "sales": 4, "median_price": 890000.0, "median_price_per_sqm": 3632.6530612244896, "median_rooms": 3.0, "first_sale": "2025-06-17", "last_sale": "2025-06-17"}}, {"type": "Feature", "geometry": {"type": "Point", "coordinates": [2.658699, 48.890434]}, "properties": {"id_parcelle": "77372000BB0050", "address": "41 RTE DE VILLEVAUDE", "sales": 4, "median_price": 920000.0, "median_price_per_sqm": 4319.24882629108, "median_rooms": 3.5, "first_sale": "2022-03-10", "last_sale": "2022-03-10"}}, {"type": "Feature", "geometry": {"type": "Point", "coordinates": [2.659873, 48.888151]}, "properties": {"id_parcelle": "77372000BC0005", "address": "31 AV DE L IMPERATRICE", "sales": 4, "median_price": 917070.0, "median_price_per_sqm": 6113.8, "median_rooms": 2.5, "first_sale": "2024-06-06", "last_sale": "2024-06-06"}}, {"type": "Feature", "geometry": {"type": "Point", "coordinates": [2.653916, 48.887763]}, "properties": {"id_parcelle": "77372000BB0115", "address": "4 ALL DES DAHLIAS", "sales": 4, "median_price": 370000.0, "median_price_per_sqm": 2032.967032967033, "median_rooms": 4.0, "first_sale": "2022-06-27", "last_sale": "2022-06-27"}}, {"type": "Feature", "geometry": {"type": "Point", "coordinates": [2.654386, 48.88876]}, "properties": {"id_parcelle": "77372000BB0170", "address": "5 ALL DE L ABBE PIERRE", "sales": 4, "median_price": 585600.0, "median_price_per_sqm": 3271.5083798882683, "median_rooms": 3.5, "first_sale": "2025-03-27", "last_sale": "2025-03-27"}}, {"type": "Feature", "geometry": {"type": "Point", "coordinates": [2.665815, 48.887198]}, "properties": {"id_parcelle": "77372000BC0087", "address": "7 AV DE L IMPERATRICE", "sales": 4, "median_price": 860000.0, "median_price_per_sqm": 2885.9060402684563, "median_rooms": 3.0, "first_sale": "2022-02-16", "last_sale": "2022-02-16"}}, {"type": "Feature", "geometry": {"type": "Point", "coordinates": [2.659061, 48.893652]}, "properties": {"id_parcelle": "77372000BA0020", "address": "2 AV ALLOU", "sales": 4, "median_price": 885717.45, "median_price_per_sqm": 5032.485511363636, "median_rooms": 5.0, "first_sale": "2024-10-16", "last_sale": "2024-10-21"}}, {"type": "Feature", "geometry": {"type": "Point", "coordinates": [2.694007, 48.88347]}, "properties": {"id_parcelle": "77372000BH0317", "address": "47 RUE DES CHENES", "sales": 4, "median_price": 438000.0, "median_price_per_sqm": 3128.5714285714284, "median_rooms": 3.5, "first_sale": "2023-04-28", "last_sale": "2023-04-28"}}, {"type": "Feature", "geometry": {"type": "Point", "coordinates": [2.665338, 48.887196]}, "properties": {"id_parcelle": "77372000BC0238", "address": "9 AV DE L IMPERATRICE", "sales": 4, "median_price": 400000.0, "median_price_per_sqm": 2083.3333333333335, "median_rooms": 3.0, "first_sale": "2022-08-05", "last_sale": "2022-08-05"}}, {"type": "Feature", "geometry": {"type": "Point", "coordinates": [2.65899, 48.886732]}, "properties": {"id_parcelle": "77372000BC0158", "address": "22 CHE DES GRES", "sales": 4, "median_price": 780000.0, "median_price_per_sqm": 3145.1612903225805, "median_rooms": 4.0, "first_sale": "2025-10-01", "last_sale": "2025-10-01"}}, {"type": "Feature", "geometry": {"type": "Point", "coordinates": [2.691802, 48.883]}, "properties": {"id_parcelle": "77372000BH0219", "address": "14 RUE DE BORDEAUX", "sales": 4, "median_price": 360800.0, "median_price_per_sqm": 1377.0992366412213, "median_rooms": 3.5, "first_sale": "2025-04-29", "last_sale": "2025-04-29"}}, {"type": "Feature", "geometry": {"type": "Point", "coordinates": [2.697147, 48.88106]}, "properties": {"id_parcelle": "77372000BK0039", "address": "14 QUAI EUGENE GAUDINEAU", "sales": 4, "median_price": 279350.0, "median_price_per_sqm": 4076.5350877192986, "median_rooms": 1.0, "first_sale": "2025-05-13", "last_sale": "2025-10-10"}}, {"type": "Feature", "geometry": {"type": "Point", "coordinates": [2.703639, 48.881294]}, "properties": {"id_parcelle": "77372000BK0012", "address": "8 QUAI BIZEAU", "sales": 4, "median_price": 175750.0, "median_price_per_sqm": 3357.727272727273, "median_rooms": 1.5, "first_sale": "2023-01-18", "last_sale": "2023-09-26"}}, {"type": "Feature", "geometry": {"type": "Point", "coordinates": [2.665203, 48.885945]}, "properties": {"id_parcelle": "77372000BC0209", "address": "RUE DE LA LIBERATION", "sales": 3, "median_price": 522000.0, "median_price_per_sqm": null, "median_rooms": null, "first_sale": "2021-01-06", "last_sale": "2024-04-26"}}, {"type": "Feature", "geometry": {"type": "Point", "coordinates": [2.69649, 48.882012]}, "properties": {"id_parcelle": "77372000BH0143", "address": "51 RUE DU GENERAL LECLERC", "sales": 3, "median_price": 172850.0, "median_price_per_sqm": 2467.2535211267605, "median_rooms": 0.0, "first_sale": "2025-02-19", "last_sale": "2025-02-27"}}, {"type": "Feature", "geometry": {"type": "Point", "coordinates": [2.688828, 48.887747]}, "properties": {"id_parcelle": "77372000AB0152", "address": "13 ALL D ARMOINS", "sales": 3, "median_price": 212117.19, "median_price_per_sqm": 1657.165546875, "median_rooms": 0.0, "first_sale": "2023-07-06", "last_sale": "2023-07-06"}}, {"type": "Feature", "geometry": {"type": "Point", "coordinates": [2.679635, 48.880049]}, "properties": {"id_parcelle": "77372000BD0067", "address": "9 RUE DE PARIS", "sales": 3, "median_price": 1227000.0, "median_price_per_sqm": 28483.928571428572, "median_rooms": 1.0, "first_sale": "2025-04-25", "last_sale": "2025-04-25"}}, {"type": "Feature", "geometry": {"type": "Point", "coordinates": [2.664457, 48.886682]}, "properties": {"id_parcelle": "77372000BC0211", "address": "RUE DE LA LIBERATION", "sales": 3, "median_price": 522000.0, "median_price_per_sqm": null, "median_rooms": null, "first_sale": "2021-01-06", "last_sale": "2024-04-26"}}, {"type": "Feature", "geometry": {"type": "Point", "coordinates": [2.7014, 48.883784]}, "properties": {"id_parcelle": "77372000BI0078", "address": "36 RUE BEAUSEJOUR", "sales": 3, "median_price": 607000.0, "median_price_per_sqm": 3967.3202614379084, "median_rooms": 0.0, "first_sale": "2025-11-14", "last_sale": "2025-11-14"}}, {"type": "Feature", "geometry": {"type": "Point", "coordinates": [2.664706, 48.886482]}, "properties": {"id_parcelle": "77372000BC0216", "address": "RUE DE LA LIBERATION", "sales": 3, "median_price": 522000.0, "median_price_per_sqm": null, "median_rooms": null, "first_sale": "2021-01-06", "last_sale": "2024-04-26"}}, {"type": "Feature", "geometry": {"type": "Point", "coordinates": [2.689263, 48.88719]}, "properties": {"id_parcelle": "77372000AB0135", "address": "16 ALL D ARMOINS", "sales": 2, "median_price": 362925.0, "median_price_per_sqm": 3593.3168316831684, "median_rooms": 5.0, "first_sale": "2023-09-04", "last_sale": "2024-08-19"}}, {"type": "Feature", "geometry": {"type": "Point", "coordinates": [2.658982, 48.888568]}, "properties": {"id_parcelle": "77372000BC0002", "address": "30 CHE DES GRES", "sales": 2, "median_price": 583050.0, "median_price_per_sqm": 4164.642857142857, "median_rooms": 2.5, "first_sale": "2023-08-29", "last_sale": "2023-08-29"}}, {"type": "Feature", "geometry": {"type": "Point", "coordinates": [2.658995, 48.893266]}, "properties": {"id_parcelle": "77372000BA0019", "address": "AV ALLOU", "sales": 2, "median_price": 885717.45, "median_price_per_sqm": null, "median_rooms": null, "first_sale": "2024-10-16", "last_sale": "2024-10-21"}}, {"type": "Feature", "geometry": {"type": "Point", "coordinates": [2.656856, 48.892143]}, "properties": {"id_parcelle": "77372000BA0002", "address": "9 RUE DU BOIS", "sales": 2, "median_price": 875000.0, "median_price_per_sqm": 4088.785046728972, "median_rooms": 6.0, "first_sale": "2022-07-28", "last_sale": "2022-07-28"}}, {"type": "Feature", "geometry": {"type": "Point", "coordinates": [2.692143, 48.886455]}, "properties": {"id_parcelle": "77372000AB0328", "address": "10 ALL DE L ECOLE", "sales": 2, "median_price": 369555.0, "median_price_per_sqm": 4506.768292682927, "median_rooms": 2.0, "first_sale": "2024-07-31", "last_sale": "2024-07-31"}}, {"type": "Feature", "geometry": {"type": "Point", "coordinates": [2.688215, 48.887758]}, "properties": {"id_parcelle": "77372000AB0145", "address": "5 ALL D ARMOINS", "sales": 2, "median_price": 415000.0, "median_price_per_sqm": 3320.0, "median_rooms": 2.0, "first_sale": "2023-04-05", "last_sale": "2023-04-05"}}, {"type": "Feature", "geometry": {"type": "Point", "coordinates": [2.659308, 48.894221]}, "properties": {"id_parcelle": "77372000BA0097", "address": "65 RTE DE VILLEVAUDE", "sales": 2, "median_price": 300000.0, "median_price_per_sqm": null, "median_rooms": null, "first_sale": "2022-09-17", "last_sale": "2022-09-17"}}, {"type": "Feature", "geometry": {"type": "Point", "coordinates": [2.655462, 48.890534]}, "properties": {"id_parcelle": "77372000BB0014", "address": "11 ALL DE L ABBE PIERRE", "sales": 2, "median_price": 765050.0, "median_price_per_sqm": 3326.304347826087, "median_rooms": 7.0, "first_sale": "2021-05-05", "last_sale": "2021-05-05"}}, {"type": "Feature", "geometry": {"type": "Point", "coordinates": [2.656841, 48.887164]}, "properties": {"id_parcelle": "77372000BB0078", "address": "6 ALL DES PETUNIAS", "sales": 2, "median_price": 690000.0, "median_price_per_sqm": 3670.2127659574467, "median_rooms": 6.0, "first_sale": "2025-05-28", "last_sale": "2025-05-28"}}, {"type": "Feature", "geometry": {"type": "Point", "coordinates": [2.656964, 48.888649]}, "properties": {"id_parcelle": "77372000BB0089", "address": "41 AV DE L IMPERATRICE", "sales": 2, "median_price": 725000.0, "median_price_per_sqm": 4050.2793296089385, "median_rooms": 5.0, "first_sale": "2022-01-27", "last_sale": "2022-01-27"}}, {"type": "Feature", "geometry": {"type": "Point", "coordinates": [2.666616, 48.888051]}, "properties": {"id_parcelle": "77372000BC0079", "address": "2 AV DE L IMPERATRICE", "sales": 2, "median_price": 480000.0, "median_price_per_sqm": 3310.344827586207, "median_rooms": 5.0, "first_sale": "2021-05-07", "last_sale": "2021-05-07"}}, {"type": "Feature", "geometry": {"type": "Point", "coordinates": [2.664604, 48.888101]}, "properties": {"id_parcelle": "77372000BC0062", "address": "16 AV DE L IMPERATRICE", "sales": 2, "median_price": 570000.0, "median_price_per_sqm": null, "median_rooms": null, "first_sale": "2021-07-30", "last_sale": "2021-07-30"}}, {"type": "Feature", "geometry": {"type": "Point", "coordinates": [2.663739, 48.887085]}, "properties": {"id_parcelle": "77372000BC0058", "address": "17 AV DE L IMPERATRICE", "sales": 2, "median_price": 881720.0, "median_price_per_sqm": null, "median_rooms": null, "first_sale": "2021-06-30", "last_sale": "2021-06-30"}}, {"type": "Feature", "geometry": {"type": "Point", "coordinates": [2.653843, 48.887308]}, "properties": {"id_parcelle": "77372000BB0109", "address": "2 ALL DES DAHLIAS", "sales": 2, "median_price": 690000.0, "median_price_per_sqm": 3631.5789473684213, "median_rooms": 6.0, "first_sale": "2025-12-08", "last_sale": "2025-12-08"}}, {"type": "Feature", "geometry": {"type": "Point", "coordinates": [2.656578, 48.889571]}, "properties": {"id_parcelle": "77372000BB0160", "address": "5 AV DES CHAMPS ELYSEES", "sales": 2, "median_price": 698500.0, "median_price_per_sqm": 4817.241379310345, "median_rooms": 5.0, "first_sale": "2022-05-18", "last_sale": "2022-05-18"}}, {"type": "Feature", "geometry": {"type": "Point", "coordinates": [2.655456, 48.889566]}, "properties": {"id_parcelle": "77372000BB0158", "address": "10 ALL DE L ABBE PIERRE", "sales": 2, "median_price": 828450.0, "median_price_per_sqm": 6903.75, "median_rooms": 4.0, "first_sale": "2021-08-27", "last_sale": "2021-08-27"}}, {"type": "Feature", "geometry": {"type": "Point", "coordinates": [2.658967, 48.888337]}, "properties": {"id_parcelle": "77372000BC0001", "address": "30 CHE DES GRES", "sales": 2, "median_price": 583050.0, "median_price_per_sqm": null, "median_rooms": null, "first_sale": "2023-08-29", "last_sale": "2023-08-29"}}, {"type": "Feature", "geometry": {"type": "Point", "coordinates": [2.695507, 48.885726]}, "properties": {"id_parcelle": "77372000BH0030", "address": "46 RUE BERTHELOT", "sales": 2, "median_price": 598700.0, "median_price_per_sqm": 3718.6335403726707, "median_rooms": 5.0, "first_sale": "2024-02-09", "last_sale": "2024-02-09"}}, {"type": "Feature", "geometry": {"type": "Point", "coordinates": [2.682043, 48.879908]}, "properties": {"id_parcelle": "77372000BE0030", "address": "17 ALL DU PRIEURE", "sales": 2, "median_price": 361000.0, "median_price_per_sqm": 3166.6666666666665, "median_rooms": 4.0, "first_sale": "2024-12-03", "last_sale": "2024-12-03"}}, {"type": "Feature", "geometry": {"type": "Point", "coordinates": [2.692644, 48.885559]}, "properties": {"id_parcelle": "77372000BH0003", "address": "66 RUE BERTHELOT", "sales": 2, "median_price": 360000.0, "median_price_per_sqm": 3750.0, "median_rooms": 5.0, "first_sale": "2024-10-14", "last_sale": "2024-10-14"}}, {"type": "Feature", "geometry": {"type": "Point", "coordinates": [2.692855, 48.885623]}, "properties": {"id_parcelle": "77372000BH0004", "address": "64 RUE BERTHELOT", "sales": 2, "median_price": 350000.0, "median_price_per_sqm": 3888.8888888888887, "median_rooms": 4.0, "first_sale": "2023-11-14", "last_sale": "2023-11-14"}}, {"type": "Feature", "geometry": {"type": "Point", "coordinates": [2.660634, 48.885159]}, "properties": {"id_parcelle": "77372000BC0125", "address": "15 RUE DU CLOS DE POMPONNE", "sales": 2, "median_price": 505000.0, "median_price_per_sqm": 3366.6666666666665, "median_rooms": 3.0, "first_sale": "2022-07-12", "last_sale": "2022-07-12"}}, {"type": "Feature", "geometry": {"type": "Point", "coordinates": [2.664203, 48.886773]}, "properties": {"id_parcelle": "77372000BC0212", "address": "23 RUE DE LA LIBERATION", "sales": 2, "median_price": 960150.0, "median_price_per_sqm": 5080.158730158731, "median_rooms": 5.0, "first_sale": "2024-04-26", "last_sale": "2024-04-26"}}, {"type": "Feature", "geometry": {"type": "Point", "coordinates": [2.664445, 48.886472]}, "properties": {"id_parcelle": "77372000BC0210", "address": "21 RUE DE LA LIBERATION", "sales": 2, "median_price": 401000.0, "median_price_per_sqm": null, "median_rooms": null, "first_sale": "2021-01-06", "last_sale": "2021-04-23"}}, {"type": "Feature", "geometry": {"type": "Point", "coordinates": [2.673069, 48.879301]}, "properties": {"id_parcelle": "77372000BD0006", "address": "63 RUE DE PARIS", "sales": 2, "median_price": 1180000.0, "median_price_per_sqm": 11800.0, "median_rooms": 2.0, "first_sale": "2023-06-01", "last_sale": "2023-06-01"}}, {"type": "Feature", "geometry": {"type": "Point", "coordinates": [2.679888, 48.879966]}, "properties": {"id_parcelle": "77372000BD0068", "address": "5 RUE DE PARIS", "sales": 2, "median_price": 1227000.0, "median_price_per_sqm": 15337.5, "median_rooms": 2.0, "first_sale": "2025-04-25", "last_sale": "2025-04-25"}}, {"type": "Feature", "geometry": {"type": "Point", "coordinates": [2.691484, 48.882568]}, "properties": {"id_parcelle": "77372000BH0215", "address": "10 RUE DE BORDEAUX", "sales": 2, "median_price": 590000.0, "median_price_per_sqm": 3041.237113402062, "median_rooms": 7.0, "first_sale": "2022-07-11", "last_sale": "2022-07-11"}}, {"type": "Feature", "geometry": {"type": "Point", "coordinates": [2.693037, 48.883359]}, "properties": {"id_parcelle": "77372000BH0186", "address": "5 ALL DES NOYERS", "sales": 2, "median_price": 340500.0, "median_price_per_sqm": 3783.3333333333335, "median_rooms": 2.5, "first_sale": "2023-02-28", "last_sale": "2023-02-28"}}, {"type": "Feature", "geometry": {"type": "Point", "coordinates": [2.694109, 48.88221]}, "properties": {"id_parcelle": "77372000BH0156", "address": "14 IMP HENRI LEBASQUE", "sales": 2, "median_price": 293975.0, "median_price_per_sqm": 3397.111780455154, "median_rooms": 4.5, "first_sale": "2021-08-12", "last_sale": "2024-03-19"}}, {"type": "Feature", "geometry": {"type": "Point", "coordinates": [2.696288, 48.883852]}, "properties": {"id_parcelle": "77372000BH0109", "address": "33 RUE DES CHENES", "sales": 2, "median_price": 295000.0, "median_price_per_sqm": 4338.235294117647, "median_rooms": 2.0, "first_sale": "2022-10-31", "last_sale": "2022-10-31"}}, {"type": "Feature", "geometry": {"type": "Point", "coordinates": [2.696199, 48.885067]}, "properties": {"id_parcelle": "77372000BH0052", "address": "47 RUE BERTHELOT", "sales": 2, "median_price": 283000.0, "median_price_per_sqm": 3329.4117647058824, "median_rooms": 1.5, "first_sale": "2021-07-13", "last_sale": "2021-07-13"}}, {"type": "Feature", "geometry": {"type": "Point", "coordinates": [2.695801, 48.885157]}, "properties": {"id_parcelle": "77372000BH0054", "address": "49 RUE BERTHELOT", "sales": 2, "median_price": 460258.0, "median_price_per_sqm": 4073.079646017699, "median_rooms": 3.0, "first_sale": "2021-06-11", "last_sale": "2021-06-11"}}, {"type": "Feature", "geometry": {"type": "Point", "coordinates": [2.6931, 48.885687]}, "properties": {"id_parcelle": "77372000BH0005", "address": "62 RUE BERTHELOT", "sales": 2, "median_price": 1300000.0, "median_price_per_sqm": 4498.269896193771, "median_rooms": 7.0, "first_sale": "2022-02-16", "last_sale": "2022-02-16"}}, {"type": "Feature", "geometry": {"type": "Point", "coordinates": [2.692223, 48.882555]}, "properties": {"id_parcelle": "77372000BH0303", "address": "10 RUE DE BORDEAUX", "sales": 2, "median_price": 174375.0, "median_price_per_sqm": null, "median_rooms": null, "first_sale": "2021-04-08", "last_sale": "2021-05-05"}}, {"type": "Feature", "geometry": {"type": "Point", "coordinates": [2.70067, 48.883208]}, "properties": {"id_parcelle": "77372000BI0090", "address": "1 AV CLAIRE", "sales": 2, "median_price": 575000.0, "median_price_per_sqm": 3194.4444444444443, "median_rooms": 7.0, "first_sale": "2021-04-13", "last_sale": "2021-04-13"}}, {"type": "Feature", "geometry": {"type": "Point", "coordinates": [2.702681, 48.884843]}, "properties": {"id_parcelle": "77372000BI0051", "address": "2 RUE DES CHENES", "sales": 2, "median_price": 600000.0, "median_price_per_sqm": 2608.695652173913, "median_rooms": 8.0, "first_sale": "2022-02-15", "last_sale": "2022-02-15"}}, {"type": "Feature", "geometry": {"type": "Point", "coordinates": [2.701686, 48.885855]}, "properties": {"id_parcelle": "77372000BI0030", "address": "7 RUE BERTHELOT", "sales": 2, "median_price": 732825.0, "median_price_per_sqm": 4638.132911392405, "median_rooms": 6.0, "first_sale": "2021-07-21", "last_sale": "2021-07-21"}}, {"type": "Feature", "geometry": {"type": "Point", "coordinates": [2.691612, 48.88358]}, "properties": {"id_parcelle": "77372000BH0225", "address": "22 RUE DE BORDEAUX", "sales": 2, "median_price": 370000.0, "median_price_per_sqm": 2803.030303030303, "median_rooms": 5.0, "first_sale": "2025-10-10", "last_sale": "2025-10-10"}}, {"type": "Feature", "geometry": {"type": "Point", "coordinates": [2.691662, 48.884186]}, "properties": {"id_parcelle": "77372000BH0232", "address": "69 RUE DES CHENES", "sales": 2, "median_price": 467690.0, "median_price_per_sqm": 4251.727272727273, "median_rooms": 3.0, "first_sale": "2022-07-29", "last_sale": "2022-07-29"}}, {"type": "Feature", "geometry": {"type": "Point", "coordinates": [2.692673, 48.882381]}, "properties": {"id_parcelle": "77372000BH0291", "address": "10 RUE DE BORDEAUX", "sales": 2, "median_price": 174375.0, "median_price_per_sqm": null, "median_rooms": null, "first_sale": "2021-04-08", "last_sale": "2021-05-05"}}, {"type": "Feature", "geometry": {"type": "Point", "coordinates": [2.692396, 48.882396]}, "properties": {"id_parcelle": "77372000BH0300", "address": "10 RUE DE BORDEAUX", "sales": 2, "median_price": 347250.0, "median_price_per_sqm": 3694.148936170213, "median_rooms": 4.0, "first_sale": "2021-05-05", "last_sale": "2021-05-05"}}, {"type": "Feature", "geometry": {"type": "Point", "coordinates": [2.701445, 48.882948]}, "properties": {"id_parcelle": "77372000BI0103", "address": "4 RUE CHARTIER", "sales": 2, "median_price": 425000.0, "median_price_per_sqm": 3863.6363636363635, "median_rooms": 1.5, "first_sale": "2023-10-18", "last_sale": "2023-10-18"}}]}