{"type": "FeatureCollection", "features": [{"type": "Feature", "geometry": {"type": "Point", "coordinates": [2.700079, 48.88245]}, "properties": {"street_name": "RUE DU GENERAL LECLERC", "sales": 61, "sales_appt": 21, "sales_maison": 5, "median_price": 190000.0, "median_price_per_sqm": 4391.547619047618, "turnover_score": 100.0, "turnover_rank": 1, "first_year": 2021, "last_year": 2025, "years_active": 5}}, {"type": "Feature", "geometry": {"type": "Point", "coordinates": [2.673238, 48.879385]}, "properties": {"street_name": "RUE DE PARIS", "sales": 53, "sales_appt": 16, "sales_maison": 11, "median_price": 350250.0, "median_price_per_sqm": 3935.3932584269664, "turnover_score": 86.9, "turnover_rank": 2, "first_year": 2021, "last_year": 2025, "years_active": 5}}, {"type": "Feature", "geometry": {"type": "Point", "coordinates": [2.665759, 48.8879]}, "properties": {"street_name": "AV DE L IMPERATRICE", "sales": 52, "sales_appt": 0, "sales_maison": 19, "median_price": 859630.0, "median_price_per_sqm": 4026.1187214611873, "turnover_score": 85.2, "turnover_rank": 3, "first_year": 2021, "last_year": 2025, "years_active": 5}}, {"type": "Feature", "geometry": {"type": "Point", "coordinates": [2.675801, 48.878146]}, "properties": {"street_name": "IMP DU VIEUX LAVOIR", "sales": 42, "sales_appt": 11, "sales_maison": 0, "median_price": 205000.0, "median_price_per_sqm": 3933.125, "turnover_score": 68.9, "turnover_rank": 4, "first_year": 2021, "last_year": 2025, "years_active": 5}}, {"type": "Feature", "geometry": {"type": "Point", "coordinates": [2.699319, 48.881186]}, "properties": {"street_name": "QUAI EUGENE GAUDINEAU", "sales": 36, "sales_appt": 19, "sales_maison": 1, "median_price": 229250.0, "median_price_per_sqm": 4196.1779448621555, "turnover_score": 59.0, "turnover_rank": 5, "first_year": 2021, "last_year": 2025, "years_active": 5}}, {"type": "Feature", "geometry": {"type": "Point", "coordinates": [2.6941255, 48.884115]}, "properties": {"street_name": "RUE DES CHENES", "sales": 34, "sales_appt": 0, "sales_maison": 9, "median_price": 342100.0, "median_price_per_sqm": 3351.063829787234, "turnover_score": 55.7, "turnover_rank": 6, "first_year": 2021, "last_year": 2025, "years_active": 5}}, {"type": "Feature", "geometry": {"type": "Point", "coordinates": [2.702895, 48.881153]}, "properties": {"street_name": "QUAI BIZEAU", "sales": 32, "sales_appt": 12, "sales_maison": 0, "median_price": 160000.0, "median_price_per_sqm": 3773.5714285714284, "turnover_score": 52.5, "turnover_rank": 7, "first_year": 2021, "last_year": 2023, "years_active": 3}}, {"type": "Feature", "geometry": {"type": "Point", "coordinates": [2.696199, 48.885492]}, "properties": {"street_name": "RUE BERTHELOT", "sales": 31, "sales_appt": 0, "sales_maison": 18, "median_price": 460258.0, "median_price_per_sqm": 3980.984267453294, "turnover_score": 50.8, "turnover_rank": 8, "first_year": 2021, "last_year": 2025, "years_active": 5}}, {"type": "Feature", "geometry": {"type": "Point", "coordinates": [2.664706, 48.886068]}, "properties": {"street_name": "RUE DE LA LIBERATION", "sales": 30, "sales_appt": 4, "sales_maison": 4, "median_price": 522000.0, "median_price_per_sqm": 5325.793650793651, "turnover_score": 49.2, "turnover_rank": 9, "first_year": 2021, "last_year": 2024, "years_active": 3}}, {"type": "Feature", "geometry": {"type": "Point", "coordinates": [2.6766715000000003, 48.8875685]}, "properties": {"street_name": "LE PARC", "sales": 28, "sales_appt": 0, "sales_maison": 0, "median_price": 634000.0, "median_price_per_sqm": null, "turnover_score": 45.9, "turnover_rank": 10, "first_year": 2021, "last_year": 2023, "years_active": 2}}, {"type": "Feature", "geometry": {"type": "Point", "coordinates": [2.702154, 48.882498]}, "properties": {"street_name": "RUE DE LA GARE", "sales": 27, "sales_appt": 7, "sales_maison": 2, "median_price": 140000.0, "median_price_per_sqm": 4705.882352941177, "turnover_score": 44.3, "turnover_rank": 11, "first_year": 2021, "last_year": 2025, "years_active": 5}}, {"type": "Feature", "geometry": {"type": "Point", "coordinates": [2.6922505, 48.882957]}, "properties": {"street_name": "RUE DE BORDEAUX", "sales": 26, "sales_appt": 0, "sales_maison": 10, "median_price": 365400.0, "median_price_per_sqm": 3041.237113402062, "turnover_score": 42.6, "turnover_rank": 12, "first_year": 2021, "last_year": 2025, "years_active": 4}}, {"type": "Feature", "geometry": {"type": "Point", "coordinates": [2.654829, 48.88876]}, "properties": {"street_name": "ALL DE L ABBE PIERRE", "sales": 22, "sales_appt": 0, "sales_maison": 8, "median_price": 590000.0, "median_price_per_sqm": 3298.906363857178, "turnover_score": 36.1, "turnover_rank": 13, "first_year": 2021, "last_year": 2025, "years_active": 4}}, {"type": "Feature", "geometry": {"type": "Point", "coordinates": [2.699956, 48.88091]}, "properties": {"street_name": "RUE MAURICE LAINE", "sales": 19, "sales_appt": 15, "sales_maison": 0, "median_price": 260000.0, "median_price_per_sqm": 4573.170731707317, "turnover_score": 31.1, "turnover_rank": 14, "first_year": 2021, "last_year": 2025, "years_active": 4}}, {"type": "Feature", "geometry": {"type": "Point", "coordinates": [2.703059, 48.881372]}, "properties": {"street_name": "RUE DE MARNE", "sales": 15, "sales_appt": 7, "sales_maison": 0, "median_price": 212000.0, "median_price_per_sqm": 4433.962264150943, "turnover_score": 24.6, "turnover_rank": 15, "first_year": 2021, "last_year": 2025, "years_active": 4}}, {"type": "Feature", "geometry": {"type": "Point", "coordinates": [2.683734, 48.880316]}, "properties": {"street_name": "ALL DU PRIEURE", "sales": 14, "sales_appt": 6, "sales_maison": 2, "median_price": 199000.0, "median_price_per_sqm": 3166.6666666666665, "turnover_score": 23.0, "turnover_rank": 16, "first_year": 2021, "last_year": 2024, "years_active": 3}}, {"type": "Feature", "geometry": {"type": "Point", "coordinates": [2.659061, 48.893418]}, "properties": {"street_name": "AV ALLOU", "sales": 11, "sales_appt": 0, "sales_maison": 6, "median_price": 890000.0, "median_price_per_sqm": 3948.8636363636365, "turnover_score": 18.0, "turnover_rank": 17, "first_year": 2024, "last_year": 2025, "years_active": 2}}, {"type": "Feature", "geometry": {"type": "Point", "coordinates": [2.658954, 48.895138]}, "properties": {"street_name": "ALL DU DOM DE LA POMPONNETTE", "sales": 10, "sales_appt": 0, "sales_maison": 4, "median_price": 837000.0, "median_price_per_sqm": 7881.387445021992, "turnover_score": 16.4, "turnover_rank": 18, "first_year": 2024, "last_year": 2024, "years_active": 1}}, {"type": "Feature", "geometry": {"type": "Point", "coordinates": [2.699214, 48.883294]}, "properties": {"street_name": "RUE BEAUSEJOUR", "sales": 10, "sales_appt": 0, "sales_maison": 6, "median_price": 420000.0, "median_price_per_sqm": 4016.1804559222064, "turnover_score": 16.4, "turnover_rank": 18, "first_year": 2022, "last_year": 2025, "years_active": 4}}, {"type": "Feature", "geometry": {"type": "Point", "coordinates": [2.688828, 48.887747]}, "properties": {"street_name": "ALL D ARMOINS", "sales": 9, "sales_appt": 0, "sales_maison": 6, "median_price": 362290.0, "median_price_per_sqm": 3373.675213675214, "turnover_score": 14.8, "turnover_rank": 19, "first_year": 2021, "last_year": 2024, "years_active": 3}}, {"type": "Feature", "geometry": {"type": "Point", "coordinates": [2.658986, 48.8875345]}, "properties": {"street_name": "CHE DES GRES", "sales": 8, "sales_appt": 0, "sales_maison": 3, "median_price": 681525.0, "median_price_per_sqm": 3145.1612903225805, "turnover_score": 13.1, "turnover_rank": 20, "first_year": 2023, "last_year": 2025, "years_active": 2}}, {"type": "Feature", "geometry": {"type": "Point", "coordinates": [2.702949, 48.88274]}, "properties": {"street_name": "RUE DE LA MADELEINE", "sales": 8, "sales_appt": 3, "sales_maison": 0, "median_price": 164000.0, "median_price_per_sqm": 4256.0, "turnover_score": 13.1, "turnover_rank": 20, "first_year": 2021, "last_year": 2024, "years_active": 3}}, {"type": "Feature", "geometry": {"type": "Point", "coordinates": [2.653916, 48.887763]}, "properties": {"street_name": "ALL DES DAHLIAS", "sales": 7, "sales_appt": 0, "sales_maison": 5, "median_price": 370000.0, "median_price_per_sqm": 2032.967032967033, "turnover_score": 11.5, "turnover_rank": 21, "first_year": 2022, "last_year": 2025, "years_active": 2}}, {"type": "Feature", "geometry": {"type": "Point", "coordinates": [2.658699, 48.890434]}, "properties": {"street_name": "RTE DE VILLEVAUDE", "sales": 6, "sales_appt": 0, "sales_maison": 2, "median_price": 920000.0, "median_price_per_sqm": 4319.24882629108, "turnover_score": 9.8, "turnover_rank": 22, "first_year": 2022, "last_year": 2022, "years_active": 1}}, {"type": "Feature", "geometry": {"type": "Point", "coordinates": [2.660666, 48.885159]}, "properties": {"street_name": "RUE DU CLOS DE POMPONNE", "sales": 5, "sales_appt": 0, "sales_maison": 4, "median_price": 505000.0, "median_price_per_sqm": 3460.0, "turnover_score": 8.2, "turnover_rank": 23, "first_year": 2021, "last_year": 2022, "years_active": 2}}, {"type": "Feature", "geometry": {"type": "Point", "coordinates": [2.6975724999999997, 48.8835215]}, "properties": {"street_name": "RUE RES DU CLOS DES CHENES", "sales": 4, "sales_appt": 0, "sales_maison": 4, "median_price": 396500.0, "median_price_per_sqm": 3459.5346845560944, "turnover_score": 6.6, "turnover_rank": 24, "first_year": 2021, "last_year": 2025, "years_active": 3}}, {"type": "Feature", "geometry": {"type": "Point", "coordinates": [2.693037, 48.883359]}, "properties": {"street_name": "ALL DES NOYERS", "sales": 3, "sales_appt": 0, "sales_maison": 2, "median_price": 340500.0, "median_price_per_sqm": 3602.912698412699, "turnover_score": 4.9, "turnover_rank": 25, "first_year": 2023, "last_year": 2024, "years_active": 2}}, {"type": "Feature", "geometry": {"type": "Point", "coordinates": [2.701445, 48.882948]}, "properties": {"street_name": "RUE CHARTIER", "sales": 3, "sales_appt": 0, "sales_maison": 2, "median_price": 425000.0, "median_price_per_sqm": 3374.1258741258744, "turnover_score": 4.9, "turnover_rank": 25, "first_year": 2021, "last_year": 2023, "years_active": 2}}, {"type": "Feature", "geometry": {"type": "Point", "coordinates": [2.658508, 48.891177]}, "properties": {"street_name": "AV DU GUE DE LAUNAY", "sales": 3, "sales_appt": 0, "sales_maison": 1, "median_price": 285000.0, "median_price_per_sqm": 7240.0, "turnover_score": 4.9, "turnover_rank": 25, "first_year": 2021, "last_year": 2025, "years_active": 2}}, {"type": "Feature", "geometry": {"type": "Point", "coordinates": [2.656578, 48.889571]}, "properties": {"street_name": "AV DES CHAMPS ELYSEES", "sales": 3, "sales_appt": 0, "sales_maison": 2, "median_price": 698500.0, "median_price_per_sqm": 4817.241379310345, "turnover_score": 4.9, "turnover_rank": 25, "first_year": 2022, "last_year": 2022, "years_active": 1}}, {"type": "Feature", "geometry": {"type": "Point", "coordinates": [2.656841, 48.887164]}, "properties": {"street_name": "ALL DES PETUNIAS", "sales": 2, "sales_appt": 0, "sales_maison": 2, "median_price": 690000.0, "median_price_per_sqm": 3670.2127659574467, "turnover_score": 3.3, "turnover_rank": 26, "first_year": 2025, "last_year": 2025, "years_active": 1}}, {"type": "Feature", "geometry": {"type": "Point", "coordinates": [2.692143, 48.886455]}, "properties": {"street_name": "ALL DE L ECOLE", "sales": 2, "sales_appt": 0, "sales_maison": 1, "median_price": 369555.0, "median_price_per_sqm": 4506.768292682927, "turnover_score": 3.3, "turnover_rank": 26, "first_year": 2024, "last_year": 2024, "years_active": 1}}, {"type": "Feature", "geometry": {"type": "Point", "coordinates": [2.70067, 48.883208]}, "properties": {"street_name": "AV CLAIRE", "sales": 2, "sales_appt": 0, "sales_maison": 2, "median_price": 575000.0, "median_price_per_sqm": 3194.4444444444443, "turnover_score": 3.3, "turnover_rank": 26, "first_year": 2021, "last_year": 2021, "years_active": 1}}, {"type": "Feature", "geometry": {"type": "Point", "coordinates": [2.656856, 48.892143]}, "properties": {"street_name": "RUE DU BOIS", "sales": 2, "sales_appt": 0, "sales_maison": 2, "median_price": 875000.0, "median_price_per_sqm": 4088.785046728972, "turnover_score": 3.3, "turnover_rank": 26, "first_year": 2022, "last_year": 2022, "years_active": 1}}, {"type": "Feature", "geometry": {"type": "Point", "coordinates": [2.6665574999999997, 48.8940535]}, "properties": {"street_name": "LE BOIS DES BOULEAUX", "sales": 2, "sales_appt": 0, "sales_maison": 0, "median_price": 185000.0, "median_price_per_sqm": null, "turnover_score": 3.3, "turnover_rank": 26, "first_year": 2024, "last_year": 2024, "years_active": 1}}, {"type": "Feature", "geometry": {"type": "Point", "coordinates": [2.6886025, 48.8857405]}, "properties": {"street_name": "ALL DES PRESSOIRS", "sales": 2, "sales_appt": 0, "sales_maison": 2, "median_price": 388335.0, "median_price_per_sqm": 3376.826086956522, "turnover_score": 3.3, "turnover_rank": 26, "first_year": 2022, "last_year": 2022, "years_active": 1}}, {"type": "Feature", "geometry": {"type": "Point", "coordinates": [2.694109, 48.88221]}, "properties": {"street_name": "IMP HENRI LEBASQUE", "sales": 2, "sales_appt": 0, "sales_maison": 2, "median_price": 293975.0, "median_price_per_sqm": 3397.111780455154, "turnover_score": 3.3, "turnover_rank": 26, "first_year": 2021, "last_year": 2024, "years_active": 2}}, {"type": "Feature", "geometry": {"type": "Point", "coordinates": [2.668067, 48.894928]}, "properties": {"street_name": "LA GARENNE", "sales": 2, "sales_appt": 0, "sales_maison": 0, "median_price": 185000.0, "median_price_per_sqm": null, "turnover_score": 3.3, "turnover_rank": 26, "first_year": 2024, "last_year": 2024, "years_active": 1}}, {"type": "Feature", "geometry": {"type": "Point", "coordinates": [2.6634719999999996, 48.8969005]}, "properties": {"street_name": "LA BRIGANDAINE", "sales": 2, "sales_appt": 0, "sales_maison": 0, "median_price": 185000.0, "median_price_per_sqm": null, "turnover_score": 3.3, "turnover_rank": 26, "first_year": 2024, "last_year": 2024, "years_active": 1}}, {"type": "Feature", "geometry": {"type": "Point", "coordinates": [2.697611, 48.882839]}, "properties": {"street_name": "IMP BLONDEL", "sales": 1, "sales_appt": 0, "sales_maison": 1, "median_price": 410000.0, "median_price_per_sqm": 4183.673469387755, "turnover_score": 1.6, "turnover_rank": 27, "first_year": 2022, "last_year": 2022, "years_active": 1}}, {"type": "Feature", "geometry": {"type": "Point", "coordinates": [2.688391, 48.886334]}, "properties": {"street_name": "ALL DES PETITS PRES", "sales": 1, "sales_appt": 0, "sales_maison": 1, "median_price": 470000.0, "median_price_per_sqm": 4653.465346534654, "turnover_score": 1.6, "turnover_rank": 27, "first_year": 2023, "last_year": 2023, "years_active": 1}}, {"type": "Feature", "geometry": {"type": "Point", "coordinates": [2.662345, 48.8972]}, "properties": {"street_name": "LES GRES", "sales": 1, "sales_appt": 0, "sales_maison": 0, "median_price": 185000.0, "median_price_per_sqm": null, "turnover_score": 1.6, "turnover_rank": 27, "first_year": 2024, "last_year": 2024, "years_active": 1}}, {"type": "Feature", "geometry": {"type": "Point", "coordinates": [2.679901, 48.880181]}, "properties": {"street_name": "POMPONNE", "sales": 1, "sales_appt": 0, "sales_maison": 0, "median_price": 1227000.0, "median_price_per_sqm": null, "turnover_score": 1.6, "turnover_rank": 27, "first_year": 2025, "last_year": 2025, "years_active": 1}}, {"type": "Feature", "geometry": {"type": "Point", "coordinates": [2.671568, 48.894991]}, "properties": {"street_name": "L ORME", "sales": 1, "sales_appt": 0, "sales_maison": 0, "median_price": 185000.0, "median_price_per_sqm": null, "turnover_score": 1.6, "turnover_rank": 27, "first_year": 2024, "last_year": 2024, "years_active": 1}}, {"type": "Feature", "geometry": {"type": "Point", "coordinates": [2.691703, 48.884884]}, "properties": {"street_name": "LE HAUT DES CORNOUILLERS", "sales": 1, "sales_appt": 0, "sales_maison": 0, "median_price": 450740.0, "median_price_per_sqm": null, "turnover_score": 1.6, "turnover_rank": 27, "first_year": 2025, "last_year": 2025, "years_active": 1}}, {"type": "Feature", "geometry": {"type": "Point", "coordinates": [2.699227, 48.882537]}, "properties": {"street_name": "IMP DU PARC", "sales": 1, "sales_appt": 0, "sales_maison": 1, "median_price": 340000.0, "median_price_per_sqm": 3366.3366336633662, "turnover_score": 1.6, "turnover_rank": 27, "first_year": 2023, "last_year": 2023, "years_active": 1}}, {"type": "Feature", "geometry": {"type": "Point", "coordinates": [2.697519, 48.885066]}, "properties": {"street_name": "RUE DES PIERRES", "sales": 1, "sales_appt": 0, "sales_maison": 1, "median_price": 515500.0, "median_price_per_sqm": 3162.5766871165642, "turnover_score": 1.6, "turnover_rank": 27, "first_year": 2025, "last_year": 2025, "years_active": 1}}, {"type": "Feature", "geometry": {"type": "Point", "coordinates": [2.681281, 48.880978]}, "properties": {"street_name": "RUE LOUIS DREUX", "sales": 1, "sales_appt": 0, "sales_maison": 1, "median_price": 120000.0, "median_price_per_sqm": 1764.7058823529412, "turnover_score": 1.6, "turnover_rank": 27, "first_year": 2024, "last_year": 2024, "years_active": 1}}, {"type": "Feature", "geometry": {"type": "Point", "coordinates": [2.691239, 48.885266]}, "properties": {"street_name": "RUE DU GRIMPE", "sales": 1, "sales_appt": 0, "sales_maison": 1, "median_price": 314000.0, "median_price_per_sqm": 3829.268292682927, "turnover_score": 1.6, "turnover_rank": 27, "first_year": 2024, "last_year": 2024, "years_active": 1}}]}