{"type": "FeatureCollection", "features": [{"type": "Feature", "geometry": {"type": "Point", "coordinates": [2.847092, 48.884067]}, "properties": {"id_parcelle": "77413000AD0043", "address": "44 RUE DE PARIS", "sales": 27, "median_price": 185000.0, "median_price_per_sqm": 4230.7692307692305, "median_rooms": 0.0, "first_sale": "2022-06-29", "last_sale": "2025-09-24"}}, {"type": "Feature", "geometry": {"type": "Point", "coordinates": [2.852794, 48.883571]}, "properties": {"id_parcelle": "77413000AD0110", "address": "1 RUE DES VOYEUX", "sales": 25, "median_price": 300000.0, "median_price_per_sqm": 4692.307692307692, "median_rooms": 1.0, "first_sale": "2024-01-04", "last_sale": "2025-03-10"}}, {"type": "Feature", "geometry": {"type": "Point", "coordinates": [2.848967, 48.883155]}, "properties": {"id_parcelle": "77413000AD0082", "address": "29 RUE DU GENERAL DE GAULLE", "sales": 22, "median_price": 143400.0, "median_price_per_sqm": 3146.808510638298, "median_rooms": 0.0, "first_sale": "2023-07-06", "last_sale": "2025-07-07"}}, {"type": "Feature", "geometry": {"type": "Point", "coordinates": [2.848696, 48.882675]}, "properties": {"id_parcelle": "77413000AE0018", "address": "41 RUE DE PARIS", "sales": 19, "median_price": 2200000.0, "median_price_per_sqm": 30136.986301369863, "median_rooms": 0.0, "first_sale": "2025-10-01", "last_sale": "2025-10-01"}}, {"type": "Feature", "geometry": {"type": "Point", "coordinates": [2.849791, 48.88432]}, "properties": {"id_parcelle": "77413000AD0075", "address": "12 RUE DU GENERAL DE GAULLE", "sales": 18, "median_price": 230000.0, "median_price_per_sqm": 3512.8205128205127, "median_rooms": 0.0, "first_sale": "2021-12-06", "last_sale": "2024-07-19"}}, {"type": "Feature", "geometry": {"type": "Point", "coordinates": [2.848413, 48.883315]}, "properties": {"id_parcelle": "77413000AD0183", "address": "30 RUE DU GENERAL DE GAULLE", "sales": 17, "median_price": 147920.0, "median_price_per_sqm": 3755.3846153846152, "median_rooms": 0.0, "first_sale": "2021-05-05", "last_sale": "2025-07-18"}}, {"type": "Feature", "geometry": {"type": "Point", "coordinates": [2.852149, 48.879772]}, "properties": {"id_parcelle": "77413000AE0519", "address": "19 RUE DE LA GARE", "sales": 13, "median_price": 200000.0, "median_price_per_sqm": 4370.731707317073, "median_rooms": 0.0, "first_sale": "2021-09-30", "last_sale": "2025-11-17"}}, {"type": "Feature", "geometry": {"type": "Point", "coordinates": [2.853527, 48.88099]}, "properties": {"id_parcelle": "77413000AE0285", "address": "16 RUE MONDET", "sales": 10, "median_price": 115000.0, "median_price_per_sqm": 6500.0, "median_rooms": 1.5, "first_sale": "2021-04-22", "last_sale": "2022-12-16"}}, {"type": "Feature", "geometry": {"type": "Point", "coordinates": [2.844788, 48.883999]}, "properties": {"id_parcelle": "77413000AC0325", "address": "52 RUE DE PARIS", "sales": 9, "median_price": 269000.0, "median_price_per_sqm": 3771.4285714285716, "median_rooms": 0.0, "first_sale": "2022-03-09", "last_sale": "2025-09-24"}}, {"type": "Feature", "geometry": {"type": "Point", "coordinates": [2.841268, 48.883179]}, "properties": {"id_parcelle": "77413000ZA0046", "address": "9001 RUE DE LA GRANDE COUTURE", "sales": 8, "median_price": 209760.0, "median_price_per_sqm": 3144.6717171717173, "median_rooms": 1.0, "first_sale": "2021-04-30", "last_sale": "2025-10-17"}}, {"type": "Feature", "geometry": {"type": "Point", "coordinates": [2.852697, 48.880414]}, "properties": {"id_parcelle": "77413000AE0303", "address": "15 RUE DE LA GARE", "sales": 8, "median_price": 550000.0, "median_price_per_sqm": 4583.333333333333, "median_rooms": 0.0, "first_sale": "2021-09-10", "last_sale": "2021-09-10"}}, {"type": "Feature", "geometry": {"type": "Point", "coordinates": [2.851094, 48.882902]}, "properties": {"id_parcelle": "77413000AD0198", "address": "24 PL DE LA MAIRIE", "sales": 7, "median_price": 230000.0, "median_price_per_sqm": 3593.75, "median_rooms": 0.0, "first_sale": "2022-09-19", "last_sale": "2025-10-30"}}, {"type": "Feature", "geometry": {"type": "Point", "coordinates": [2.852267, 48.882975]}, "properties": {"id_parcelle": "77413000AE0205", "address": "17 RUE DE PARIS", "sales": 7, "median_price": 140000.0, "median_price_per_sqm": 2223.8805970149256, "median_rooms": 0.0, "first_sale": "2025-05-14", "last_sale": "2025-10-06"}}, {"type": "Feature", "geometry": {"type": "Point", "coordinates": [2.837781, 48.871838]}, "properties": {"id_parcelle": "77413000AL0423", "address": "42 RUE DE ST QUENTIN", "sales": 6, "median_price": 380000.0, "median_price_per_sqm": 2794.1176470588234, "median_rooms": 0.0, "first_sale": "2023-07-20", "last_sale": "2023-07-20"}}, {"type": "Feature", "geometry": {"type": "Point", "coordinates": [2.850108, 48.882285]}, "properties": {"id_parcelle": "77413000AE0026", "address": "1 AV JEAN JAURES", "sales": 6, "median_price": 158275.0, "median_price_per_sqm": 4058.3333333333335, "median_rooms": 0.0, "first_sale": "2023-09-06", "last_sale": "2024-06-17"}}, {"type": "Feature", "geometry": {"type": "Point", "coordinates": [2.850593, 48.881604]}, "properties": {"id_parcelle": "77413000AE0032", "address": "6 RUE DE MELUN", "sales": 6, "median_price": 585000.0, "median_price_per_sqm": 3162.162162162162, "median_rooms": 0.0, "first_sale": "2024-11-29", "last_sale": "2024-11-29"}}, {"type": "Feature", "geometry": {"type": "Point", "coordinates": [2.850797, 48.876965]}, "properties": {"id_parcelle": "774130000B1847", "address": "40 RUE DE MELUN", "sales": 6, "median_price": 180000.0, "median_price_per_sqm": 2368.4210526315787, "median_rooms": 0.0, "first_sale": "2024-08-05", "last_sale": "2024-08-05"}}, {"type": "Feature", "geometry": {"type": "Point", "coordinates": [2.847675, 48.880764]}, "properties": {"id_parcelle": "77413000ZB0068", "address": "47 CHE DU BOUT DU MONDE", "sales": 6, "median_price": 380000.0, "median_price_per_sqm": 3619.0476190476193, "median_rooms": 0.0, "first_sale": "2024-07-19", "last_sale": "2024-07-19"}}, {"type": "Feature", "geometry": {"type": "Point", "coordinates": [2.851446, 48.874913]}, "properties": {"id_parcelle": "774130000B1016", "address": "4 CHE DES VIEILLES VIGNES", "sales": 4, "median_price": 331625.0, "median_price_per_sqm": 5793.630573248408, "median_rooms": 4.5, "first_sale": "2021-04-02", "last_sale": "2021-04-02"}}, {"type": "Feature", "geometry": {"type": "Point", "coordinates": [2.849005, 48.880598]}, "properties": {"id_parcelle": "77413000ZB0077", "address": "24 CHE DU BOUT DU MONDE", "sales": 4, "median_price": 437187.11, "median_price_per_sqm": 3903.4563392857144, "median_rooms": 6.0, "first_sale": "2022-11-22", "last_sale": "2022-11-25"}}, {"type": "Feature", "geometry": {"type": "Point", "coordinates": [2.837562, 48.872192]}, "properties": {"id_parcelle": "77413000AL0418", "address": "19 SEN DES JARDINS", "sales": 4, "median_price": 552500.0, "median_price_per_sqm": 3946.4285714285716, "median_rooms": 2.0, "first_sale": "2021-10-22", "last_sale": "2021-10-22"}}, {"type": "Feature", "geometry": {"type": "Point", "coordinates": [2.847693, 48.877412]}, "properties": {"id_parcelle": "77413000ZB0333", "address": "22 RUE DE LA CROIX DROUART", "sales": 4, "median_price": 558000.0, "median_price_per_sqm": 3902.097902097902, "median_rooms": 2.5, "first_sale": "2023-02-15", "last_sale": "2023-02-15"}}, {"type": "Feature", "geometry": {"type": "Point", "coordinates": [2.852787, 48.879168]}, "properties": {"id_parcelle": "77413000ZB0095", "address": "13 IMP DU CLOS DES RHESNES", "sales": 4, "median_price": 420000.0, "median_price_per_sqm": 4117.64705882353, "median_rooms": 2.5, "first_sale": "2024-05-31", "last_sale": "2024-05-31"}}, {"type": "Feature", "geometry": {"type": "Point", "coordinates": [2.852837, 48.881156]}, "properties": {"id_parcelle": "77413000AE0546", "address": "10 RUE DE LA GARE", "sales": 4, "median_price": 230500.0, "median_price_per_sqm": 3974.137931034483, "median_rooms": 1.0, "first_sale": "2021-11-03", "last_sale": "2023-08-17"}}, {"type": "Feature", "geometry": {"type": "Point", "coordinates": [2.852703, 48.88121]}, "properties": {"id_parcelle": "77413000AE0551", "address": "9002 RUE DE LA GARE", "sales": 4, "median_price": 230500.0, "median_price_per_sqm": null, "median_rooms": 0.0, "first_sale": "2021-11-03", "last_sale": "2023-08-17"}}, {"type": "Feature", "geometry": {"type": "Point", "coordinates": [2.851377, 48.881968]}, "properties": {"id_parcelle": "77413000AE0140", "address": "11 RUE DE MELUN", "sales": 4, "median_price": 120000.0, "median_price_per_sqm": 3428.5714285714284, "median_rooms": 0.0, "first_sale": "2024-01-31", "last_sale": "2024-01-31"}}, {"type": "Feature", "geometry": {"type": "Point", "coordinates": [2.852548, 48.880002]}, "properties": {"id_parcelle": "77413000AE0339", "address": "14 RUE LOUIS DOUVIZIE", "sales": 4, "median_price": 408900.0, "median_price_per_sqm": 3194.53125, "median_rooms": 3.0, "first_sale": "2024-08-01", "last_sale": "2024-08-01"}}, {"type": "Feature", "geometry": {"type": "Point", "coordinates": [2.849317, 48.883279]}, "properties": {"id_parcelle": "77413000AD0224", "address": "32 RUE DE PARIS", "sales": 4, "median_price": 470000.0, "median_price_per_sqm": 3175.675675675676, "median_rooms": 3.0, "first_sale": "2022-10-21", "last_sale": "2022-10-21"}}, {"type": "Feature", "geometry": {"type": "Point", "coordinates": [2.844426, 48.87105]}, "properties": {"id_parcelle": "77413000AL0350", "address": "10 RUE DE ST QUENTIN", "sales": 4, "median_price": 370000.0, "median_price_per_sqm": 5606.060606060606, "median_rooms": 1.5, "first_sale": "2022-03-04", "last_sale": "2022-03-04"}}, {"type": "Feature", "geometry": {"type": "Point", "coordinates": [2.847938, 48.8772]}, "properties": {"id_parcelle": "77413000ZB0332", "address": "29 RUE DE LA CROIX DROUART", "sales": 4, "median_price": 445000.0, "median_price_per_sqm": 4494.949494949495, "median_rooms": 2.0, "first_sale": "2023-07-07", "last_sale": "2023-07-07"}}, {"type": "Feature", "geometry": {"type": "Point", "coordinates": [2.853294, 48.881195]}, "properties": {"id_parcelle": "77413000AE0530", "address": "14 RUE MONDET", "sales": 4, "median_price": 100000.0, "median_price_per_sqm": null, "median_rooms": null, "first_sale": "2021-06-14", "last_sale": "2022-12-16"}}, {"type": "Feature", "geometry": {"type": "Point", "coordinates": [2.846159, 48.883982]}, "properties": {"id_parcelle": "77413000AC0013", "address": "46 RUE DE PARIS", "sales": 4, "median_price": 2400000.0, "median_price_per_sqm": 21986.451484359433, "median_rooms": 0.0, "first_sale": "2021-11-23", "last_sale": "2021-11-23"}}, {"type": "Feature", "geometry": {"type": "Point", "coordinates": [2.848103, 48.873674]}, "properties": {"id_parcelle": "774130000B1615", "address": "29 RUE DE MONTAUMER", "sales": 4, "median_price": 415000.0, "median_price_per_sqm": 5000.0, "median_rooms": 2.0, "first_sale": "2023-07-27", "last_sale": "2023-07-27"}}, {"type": "Feature", "geometry": {"type": "Point", "coordinates": [2.853322, 48.883073]}, "properties": {"id_parcelle": "77413000AE0213", "address": "2 RUE DU MARCHE", "sales": 4, "median_price": 172000.0, "median_price_per_sqm": 3636.363636363636, "median_rooms": 0.0, "first_sale": "2021-05-28", "last_sale": "2023-05-12"}}, {"type": "Feature", "geometry": {"type": "Point", "coordinates": [2.849745, 48.886564]}, "properties": {"id_parcelle": "77413000AD0004", "address": "9005 LES PRES DE LA CORVEE", "sales": 4, "median_price": 454510.0, "median_price_per_sqm": 5143.631687242799, "median_rooms": 8.0, "first_sale": "2021-03-19", "last_sale": "2021-03-19"}}, {"type": "Feature", "geometry": {"type": "Point", "coordinates": [2.853359, 48.881046]}, "properties": {"id_parcelle": "77413000AE0286", "address": "16 RUE MONDET", "sales": 4, "median_price": 320000.0, "median_price_per_sqm": 8205.128205128205, "median_rooms": 0.0, "first_sale": "2021-04-22", "last_sale": "2021-04-22"}}, {"type": "Feature", "geometry": {"type": "Point", "coordinates": [2.855064, 48.877904]}, "properties": {"id_parcelle": "774130000B1747", "address": "8 RUE DES FRERES BUGAUD", "sales": 4, "median_price": 495000.0, "median_price_per_sqm": 3322.1476510067114, "median_rooms": 3.5, "first_sale": "2023-06-30", "last_sale": "2023-06-30"}}, {"type": "Feature", "geometry": {"type": "Point", "coordinates": [2.856412, 48.878226]}, "properties": {"id_parcelle": "774130000B1739", "address": "28 RUE GASTON CHEMIN", "sales": 4, "median_price": 265000.0, "median_price_per_sqm": 1827.5862068965516, "median_rooms": 3.0, "first_sale": "2022-07-07", "last_sale": "2022-07-07"}}, {"type": "Feature", "geometry": {"type": "Point", "coordinates": [2.849212, 48.874427]}, "properties": {"id_parcelle": "774130000B1680", "address": "18 CHE DES VIEILLES VIGNES", "sales": 4, "median_price": 305000.0, "median_price_per_sqm": 4066.6666666666665, "median_rooms": 1.5, "first_sale": "2022-11-23", "last_sale": "2022-11-23"}}, {"type": "Feature", "geometry": {"type": "Point", "coordinates": [2.841282, 48.885647]}, "properties": {"id_parcelle": "77413000AC0192", "address": "16 RUE DU GRAND MORIN", "sales": 3, "median_price": 334431.0, "median_price_per_sqm": 3155.009433962264, "median_rooms": 0.0, "first_sale": "2021-11-05", "last_sale": "2021-11-05"}}, {"type": "Feature", "geometry": {"type": "Point", "coordinates": [2.851814, 48.879976]}, "properties": {"id_parcelle": "77413000AE0081", "address": "28 RUE DE LA GARE", "sales": 3, "median_price": 192650.0, "median_price_per_sqm": 1965.8163265306123, "median_rooms": 0.0, "first_sale": "2022-12-14", "last_sale": "2022-12-14"}}, {"type": "Feature", "geometry": {"type": "Point", "coordinates": [2.850607, 48.880667]}, "properties": {"id_parcelle": "77413000AE0048", "address": "3 RUE JEAN BAPTISTE BAUDIN", "sales": 3, "median_price": 320000.0, "median_price_per_sqm": 2318.840579710145, "median_rooms": 0.0, "first_sale": "2021-10-14", "last_sale": "2021-10-14"}}, {"type": "Feature", "geometry": {"type": "Point", "coordinates": [2.839382, 48.871414]}, "properties": {"id_parcelle": "77413000AL0016", "address": "36 RUE DE ST QUENTIN", "sales": 3, "median_price": 227900.0, "median_price_per_sqm": 2921.7948717948716, "median_rooms": 0.0, "first_sale": "2024-12-31", "last_sale": "2024-12-31"}}, {"type": "Feature", "geometry": {"type": "Point", "coordinates": [2.851405, 48.882495]}, "properties": {"id_parcelle": "77413000AE0182", "address": "3 RUE DE MELUN", "sales": 3, "median_price": 135000.0, "median_price_per_sqm": 5000.0, "median_rooms": 0.0, "first_sale": "2022-11-07", "last_sale": "2022-11-07"}}, {"type": "Feature", "geometry": {"type": "Point", "coordinates": [2.852451, 48.881584]}, "properties": {"id_parcelle": "77413000AE0160", "address": "10 RUE MONDET", "sales": 3, "median_price": 281600.0, "median_price_per_sqm": 2964.2105263157896, "median_rooms": 0.0, "first_sale": "2025-06-11", "last_sale": "2025-06-11"}}, {"type": "Feature", "geometry": {"type": "Point", "coordinates": [2.850872, 48.883891]}, "properties": {"id_parcelle": "77413000AD0090", "address": "9 RUE DU GENERAL DE GAULLE", "sales": 3, "median_price": 554000.0, "median_price_per_sqm": 3551.2820512820513, "median_rooms": 0.0, "first_sale": "2022-10-21", "last_sale": "2022-10-21"}}, {"type": "Feature", "geometry": {"type": "Point", "coordinates": [2.850475, 48.878695]}, "properties": {"id_parcelle": "774130000B1894", "address": "4 RUE DE MONTAUMER", "sales": 3, "median_price": 247900.0, "median_price_per_sqm": 2582.2916666666665, "median_rooms": 0.0, "first_sale": "2021-06-18", "last_sale": "2021-06-18"}}, {"type": "Feature", "geometry": {"type": "Point", "coordinates": [2.845838, 48.873039]}, "properties": {"id_parcelle": "774130000B0916", "address": "36 CHE DES BOULANGERS", "sales": 2, "median_price": 420300.0, "median_price_per_sqm": 2531.9277108433735, "median_rooms": 4.0, "first_sale": "2025-02-12", "last_sale": "2025-02-12"}}, {"type": "Feature", "geometry": {"type": "Point", "coordinates": [2.850138, 48.877853]}, "properties": {"id_parcelle": "774130000B0748", "address": "8 RUE DE MONTAUMER", "sales": 2, "median_price": 493300.0, "median_price_per_sqm": 4180.5084745762715, "median_rooms": 3.0, "first_sale": "2023-10-06", "last_sale": "2023-10-06"}}, {"type": "Feature", "geometry": {"type": "Point", "coordinates": [2.851251, 48.87669]}, "properties": {"id_parcelle": "774130000B1520", "address": "44 RUE DE MELUN", "sales": 2, "median_price": 567500.0, "median_price_per_sqm": 4082.73381294964, "median_rooms": 3.0, "first_sale": "2024-04-03", "last_sale": "2024-04-03"}}, {"type": "Feature", "geometry": {"type": "Point", "coordinates": [2.849402, 48.873985]}, "properties": {"id_parcelle": "774130000B0950", "address": "11 CHE DES VIEILLES VIGNES", "sales": 2, "median_price": 405000.0, "median_price_per_sqm": 4175.257731958763, "median_rooms": 4.0, "first_sale": "2023-06-09", "last_sale": "2023-06-09"}}, {"type": "Feature", "geometry": {"type": "Point", "coordinates": [2.849165, 48.873537]}, "properties": {"id_parcelle": "774130000B0948", "address": "11 CHE DES VIEILLES VIGNES", "sales": 2, "median_price": 405000.0, "median_price_per_sqm": null, "median_rooms": null, "first_sale": "2023-06-09", "last_sale": "2023-06-09"}}, {"type": "Feature", "geometry": {"type": "Point", "coordinates": [2.846981, 48.873816]}, "properties": {"id_parcelle": "774130000B0926", "address": "LES JOUVIGNES", "sales": 2, "median_price": 367500.0, "median_price_per_sqm": null, "median_rooms": null, "first_sale": "2021-06-28", "last_sale": "2023-02-21"}}, {"type": "Feature", "geometry": {"type": "Point", "coordinates": [2.847023, 48.87399]}, "properties": {"id_parcelle": "774130000B0922", "address": "6 CHE DES JOUVIGNES", "sales": 2, "median_price": 367500.0, "median_price_per_sqm": 3223.684210526316, "median_rooms": 5.0, "first_sale": "2021-06-28", "last_sale": "2023-02-21"}}, {"type": "Feature", "geometry": {"type": "Point", "coordinates": [2.84687, 48.873837]}, "properties": {"id_parcelle": "774130000B0923", "address": "LES JOUVIGNES", "sales": 2, "median_price": 367500.0, "median_price_per_sqm": null, "median_rooms": null, "first_sale": "2021-06-28", "last_sale": "2023-02-21"}}, {"type": "Feature", "geometry": {"type": "Point", "coordinates": [2.850592, 48.877739]}, "properties": {"id_parcelle": "774130000B1990", "address": "RUE DE MONTAUMER", "sales": 2, "median_price": 286435.5, "median_price_per_sqm": null, "median_rooms": null, "first_sale": "2021-08-23", "last_sale": "2023-05-19"}}, {"type": "Feature", "geometry": {"type": "Point", "coordinates": [2.846072, 48.885143]}, "properties": {"id_parcelle": "77413000AC0042", "address": "RUE RENAUD DE GIRESME", "sales": 2, "median_price": 318500.0, "median_price_per_sqm": null, "median_rooms": null, "first_sale": "2025-03-24", "last_sale": "2025-11-26"}}, {"type": "Feature", "geometry": {"type": "Point", "coordinates": [2.843859, 48.884203]}, "properties": {"id_parcelle": "77413000AC0329", "address": "56 RUE DE PARIS", "sales": 2, "median_price": 305800.0, "median_price_per_sqm": 3323.913043478261, "median_rooms": 2.5, "first_sale": "2025-12-16", "last_sale": "2025-12-16"}}, {"type": "Feature", "geometry": {"type": "Point", "coordinates": [2.840918, 48.884534]}, "properties": {"id_parcelle": "77413000AC0221", "address": "2 RUE DE L ABBAYE", "sales": 2, "median_price": 267305.0, "median_price_per_sqm": 2595.1941747572814, "median_rooms": 1.5, "first_sale": "2025-10-31", "last_sale": "2025-10-31"}}, {"type": "Feature", "geometry": {"type": "Point", "coordinates": [2.841076, 48.88456]}, "properties": {"id_parcelle": "77413000AC0220", "address": "4 RUE DE L ABBAYE", "sales": 2, "median_price": 356000.0, "median_price_per_sqm": 3827.956989247312, "median_rooms": 3.0, "first_sale": "2022-03-29", "last_sale": "2022-03-29"}}, {"type": "Feature", "geometry": {"type": "Point", "coordinates": [2.841967, 48.8857]}, "properties": {"id_parcelle": "77413000AC0185", "address": "23 RUE DE L ABBAYE", "sales": 2, "median_price": 302000.0, "median_price_per_sqm": 3638.5542168674697, "median_rooms": 2.5, "first_sale": "2021-09-06", "last_sale": "2021-09-06"}}, {"type": "Feature", "geometry": {"type": "Point", "coordinates": [2.84484, 48.886028]}, "properties": {"id_parcelle": "77413000AC0083", "address": "67 RUE DU GRAND MORIN", "sales": 2, "median_price": 237000.0, "median_price_per_sqm": 2855.4216867469877, "median_rooms": 5.0, "first_sale": "2024-11-20", "last_sale": "2025-11-05"}}, {"type": "Feature", "geometry": {"type": "Point", "coordinates": [2.843317, 48.885605]}, "properties": {"id_parcelle": "77413000AC0142", "address": "41 RUE DE L ABBAYE", "sales": 2, "median_price": 277500.0, "median_price_per_sqm": 3343.3734939759033, "median_rooms": 5.0, "first_sale": "2022-04-12", "last_sale": "2024-01-29"}}, {"type": "Feature", "geometry": {"type": "Point", "coordinates": [2.846305, 48.885061]}, "properties": {"id_parcelle": "77413000AC0038", "address": "7 RUE RENAUD DE GIRESME", "sales": 2, "median_price": 300000.0, "median_price_per_sqm": 2400.0, "median_rooms": 4.0, "first_sale": "2025-03-24", "last_sale": "2025-03-24"}}, {"type": "Feature", "geometry": {"type": "Point", "coordinates": [2.853883, 48.874692]}, "properties": {"id_parcelle": "774130000B1911", "address": "6 CHE DE GRIGNON", "sales": 2, "median_price": 158000.0, "median_price_per_sqm": 1580.0, "median_rooms": 3.0, "first_sale": "2022-10-18", "last_sale": "2022-10-18"}}, {"type": "Feature", "geometry": {"type": "Point", "coordinates": [2.854856, 48.873317]}, "properties": {"id_parcelle": "774130000B1959", "address": "5 CHE DE GRIGNON", "sales": 2, "median_price": 154500.0, "median_price_per_sqm": 2032.8947368421052, "median_rooms": 3.0, "first_sale": "2021-05-04", "last_sale": "2021-05-04"}}, {"type": "Feature", "geometry": {"type": "Point", "coordinates": [2.85016, 48.874935]}, "properties": {"id_parcelle": "774130000B1802", "address": "7 IMP DES POMMIERS", "sales": 2, "median_price": 453870.0, "median_price_per_sqm": 3879.230769230769, "median_rooms": 2.5, "first_sale": "2023-09-04", "last_sale": "2023-09-04"}}, {"type": "Feature", "geometry": {"type": "Point", "coordinates": [2.844588, 48.874243]}, "properties": {"id_parcelle": "774130000B1861", "address": "9005 CHE DES JOUVIGNES", "sales": 2, "median_price": 612500.0, "median_price_per_sqm": 2889.1509433962265, "median_rooms": 5.0, "first_sale": "2023-10-30", "last_sale": "2023-10-30"}}, {"type": "Feature", "geometry": {"type": "Point", "coordinates": [2.847867, 48.874205]}, "properties": {"id_parcelle": "774130000B1848", "address": "1 CHE DES JOUVIGNES", "sales": 2, "median_price": 416020.0, "median_price_per_sqm": 2616.4779874213837, "median_rooms": 4.5, "first_sale": "2024-04-26", "last_sale": "2024-04-26"}}, {"type": "Feature", "geometry": {"type": "Point", "coordinates": [2.844384, 48.873445]}, "properties": {"id_parcelle": "774130000B1862", "address": "CHE DES BOULANGERS", "sales": 2, "median_price": 480000.0, "median_price_per_sqm": null, "median_rooms": null, "first_sale": "2021-09-10", "last_sale": "2021-09-10"}}, {"type": "Feature", "geometry": {"type": "Point", "coordinates": [2.849419, 48.878565]}, "properties": {"id_parcelle": "774130000B1687", "address": "4 RUE DU VERGER", "sales": 2, "median_price": 528000.0, "median_price_per_sqm": 3940.2985074626868, "median_rooms": 5.0, "first_sale": "2021-09-27", "last_sale": "2021-09-27"}}, {"type": "Feature", "geometry": {"type": "Point", "coordinates": [2.853734, 48.873014]}, "properties": {"id_parcelle": "774130000B1662", "address": "17 CHE DE GRIGNON", "sales": 2, "median_price": 240000.0, "median_price_per_sqm": 5333.333333333333, "median_rooms": 3.0, "first_sale": "2023-06-16", "last_sale": "2023-06-16"}}, {"type": "Feature", "geometry": {"type": "Point", "coordinates": [2.850427, 48.878914]}, "properties": {"id_parcelle": "774130000B1551", "address": "5 CHE DU BOUT DU MONDE", "sales": 2, "median_price": 420000.0, "median_price_per_sqm": 3750.0, "median_rooms": 3.0, "first_sale": "2022-07-12", "last_sale": "2022-07-12"}}, {"type": "Feature", "geometry": {"type": "Point", "coordinates": [2.851381, 48.880372]}, "properties": {"id_parcelle": "77413000AE0091", "address": "19 RUE DE MELUN", "sales": 2, "median_price": 314000.0, "median_price_per_sqm": 2754.3859649122805, "median_rooms": 6.0, "first_sale": "2023-06-21", "last_sale": "2025-10-01"}}, {"type": "Feature", "geometry": {"type": "Point", "coordinates": [2.852137, 48.880288]}, "properties": {"id_parcelle": "77413000AE0086", "address": "22 RUE DE LA GARE", "sales": 2, "median_price": 383000.0, "median_price_per_sqm": 4255.555555555556, "median_rooms": 1.5, "first_sale": "2021-06-18", "last_sale": "2021-06-18"}}, {"type": "Feature", "geometry": {"type": "Point", "coordinates": [2.851711, 48.879865]}, "properties": {"id_parcelle": "77413000AE0080", "address": "28 RUE DE LA GARE", "sales": 2, "median_price": 280600.0, "median_price_per_sqm": 2158.4615384615386, "median_rooms": 2.0, "first_sale": "2022-10-21", "last_sale": "2022-10-21"}}, {"type": "Feature", "geometry": {"type": "Point", "coordinates": [2.851207, 48.879847]}, "properties": {"id_parcelle": "77413000AE0078", "address": "23 RUE DE MELUN", "sales": 2, "median_price": 220000.0, "median_price_per_sqm": 2820.5128205128203, "median_rooms": 2.0, "first_sale": "2023-02-28", "last_sale": "2023-02-28"}}, {"type": "Feature", "geometry": {"type": "Point", "coordinates": [2.850039, 48.880383]}, "properties": {"id_parcelle": "77413000AE0057", "address": "7 RUE JEAN BAPTISTE BAUDIN", "sales": 2, "median_price": 465000.0, "median_price_per_sqm": 3875.0, "median_rooms": 5.0, "first_sale": "2024-09-17", "last_sale": "2024-09-17"}}, {"type": "Feature", "geometry": {"type": "Point", "coordinates": [2.851273, 48.879632]}, "properties": {"id_parcelle": "77413000AE0074", "address": "25 RUE DE MELUN", "sales": 2, "median_price": 240000.0, "median_price_per_sqm": 2790.6976744186045, "median_rooms": 2.5, "first_sale": "2024-08-23", "last_sale": "2024-08-23"}}, {"type": "Feature", "geometry": {"type": "Point", "coordinates": [2.850659, 48.880404]}, "properties": {"id_parcelle": "77413000AE0052", "address": "24 RUE DE MELUN", "sales": 2, "median_price": 457600.0, "median_price_per_sqm": 3845.378151260504, "median_rooms": 2.0, "first_sale": "2023-12-06", "last_sale": "2023-12-06"}}, {"type": "Feature", "geometry": {"type": "Point", "coordinates": [2.849051, 48.882689]}, "properties": {"id_parcelle": "77413000AE0019", "address": "39 RUE DE PARIS", "sales": 2, "median_price": 121450.0, "median_price_per_sqm": 4187.931034482759, "median_rooms": 2.0, "first_sale": "2022-12-22", "last_sale": "2022-12-22"}}, {"type": "Feature", "geometry": {"type": "Point", "coordinates": [2.847909, 48.881333]}, "properties": {"id_parcelle": "77413000AE0007", "address": "13 AV WALDECK ROUSSEAU", "sales": 2, "median_price": 245000.0, "median_price_per_sqm": 5212.765957446809, "median_rooms": 1.0, "first_sale": "2023-10-24", "last_sale": "2023-10-24"}}, {"type": "Feature", "geometry": {"type": "Point", "coordinates": [2.848154, 48.881967]}, "properties": {"id_parcelle": "77413000AE0014", "address": "7 RUE DE MONTGUILLON", "sales": 2, "median_price": 411000.0, "median_price_per_sqm": 2795.918367346939, "median_rooms": 3.5, "first_sale": "2021-07-08", "last_sale": "2021-07-08"}}, {"type": "Feature", "geometry": {"type": "Point", "coordinates": [2.849111, 48.886579]}, "properties": {"id_parcelle": "77413000AD0003", "address": "9006 LES PRES DE LA CORVEE", "sales": 2, "median_price": 454510.0, "median_price_per_sqm": null, "median_rooms": 0.0, "first_sale": "2021-03-19", "last_sale": "2021-03-19"}}, {"type": "Feature", "geometry": {"type": "Point", "coordinates": [2.849136, 48.884384]}, "properties": {"id_parcelle": "77413000AD0062", "address": "25 RUE DES VOYEUX", "sales": 2, "median_price": 499910.0, "median_price_per_sqm": 3332.733333333333, "median_rooms": 5.0, "first_sale": "2021-06-01", "last_sale": "2021-06-01"}}, {"type": "Feature", "geometry": {"type": "Point", "coordinates": [2.847237, 48.882602]}, "properties": {"id_parcelle": "77413000AD0147", "address": "47 RUE DE PARIS", "sales": 2, "median_price": 220000.0, "median_price_per_sqm": 6111.111111111111, "median_rooms": 2.0, "first_sale": "2022-05-10", "last_sale": "2022-05-10"}}, {"type": "Feature", "geometry": {"type": "Point", "coordinates": [2.852372, 48.883422]}, "properties": {"id_parcelle": "77413000AD0113", "address": "6 RUE DE PARIS", "sales": 2, "median_price": 260000.0, "median_price_per_sqm": 3466.6666666666665, "median_rooms": 1.0, "first_sale": "2023-01-06", "last_sale": "2023-01-06"}}, {"type": "Feature", "geometry": {"type": "Point", "coordinates": [2.847167, 48.882824]}, "properties": {"id_parcelle": "77413000AD0148", "address": "49 RUE DE PARIS", "sales": 2, "median_price": 314000.0, "median_price_per_sqm": 3925.0, "median_rooms": 4.0, "first_sale": "2021-05-27", "last_sale": "2021-05-27"}}, {"type": "Feature", "geometry": {"type": "Point", "coordinates": [2.851229, 48.884867]}, "properties": {"id_parcelle": "77413000AD0206", "address": "4 RUE DES VOYEUX", "sales": 2, "median_price": 426600.0, "median_price_per_sqm": 2257.1428571428573, "median_rooms": 9.0, "first_sale": "2023-07-26", "last_sale": "2023-07-26"}}, {"type": "Feature", "geometry": {"type": "Point", "coordinates": [2.848812, 48.883631]}, "properties": {"id_parcelle": "77413000AD0079", "address": "26 RUE DU GENERAL DE GAULLE", "sales": 2, "median_price": 410615.0, "median_price_per_sqm": 4147.626262626262, "median_rooms": 2.0, "first_sale": "2021-08-18", "last_sale": "2021-08-18"}}, {"type": "Feature", "geometry": {"type": "Point", "coordinates": [2.849082, 48.883316]}, "properties": {"id_parcelle": "77413000AD0083", "address": "27 RUE DU GENERAL DE GAULLE", "sales": 2, "median_price": 352000.0, "median_price_per_sqm": 3591.8367346938776, "median_rooms": 2.0, "first_sale": "2022-09-01", "last_sale": "2022-09-01"}}, {"type": "Feature", "geometry": {"type": "Point", "coordinates": [2.856814, 48.877654]}, "properties": {"id_parcelle": "774130000B1897", "address": "20 RTE DE VILLIERS", "sales": 2, "median_price": 480000.0, "median_price_per_sqm": 6400.0, "median_rooms": 1.0, "first_sale": "2021-08-25", "last_sale": "2021-08-25"}}, {"type": "Feature", "geometry": {"type": "Point", "coordinates": [2.847041, 48.873138]}, "properties": {"id_parcelle": "774130000B1976", "address": "40 RUE DE MONTAUMER", "sales": 2, "median_price": 380050.0, "median_price_per_sqm": 6910.0, "median_rooms": 3.0, "first_sale": "2022-02-14", "last_sale": "2022-02-14"}}, {"type": "Feature", "geometry": {"type": "Point", "coordinates": [2.845877, 48.885138]}, "properties": {"id_parcelle": "77413000AC0024", "address": "8 RUE RENAUD DE GIRESME", "sales": 2, "median_price": 335000.0, "median_price_per_sqm": 3221.153846153846, "median_rooms": 1.5, "first_sale": "2022-02-11", "last_sale": "2022-02-11"}}, {"type": "Feature", "geometry": {"type": "Point", "coordinates": [2.845728, 48.885019]}, "properties": {"id_parcelle": "77413000AC0025", "address": "10 RUE RENAUD DE GIRESME", "sales": 2, "median_price": 490000.0, "median_price_per_sqm": 2832.3699421965316, "median_rooms": 2.5, "first_sale": "2022-06-23", "last_sale": "2022-06-23"}}, {"type": "Feature", "geometry": {"type": "Point", "coordinates": [2.850729, 48.877561]}, "properties": {"id_parcelle": "774130000B1987", "address": "1 RUE DE MONTAUMER", "sales": 2, "median_price": 286435.5, "median_price_per_sqm": 2993.2206518124376, "median_rooms": 4.0, "first_sale": "2021-08-23", "last_sale": "2023-05-19"}}, {"type": "Feature", "geometry": {"type": "Point", "coordinates": [2.850325, 48.879832]}, "properties": {"id_parcelle": "77413000AE0451", "address": "16 CHE DU BOUT DU MONDE", "sales": 2, "median_price": 310000.0, "median_price_per_sqm": 3444.4444444444443, "median_rooms": 1.5, "first_sale": "2023-01-19", "last_sale": "2023-01-19"}}, {"type": "Feature", "geometry": {"type": "Point", "coordinates": [2.853645, 48.879468]}, "properties": {"id_parcelle": "77413000AE0332", "address": "10 RUE DE LA CHAMPAGNE", "sales": 2, "median_price": 209500.0, "median_price_per_sqm": 3550.8474576271187, "median_rooms": 1.5, "first_sale": "2021-07-28", "last_sale": "2021-07-28"}}, {"type": "Feature", "geometry": {"type": "Point", "coordinates": [2.852938, 48.880548]}, "properties": {"id_parcelle": "77413000AE0302", "address": "15 RUE DE LA GARE", "sales": 2, "median_price": 478750.0, "median_price_per_sqm": 3149.6710526315787, "median_rooms": 6.0, "first_sale": "2024-06-17", "last_sale": "2024-06-17"}}, {"type": "Feature", "geometry": {"type": "Point", "coordinates": [2.853264, 48.883256]}, "properties": {"id_parcelle": "77413000AE0222", "address": "1 RUE DE PARIS", "sales": 2, "median_price": 270000.0, "median_price_per_sqm": 3417.721518987342, "median_rooms": 1.5, "first_sale": "2021-10-18", "last_sale": "2021-10-18"}}, {"type": "Feature", "geometry": {"type": "Point", "coordinates": [2.851716, 48.882837]}, "properties": {"id_parcelle": "77413000AE0188", "address": "25 RUE DE PARIS", "sales": 2, "median_price": 122000.0, "median_price_per_sqm": 2489.795918367347, "median_rooms": 1.0, "first_sale": "2025-12-10", "last_sale": "2025-12-10"}}, {"type": "Feature", "geometry": {"type": "Point", "coordinates": [2.855273, 48.878933]}, "properties": {"id_parcelle": "77413000AE0485", "address": "2 RUE DES NOUES", "sales": 2, "median_price": 445000.0, "median_price_per_sqm": 3224.6376811594205, "median_rooms": 3.0, "first_sale": "2023-08-21", "last_sale": "2023-08-21"}}, {"type": "Feature", "geometry": {"type": "Point", "coordinates": [2.851483, 48.882661]}, "properties": {"id_parcelle": "77413000AE0185", "address": "31 RUE DE PARIS", "sales": 2, "median_price": 550000.0, "median_price_per_sqm": 3991.467276565799, "median_rooms": 2.0, "first_sale": "2022-02-17", "last_sale": "2022-02-17"}}, {"type": "Feature", "geometry": {"type": "Point", "coordinates": [2.85148, 48.882136]}, "properties": {"id_parcelle": "77413000AE0144", "address": "2 RUE MONDET", "sales": 2, "median_price": 337800.0, "median_price_per_sqm": 3378.0, "median_rooms": 2.5, "first_sale": "2022-07-04", "last_sale": "2022-07-04"}}, {"type": "Feature", "geometry": {"type": "Point", "coordinates": [2.851857, 48.881772]}, "properties": {"id_parcelle": "77413000AE0152", "address": "8 RUE MONDET", "sales": 2, "median_price": 350000.0, "median_price_per_sqm": 4166.666666666667, "median_rooms": 4.0, "first_sale": "2021-03-19", "last_sale": "2021-03-19"}}, {"type": "Feature", "geometry": {"type": "Point", "coordinates": [2.838542, 48.872042]}, "properties": {"id_parcelle": "77413000AL0011", "address": "13 SEN DES JARDINS", "sales": 2, "median_price": 465000.0, "median_price_per_sqm": 3039.2156862745096, "median_rooms": 6.0, "first_sale": "2023-02-15", "last_sale": "2023-02-15"}}, {"type": "Feature", "geometry": {"type": "Point", "coordinates": [2.849221, 48.882424]}, "properties": {"id_parcelle": "77413000AE0585", "address": "35 RUE DE PARIS", "sales": 2, "median_price": 1000000.0, "median_price_per_sqm": 2500.0, "median_rooms": 11.0, "first_sale": "2021-03-31", "last_sale": "2021-03-31"}}, {"type": "Feature", "geometry": {"type": "Point", "coordinates": [2.851633, 48.878378]}, "properties": {"id_parcelle": "77413000AE0583", "address": "31 RUE DE MELUN", "sales": 2, "median_price": 339000.0, "median_price_per_sqm": 3259.6153846153848, "median_rooms": 5.0, "first_sale": "2021-01-05", "last_sale": "2021-01-05"}}, {"type": "Feature", "geometry": {"type": "Point", "coordinates": [2.852692, 48.881301]}, "properties": {"id_parcelle": "77413000AE0555", "address": "RUE MONDET", "sales": 2, "median_price": 230500.0, "median_price_per_sqm": null, "median_rooms": null, "first_sale": "2021-11-03", "last_sale": "2023-08-17"}}, {"type": "Feature", "geometry": {"type": "Point", "coordinates": [2.852642, 48.881263]}, "properties": {"id_parcelle": "77413000AE0553", "address": "SAINT GERMAIN", "sales": 2, "median_price": 230500.0, "median_price_per_sqm": null, "median_rooms": null, "first_sale": "2021-11-03", "last_sale": "2023-08-17"}}, {"type": "Feature", "geometry": {"type": "Point", "coordinates": [2.852762, 48.881179]}, "properties": {"id_parcelle": "77413000AE0548", "address": "SAINT GERMAIN", "sales": 2, "median_price": 230500.0, "median_price_per_sqm": null, "median_rooms": null, "first_sale": "2021-11-03", "last_sale": "2023-08-17"}}, {"type": "Feature", "geometry": {"type": "Point", "coordinates": [2.852756, 48.881219]}, "properties": {"id_parcelle": "77413000AE0547", "address": "SAINT GERMAIN", "sales": 2, "median_price": 230500.0, "median_price_per_sqm": null, "median_rooms": null, "first_sale": "2021-11-03", "last_sale": "2023-08-17"}}, {"type": "Feature", "geometry": {"type": "Point", "coordinates": [2.854772, 48.880895]}, "properties": {"id_parcelle": "77413000AE0487", "address": "41 RUE MONDET", "sales": 2, "median_price": 420000.0, "median_price_per_sqm": 2800.0, "median_rooms": 4.0, "first_sale": "2024-09-04", "last_sale": "2024-09-04"}}, {"type": "Feature", "geometry": {"type": "Point", "coordinates": [2.852812, 48.88287]}, "properties": {"id_parcelle": "77413000AE0376", "address": "3 RUE NOUVELLE", "sales": 2, "median_price": 295000.0, "median_price_per_sqm": 5566.037735849057, "median_rooms": 1.5, "first_sale": "2024-10-02", "last_sale": "2024-10-02"}}, {"type": "Feature", "geometry": {"type": "Point", "coordinates": [2.849235, 48.881949]}, "properties": {"id_parcelle": "77413000AE0417", "address": "6 AV JEAN JAURES", "sales": 2, "median_price": 608000.0, "median_price_per_sqm": 3848.1012658227846, "median_rooms": 5.0, "first_sale": "2022-11-30", "last_sale": "2022-11-30"}}, {"type": "Feature", "geometry": {"type": "Point", "coordinates": [2.84038, 48.87375]}, "properties": {"id_parcelle": "77413000AM0342", "address": "59 CHE DES BOULANGERS", "sales": 2, "median_price": 370000.0, "median_price_per_sqm": 3333.3333333333335, "median_rooms": 5.0, "first_sale": "2021-01-04", "last_sale": "2021-01-04"}}, {"type": "Feature", "geometry": {"type": "Point", "coordinates": [2.841231, 48.870578]}, "properties": {"id_parcelle": "77413000AL0309", "address": "RUE DE ST QUENTIN", "sales": 2, "median_price": 3000.0, "median_price_per_sqm": null, "median_rooms": null, "first_sale": "2024-09-30", "last_sale": "2024-09-30"}}, {"type": "Feature", "geometry": {"type": "Point", "coordinates": [2.841307, 48.87031]}, "properties": {"id_parcelle": "77413000AL0308", "address": "27 RUE DE ST QUENTIN", "sales": 2, "median_price": 409000.0, "median_price_per_sqm": 3146.153846153846, "median_rooms": 5.0, "first_sale": "2024-09-30", "last_sale": "2024-09-30"}}, {"type": "Feature", "geometry": {"type": "Point", "coordinates": [2.843478, 48.872999]}, "properties": {"id_parcelle": "77413000AL0068", "address": "47 CHE DES BOULANGERS", "sales": 2, "median_price": 455000.0, "median_price_per_sqm": 3345.5882352941176, "median_rooms": 6.0, "first_sale": "2023-05-02", "last_sale": "2023-05-02"}}, {"type": "Feature", "geometry": {"type": "Point", "coordinates": [2.845541, 48.871673]}, "properties": {"id_parcelle": "77413000AL0121", "address": "LA FOLIE", "sales": 2, "median_price": 3750.0, "median_price_per_sqm": null, "median_rooms": null, "first_sale": "2022-01-25", "last_sale": "2023-05-16"}}, {"type": "Feature", "geometry": {"type": "Point", "coordinates": [2.842147, 48.870962]}, "properties": {"id_parcelle": "77413000AL0038", "address": "24 RUE DE ST QUENTIN", "sales": 2, "median_price": 459000.0, "median_price_per_sqm": 3585.9375, "median_rooms": 3.0, "first_sale": "2021-07-08", "last_sale": "2021-07-08"}}, {"type": "Feature", "geometry": {"type": "Point", "coordinates": [2.848484, 48.880432]}, "properties": {"id_parcelle": "77413000ZB0065", "address": "41 CHE DU BOUT DU MONDE", "sales": 2, "median_price": 407000.0, "median_price_per_sqm": 4903.614457831325, "median_rooms": 3.0, "first_sale": "2021-07-07", "last_sale": "2021-07-07"}}, {"type": "Feature", "geometry": {"type": "Point", "coordinates": [2.849358, 48.879945]}, "properties": {"id_parcelle": "77413000ZB0061", "address": "35 CHE DU BOUT DU MONDE", "sales": 2, "median_price": 350000.0, "median_price_per_sqm": 3153.153153153153, "median_rooms": 3.0, "first_sale": "2025-12-08", "last_sale": "2025-12-08"}}, {"type": "Feature", "geometry": {"type": "Point", "coordinates": [2.840228, 48.873497]}, "properties": {"id_parcelle": "77413000AM0408", "address": "59 CHE DES BOULANGERS", "sales": 2, "median_price": 390000.0, "median_price_per_sqm": 3644.8598130841124, "median_rooms": 5.0, "first_sale": "2021-12-17", "last_sale": "2021-12-17"}}, {"type": "Feature", "geometry": {"type": "Point", "coordinates": [2.840766, 48.872402]}, "properties": {"id_parcelle": "77413000AM0404", "address": "MONTGUILLON", "sales": 2, "median_price": 115490.0, "median_price_per_sqm": null, "median_rooms": null, "first_sale": "2025-06-13", "last_sale": "2025-10-02"}}, {"type": "Feature", "geometry": {"type": "Point", "coordinates": [2.835814, 48.8724]}, "properties": {"id_parcelle": "77413000AM0215", "address": "3 RUE DE MAGNY", "sales": 2, "median_price": 504100.0, "median_price_per_sqm": 4000.7936507936506, "median_rooms": 4.0, "first_sale": "2023-05-25", "last_sale": "2023-05-25"}}, {"type": "Feature", "geometry": {"type": "Point", "coordinates": [2.853165, 48.878713]}, "properties": {"id_parcelle": "77413000ZB0106", "address": "8 IMP DU CLOS DES RHESNES", "sales": 2, "median_price": 413000.0, "median_price_per_sqm": 3357.723577235772, "median_rooms": 6.0, "first_sale": "2023-09-01", "last_sale": "2023-09-01"}}, {"type": "Feature", "geometry": {"type": "Point", "coordinates": [2.851935, 48.878163]}, "properties": {"id_parcelle": "77413000ZB0089", "address": "1 IMP DU CLOS DES RHESNES", "sales": 2, "median_price": 410000.0, "median_price_per_sqm": 3129.7709923664124, "median_rooms": 5.0, "first_sale": "2024-12-20", "last_sale": "2024-12-20"}}, {"type": "Feature", "geometry": {"type": "Point", "coordinates": [2.847593, 48.881185]}, "properties": {"id_parcelle": "77413000ZB0072", "address": "34 CHE DU BOUT DU MONDE", "sales": 2, "median_price": 403200.0, "median_price_per_sqm": 3388.235294117647, "median_rooms": 5.0, "first_sale": "2024-09-30", "last_sale": "2024-09-30"}}, {"type": "Feature", "geometry": {"type": "Point", "coordinates": [2.847419, 48.880568]}, "properties": {"id_parcelle": "77413000ZB0161", "address": "3 CHE DE LA PIE", "sales": 2, "median_price": 369000.0, "median_price_per_sqm": 3617.6470588235293, "median_rooms": 2.5, "first_sale": "2025-12-22", "last_sale": "2025-12-22"}}, {"type": "Feature", "geometry": {"type": "Point", "coordinates": [2.849487, 48.8775]}, "properties": {"id_parcelle": "77413000ZB0137", "address": "3 RUE DU CHAMP DE LA VILLE", "sales": 2, "median_price": 430000.0, "median_price_per_sqm": 4300.0, "median_rooms": 2.5, "first_sale": "2023-03-31", "last_sale": "2023-03-31"}}, {"type": "Feature", "geometry": {"type": "Point", "coordinates": [2.848589, 48.878053]}, "properties": {"id_parcelle": "77413000ZB0223", "address": "11 RUE DU CHAMP DE LA VILLE", "sales": 2, "median_price": 350000.0, "median_price_per_sqm": 3500.0, "median_rooms": 5.0, "first_sale": "2025-03-27", "last_sale": "2025-03-27"}}, {"type": "Feature", "geometry": {"type": "Point", "coordinates": [2.847788, 48.878115]}, "properties": {"id_parcelle": "77413000ZB0227", "address": "24 RUE DU CHAMP DE LA VILLE", "sales": 2, "median_price": 472000.0, "median_price_per_sqm": 3167.7852348993288, "median_rooms": 5.0, "first_sale": "2022-07-15", "last_sale": "2022-07-15"}}, {"type": "Feature", "geometry": {"type": "Point", "coordinates": [2.849931, 48.876739]}, "properties": {"id_parcelle": "77413000ZB0247", "address": "16 RUE DE MONTAUMER", "sales": 2, "median_price": 218000.0, "median_price_per_sqm": null, "median_rooms": null, "first_sale": "2021-02-12", "last_sale": "2022-06-21"}}, {"type": "Feature", "geometry": {"type": "Point", "coordinates": [2.847251, 48.878258]}, "properties": {"id_parcelle": "77413000ZB0229", "address": "28 RUE DU CHAMP DE LA VILLE", "sales": 2, "median_price": 500000.0, "median_price_per_sqm": 3184.7133757961783, "median_rooms": 6.0, "first_sale": "2021-05-28", "last_sale": "2021-05-28"}}, {"type": "Feature", "geometry": {"type": "Point", "coordinates": [2.848087, 48.877352]}, "properties": {"id_parcelle": "77413000ZB0331", "address": "27 RUE DE LA CROIX DROUART", "sales": 2, "median_price": 260412.0, "median_price_per_sqm": 2993.2413793103447, "median_rooms": 4.0, "first_sale": "2021-07-19", "last_sale": "2023-12-14"}}, {"type": "Feature", "geometry": {"type": "Point", "coordinates": [2.8474, 48.879578]}, "properties": {"id_parcelle": "77413000ZB0271", "address": "11 CHE DU PRESSOIR A CIDRE", "sales": 2, "median_price": 330000.0, "median_price_per_sqm": 4125.0, "median_rooms": 2.0, "first_sale": "2024-07-01", "last_sale": "2024-07-01"}}]}