{"type": "FeatureCollection", "features": [{"type": "Feature", "geometry": {"type": "Polygon", "coordinates": [[[2.856605, 49.005273], [2.857077, 49.00476], [2.857286, 49.004469], [2.857342, 49.004304], [2.857399, 49.003843], [2.857487, 49.002958], [2.857623, 49.002414], [2.857714, 49.001714], [2.857711, 49.001567], [2.857617, 49.001067], [2.857574, 49.000658], [2.857568, 48.99968], [2.857577, 48.999237], [2.85771, 48.998909], [2.857687, 48.998058], [2.857539, 48.997595], [2.857484, 48.997338], [2.857514, 48.997224], [2.857684, 48.997015], [2.857854, 48.996879], [2.858204, 48.996651], [2.85901, 48.996915], [2.86015, 48.997303], [2.860655, 48.997378], [2.861223, 48.9974], [2.861583, 48.9975], [2.862113, 48.997714], [2.862643, 48.997877], [2.863448, 48.998077], [2.864352, 48.998525], [2.864588, 48.998668], [2.864889, 48.998447], [2.865496, 48.997972], [2.866365, 48.998381], [2.868446, 48.996909], [2.868553, 48.996828], [2.8687, 48.996899], [2.868979, 48.996537], [2.870385, 48.997016], [2.871511, 48.995506], [2.872354, 48.994361], [2.873762, 48.994836], [2.874244, 48.994241], [2.875058, 48.994469], [2.87494, 48.99462], [2.875298, 48.994756], [2.876411, 48.993353], [2.876041, 48.993246], [2.877306, 48.991593], [2.877433, 48.991415], [2.877588, 48.991347], [2.877572, 48.991237], [2.876315, 48.988654], [2.875548, 48.987117], [2.875342, 48.98665], [2.875243, 48.986669], [2.875095, 48.986866], [2.874726, 48.987126], [2.874545, 48.987229], [2.874221, 48.987356], [2.873141, 48.987494], [2.872751, 48.987529], [2.871347, 48.9876], [2.870562, 48.987519], [2.870466, 48.987754], [2.868253, 48.987827], [2.867074, 48.987715], [2.865331, 48.98767], [2.865401, 48.98747], [2.865858, 48.986607], [2.866173, 48.986117], [2.866396, 48.98571], [2.866779, 48.985198], [2.867085, 48.98474], [2.867446, 48.984152], [2.867839, 48.983613], [2.868631, 48.982625], [2.868938, 48.982151], [2.869108, 48.981734], [2.869262, 48.981269], [2.869382, 48.980831], [2.869533, 48.980398], [2.869742, 48.979975], [2.86957, 48.979878], [2.868433, 48.979598], [2.867657, 48.979296], [2.86667, 48.978841], [2.866342, 48.97873], [2.865949, 48.978631], [2.864057, 48.97819], [2.863647, 48.978066], [2.863003, 48.97775], [2.861917, 48.977178], [2.861197, 48.976809], [2.860545, 48.976427], [2.860402, 48.976328], [2.860016, 48.976578], [2.859574, 48.976902], [2.859135, 48.97718], [2.85877, 48.977496], [2.858321, 48.978078], [2.85801, 48.978623], [2.857717, 48.979009], [2.857316, 48.979395], [2.856583, 48.980034], [2.855407, 48.980999], [2.855077, 48.981244], [2.854642, 48.981532], [2.854063, 48.981962], [2.853704, 48.982311], [2.853384, 48.98272], [2.853372, 48.982866], [2.853217, 48.98291], [2.852956, 48.983115], [2.852525, 48.98351], [2.852338, 48.983601], [2.852168, 48.983868], [2.851731, 48.984341], [2.850835, 48.985096], [2.850432, 48.985453], [2.849943, 48.985823], [2.848918, 48.986626], [2.847709, 48.987539], [2.846613, 48.988346], [2.846051, 48.988661], [2.845674, 48.988939], [2.845064, 48.989338], [2.844508, 48.989723], [2.844275, 48.989857], [2.844094, 48.990054], [2.843815, 48.990293], [2.84329, 48.990703], [2.842753, 48.991034], [2.842336, 48.991332], [2.840936, 48.992249], [2.839682, 48.993197], [2.838278, 48.994194], [2.837795, 48.994485], [2.837588, 48.994737], [2.838052, 48.994929], [2.838374, 48.994898], [2.838974, 48.99501], [2.839204, 48.995121], [2.841176, 48.995272], [2.842616, 48.995345], [2.843954, 48.9954], [2.844372, 48.995368], [2.845151, 48.995217], [2.845086, 48.996611], [2.845528, 48.99863], [2.845886, 49.000084], [2.846028, 49.000617], [2.846102, 49.001452], [2.846083, 49.002054], [2.846145, 49.002107], [2.846979, 49.002544], [2.84741, 49.002808], [2.84793, 49.00286], [2.848259, 49.00293], [2.848993, 49.003043], [2.84966, 49.003165], [2.849918, 49.003244], [2.850551, 49.003403], [2.850981, 49.003566], [2.851491, 49.003734], [2.851797, 49.003779], [2.85248, 49.003946], [2.852801, 49.004042], [2.853418, 49.004257], [2.854193, 49.004572], [2.855003, 49.004925], [2.855814, 49.005252], [2.856075, 49.005286], [2.856605, 49.005273]]]}, "properties": {"code_iris": "773580000", "nom_iris": "Penchard (commune entière)", "type_iris": "Z", "lat": 48.9908, "lng": 2.8576, "dvf_sales_total": 334, "dvf_sales_appt": 0, "dvf_sales_maison": 0, "dvf_median_price": 365000.0, "dvf_median_ppsqm": 3485.714285714286, "dvf_by_year": "[{\"year\": 2021, \"sales\": 83, \"median_price\": 280700.0}, {\"year\": 2022, \"sales\": 125, \"median_price\": 1950000.0}, {\"year\": 2023, \"sales\": 47, \"median_price\": 346810.0}, {\"year\": 2024, \"sales\": 15, \"median_price\": 220000.0}, {\"year\": 2025, \"sales\": 64, \"median_price\": 316750.0}]", "population": 1373, "n_log": null, "n_rp": null, "pct_proprio": null, "pct_hlm": null, "pct_appart": null, "pct_cadres": null, "pct_bac5p": null, "pct_etrangers": null, "pct_0_14": null, "pct_65p": null, "bpe_total": null, "bpe_commerces": null, "bpe_enseignement": null, "bpe_sante": null, "dpe": null, "attractivity_score": null, "rank_attractivity_score": null, "rank_total_attractivity_score": 1, "commune_avg": null, "is_stub": true}}]}