{"type": "FeatureCollection", "features": [{"type": "Feature", "geometry": {"type": "Point", "coordinates": [2.801852, 49.06993]}, "properties": {"id_parcelle": "77430000ZD0123", "address": "13 RUE SAINT ANTOINE", "sales": 88, "median_price": 7734143.5, "median_price_per_sqm": 115434.9776119403, "median_rooms": 1.0, "first_sale": "2022-07-08", "last_sale": "2024-05-02"}}, {"type": "Feature", "geometry": {"type": "Point", "coordinates": [2.78364, 49.073316]}, "properties": {"id_parcelle": "77430000ZE0066", "address": "1 RUE DU POIRIER FOURCHU", "sales": 18, "median_price": 149000.0, "median_price_per_sqm": 2936.1702127659573, "median_rooms": 0.0, "first_sale": "2021-05-05", "last_sale": "2025-11-04"}}, {"type": "Feature", "geometry": {"type": "Point", "coordinates": [2.798525, 49.071055]}, "properties": {"id_parcelle": "77430000ZD0163", "address": "17 GR GRANDE RUE PRINCIPALE", "sales": 15, "median_price": 143000.0, "median_price_per_sqm": 7651.515151515152, "median_rooms": 2.0, "first_sale": "2021-04-28", "last_sale": "2025-07-10"}}, {"type": "Feature", "geometry": {"type": "Point", "coordinates": [2.79018, 49.076742]}, "properties": {"id_parcelle": "77430000AL0372", "address": "19 RUE DES SOURCES", "sales": 15, "median_price": 140000.0, "median_price_per_sqm": 3565.217391304348, "median_rooms": 0.0, "first_sale": "2022-01-31", "last_sale": "2025-10-10"}}, {"type": "Feature", "geometry": {"type": "Point", "coordinates": [2.789509, 49.081435]}, "properties": {"id_parcelle": "77430000AM0338", "address": "3 RUE SAINT EXUPERY", "sales": 10, "median_price": 203210.5, "median_price_per_sqm": 3126.3153846153846, "median_rooms": 0.0, "first_sale": "2021-05-21", "last_sale": "2022-05-30"}}, {"type": "Feature", "geometry": {"type": "Point", "coordinates": [2.798813, 49.071464]}, "properties": {"id_parcelle": "77430000ZD0167", "address": "10 GR GRANDE RUE PRINCIPALE", "sales": 10, "median_price": 167000.0, "median_price_per_sqm": 2676.923076923077, "median_rooms": 1.0, "first_sale": "2021-10-14", "last_sale": "2025-03-14"}}, {"type": "Feature", "geometry": {"type": "Point", "coordinates": [2.801797, 49.070728]}, "properties": {"id_parcelle": "77430000ZD0099", "address": "3 ALL DE LA POSTE", "sales": 10, "median_price": 114500.0, "median_price_per_sqm": 3693.548387096774, "median_rooms": 1.0, "first_sale": "2021-10-05", "last_sale": "2025-12-19"}}, {"type": "Feature", "geometry": {"type": "Point", "coordinates": [2.789683, 49.081393]}, "properties": {"id_parcelle": "77430000AM0357", "address": "1 RUE SAINT EXUPERY", "sales": 9, "median_price": 212000.0, "median_price_per_sqm": 3261.5384615384614, "median_rooms": 0.0, "first_sale": "2021-06-30", "last_sale": "2021-09-30"}}, {"type": "Feature", "geometry": {"type": "Point", "coordinates": [2.787431, 49.067882]}, "properties": {"id_parcelle": "77430000ZE0094", "address": "9001 NOEFORT", "sales": 8, "median_price": 235000.0, "median_price_per_sqm": 4433.962264150943, "median_rooms": 3.0, "first_sale": "2024-04-24", "last_sale": "2024-04-24"}}, {"type": "Feature", "geometry": {"type": "Point", "coordinates": [2.801756, 49.070323]}, "properties": {"id_parcelle": "77430000ZD0108", "address": "2 ALL DE LA POSTE", "sales": 8, "median_price": 269500.0, "median_price_per_sqm": 2508.396746260824, "median_rooms": 2.5, "first_sale": "2024-07-31", "last_sale": "2025-05-27"}}, {"type": "Feature", "geometry": {"type": "Point", "coordinates": [2.794007, 49.069995]}, "properties": {"id_parcelle": "77430000ZC0693", "address": "2 ALL DES IRIS", "sales": 8, "median_price": 262500.0, "median_price_per_sqm": 2916.6666666666665, "median_rooms": 2.0, "first_sale": "2024-01-30", "last_sale": "2024-08-27"}}, {"type": "Feature", "geometry": {"type": "Point", "coordinates": [2.793314, 49.075066]}, "properties": {"id_parcelle": "77430000AH0128", "address": "13 RUE DES FRESNES", "sales": 6, "median_price": 265000.0, "median_price_per_sqm": 2431.1926605504586, "median_rooms": 0.0, "first_sale": "2024-06-10", "last_sale": "2024-06-10"}}, {"type": "Feature", "geometry": {"type": "Point", "coordinates": [2.784414, 49.081732]}, "properties": {"id_parcelle": "77430000AM0353", "address": "10 RUE ROLAND GARROS", "sales": 6, "median_price": 118500.0, "median_price_per_sqm": 3076.923076923077, "median_rooms": 0.5, "first_sale": "2021-05-12", "last_sale": "2024-11-20"}}, {"type": "Feature", "geometry": {"type": "Point", "coordinates": [2.796001, 49.071832]}, "properties": {"id_parcelle": "77430000ZC0686", "address": "31 GR GRANDE RUE PRINCIPALE", "sales": 6, "median_price": 260000.0, "median_price_per_sqm": 3058.823529411765, "median_rooms": 0.0, "first_sale": "2022-04-27", "last_sale": "2022-04-27"}}, {"type": "Feature", "geometry": {"type": "Point", "coordinates": [2.802074, 49.070736]}, "properties": {"id_parcelle": "77430000ZD0100", "address": "5 ALL DE LA POSTE", "sales": 6, "median_price": 436959.0, "median_price_per_sqm": 2913.06, "median_rooms": 0.0, "first_sale": "2025-07-11", "last_sale": "2025-07-11"}}, {"type": "Feature", "geometry": {"type": "Point", "coordinates": [2.799771, 49.070428]}, "properties": {"id_parcelle": "77430000ZD0458", "address": "1 GR GRANDE RUE PRINCIPALE", "sales": 6, "median_price": 200000.0, "median_price_per_sqm": 2061.855670103093, "median_rooms": 0.0, "first_sale": "2024-07-04", "last_sale": "2024-07-04"}}, {"type": "Feature", "geometry": {"type": "Point", "coordinates": [2.797225, 49.072777]}, "properties": {"id_parcelle": "77430000ZD0383", "address": "2 RUE JULES RENARD", "sales": 5, "median_price": 64000.0, "median_price_per_sqm": 2665.103189493433, "median_rooms": 0.0, "first_sale": "2023-03-31", "last_sale": "2024-02-15"}}, {"type": "Feature", "geometry": {"type": "Point", "coordinates": [2.791218, 49.078913]}, "properties": {"id_parcelle": "77430000AL0406", "address": "23 RUE EDITH PIAF", "sales": 4, "median_price": 311300.0, "median_price_per_sqm": 3242.7083333333335, "median_rooms": 2.5, "first_sale": "2023-12-27", "last_sale": "2023-12-27"}}, {"type": "Feature", "geometry": {"type": "Point", "coordinates": [2.788938, 49.080656]}, "properties": {"id_parcelle": "77430000AL0380", "address": "23 RUE JOSEPHINE BAKER", "sales": 4, "median_price": 465000.0, "median_price_per_sqm": 3229.1666666666665, "median_rooms": 3.5, "first_sale": "2024-06-27", "last_sale": "2024-06-27"}}, {"type": "Feature", "geometry": {"type": "Point", "coordinates": [2.789058, 49.079056]}, "properties": {"id_parcelle": "77430000AL0441", "address": "8 RUE JACQUES BREL", "sales": 4, "median_price": 430000.0, "median_price_per_sqm": 3208.955223880597, "median_rooms": 2.5, "first_sale": "2025-06-26", "last_sale": "2025-06-26"}}, {"type": "Feature", "geometry": {"type": "Point", "coordinates": [2.789669, 49.084582]}, "properties": {"id_parcelle": "77430000AM0298", "address": "12 RUE BLERIOT", "sales": 4, "median_price": 288000.0, "median_price_per_sqm": 2691.588785046729, "median_rooms": 2.5, "first_sale": "2025-10-06", "last_sale": "2025-10-06"}}, {"type": "Feature", "geometry": {"type": "Point", "coordinates": [2.786658, 49.08143]}, "properties": {"id_parcelle": "77430000AM0215", "address": "26 RUE SAINT EXUPERY", "sales": 4, "median_price": 391800.0, "median_price_per_sqm": 3013.846153846154, "median_rooms": 2.5, "first_sale": "2022-02-23", "last_sale": "2022-02-23"}}, {"type": "Feature", "geometry": {"type": "Point", "coordinates": [2.791895, 49.069476]}, "properties": {"id_parcelle": "77430000ZC0296", "address": "14 ALL DES MIMOSAS", "sales": 4, "median_price": 370000.0, "median_price_per_sqm": 2890.625, "median_rooms": 2.5, "first_sale": "2023-10-26", "last_sale": "2023-10-26"}}, {"type": "Feature", "geometry": {"type": "Point", "coordinates": [2.793671, 49.069717]}, "properties": {"id_parcelle": "77430000ZC0207", "address": "4 ALL DES IRIS", "sales": 4, "median_price": 291000.0, "median_price_per_sqm": 1953.020134228188, "median_rooms": 2.5, "first_sale": "2024-12-20", "last_sale": "2024-12-20"}}, {"type": "Feature", "geometry": {"type": "Point", "coordinates": [2.794104, 49.080957]}, "properties": {"id_parcelle": "77430000AI0125", "address": "14 RUE DES CHARMES", "sales": 4, "median_price": 325000.0, "median_price_per_sqm": 2110.3896103896104, "median_rooms": 3.0, "first_sale": "2021-09-24", "last_sale": "2021-09-24"}}, {"type": "Feature", "geometry": {"type": "Point", "coordinates": [2.793969, 49.078706]}, "properties": {"id_parcelle": "77430000AI0046", "address": "4 RUE DES ACACIAS", "sales": 4, "median_price": 281000.0, "median_price_per_sqm": 2554.5454545454545, "median_rooms": 3.0, "first_sale": "2022-06-16", "last_sale": "2022-06-16"}}, {"type": "Feature", "geometry": {"type": "Point", "coordinates": [2.794324, 49.078699]}, "properties": {"id_parcelle": "77430000AI0045", "address": "6 RUE DES ACACIAS", "sales": 4, "median_price": 437000.0, "median_price_per_sqm": 2570.5882352941176, "median_rooms": 4.0, "first_sale": "2021-12-20", "last_sale": "2021-12-20"}}, {"type": "Feature", "geometry": {"type": "Point", "coordinates": [2.786593, 49.076804]}, "properties": {"id_parcelle": "77430000AL0101", "address": "8 ALL DES ROITELETS", "sales": 4, "median_price": 338000.0, "median_price_per_sqm": 2762.7022653721683, "median_rooms": 3.0, "first_sale": "2021-05-19", "last_sale": "2025-07-23"}}, {"type": "Feature", "geometry": {"type": "Point", "coordinates": [2.795322, 49.080675]}, "properties": {"id_parcelle": "77430000AI0009", "address": "15 RUE DES BOULEAUX", "sales": 4, "median_price": 350000.0, "median_price_per_sqm": 2966.101694915254, "median_rooms": 2.5, "first_sale": "2024-12-30", "last_sale": "2024-12-30"}}, {"type": "Feature", "geometry": {"type": "Point", "coordinates": [2.796324, 49.079093]}, "properties": {"id_parcelle": "77430000AI0037", "address": "20 RUE DES ACACIAS", "sales": 4, "median_price": 388000.0, "median_price_per_sqm": 3959.183673469388, "median_rooms": 2.5, "first_sale": "2022-02-24", "last_sale": "2022-02-24"}}, {"type": "Feature", "geometry": {"type": "Point", "coordinates": [2.790344, 49.084227]}, "properties": {"id_parcelle": "77430000AM0083", "address": "27 RUE DES MARRONNIERS", "sales": 4, "median_price": 336000.0, "median_price_per_sqm": 2584.6153846153848, "median_rooms": 3.5, "first_sale": "2022-11-28", "last_sale": "2022-11-28"}}, {"type": "Feature", "geometry": {"type": "Point", "coordinates": [2.79032, 49.084045]}, "properties": {"id_parcelle": "77430000AM0081", "address": "23 RUE DES MARRONNIERS", "sales": 4, "median_price": 344000.0, "median_price_per_sqm": 4095.2380952380954, "median_rooms": 3.0, "first_sale": "2022-12-07", "last_sale": "2022-12-07"}}, {"type": "Feature", "geometry": {"type": "Point", "coordinates": [2.792213, 49.080138]}, "properties": {"id_parcelle": "77430000AL0395", "address": "3 RUE EDITH PIAF", "sales": 4, "median_price": 457000.0, "median_price_per_sqm": 2986.9281045751636, "median_rooms": 3.0, "first_sale": "2022-03-10", "last_sale": "2022-03-10"}}, {"type": "Feature", "geometry": {"type": "Point", "coordinates": [2.785929, 49.072287]}, "properties": {"id_parcelle": "77430000ZE0074", "address": "17 RUE DU POIRIER FOURCHU", "sales": 4, "median_price": 420000.0, "median_price_per_sqm": 3181.818181818182, "median_rooms": 2.5, "first_sale": "2025-10-10", "last_sale": "2025-10-10"}}, {"type": "Feature", "geometry": {"type": "Point", "coordinates": [2.784601, 49.073716]}, "properties": {"id_parcelle": "77430000ZC0244", "address": "4 ALL DES MYOSOTIS", "sales": 4, "median_price": 140000.0, "median_price_per_sqm": 1400.0, "median_rooms": 2.5, "first_sale": "2022-02-21", "last_sale": "2022-02-21"}}, {"type": "Feature", "geometry": {"type": "Point", "coordinates": [2.785569, 49.07303]}, "properties": {"id_parcelle": "77430000ZC0250", "address": "7 ALL DES MYOSOTIS", "sales": 4, "median_price": 357000.0, "median_price_per_sqm": 3131.5789473684213, "median_rooms": 3.0, "first_sale": "2021-07-13", "last_sale": "2021-07-13"}}, {"type": "Feature", "geometry": {"type": "Point", "coordinates": [2.791406, 49.074821]}, "properties": {"id_parcelle": "77430000ZC0370", "address": "7 RUE DES VANNEAUX", "sales": 4, "median_price": 113400.0, "median_price_per_sqm": 1134.0, "median_rooms": 2.5, "first_sale": "2022-01-28", "last_sale": "2022-01-28"}}, {"type": "Feature", "geometry": {"type": "Point", "coordinates": [2.792985, 49.071824]}, "properties": {"id_parcelle": "77430000ZC0414", "address": "24 RUE DE LA PLANCHETTE", "sales": 4, "median_price": 165500.0, "median_price_per_sqm": 3458.7789661319075, "median_rooms": 1.0, "first_sale": "2022-07-12", "last_sale": "2022-12-06"}}, {"type": "Feature", "geometry": {"type": "Point", "coordinates": [2.792081, 49.069791]}, "properties": {"id_parcelle": "77430000ZC0680", "address": "8 ALL DES MIMOSAS", "sales": 4, "median_price": 184750.0, "median_price_per_sqm": 1829.2079207920792, "median_rooms": 5.0, "first_sale": "2022-01-20", "last_sale": "2023-10-23"}}, {"type": "Feature", "geometry": {"type": "Point", "coordinates": [2.788176, 49.072953]}, "properties": {"id_parcelle": "77430000ZC0618", "address": "26 RUE DE L ORMOYE", "sales": 4, "median_price": 344000.0, "median_price_per_sqm": 2842.9752066115702, "median_rooms": 3.0, "first_sale": "2025-09-02", "last_sale": "2025-09-02"}}, {"type": "Feature", "geometry": {"type": "Point", "coordinates": [2.78905, 49.076276]}, "properties": {"id_parcelle": "77430000AL0536", "address": "15 RUE DES SOURCES", "sales": 4, "median_price": 284500.0, "median_price_per_sqm": 3092.391304347826, "median_rooms": 2.5, "first_sale": "2023-12-12", "last_sale": "2023-12-12"}}, {"type": "Feature", "geometry": {"type": "Point", "coordinates": [2.79311, 49.084938]}, "properties": {"id_parcelle": "77430000AM0029", "address": "25 RUE DES PEUPLIERS", "sales": 4, "median_price": 277000.0, "median_price_per_sqm": 3077.777777777778, "median_rooms": 2.5, "first_sale": "2024-12-16", "last_sale": "2024-12-16"}}, {"type": "Feature", "geometry": {"type": "Point", "coordinates": [2.792572, 49.08426]}, "properties": {"id_parcelle": "77430000AM0044", "address": "3 RUE DES PLATANES", "sales": 4, "median_price": 355000.0, "median_price_per_sqm": 3008.4745762711864, "median_rooms": 1.5, "first_sale": "2023-01-06", "last_sale": "2023-01-06"}}, {"type": "Feature", "geometry": {"type": "Point", "coordinates": [2.787267, 49.081862]}, "properties": {"id_parcelle": "77430000AM0193", "address": "3 ALL COSTES ET LE BRIX", "sales": 4, "median_price": 373000.0, "median_price_per_sqm": 2360.759493670886, "median_rooms": 5.0, "first_sale": "2022-12-16", "last_sale": "2025-12-04"}}, {"type": "Feature", "geometry": {"type": "Point", "coordinates": [2.78576, 49.082481]}, "properties": {"id_parcelle": "77430000AM0171", "address": "58 RUE JEAN MERMOZ", "sales": 4, "median_price": 303000.0, "median_price_per_sqm": 3443.181818181818, "median_rooms": 2.0, "first_sale": "2023-06-30", "last_sale": "2023-06-30"}}, {"type": "Feature", "geometry": {"type": "Point", "coordinates": [2.787801, 49.082491]}, "properties": {"id_parcelle": "77430000AM0098", "address": "28 RUE JEAN MERMOZ", "sales": 4, "median_price": 325000.0, "median_price_per_sqm": 5416.666666666667, "median_rooms": 1.5, "first_sale": "2023-03-14", "last_sale": "2023-03-14"}}, {"type": "Feature", "geometry": {"type": "Point", "coordinates": [2.803142, 49.066837]}, "properties": {"id_parcelle": "77430000AD0494", "address": "52 RUE SAINT ANTOINE", "sales": 4, "median_price": 455000.0, "median_price_per_sqm": 3370.3703703703704, "median_rooms": 3.0, "first_sale": "2022-07-12", "last_sale": "2022-07-12"}}, {"type": "Feature", "geometry": {"type": "Point", "coordinates": [2.796573, 49.069774]}, "properties": {"id_parcelle": "77430000ZD0442", "address": "9 ALL DES ARTS", "sales": 4, "median_price": 8831891.0, "median_price_per_sqm": null, "median_rooms": null, "first_sale": "2022-08-31", "last_sale": "2022-10-20"}}, {"type": "Feature", "geometry": {"type": "Point", "coordinates": [2.798759, 49.067684]}, "properties": {"id_parcelle": "77430000ZD0201", "address": "12 RUE L ABBE PIERRE", "sales": 4, "median_price": 165000.0, "median_price_per_sqm": 1813.1868131868132, "median_rooms": 1.5, "first_sale": "2021-12-16", "last_sale": "2021-12-16"}}, {"type": "Feature", "geometry": {"type": "Point", "coordinates": [2.804616, 49.06614]}, "properties": {"id_parcelle": "77430000AD0420", "address": "11 ALL DE LA LOIRE", "sales": 4, "median_price": 230000.0, "median_price_per_sqm": 2277.227722772277, "median_rooms": 2.5, "first_sale": "2024-02-05", "last_sale": "2024-02-05"}}, {"type": "Feature", "geometry": {"type": "Point", "coordinates": [2.79433, 49.077303]}, "properties": {"id_parcelle": "77430000AH0126", "address": "44 RUE DES SOURCES", "sales": 4, "median_price": 367500.0, "median_price_per_sqm": 3466.9811320754716, "median_rooms": 3.0, "first_sale": "2022-07-11", "last_sale": "2023-07-03"}}, {"type": "Feature", "geometry": {"type": "Point", "coordinates": [2.8057, 49.069235]}, "properties": {"id_parcelle": "77430000AD0321", "address": "2 RUE DU MORIN", "sales": 4, "median_price": 185000.0, "median_price_per_sqm": 1947.3684210526317, "median_rooms": 2.5, "first_sale": "2025-02-27", "last_sale": "2025-02-27"}}, {"type": "Feature", "geometry": {"type": "Point", "coordinates": [2.80456, 49.065963]}, "properties": {"id_parcelle": "77430000AD0525", "address": "9 ALL DE LA LOIRE", "sales": 4, "median_price": 323000.0, "median_price_per_sqm": 4364.864864864865, "median_rooms": 1.5, "first_sale": "2023-05-30", "last_sale": "2023-05-30"}}, {"type": "Feature", "geometry": {"type": "Point", "coordinates": [2.791379, 49.076406]}, "properties": {"id_parcelle": "77430000AH0001", "address": "62 RUE DU TILLET", "sales": 4, "median_price": 300000.0, "median_price_per_sqm": 2727.2727272727275, "median_rooms": 2.5, "first_sale": "2024-11-19", "last_sale": "2024-11-19"}}, {"type": "Feature", "geometry": {"type": "Point", "coordinates": [2.79449, 49.075314]}, "properties": {"id_parcelle": "77430000AH0058", "address": "22 RUE DES FRESNES", "sales": 4, "median_price": 325000.0, "median_price_per_sqm": 2138.157894736842, "median_rooms": 2.5, "first_sale": "2024-06-19", "last_sale": "2024-06-19"}}, {"type": "Feature", "geometry": {"type": "Point", "coordinates": [2.804583, 49.073579]}, "properties": {"id_parcelle": "77430000AE0069", "address": "3 RUE DE LA NONETTE", "sales": 3, "median_price": 300000.0, "median_price_per_sqm": 2500.0, "median_rooms": 0.0, "first_sale": "2022-04-12", "last_sale": "2022-04-12"}}, {"type": "Feature", "geometry": {"type": "Point", "coordinates": [2.789249, 49.074686]}, "properties": {"id_parcelle": "77430000ZC0699", "address": "42 RUE DU PLESSIS", "sales": 3, "median_price": 293000.0, "median_price_per_sqm": 3906.6666666666665, "median_rooms": 0.0, "first_sale": "2023-10-25", "last_sale": "2023-10-25"}}, {"type": "Feature", "geometry": {"type": "Point", "coordinates": [2.790469, 49.073984]}, "properties": {"id_parcelle": "77430000ZC0506", "address": "28 RUE DU PLESSIS", "sales": 3, "median_price": 190000.0, "median_price_per_sqm": 3064.516129032258, "median_rooms": 3.0, "first_sale": "2021-03-22", "last_sale": "2022-05-11"}}, {"type": "Feature", "geometry": {"type": "Point", "coordinates": [2.790378, 49.074018]}, "properties": {"id_parcelle": "77430000ZC0499", "address": "28 RUE DU PLESSIS", "sales": 3, "median_price": 190000.0, "median_price_per_sqm": null, "median_rooms": null, "first_sale": "2021-03-22", "last_sale": "2022-05-11"}}, {"type": "Feature", "geometry": {"type": "Point", "coordinates": [2.791997, 49.083271]}, "properties": {"id_parcelle": "77430000AM0375", "address": "7 RUE DES PEUPLIERS", "sales": 3, "median_price": 308000.0, "median_price_per_sqm": 2701.754385964912, "median_rooms": 0.0, "first_sale": "2025-08-07", "last_sale": "2025-08-07"}}, {"type": "Feature", "geometry": {"type": "Point", "coordinates": [2.80561, 49.072312]}, "properties": {"id_parcelle": "77430000AE0165", "address": "2 RUE DE LA SOMME", "sales": 2, "median_price": 190000.0, "median_price_per_sqm": 2261.904761904762, "median_rooms": 2.5, "first_sale": "2025-11-04", "last_sale": "2025-11-04"}}, {"type": "Feature", "geometry": {"type": "Point", "coordinates": [2.805979, 49.072867]}, "properties": {"id_parcelle": "77430000AE0156", "address": "11 RUE DE LA SOMME", "sales": 2, "median_price": 267000.0, "median_price_per_sqm": 3657.5342465753424, "median_rooms": 2.0, "first_sale": "2023-12-29", "last_sale": "2023-12-29"}}, {"type": "Feature", "geometry": {"type": "Point", "coordinates": [2.803905, 49.072596]}, "properties": {"id_parcelle": "77430000AE0050", "address": "6 ALL DU THERAIN", "sales": 2, "median_price": 308000.0, "median_price_per_sqm": 3666.6666666666665, "median_rooms": 2.5, "first_sale": "2022-07-22", "last_sale": "2022-07-22"}}, {"type": "Feature", "geometry": {"type": "Point", "coordinates": [2.803879, 49.070072]}, "properties": {"id_parcelle": "77430000AD0031", "address": "13 RUE DU RHIN", "sales": 2, "median_price": 359000.0, "median_price_per_sqm": 3324.074074074074, "median_rooms": 3.0, "first_sale": "2023-07-26", "last_sale": "2023-07-26"}}, {"type": "Feature", "geometry": {"type": "Point", "coordinates": [2.804054, 49.066202]}, "properties": {"id_parcelle": "77430000AD0417", "address": "5 ALL DE LA LOIRE", "sales": 2, "median_price": 310000.0, "median_price_per_sqm": 3444.4444444444443, "median_rooms": 5.0, "first_sale": "2021-09-29", "last_sale": "2021-09-29"}}, {"type": "Feature", "geometry": {"type": "Point", "coordinates": [2.805841, 49.068583]}, "properties": {"id_parcelle": "77430000AD0328", "address": "3 ALL DE L YERRES", "sales": 2, "median_price": 255000.0, "median_price_per_sqm": 2802.197802197802, "median_rooms": 2.5, "first_sale": "2025-05-07", "last_sale": "2025-05-07"}}, {"type": "Feature", "geometry": {"type": "Point", "coordinates": [2.806545, 49.069078]}, "properties": {"id_parcelle": "77430000AD0309", "address": "27 RUE DE LA SEINE", "sales": 2, "median_price": 395000.0, "median_price_per_sqm": 3038.4615384615386, "median_rooms": 3.0, "first_sale": "2021-05-28", "last_sale": "2021-05-28"}}, {"type": "Feature", "geometry": {"type": "Point", "coordinates": [2.806011, 49.0691]}, "properties": {"id_parcelle": "77430000AD0320", "address": "4 RUE DU MORIN", "sales": 2, "median_price": 260000.0, "median_price_per_sqm": 2653.061224489796, "median_rooms": 5.0, "first_sale": "2022-11-21", "last_sale": "2022-11-21"}}, {"type": "Feature", "geometry": {"type": "Point", "coordinates": [2.805944, 49.069399]}, "properties": {"id_parcelle": "77430000AD0270", "address": "5 RUE DU MORIN", "sales": 2, "median_price": 265000.0, "median_price_per_sqm": 3271.604938271605, "median_rooms": 2.5, "first_sale": "2024-08-27", "last_sale": "2024-08-27"}}, {"type": "Feature", "geometry": {"type": "Point", "coordinates": [2.805011, 49.065876]}, "properties": {"id_parcelle": "77430000AD0517", "address": "15 ALL DE LA LOIRE", "sales": 2, "median_price": 285000.0, "median_price_per_sqm": 2968.75, "median_rooms": 4.0, "first_sale": "2021-08-18", "last_sale": "2021-08-18"}}, {"type": "Feature", "geometry": {"type": "Point", "coordinates": [2.80196, 49.073258]}, "properties": {"id_parcelle": "77430000AE0018", "address": "27 RUE DE L OISE", "sales": 2, "median_price": 365000.0, "median_price_per_sqm": 3119.6581196581196, "median_rooms": 2.0, "first_sale": "2022-12-27", "last_sale": "2022-12-27"}}, {"type": "Feature", "geometry": {"type": "Point", "coordinates": [2.802383, 49.069477]}, "properties": {"id_parcelle": "77430000AD0538", "address": "17 RUE SAINT ANTOINE", "sales": 2, "median_price": 298000.0, "median_price_per_sqm": 1674.1573033707864, "median_rooms": 7.0, "first_sale": "2021-12-16", "last_sale": "2022-05-24"}}, {"type": "Feature", "geometry": {"type": "Point", "coordinates": [2.787357, 49.079356]}, "properties": {"id_parcelle": "77430000AL0237", "address": "66 AV DES CHARDONNERETS", "sales": 2, "median_price": 298000.0, "median_price_per_sqm": 3590.3614457831327, "median_rooms": 2.5, "first_sale": "2022-08-05", "last_sale": "2022-08-05"}}, {"type": "Feature", "geometry": {"type": "Point", "coordinates": [2.787212, 49.078993]}, "properties": {"id_parcelle": "77430000AL0217", "address": "1 ALL DES MOUETTES", "sales": 2, "median_price": 287000.0, "median_price_per_sqm": 3457.8313253012047, "median_rooms": 2.5, "first_sale": "2023-02-24", "last_sale": "2023-02-24"}}, {"type": "Feature", "geometry": {"type": "Point", "coordinates": [2.787373, 49.078699]}, "properties": {"id_parcelle": "77430000AL0214", "address": "19 RUE DES HIRONDELLES", "sales": 2, "median_price": 270000.0, "median_price_per_sqm": 3253.012048192771, "median_rooms": 2.5, "first_sale": "2022-07-01", "last_sale": "2022-07-01"}}, {"type": "Feature", "geometry": {"type": "Point", "coordinates": [2.787283, 49.078632]}, "properties": {"id_parcelle": "77430000AL0213", "address": "17 RUE DES HIRONDELLES", "sales": 2, "median_price": 285000.0, "median_price_per_sqm": 2908.1632653061224, "median_rooms": 3.0, "first_sale": "2022-02-17", "last_sale": "2022-02-17"}}, {"type": "Feature", "geometry": {"type": "Point", "coordinates": [2.787011, 49.07842]}, "properties": {"id_parcelle": "77430000AL0210", "address": "11 RUE DES HIRONDELLES", "sales": 2, "median_price": 261000.0, "median_price_per_sqm": 3144.578313253012, "median_rooms": 2.5, "first_sale": "2022-05-05", "last_sale": "2022-05-05"}}, {"type": "Feature", "geometry": {"type": "Point", "coordinates": [2.786658, 49.077714]}, "properties": {"id_parcelle": "77430000AL0202", "address": "2 RUE DES HIRONDELLES", "sales": 2, "median_price": 275000.0, "median_price_per_sqm": null, "median_rooms": null, "first_sale": "2021-03-10", "last_sale": "2023-11-23"}}, {"type": "Feature", "geometry": {"type": "Point", "coordinates": [2.786696, 49.077777]}, "properties": {"id_parcelle": "77430000AL0201", "address": "2 RUE DES HIRONDELLES", "sales": 2, "median_price": 275000.0, "median_price_per_sqm": 2669.902912621359, "median_rooms": 6.0, "first_sale": "2021-03-10", "last_sale": "2023-11-23"}}, {"type": "Feature", "geometry": {"type": "Point", "coordinates": [2.787979, 49.077736]}, "properties": {"id_parcelle": "77430000AL0179", "address": "6 ALL DES FAUVETTES", "sales": 2, "median_price": 200000.0, "median_price_per_sqm": 2409.6385542168673, "median_rooms": 2.5, "first_sale": "2025-11-04", "last_sale": "2025-11-04"}}, {"type": "Feature", "geometry": {"type": "Point", "coordinates": [2.788425, 49.077784]}, "properties": {"id_parcelle": "77430000AL0163", "address": "21 AV DES CHARDONNERETS", "sales": 2, "median_price": 310000.0, "median_price_per_sqm": 3734.9397590361446, "median_rooms": 2.5, "first_sale": "2023-07-07", "last_sale": "2023-07-07"}}, {"type": "Feature", "geometry": {"type": "Point", "coordinates": [2.788585, 49.076326]}, "properties": {"id_parcelle": "77430000AL0116", "address": "11 RUE DES SOURCES", "sales": 2, "median_price": 375000.0, "median_price_per_sqm": 3865.979381443299, "median_rooms": 6.0, "first_sale": "2022-07-18", "last_sale": "2022-07-18"}}, {"type": "Feature", "geometry": {"type": "Point", "coordinates": [2.786683, 49.076689]}, "properties": {"id_parcelle": "77430000AL0100", "address": "10 ALL DES ROITELETS", "sales": 2, "median_price": 270000.0, "median_price_per_sqm": 3253.012048192771, "median_rooms": 5.0, "first_sale": "2024-04-11", "last_sale": "2025-07-15"}}, {"type": "Feature", "geometry": {"type": "Point", "coordinates": [2.786272, 49.077477]}, "properties": {"id_parcelle": "77430000AL0074", "address": "4 ALL DES ROSSIGNOLS", "sales": 2, "median_price": 287000.0, "median_price_per_sqm": 3457.8313253012047, "median_rooms": 2.5, "first_sale": "2022-07-22", "last_sale": "2022-07-22"}}, {"type": "Feature", "geometry": {"type": "Point", "coordinates": [2.78397, 49.077725]}, "properties": {"id_parcelle": "77430000AL0055", "address": "43 AV DES ALOUETTES", "sales": 2, "median_price": 300000.0, "median_price_per_sqm": 3614.4578313253014, "median_rooms": 2.5, "first_sale": "2022-03-07", "last_sale": "2022-03-07"}}, {"type": "Feature", "geometry": {"type": "Point", "coordinates": [2.783685, 49.077511]}, "properties": {"id_parcelle": "77430000AL0058", "address": "49 AV DES ALOUETTES", "sales": 2, "median_price": 285000.0, "median_price_per_sqm": 2590.909090909091, "median_rooms": 3.0, "first_sale": "2024-03-12", "last_sale": "2024-03-12"}}, {"type": "Feature", "geometry": {"type": "Point", "coordinates": [2.785031, 49.077975]}, "properties": {"id_parcelle": "77430000AL0046", "address": "27 AV DES ALOUETTES", "sales": 2, "median_price": 343000.0, "median_price_per_sqm": 3330.097087378641, "median_rooms": 3.0, "first_sale": "2022-07-29", "last_sale": "2022-07-29"}}, {"type": "Feature", "geometry": {"type": "Point", "coordinates": [2.793087, 49.081947]}, "properties": {"id_parcelle": "77430000AI0130", "address": "12 RUE DES ERABLES", "sales": 2, "median_price": 280000.0, "median_price_per_sqm": 3043.478260869565, "median_rooms": 2.0, "first_sale": "2025-03-21", "last_sale": "2025-03-21"}}, {"type": "Feature", "geometry": {"type": "Point", "coordinates": [2.794791, 49.079505]}, "properties": {"id_parcelle": "77430000AI0028", "address": "7 RUE DES ACACIAS", "sales": 2, "median_price": 490000.0, "median_price_per_sqm": 3223.684210526316, "median_rooms": 5.0, "first_sale": "2022-11-02", "last_sale": "2022-11-02"}}, {"type": "Feature", "geometry": {"type": "Point", "coordinates": [2.795078, 49.080999]}, "properties": {"id_parcelle": "77430000AI0129", "address": "RUE DES CHARMES", "sales": 2, "median_price": 260500.0, "median_price_per_sqm": null, "median_rooms": null, "first_sale": "2022-12-06", "last_sale": "2023-08-02"}}, {"type": "Feature", "geometry": {"type": "Point", "coordinates": [2.794748, 49.080906]}, "properties": {"id_parcelle": "77430000AI0128", "address": "RUE DES CHARMES", "sales": 2, "median_price": 248500.0, "median_price_per_sqm": null, "median_rooms": null, "first_sale": "2022-12-06", "last_sale": "2023-09-07"}}, {"type": "Feature", "geometry": {"type": "Point", "coordinates": [2.794887, 49.080944]}, "properties": {"id_parcelle": "77430000AI0127", "address": "16 RUE DES CHARMES", "sales": 2, "median_price": 372000.0, "median_price_per_sqm": 2415.5844155844156, "median_rooms": 4.0, "first_sale": "2022-12-06", "last_sale": "2022-12-06"}}, {"type": "Feature", "geometry": {"type": "Point", "coordinates": [2.795306, 49.081371]}, "properties": {"id_parcelle": "77430000AI0121", "address": "27 RUE DES CHARMES", "sales": 2, "median_price": 320000.0, "median_price_per_sqm": 1545.8937198067633, "median_rooms": 8.0, "first_sale": "2022-09-28", "last_sale": "2022-09-28"}}, {"type": "Feature", "geometry": {"type": "Point", "coordinates": [2.794907, 49.0813]}, "properties": {"id_parcelle": "77430000AI0084", "address": "25 RUE DES CHARMES", "sales": 2, "median_price": 372000.0, "median_price_per_sqm": 3542.8571428571427, "median_rooms": 4.0, "first_sale": "2021-09-03", "last_sale": "2021-09-03"}}, {"type": "Feature", "geometry": {"type": "Point", "coordinates": [2.794176, 49.081701]}, "properties": {"id_parcelle": "77430000AI0079", "address": "17 RUE DES CHARMES", "sales": 2, "median_price": 343000.0, "median_price_per_sqm": 1706.4676616915424, "median_rooms": 10.0, "first_sale": "2021-06-11", "last_sale": "2021-06-11"}}, {"type": "Feature", "geometry": {"type": "Point", "coordinates": [2.79286, 49.081042]}, "properties": {"id_parcelle": "77430000AI0073", "address": "5 RUE DES CHARMES", "sales": 2, "median_price": 313000.0, "median_price_per_sqm": 2484.126984126984, "median_rooms": 6.0, "first_sale": "2021-04-26", "last_sale": "2021-04-26"}}, {"type": "Feature", "geometry": {"type": "Point", "coordinates": [2.7965, 49.079624]}, "properties": {"id_parcelle": "77430000AI0033", "address": "17 RUE DES ACACIAS", "sales": 2, "median_price": 320000.0, "median_price_per_sqm": 2370.3703703703704, "median_rooms": 5.0, "first_sale": "2021-04-22", "last_sale": "2021-04-22"}}, {"type": "Feature", "geometry": {"type": "Point", "coordinates": [2.795622, 49.079193]}, "properties": {"id_parcelle": "77430000AI0040", "address": "16 RUE DES ACACIAS", "sales": 2, "median_price": 380000.0, "median_price_per_sqm": 3089.430894308943, "median_rooms": 6.0, "first_sale": "2022-02-17", "last_sale": "2022-02-17"}}, {"type": "Feature", "geometry": {"type": "Point", "coordinates": [2.796749, 49.079146]}, "properties": {"id_parcelle": "77430000AI0036", "address": "22 RUE DES ACACIAS", "sales": 2, "median_price": 430000.0, "median_price_per_sqm": 2654.320987654321, "median_rooms": 8.0, "first_sale": "2025-12-19", "last_sale": "2025-12-19"}}, {"type": "Feature", "geometry": {"type": "Point", "coordinates": [2.796837, 49.07354]}, "properties": {"id_parcelle": "77430000AH0086", "address": "6 RUE DU TILLET", "sales": 2, "median_price": 310000.0, "median_price_per_sqm": 2583.3333333333335, "median_rooms": 7.0, "first_sale": "2021-04-30", "last_sale": "2021-04-30"}}, {"type": "Feature", "geometry": {"type": "Point", "coordinates": [2.79636, 49.073504]}, "properties": {"id_parcelle": "77430000AH0084", "address": "10 RUE DU TILLET", "sales": 2, "median_price": 325000.0, "median_price_per_sqm": 4012.3456790123455, "median_rooms": 5.0, "first_sale": "2025-01-30", "last_sale": "2025-01-30"}}, {"type": "Feature", "geometry": {"type": "Point", "coordinates": [2.795607, 49.080501]}, "properties": {"id_parcelle": "77430000AI0010", "address": "17 RUE DES BOULEAUX", "sales": 2, "median_price": 349900.0, "median_price_per_sqm": 4267.073170731707, "median_rooms": 4.0, "first_sale": "2023-05-31", "last_sale": "2023-05-31"}}, {"type": "Feature", "geometry": {"type": "Point", "coordinates": [2.796087, 49.080216]}, "properties": {"id_parcelle": "77430000AI0014", "address": "20 RUE DES BOULEAUX", "sales": 2, "median_price": 207000.0, "median_price_per_sqm": 2524.390243902439, "median_rooms": 4.0, "first_sale": "2025-12-18", "last_sale": "2025-12-18"}}, {"type": "Feature", "geometry": {"type": "Point", "coordinates": [2.794949, 49.080109]}, "properties": {"id_parcelle": "77430000AI0018", "address": "12 RUE DES BOULEAUX", "sales": 2, "median_price": 400000.0, "median_price_per_sqm": 2380.9523809523807, "median_rooms": 8.0, "first_sale": "2022-10-24", "last_sale": "2022-10-24"}}, {"type": "Feature", "geometry": {"type": "Point", "coordinates": [2.805656, 49.065318]}, "properties": {"id_parcelle": "77430000AD0436", "address": "24 ALL DE LA LOIRE", "sales": 2, "median_price": 369000.0, "median_price_per_sqm": 2838.4615384615386, "median_rooms": 6.0, "first_sale": "2023-08-25", "last_sale": "2023-08-25"}}, {"type": "Feature", "geometry": {"type": "Point", "coordinates": [2.803197, 49.067106]}, "properties": {"id_parcelle": "77430000AD0516", "address": "50 RUE SAINT ANTOINE", "sales": 2, "median_price": 287000.0, "median_price_per_sqm": 2609.090909090909, "median_rooms": 2.5, "first_sale": "2025-05-27", "last_sale": "2025-05-27"}}, {"type": "Feature", "geometry": {"type": "Point", "coordinates": [2.802787, 49.069266]}, "properties": {"id_parcelle": "77430000AD0510", "address": "17 RUE SAINT ANTOINE", "sales": 2, "median_price": 313000.0, "median_price_per_sqm": 2721.7391304347825, "median_rooms": 6.0, "first_sale": "2021-07-02", "last_sale": "2021-07-02"}}, {"type": "Feature", "geometry": {"type": "Point", "coordinates": [2.804506, 49.065218]}, "properties": {"id_parcelle": "77430000AD0442", "address": "12 ALL DE LA LOIRE", "sales": 2, "median_price": 276000.0, "median_price_per_sqm": 3680.0, "median_rooms": 4.0, "first_sale": "2022-07-29", "last_sale": "2022-07-29"}}, {"type": "Feature", "geometry": {"type": "Point", "coordinates": [2.804859, 49.065373]}, "properties": {"id_parcelle": "77430000AD0440", "address": "16 ALL DE LA LOIRE", "sales": 2, "median_price": 357000.0, "median_price_per_sqm": 3245.4545454545455, "median_rooms": 7.0, "first_sale": "2022-12-26", "last_sale": "2022-12-26"}}, {"type": "Feature", "geometry": {"type": "Point", "coordinates": [2.792902, 49.075611]}, "properties": {"id_parcelle": "77430000AH0011", "address": "46 RUE DU TILLET", "sales": 2, "median_price": 283000.0, "median_price_per_sqm": 2830.0, "median_rooms": 5.0, "first_sale": "2023-07-04", "last_sale": "2023-07-04"}}, {"type": "Feature", "geometry": {"type": "Point", "coordinates": [2.794993, 49.077388]}, "properties": {"id_parcelle": "77430000AH0038", "address": "41 RUE DES FRESNES", "sales": 2, "median_price": 380000.0, "median_price_per_sqm": 3653.846153846154, "median_rooms": 6.0, "first_sale": "2022-05-31", "last_sale": "2022-05-31"}}, {"type": "Feature", "geometry": {"type": "Point", "coordinates": [2.795676, 49.073844]}, "properties": {"id_parcelle": "77430000AH0080", "address": "18 RUE DU TILLET", "sales": 2, "median_price": 355000.0, "median_price_per_sqm": 3008.4745762711864, "median_rooms": 5.0, "first_sale": "2022-04-29", "last_sale": "2022-04-29"}}, {"type": "Feature", "geometry": {"type": "Point", "coordinates": [2.80397, 49.071946]}, "properties": {"id_parcelle": "77430000AE0195", "address": "9 RUE DE L AISNE", "sales": 2, "median_price": 260000.0, "median_price_per_sqm": 2600.0, "median_rooms": 2.5, "first_sale": "2021-06-30", "last_sale": "2021-06-30"}}, {"type": "Feature", "geometry": {"type": "Point", "coordinates": [2.802246, 49.07191]}, "properties": {"id_parcelle": "77430000AE0202", "address": "9 RUE DE L OISE", "sales": 2, "median_price": 352000.0, "median_price_per_sqm": 2933.3333333333335, "median_rooms": 6.0, "first_sale": "2023-11-10", "last_sale": "2023-11-10"}}, {"type": "Feature", "geometry": {"type": "Point", "coordinates": [2.801529, 49.071777]}, "properties": {"id_parcelle": "77430000AE0207", "address": "15 RUE DU CAPITAINE LEURIDAN", "sales": 2, "median_price": 305000.0, "median_price_per_sqm": 3315.217391304348, "median_rooms": 4.0, "first_sale": "2021-02-26", "last_sale": "2021-02-26"}}, {"type": "Feature", "geometry": {"type": "Point", "coordinates": [2.802464, 49.069532]}, "properties": {"id_parcelle": "77430000AD0540", "address": "17 RUE SAINT ANTOINE", "sales": 2, "median_price": 353000.0, "median_price_per_sqm": 1649.5327102803737, "median_rooms": 7.0, "first_sale": "2022-05-24", "last_sale": "2022-05-24"}}, {"type": "Feature", "geometry": {"type": "Point", "coordinates": [2.802112, 49.072448]}, "properties": {"id_parcelle": "77430000AE0022", "address": "8 RUE DE L OISE", "sales": 2, "median_price": 282000.0, "median_price_per_sqm": 3439.0243902439024, "median_rooms": 2.5, "first_sale": "2022-06-01", "last_sale": "2022-06-01"}}, {"type": "Feature", "geometry": {"type": "Point", "coordinates": [2.787666, 49.08033]}, "properties": {"id_parcelle": "77430000AL0375", "address": "33 RUE JOSEPHINE BAKER", "sales": 2, "median_price": 332000.0, "median_price_per_sqm": 2964.285714285714, "median_rooms": 6.0, "first_sale": "2023-07-03", "last_sale": "2023-07-03"}}, {"type": "Feature", "geometry": {"type": "Point", "coordinates": [2.792514, 49.083292]}, "properties": {"id_parcelle": "77430000AM0009", "address": "12 RUE DES PEUPLIERS", "sales": 2, "median_price": 290000.0, "median_price_per_sqm": 3295.4545454545455, "median_rooms": 5.0, "first_sale": "2021-12-27", "last_sale": "2021-12-27"}}, {"type": "Feature", "geometry": {"type": "Point", "coordinates": [2.792014, 49.084311]}, "properties": {"id_parcelle": "77430000AM0046", "address": "7 RUE DES PLATANES", "sales": 2, "median_price": 55050.0, "median_price_per_sqm": 598.3695652173913, "median_rooms": 6.0, "first_sale": "2025-04-18", "last_sale": "2025-04-18"}}, {"type": "Feature", "geometry": {"type": "Point", "coordinates": [2.7869, 49.08245]}, "properties": {"id_parcelle": "77430000AM0179", "address": "42 RUE JEAN MERMOZ", "sales": 2, "median_price": 280000.0, "median_price_per_sqm": 2666.6666666666665, "median_rooms": 4.0, "first_sale": "2023-04-18", "last_sale": "2023-04-18"}}, {"type": "Feature", "geometry": {"type": "Point", "coordinates": [2.787917, 49.0813]}, "properties": {"id_parcelle": "77430000AM0141", "address": "14 RUE SAINT EXUPERY", "sales": 2, "median_price": 350000.0, "median_price_per_sqm": 2713.1782945736436, "median_rooms": 4.0, "first_sale": "2022-08-02", "last_sale": "2022-08-02"}}, {"type": "Feature", "geometry": {"type": "Point", "coordinates": [2.788494, 49.080966]}, "properties": {"id_parcelle": "77430000AM0130", "address": "13 RUE SAINT EXUPERY", "sales": 2, "median_price": 379000.0, "median_price_per_sqm": 2937.984496124031, "median_rooms": 6.0, "first_sale": "2024-07-11", "last_sale": "2024-07-11"}}, {"type": "Feature", "geometry": {"type": "Point", "coordinates": [2.790311, 49.083521]}, "properties": {"id_parcelle": "77430000AM0076", "address": "15 RUE DES MARRONNIERS", "sales": 2, "median_price": 312000.0, "median_price_per_sqm": 3120.0, "median_rooms": 4.0, "first_sale": "2023-10-11", "last_sale": "2023-10-11"}}, {"type": "Feature", "geometry": {"type": "Point", "coordinates": [2.793573, 49.084906]}, "properties": {"id_parcelle": "77430000AM0027", "address": "44 RUE DES PEUPLIERS", "sales": 2, "median_price": 300000.0, "median_price_per_sqm": 2970.29702970297, "median_rooms": 4.0, "first_sale": "2021-01-14", "last_sale": "2021-01-14"}}, {"type": "Feature", "geometry": {"type": "Point", "coordinates": [2.791825, 49.085072]}, "properties": {"id_parcelle": "77430000AM0031", "address": "26 RUE DES MARRONNIERS", "sales": 2, "median_price": 367000.0, "median_price_per_sqm": 3276.785714285714, "median_rooms": 6.0, "first_sale": "2022-11-15", "last_sale": "2022-11-15"}}, {"type": "Feature", "geometry": {"type": "Point", "coordinates": [2.791832, 49.084769]}, "properties": {"id_parcelle": "77430000AM0035", "address": "10 RUE DES PLATANES", "sales": 2, "median_price": 284000.0, "median_price_per_sqm": 3688.311688311688, "median_rooms": 5.0, "first_sale": "2021-02-02", "last_sale": "2021-02-02"}}, {"type": "Feature", "geometry": {"type": "Point", "coordinates": [2.789001, 49.078416]}, "properties": {"id_parcelle": "77430000AL0413", "address": "11 RUE JACQUES BREL", "sales": 2, "median_price": 368000.0, "median_price_per_sqm": 2967.7419354838707, "median_rooms": 5.0, "first_sale": "2022-09-29", "last_sale": "2022-09-29"}}, {"type": "Feature", "geometry": {"type": "Point", "coordinates": [2.78609, 49.076445]}, "properties": {"id_parcelle": "77430000AL0525", "address": "64 RUE DU PLESSIS", "sales": 2, "median_price": 258000.0, "median_price_per_sqm": 2804.3478260869565, "median_rooms": 4.0, "first_sale": "2024-09-11", "last_sale": "2024-09-11"}}, {"type": "Feature", "geometry": {"type": "Point", "coordinates": [2.791864, 49.079615]}, "properties": {"id_parcelle": "77430000AL0453", "address": "8 RUE EDITH PIAF", "sales": 2, "median_price": 331500.0, "median_price_per_sqm": 2809.322033898305, "median_rooms": 5.0, "first_sale": "2025-08-29", "last_sale": "2025-08-29"}}, {"type": "Feature", "geometry": {"type": "Point", "coordinates": [2.789523, 49.078914]}, "properties": {"id_parcelle": "77430000AL0443", "address": "4 RUE JACQUES BREL", "sales": 2, "median_price": 433500.0, "median_price_per_sqm": 3187.5, "median_rooms": 6.0, "first_sale": "2022-11-18", "last_sale": "2022-11-18"}}, {"type": "Feature", "geometry": {"type": "Point", "coordinates": [2.788225, 49.07912]}, "properties": {"id_parcelle": "77430000AL0417", "address": "19 RUE JACQUES BREL", "sales": 2, "median_price": 525000.0, "median_price_per_sqm": 2116.935483870968, "median_rooms": 6.0, "first_sale": "2022-07-29", "last_sale": "2022-07-29"}}, {"type": "Feature", "geometry": {"type": "Point", "coordinates": [2.79151, 49.080832]}, "properties": {"id_parcelle": "77430000AL0390", "address": "5 RUE JOSEPHINE BAKER", "sales": 2, "median_price": 360000.0, "median_price_per_sqm": 3000.0, "median_rooms": 6.0, "first_sale": "2022-07-19", "last_sale": "2022-07-19"}}, {"type": "Feature", "geometry": {"type": "Point", "coordinates": [2.784183, 49.077399]}, "properties": {"id_parcelle": "77430000AL0332", "address": "88 RUE DU PLESSIS", "sales": 2, "median_price": 255000.0, "median_price_per_sqm": 3072.289156626506, "median_rooms": 2.5, "first_sale": "2025-08-28", "last_sale": "2025-08-28"}}, {"type": "Feature", "geometry": {"type": "Point", "coordinates": [2.787713, 49.078967]}, "properties": {"id_parcelle": "77430000AL0247", "address": "56 AV DES CHARDONNERETS", "sales": 2, "median_price": 270000.0, "median_price_per_sqm": 3253.012048192771, "median_rooms": 2.5, "first_sale": "2022-03-29", "last_sale": "2022-03-29"}}, {"type": "Feature", "geometry": {"type": "Point", "coordinates": [2.789765, 49.076974]}, "properties": {"id_parcelle": "77430000AL0299", "address": "6 AV DES CHARDONNERETS", "sales": 2, "median_price": 209000.0, "median_price_per_sqm": 2518.0722891566265, "median_rooms": 2.0, "first_sale": "2025-11-26", "last_sale": "2025-11-26"}}, {"type": "Feature", "geometry": {"type": "Point", "coordinates": [2.788376, 49.07174]}, "properties": {"id_parcelle": "77430000ZC0339", "address": "27 RUE DE L ORMOYE", "sales": 2, "median_price": 320000.0, "median_price_per_sqm": 2909.090909090909, "median_rooms": 5.0, "first_sale": "2024-12-27", "last_sale": "2024-12-27"}}, {"type": "Feature", "geometry": {"type": "Point", "coordinates": [2.788004, 49.072086]}, "properties": {"id_parcelle": "77430000ZC0334", "address": "33 RUE DE L ORMOYE", "sales": 2, "median_price": 330000.0, "median_price_per_sqm": 3367.3469387755104, "median_rooms": 4.0, "first_sale": "2021-02-05", "last_sale": "2021-02-05"}}, {"type": "Feature", "geometry": {"type": "Point", "coordinates": [2.793578, 49.074204]}, "properties": {"id_parcelle": "77430000ZC0303", "address": "21 RUE DU TILLET", "sales": 2, "median_price": 315000.0, "median_price_per_sqm": 2916.6666666666665, "median_rooms": 5.0, "first_sale": "2024-07-31", "last_sale": "2024-07-31"}}, {"type": "Feature", "geometry": {"type": "Point", "coordinates": [2.792074, 49.070084]}, "properties": {"id_parcelle": "77430000ZC0292", "address": "6 ALL DES MIMOSAS", "sales": 2, "median_price": 288000.0, "median_price_per_sqm": 3348.8372093023254, "median_rooms": 4.0, "first_sale": "2023-09-01", "last_sale": "2023-09-01"}}, {"type": "Feature", "geometry": {"type": "Point", "coordinates": [2.785183, 49.07359]}, "properties": {"id_parcelle": "77430000ZC0242", "address": "3 ALL DES MYOSOTIS", "sales": 2, "median_price": 280000.0, "median_price_per_sqm": 2170.5426356589146, "median_rooms": 5.0, "first_sale": "2024-01-11", "last_sale": "2024-01-11"}}, {"type": "Feature", "geometry": {"type": "Point", "coordinates": [2.795461, 49.070449]}, "properties": {"id_parcelle": "77430000ZC0151", "address": "14 RUE DU JEU D ARC", "sales": 2, "median_price": 362000.0, "median_price_per_sqm": 2335.483870967742, "median_rooms": 6.0, "first_sale": "2025-01-10", "last_sale": "2025-01-10"}}, {"type": "Feature", "geometry": {"type": "Point", "coordinates": [2.788917, 49.073378]}, "properties": {"id_parcelle": "77430000ZC0171", "address": "6 ALL DES BLEUETS", "sales": 2, "median_price": 288000.0, "median_price_per_sqm": 2461.5384615384614, "median_rooms": 6.0, "first_sale": "2021-07-23", "last_sale": "2021-07-23"}}, {"type": "Feature", "geometry": {"type": "Point", "coordinates": [2.790695, 49.072567]}, "properties": {"id_parcelle": "77430000ZC0205", "address": "11 RUE DU BON PUITS", "sales": 2, "median_price": 330000.0, "median_price_per_sqm": 2796.6101694915255, "median_rooms": 6.0, "first_sale": "2022-06-28", "last_sale": "2022-06-28"}}, {"type": "Feature", "geometry": {"type": "Point", "coordinates": [2.783908, 49.079007]}, "properties": {"id_parcelle": "77430000ZA0161", "address": "5 ALL MARGUERITE YOURCENAR", "sales": 2, "median_price": 275665.0, "median_price_per_sqm": 3281.7261904761904, "median_rooms": 4.0, "first_sale": "2021-12-16", "last_sale": "2025-12-29"}}, {"type": "Feature", "geometry": {"type": "Point", "coordinates": [2.79193, 49.073508]}, "properties": {"id_parcelle": "77430000ZC0044", "address": "8 RUE DU PLESSIS", "sales": 2, "median_price": 237000.0, "median_price_per_sqm": 2468.75, "median_rooms": 2.0, "first_sale": "2023-05-09", "last_sale": "2023-05-09"}}, {"type": "Feature", "geometry": {"type": "Point", "coordinates": [2.785, 49.079699]}, "properties": {"id_parcelle": "77430000ZA0148", "address": "4 ALL GEORGE SAND", "sales": 2, "median_price": 258000.0, "median_price_per_sqm": 3146.3414634146343, "median_rooms": 2.5, "first_sale": "2025-02-14", "last_sale": "2025-02-14"}}, {"type": "Feature", "geometry": {"type": "Point", "coordinates": [2.795443, 49.072054]}, "properties": {"id_parcelle": "77430000ZC0119", "address": "35 GR GRANDE RUE PRINCIPALE", "sales": 2, "median_price": 320150.0, "median_price_per_sqm": 2134.3333333333335, "median_rooms": 3.0, "first_sale": "2024-11-29", "last_sale": "2024-11-29"}}, {"type": "Feature", "geometry": {"type": "Point", "coordinates": [2.787213, 49.082619]}, "properties": {"id_parcelle": "77430000AM0181", "address": "38 RUE JEAN MERMOZ", "sales": 2, "median_price": 287000.0, "median_price_per_sqm": 3587.5, "median_rooms": 5.0, "first_sale": "2024-11-14", "last_sale": "2024-11-14"}}, {"type": "Feature", "geometry": {"type": "Point", "coordinates": [2.788655, 49.085491]}, "properties": {"id_parcelle": "77430000AM0288", "address": "32 RUE BLERIOT", "sales": 2, "median_price": 320600.0, "median_price_per_sqm": 4007.5, "median_rooms": 4.0, "first_sale": "2025-07-08", "last_sale": "2025-07-08"}}, {"type": "Feature", "geometry": {"type": "Point", "coordinates": [2.78853, 49.084845]}, "properties": {"id_parcelle": "77430000AM0280", "address": "7 RUE GUYNEMER", "sales": 2, "median_price": 318000.0, "median_price_per_sqm": 3212.121212121212, "median_rooms": 4.0, "first_sale": "2025-02-25", "last_sale": "2025-02-25"}}, {"type": "Feature", "geometry": {"type": "Point", "coordinates": [2.793309, 49.084263]}, "properties": {"id_parcelle": "77430000AM0413", "address": "32 RUE DES PEUPLIERS", "sales": 2, "median_price": 185000.0, "median_price_per_sqm": 2283.9506172839506, "median_rooms": 2.0, "first_sale": "2024-12-20", "last_sale": "2024-12-20"}}, {"type": "Feature", "geometry": {"type": "Point", "coordinates": [2.788022, 49.081578]}, "properties": {"id_parcelle": "77430000AM0188", "address": "8 ALL COSTES ET LE BRIX", "sales": 2, "median_price": 364000.0, "median_price_per_sqm": 3466.6666666666665, "median_rooms": 4.0, "first_sale": "2021-12-21", "last_sale": "2021-12-21"}}, {"type": "Feature", "geometry": {"type": "Point", "coordinates": [2.7854, 49.081474]}, "properties": {"id_parcelle": "77430000AM0235", "address": "47 RUE SAINT EXUPERY", "sales": 2, "median_price": 348000.0, "median_price_per_sqm": 3314.285714285714, "median_rooms": 4.0, "first_sale": "2022-01-24", "last_sale": "2022-01-24"}}, {"type": "Feature", "geometry": {"type": "Point", "coordinates": [2.784402, 49.082079]}, "properties": {"id_parcelle": "77430000AM0241", "address": "45 RUE JEAN MERMOZ", "sales": 2, "median_price": 302000.0, "median_price_per_sqm": 3638.5542168674697, "median_rooms": 4.0, "first_sale": "2021-01-18", "last_sale": "2021-01-18"}}, {"type": "Feature", "geometry": {"type": "Point", "coordinates": [2.789257, 49.083277]}, "properties": {"id_parcelle": "77430000AM0268", "address": "3 RUE BLERIOT", "sales": 2, "median_price": 330000.0, "median_price_per_sqm": 3235.294117647059, "median_rooms": 6.0, "first_sale": "2023-08-11", "last_sale": "2023-08-11"}}, {"type": "Feature", "geometry": {"type": "Point", "coordinates": [2.786134, 49.082139]}, "properties": {"id_parcelle": "77430000AM0201", "address": "37 RUE JEAN MERMOZ", "sales": 2, "median_price": 280000.0, "median_price_per_sqm": 2545.4545454545455, "median_rooms": 4.0, "first_sale": "2022-09-14", "last_sale": "2022-09-14"}}, {"type": "Feature", "geometry": {"type": "Point", "coordinates": [2.793713, 49.077924]}, "properties": {"id_parcelle": "77430000AL0322", "address": "55 RUE DES SOURCES", "sales": 2, "median_price": 291000.0, "median_price_per_sqm": 3932.4324324324325, "median_rooms": 4.0, "first_sale": "2023-11-13", "last_sale": "2023-11-13"}}, {"type": "Feature", "geometry": {"type": "Point", "coordinates": [2.793524, 49.0731]}, "properties": {"id_parcelle": "77430000ZC0683", "address": "50 GR GRANDE RUE PRINCIPALE", "sales": 2, "median_price": 229000.0, "median_price_per_sqm": null, "median_rooms": 0.0, "first_sale": "2021-09-22", "last_sale": "2022-05-10"}}, {"type": "Feature", "geometry": {"type": "Point", "coordinates": [2.793594, 49.073075]}, "properties": {"id_parcelle": "77430000ZC0682", "address": "50 GR GRANDE RUE PRINCIPALE", "sales": 2, "median_price": 286500.0, "median_price_per_sqm": 2506.060606060606, "median_rooms": 4.5, "first_sale": "2021-09-22", "last_sale": "2022-01-14"}}, {"type": "Feature", "geometry": {"type": "Point", "coordinates": [2.788656, 49.071839]}, "properties": {"id_parcelle": "77430000ZC0340", "address": "27 RUE DE L ORMOYE", "sales": 2, "median_price": 320000.0, "median_price_per_sqm": null, "median_rooms": null, "first_sale": "2024-12-27", "last_sale": "2024-12-27"}}, {"type": "Feature", "geometry": {"type": "Point", "coordinates": [2.790349, 49.072665]}, "properties": {"id_parcelle": "77430000ZC0379", "address": "8 RUE DU BON PUITS", "sales": 2, "median_price": 320050.0, "median_price_per_sqm": 2064.8387096774195, "median_rooms": 6.0, "first_sale": "2024-07-08", "last_sale": "2024-07-08"}}, {"type": "Feature", "geometry": {"type": "Point", "coordinates": [2.791901, 49.069882]}, "properties": {"id_parcelle": "77430000ZC0681", "address": "8 ALL DES MIMOSAS", "sales": 2, "median_price": 184750.0, "median_price_per_sqm": null, "median_rooms": null, "first_sale": "2022-01-20", "last_sale": "2023-10-23"}}, {"type": "Feature", "geometry": {"type": "Point", "coordinates": [2.788148, 49.074438]}, "properties": {"id_parcelle": "77430000ZC0659", "address": "33 RUE DU PLESSIS", "sales": 2, "median_price": 420000.0, "median_price_per_sqm": 3134.3283582089553, "median_rooms": 6.0, "first_sale": "2025-06-20", "last_sale": "2025-06-20"}}, {"type": "Feature", "geometry": {"type": "Point", "coordinates": [2.794638, 49.073115]}, "properties": {"id_parcelle": "77430000ZC0542", "address": "7 IMP DESMOULINS", "sales": 2, "median_price": 280750.0, "median_price_per_sqm": 2986.702127659574, "median_rooms": 5.0, "first_sale": "2021-07-05", "last_sale": "2024-07-12"}}, {"type": "Feature", "geometry": {"type": "Point", "coordinates": [2.788731, 49.071723]}, "properties": {"id_parcelle": "77430000ZC0341", "address": "25 RUE DE L ORMOYE", "sales": 2, "median_price": 349000.0, "median_price_per_sqm": 2792.0, "median_rooms": 6.0, "first_sale": "2021-01-12", "last_sale": "2021-01-12"}}, {"type": "Feature", "geometry": {"type": "Point", "coordinates": [2.79502, 49.070824]}, "properties": {"id_parcelle": "77430000ZC0393", "address": "4 ALL DES EGLANTINES", "sales": 2, "median_price": 427500.0, "median_price_per_sqm": 2105.911330049261, "median_rooms": 5.0, "first_sale": "2023-01-16", "last_sale": "2023-01-16"}}, {"type": "Feature", "geometry": {"type": "Point", "coordinates": [2.795594, 49.071258]}, "properties": {"id_parcelle": "77430000ZC0385", "address": "1 ALL DES EGLANTINES", "sales": 2, "median_price": 329000.0, "median_price_per_sqm": 2990.909090909091, "median_rooms": 6.0, "first_sale": "2025-04-25", "last_sale": "2025-04-25"}}, {"type": "Feature", "geometry": {"type": "Point", "coordinates": [2.791216, 49.07348]}, "properties": {"id_parcelle": "77430000ZC0689", "address": "9 RUE DU PLESSIS", "sales": 2, "median_price": 178000.0, "median_price_per_sqm": 3708.3333333333335, "median_rooms": 1.0, "first_sale": "2024-02-07", "last_sale": "2024-02-07"}}, {"type": "Feature", "geometry": {"type": "Point", "coordinates": [2.795565, 49.073303]}, "properties": {"id_parcelle": "77430000ZC0691", "address": "13 RUE DU TILLET", "sales": 2, "median_price": 421000.0, "median_price_per_sqm": 2204.1884816753927, "median_rooms": 7.0, "first_sale": "2024-07-04", "last_sale": "2024-07-04"}}, {"type": "Feature", "geometry": {"type": "Point", "coordinates": [2.788482, 49.07293]}, "properties": {"id_parcelle": "77430000ZC0687", "address": "24 RUE DE L ORMOYE", "sales": 2, "median_price": 305000.0, "median_price_per_sqm": 3505.7471264367814, "median_rooms": 5.0, "first_sale": "2023-05-16", "last_sale": "2023-05-16"}}, {"type": "Feature", "geometry": {"type": "Point", "coordinates": [2.793738, 49.073191]}, "properties": {"id_parcelle": "77430000ZC0684", "address": "50 GR GRANDE RUE PRINCIPALE", "sales": 2, "median_price": 224000.0, "median_price_per_sqm": null, "median_rooms": null, "first_sale": "2021-09-22", "last_sale": "2022-05-06"}}, {"type": "Feature", "geometry": {"type": "Point", "coordinates": [2.79382, 49.070022]}, "properties": {"id_parcelle": "77430000ZC0694", "address": "7 RUE DE LA PLANCHETTE", "sales": 2, "median_price": 177500.0, "median_price_per_sqm": null, "median_rooms": null, "first_sale": "2024-01-30", "last_sale": "2024-05-07"}}, {"type": "Feature", "geometry": {"type": "Point", "coordinates": [2.786958, 49.073098]}, "properties": {"id_parcelle": "77430000ZC0695", "address": "45 RUE DE L ORMOYE", "sales": 2, "median_price": 268500.0, "median_price_per_sqm": 2983.333333333333, "median_rooms": 5.0, "first_sale": "2023-12-13", "last_sale": "2025-05-05"}}, {"type": "Feature", "geometry": {"type": "Point", "coordinates": [2.801194, 49.070813]}, "properties": {"id_parcelle": "77430000ZD0210", "address": "6 RUE DU CAPITAINE LEURIDAN", "sales": 2, "median_price": 302000.0, "median_price_per_sqm": 3282.608695652174, "median_rooms": 4.0, "first_sale": "2024-06-07", "last_sale": "2024-06-07"}}, {"type": "Feature", "geometry": {"type": "Point", "coordinates": [2.799269, 49.068351]}, "properties": {"id_parcelle": "77430000ZD0235", "address": "13 RUE L ABBE PIERRE", "sales": 2, "median_price": 425000.0, "median_price_per_sqm": 2529.7619047619046, "median_rooms": 6.0, "first_sale": "2021-12-14", "last_sale": "2021-12-14"}}, {"type": "Feature", "geometry": {"type": "Point", "coordinates": [2.799161, 49.067922]}, "properties": {"id_parcelle": "77430000ZD0306", "address": "10 RUE L ABBE PIERRE", "sales": 2, "median_price": 417500.0, "median_price_per_sqm": 2561.3496932515336, "median_rooms": 7.0, "first_sale": "2022-07-29", "last_sale": "2022-07-29"}}, {"type": "Feature", "geometry": {"type": "Point", "coordinates": [2.800054, 49.068227]}, "properties": {"id_parcelle": "77430000ZD0305", "address": "4 RUE L ABBE PIERRE", "sales": 2, "median_price": 430000.0, "median_price_per_sqm": 2559.5238095238096, "median_rooms": 6.0, "first_sale": "2021-06-21", "last_sale": "2021-06-21"}}, {"type": "Feature", "geometry": {"type": "Point", "coordinates": [2.802587, 49.071169]}, "properties": {"id_parcelle": "77430000ZD0308", "address": "16 RUE DU CAPITAINE LEURIDAN", "sales": 2, "median_price": 620000.0, "median_price_per_sqm": 2897.196261682243, "median_rooms": 5.0, "first_sale": "2023-12-07", "last_sale": "2023-12-07"}}, {"type": "Feature", "geometry": {"type": "Point", "coordinates": [2.803037, 49.071214]}, "properties": {"id_parcelle": "77430000ZD0309", "address": "20 RUE DU CAPITAINE LEURIDAN", "sales": 2, "median_price": 90000.0, "median_price_per_sqm": 1363.6363636363637, "median_rooms": 3.0, "first_sale": "2022-08-30", "last_sale": "2022-08-30"}}, {"type": "Feature", "geometry": {"type": "Point", "coordinates": [2.801003, 49.068621]}, "properties": {"id_parcelle": "77430000ZD0299", "address": "4 RUE SAINT ELOI", "sales": 2, "median_price": 465000.0, "median_price_per_sqm": 2235.576923076923, "median_rooms": 7.0, "first_sale": "2025-06-05", "last_sale": "2025-06-05"}}, {"type": "Feature", "geometry": {"type": "Point", "coordinates": [2.8008, 49.069135]}, "properties": {"id_parcelle": "77430000ZD0301", "address": "7 RUE L ABBE PIERRE", "sales": 2, "median_price": 470000.0, "median_price_per_sqm": 2611.1111111111113, "median_rooms": 7.0, "first_sale": "2022-05-16", "last_sale": "2022-05-16"}}, {"type": "Feature", "geometry": {"type": "Point", "coordinates": [2.799535, 49.068045]}, "properties": {"id_parcelle": "77430000ZD0241", "address": "8 RUE L ABBE PIERRE", "sales": 2, "median_price": 445000.0, "median_price_per_sqm": 2648.809523809524, "median_rooms": 7.0, "first_sale": "2021-12-29", "last_sale": "2021-12-29"}}, {"type": "Feature", "geometry": {"type": "Point", "coordinates": [2.800252, 49.068324]}, "properties": {"id_parcelle": "77430000ZD0257", "address": "2 RUE L ABBE PIERRE", "sales": 2, "median_price": 395000.0, "median_price_per_sqm": 2351.190476190476, "median_rooms": 7.0, "first_sale": "2024-06-12", "last_sale": "2024-06-12"}}, {"type": "Feature", "geometry": {"type": "Point", "coordinates": [2.801216, 49.071348]}, "properties": {"id_parcelle": "77430000ZD0445", "address": "10 RUE DU CAPITAINE LEURIDAN", "sales": 2, "median_price": 316000.0, "median_price_per_sqm": 2507.936507936508, "median_rooms": 5.0, "first_sale": "2023-10-19", "last_sale": "2023-10-19"}}, {"type": "Feature", "geometry": {"type": "Point", "coordinates": [2.803436, 49.071355]}, "properties": {"id_parcelle": "77430000ZD0334", "address": "22 RUE DU CAPITAINE LEURIDAN", "sales": 2, "median_price": 390000.0, "median_price_per_sqm": 2600.0, "median_rooms": 6.0, "first_sale": "2021-02-05", "last_sale": "2021-02-05"}}, {"type": "Feature", "geometry": {"type": "Point", "coordinates": [2.797937, 49.070221]}, "properties": {"id_parcelle": "77430000ZD0317", "address": "11 RUE DU CHATEAU", "sales": 2, "median_price": 410000.0, "median_price_per_sqm": null, "median_rooms": null, "first_sale": "2021-12-21", "last_sale": "2021-12-21"}}, {"type": "Feature", "geometry": {"type": "Point", "coordinates": [2.802115, 49.071347]}, "properties": {"id_parcelle": "77430000ZD0322", "address": "14 RUE DU CAPITAINE LEURIDAN", "sales": 2, "median_price": 380000.0, "median_price_per_sqm": 2878.787878787879, "median_rooms": 6.0, "first_sale": "2021-05-04", "last_sale": "2021-05-04"}}, {"type": "Feature", "geometry": {"type": "Point", "coordinates": [2.784985, 49.066438]}, "properties": {"id_parcelle": "77430000ZE0046", "address": "9007 NOEFORT", "sales": 2, "median_price": 158000.0, "median_price_per_sqm": 1975.0, "median_rooms": 3.0, "first_sale": "2023-10-06", "last_sale": "2023-10-06"}}, {"type": "Feature", "geometry": {"type": "Point", "coordinates": [2.799806, 49.070576]}, "properties": {"id_parcelle": "77430000ZD0460", "address": "1 GR GRANDE RUE PRINCIPALE", "sales": 2, "median_price": 99000.0, "median_price_per_sqm": null, "median_rooms": null, "first_sale": "2024-07-04", "last_sale": "2025-02-24"}}, {"type": "Feature", "geometry": {"type": "Point", "coordinates": [2.784283, 49.073026]}, "properties": {"id_parcelle": "77430000ZE0068", "address": "5 RUE DU POIRIER FOURCHU", "sales": 2, "median_price": 385000.0, "median_price_per_sqm": 3969.0721649484535, "median_rooms": 5.0, "first_sale": "2021-04-13", "last_sale": "2021-04-13"}}, {"type": "Feature", "geometry": {"type": "Point", "coordinates": [2.801362, 49.070068]}, "properties": {"id_parcelle": "77430000ZD0451", "address": "9 RUE SAINT ANTOINE", "sales": 2, "median_price": 590000.0, "median_price_per_sqm": 5143.018867924528, "median_rooms": 2.5, "first_sale": "2023-12-19", "last_sale": "2023-12-19"}}, {"type": "Feature", "geometry": {"type": "Point", "coordinates": [2.785574, 49.071859]}, "properties": {"id_parcelle": "77430000ZE0078", "address": "18 RUE DU POIRIER FOURCHU", "sales": 2, "median_price": 457000.0, "median_price_per_sqm": 3385.185185185185, "median_rooms": 5.0, "first_sale": "2022-02-28", "last_sale": "2022-02-28"}}, {"type": "Feature", "geometry": {"type": "Point", "coordinates": [2.789284, 49.070763]}, "properties": {"id_parcelle": "77430000ZE0171", "address": "49 RUE DU POIRIER FOURCHU", "sales": 2, "median_price": 316000.0, "median_price_per_sqm": 3397.8494623655915, "median_rooms": 4.0, "first_sale": "2021-02-12", "last_sale": "2021-02-12"}}, {"type": "Feature", "geometry": {"type": "Point", "coordinates": [2.789694, 49.070575]}, "properties": {"id_parcelle": "77430000ZE0173", "address": "53 RUE DU POIRIER FOURCHU", "sales": 2, "median_price": 353000.0, "median_price_per_sqm": 3017.094017094017, "median_rooms": 5.0, "first_sale": "2021-10-29", "last_sale": "2021-10-29"}}, {"type": "Feature", "geometry": {"type": "Point", "coordinates": [2.789537, 49.070176]}, "properties": {"id_parcelle": "77430000ZE0177", "address": "56 RUE DU POIRIER FOURCHU", "sales": 2, "median_price": 300000.0, "median_price_per_sqm": 2912.621359223301, "median_rooms": 4.0, "first_sale": "2024-07-04", "last_sale": "2024-07-04"}}, {"type": "Feature", "geometry": {"type": "Point", "coordinates": [2.788701, 49.070463]}, "properties": {"id_parcelle": "77430000ZE0181", "address": "48 RUE DU POIRIER FOURCHU", "sales": 2, "median_price": 315000.0, "median_price_per_sqm": 3118.8118811881186, "median_rooms": 5.0, "first_sale": "2024-06-19", "last_sale": "2024-06-19"}}, {"type": "Feature", "geometry": {"type": "Point", "coordinates": [2.788085, 49.070739]}, "properties": {"id_parcelle": "77430000ZE0184", "address": "42 RUE DU POIRIER FOURCHU", "sales": 2, "median_price": 393000.0, "median_price_per_sqm": 2889.705882352941, "median_rooms": 5.0, "first_sale": "2022-11-15", "last_sale": "2022-11-15"}}, {"type": "Feature", "geometry": {"type": "Point", "coordinates": [2.787267, 49.071106]}, "properties": {"id_parcelle": "77430000ZE0189", "address": "34 RUE DU POIRIER FOURCHU", "sales": 2, "median_price": 289000.0, "median_price_per_sqm": 3010.4166666666665, "median_rooms": 5.0, "first_sale": "2021-12-07", "last_sale": "2021-12-07"}}, {"type": "Feature", "geometry": {"type": "Point", "coordinates": [2.78708, 49.068593]}, "properties": {"id_parcelle": "77430000ZE0197", "address": "85 RUE LUCIE AUBRAC", "sales": 2, "median_price": 1350000.0, "median_price_per_sqm": 919.5265251336498, "median_rooms": 0.0, "first_sale": "2021-07-01", "last_sale": "2023-12-20"}}]}