{"type": "FeatureCollection", "features": [{"type": "Feature", "geometry": {"type": "Point", "coordinates": [2.768414, 48.850446]}, "properties": {"id_parcelle": "77237000ZH0085", "address": "3 CRS DE LA GONDOIRE", "sales": 101, "median_price": 2541240.0, "median_price_per_sqm": 211770.0, "median_rooms": 0.0, "first_sale": "2022-12-23", "last_sale": "2025-05-15"}}, {"type": "Feature", "geometry": {"type": "Point", "coordinates": [2.767762, 48.849877]}, "properties": {"id_parcelle": "77237000ZH0092", "address": "1 CRS DE LA GONDOIRE", "sales": 34, "median_price": 447102.0, "median_price_per_sqm": 5729.374671571203, "median_rooms": 0.0, "first_sale": "2023-05-04", "last_sale": "2025-07-16"}}, {"type": "Feature", "geometry": {"type": "Point", "coordinates": [2.752568, 48.835208]}, "properties": {"id_parcelle": "772370000A0460", "address": "32 RUE DE TOURNAN", "sales": 9, "median_price": 750000.0, "median_price_per_sqm": 9375.0, "median_rooms": 0.0, "first_sale": "2022-05-31", "last_sale": "2022-05-31"}}, {"type": "Feature", "geometry": {"type": "Point", "coordinates": [2.753879, 48.833037]}, "properties": {"id_parcelle": "772370000A0514", "address": "27 RUE DE TOURNAN", "sales": 9, "median_price": 1.0, "median_price_per_sqm": 0.006711409395973154, "median_rooms": 0.0, "first_sale": "2021-12-20", "last_sale": "2022-12-02"}}, {"type": "Feature", "geometry": {"type": "Point", "coordinates": [2.752682, 48.839783]}, "properties": {"id_parcelle": "772370000A0629", "address": "25 RUE DE LAGNY", "sales": 6, "median_price": 266070.0, "median_price_per_sqm": 3801.0, "median_rooms": 0.0, "first_sale": "2021-08-06", "last_sale": "2023-07-21"}}, {"type": "Feature", "geometry": {"type": "Point", "coordinates": [2.752155, 48.84269]}, "properties": {"id_parcelle": "772370000A0667", "address": "50 RUE DE LAGNY", "sales": 4, "median_price": 5000.0, "median_price_per_sqm": 29.41176470588235, "median_rooms": 3.0, "first_sale": "2022-06-17", "last_sale": "2022-06-17"}}, {"type": "Feature", "geometry": {"type": "Point", "coordinates": [2.753461, 48.838443]}, "properties": {"id_parcelle": "772370000A0619", "address": "8 RUE DE LAGNY", "sales": 4, "median_price": 356050.0, "median_price_per_sqm": 2781.640625, "median_rooms": 0.0, "first_sale": "2022-05-30", "last_sale": "2022-05-30"}}, {"type": "Feature", "geometry": {"type": "Point", "coordinates": [2.756666, 48.83989]}, "properties": {"id_parcelle": "772370000A0392", "address": "7 RUE DU CHAMP DE LA VILLE", "sales": 4, "median_price": 370000.0, "median_price_per_sqm": 3032.7868852459014, "median_rooms": 3.0, "first_sale": "2025-04-14", "last_sale": "2025-04-14"}}, {"type": "Feature", "geometry": {"type": "Point", "coordinates": [2.756036, 48.838056]}, "properties": {"id_parcelle": "772370000A0758", "address": "17 RUE DE MEAUX", "sales": 4, "median_price": 286500.0, "median_price_per_sqm": 7743.243243243243, "median_rooms": 1.5, "first_sale": "2022-05-11", "last_sale": "2022-06-27"}}, {"type": "Feature", "geometry": {"type": "Point", "coordinates": [2.753362, 48.834412]}, "properties": {"id_parcelle": "772370000A0733", "address": "11 RUE DE TOURNAN", "sales": 4, "median_price": 395000.0, "median_price_per_sqm": 10394.736842105263, "median_rooms": 2.0, "first_sale": "2025-03-11", "last_sale": "2025-03-11"}}, {"type": "Feature", "geometry": {"type": "Point", "coordinates": [2.772298, 48.829577]}, "properties": {"id_parcelle": "77237000ZR0028", "address": "9001 LES COLLINIERES", "sales": 4, "median_price": 80000.0, "median_price_per_sqm": 888.8888888888889, "median_rooms": 1.5, "first_sale": "2022-12-07", "last_sale": "2022-12-07"}}, {"type": "Feature", "geometry": {"type": "Point", "coordinates": [2.755532, 48.838047]}, "properties": {"id_parcelle": "772370000A0163", "address": "15 RUE DE MEAUX", "sales": 3, "median_price": 120000.0, "median_price_per_sqm": 1714.2857142857142, "median_rooms": 0.0, "first_sale": "2022-01-03", "last_sale": "2022-01-03"}}, {"type": "Feature", "geometry": {"type": "Point", "coordinates": [2.754299, 48.833362]}, "properties": {"id_parcelle": "772370000A0771", "address": "13 RUE DE TOURNAN", "sales": 3, "median_price": 665000.0, "median_price_per_sqm": 2201.9867549668875, "median_rooms": 0.0, "first_sale": "2024-03-15", "last_sale": "2024-03-15"}}, {"type": "Feature", "geometry": {"type": "Point", "coordinates": [2.756222, 48.836346]}, "properties": {"id_parcelle": "772370000A0235", "address": "19 RUE FERRAILLE", "sales": 3, "median_price": 227000.0, "median_price_per_sqm": 3721.311475409836, "median_rooms": 0.0, "first_sale": "2024-12-03", "last_sale": "2024-12-03"}}, {"type": "Feature", "geometry": {"type": "Point", "coordinates": [2.752844, 48.839691]}, "properties": {"id_parcelle": "772370000A0046", "address": "23 RUE DE LAGNY", "sales": 2, "median_price": 150000.0, "median_price_per_sqm": 1530.6122448979593, "median_rooms": 2.5, "first_sale": "2023-07-07", "last_sale": "2023-07-07"}}, {"type": "Feature", "geometry": {"type": "Point", "coordinates": [2.75264, 48.840132]}, "properties": {"id_parcelle": "772370000A0037", "address": "29 RUE DE LAGNY", "sales": 2, "median_price": 330000.0, "median_price_per_sqm": 4285.714285714285, "median_rooms": 1.5, "first_sale": "2021-11-15", "last_sale": "2021-11-15"}}, {"type": "Feature", "geometry": {"type": "Point", "coordinates": [2.753409, 48.83464]}, "properties": {"id_parcelle": "772370000A0217", "address": "37 RUE FERRAILLE", "sales": 2, "median_price": 515000.0, "median_price_per_sqm": 2384.259259259259, "median_rooms": 3.5, "first_sale": "2025-03-11", "last_sale": "2025-03-11"}}, {"type": "Feature", "geometry": {"type": "Point", "coordinates": [2.757328, 48.83805]}, "properties": {"id_parcelle": "772370000A0170", "address": "1 RUE DE LA CROIX BLANCHETOT", "sales": 2, "median_price": 250000.0, "median_price_per_sqm": 2403.846153846154, "median_rooms": 2.0, "first_sale": "2025-07-18", "last_sale": "2025-07-18"}}, {"type": "Feature", "geometry": {"type": "Point", "coordinates": [2.753001, 48.8332]}, "properties": {"id_parcelle": "772370000A0512", "address": "6 ROC SUD", "sales": 2, "median_price": 720000.0, "median_price_per_sqm": 3531.330151342721, "median_rooms": 0.0, "first_sale": "2021-07-05", "last_sale": "2021-07-05"}}, {"type": "Feature", "geometry": {"type": "Point", "coordinates": [2.752473, 48.838892]}, "properties": {"id_parcelle": "772370000A0493", "address": "11 RUE DE LAGNY", "sales": 2, "median_price": 500000.0, "median_price_per_sqm": 3787.878787878788, "median_rooms": 5.0, "first_sale": "2021-03-25", "last_sale": "2021-03-25"}}, {"type": "Feature", "geometry": {"type": "Point", "coordinates": [2.756791, 48.83804]}, "properties": {"id_parcelle": "772370000A0471", "address": "21 RUE DE MEAUX", "sales": 2, "median_price": 334150.0, "median_price_per_sqm": 4455.333333333333, "median_rooms": 2.0, "first_sale": "2021-07-30", "last_sale": "2021-07-30"}}, {"type": "Feature", "geometry": {"type": "Point", "coordinates": [2.752396, 48.83554]}, "properties": {"id_parcelle": "772370000A0459", "address": "30 RUE DE TOURNAN", "sales": 2, "median_price": 625000.0, "median_price_per_sqm": 3955.6962025316457, "median_rooms": 6.0, "first_sale": "2024-08-07", "last_sale": "2024-08-07"}}, {"type": "Feature", "geometry": {"type": "Point", "coordinates": [2.756978, 48.839672]}, "properties": {"id_parcelle": "772370000A0406", "address": "9001 RUE DE LA CROIX BLANCHETOT", "sales": 2, "median_price": 253763.5, "median_price_per_sqm": null, "median_rooms": 0.0, "first_sale": "2023-09-14", "last_sale": "2025-04-14"}}, {"type": "Feature", "geometry": {"type": "Point", "coordinates": [2.75589, 48.839644]}, "properties": {"id_parcelle": "772370000A0408", "address": "14 RUE DU CHAMP DE LA VILLE", "sales": 2, "median_price": 475000.0, "median_price_per_sqm": 4702.970297029703, "median_rooms": 3.0, "first_sale": "2021-07-15", "last_sale": "2021-07-15"}}, {"type": "Feature", "geometry": {"type": "Point", "coordinates": [2.757893, 48.839312]}, "properties": {"id_parcelle": "772370000A0401", "address": "26 RUE DU CHAMP DE LA VILLE", "sales": 2, "median_price": 137527.0, "median_price_per_sqm": 1528.0777777777778, "median_rooms": 6.0, "first_sale": "2023-09-14", "last_sale": "2023-09-14"}}, {"type": "Feature", "geometry": {"type": "Point", "coordinates": [2.753083, 48.834285]}, "properties": {"id_parcelle": "772370000A0330", "address": "50 RUE DE TOURNAN", "sales": 2, "median_price": 147000.0, "median_price_per_sqm": 4200.0, "median_rooms": 1.0, "first_sale": "2021-04-27", "last_sale": "2021-04-27"}}, {"type": "Feature", "geometry": {"type": "Point", "coordinates": [2.753136, 48.838856]}, "properties": {"id_parcelle": "772370000A0116", "address": "24 RUE DE LAGNY", "sales": 2, "median_price": 60000.0, "median_price_per_sqm": 857.1428571428571, "median_rooms": 1.5, "first_sale": "2025-07-01", "last_sale": "2025-07-01"}}, {"type": "Feature", "geometry": {"type": "Point", "coordinates": [2.752693, 48.83795]}, "properties": {"id_parcelle": "772370000A0271", "address": "1 RUE DE PARIS", "sales": 2, "median_price": 245000.0, "median_price_per_sqm": 2987.8048780487807, "median_rooms": 2.0, "first_sale": "2022-04-12", "last_sale": "2022-04-12"}}, {"type": "Feature", "geometry": {"type": "Point", "coordinates": [2.756722, 48.836423]}, "properties": {"id_parcelle": "772370000A0606", "address": "17 RUE FERRAILLE", "sales": 2, "median_price": 544600.0, "median_price_per_sqm": 4654.7008547008545, "median_rooms": 7.0, "first_sale": "2022-09-02", "last_sale": "2022-09-02"}}, {"type": "Feature", "geometry": {"type": "Point", "coordinates": [2.756303, 48.83647]}, "properties": {"id_parcelle": "772370000A0608", "address": "17 RUE FERRAILLE", "sales": 2, "median_price": 544600.0, "median_price_per_sqm": null, "median_rooms": null, "first_sale": "2022-09-02", "last_sale": "2022-09-02"}}, {"type": "Feature", "geometry": {"type": "Point", "coordinates": [2.750841, 48.838913]}, "properties": {"id_parcelle": "772370000A0754", "address": "6 CHE DU COLOMBIER", "sales": 2, "median_price": 247000.0, "median_price_per_sqm": 4410.714285714285, "median_rooms": 1.0, "first_sale": "2023-07-11", "last_sale": "2023-07-11"}}, {"type": "Feature", "geometry": {"type": "Point", "coordinates": [2.755962, 48.838069]}, "properties": {"id_parcelle": "772370000A0757", "address": "17 RUE DE MEAUX", "sales": 2, "median_price": 286500.0, "median_price_per_sqm": null, "median_rooms": null, "first_sale": "2022-05-11", "last_sale": "2022-06-27"}}, {"type": "Feature", "geometry": {"type": "Point", "coordinates": [2.755806, 48.838099]}, "properties": {"id_parcelle": "772370000A0756", "address": "15 RUE DE MEAUX", "sales": 2, "median_price": 281250.0, "median_price_per_sqm": null, "median_rooms": null, "first_sale": "2022-05-11", "last_sale": "2024-05-28"}}, {"type": "Feature", "geometry": {"type": "Point", "coordinates": [2.767713, 48.851048]}, "properties": {"id_parcelle": "77237000ZH0089", "address": "3 CRS DE LA GONDOIRE", "sales": 2, "median_price": 573507.0, "median_price_per_sqm": 2581.9247311827958, "median_rooms": 0.0, "first_sale": "2024-12-17", "last_sale": "2025-11-17"}}]}