{"type": "FeatureCollection", "features": [{"type": "Feature", "geometry": {"type": "Point", "coordinates": [2.700911, 49.040067]}, "properties": {"id_parcelle": "77420000ZI0142", "address": "1 ALL DU SQUARE", "sales": 36, "median_price": 120865.0, "median_price_per_sqm": 2534.5652173913045, "median_rooms": 1.0, "first_sale": "2021-02-11", "last_sale": "2025-10-30"}}, {"type": "Feature", "geometry": {"type": "Point", "coordinates": [2.699929, 49.036758]}, "properties": {"id_parcelle": "774200000B2300", "address": "108 ALL CHARLES GOUNOD", "sales": 23, "median_price": 305000.0, "median_price_per_sqm": 3238.4615384615386, "median_rooms": 4.0, "first_sale": "2021-03-12", "last_sale": "2025-06-02"}}, {"type": "Feature", "geometry": {"type": "Point", "coordinates": [2.692237, 49.034026]}, "properties": {"id_parcelle": "774200000B1757", "address": "72 ALL DES DAHLIAS", "sales": 23, "median_price": 289000.0, "median_price_per_sqm": 3283.132530120482, "median_rooms": 4.0, "first_sale": "2021-03-22", "last_sale": "2025-12-04"}}, {"type": "Feature", "geometry": {"type": "Point", "coordinates": [2.696323, 49.039676]}, "properties": {"id_parcelle": "774200000B2301", "address": "28 RUE MONTAUBERT", "sales": 19, "median_price": 140000.0, "median_price_per_sqm": 3815.7894736842104, "median_rooms": 0.0, "first_sale": "2021-06-24", "last_sale": "2025-09-04"}}, {"type": "Feature", "geometry": {"type": "Point", "coordinates": [2.69704, 49.032237]}, "properties": {"id_parcelle": "774200000B1244", "address": "60 AV DE LA GARE", "sales": 14, "median_price": 324000.0, "median_price_per_sqm": 8706.122448979591, "median_rooms": 0.0, "first_sale": "2024-03-28", "last_sale": "2024-12-09"}}, {"type": "Feature", "geometry": {"type": "Point", "coordinates": [2.696705, 49.032506]}, "properties": {"id_parcelle": "774200000B2372", "address": "52 AV DE LA GARE", "sales": 12, "median_price": 195500.0, "median_price_per_sqm": 3334.2105263157896, "median_rooms": 0.0, "first_sale": "2021-07-21", "last_sale": "2025-12-30"}}, {"type": "Feature", "geometry": {"type": "Point", "coordinates": [2.695625, 49.038761]}, "properties": {"id_parcelle": "774200000B0702", "address": "5 RUE MONTAUBERT", "sales": 9, "median_price": 171000.0, "median_price_per_sqm": 3039.285714285714, "median_rooms": 0.0, "first_sale": "2022-04-15", "last_sale": "2024-12-19"}}, {"type": "Feature", "geometry": {"type": "Point", "coordinates": [2.695265, 49.038907]}, "properties": {"id_parcelle": "774200000B2192", "address": "7 RUE MONTAUBERT", "sales": 8, "median_price": 93000.0, "median_price_per_sqm": 2586.206896551724, "median_rooms": 0.0, "first_sale": "2022-03-28", "last_sale": "2024-10-08"}}, {"type": "Feature", "geometry": {"type": "Point", "coordinates": [2.696791, 49.036558]}, "properties": {"id_parcelle": "774200000B2402", "address": "12 RUE GAMBETTA", "sales": 7, "median_price": 78500.0, "median_price_per_sqm": 3351.5625, "median_rooms": 0.0, "first_sale": "2022-11-21", "last_sale": "2024-10-08"}}, {"type": "Feature", "geometry": {"type": "Point", "coordinates": [2.702711, 49.041468]}, "properties": {"id_parcelle": "77420000ZI0121", "address": "17 RUE DE LA SAUSSAIE FLEURIE", "sales": 6, "median_price": 397700.0, "median_price_per_sqm": 3550.8928571428573, "median_rooms": 0.0, "first_sale": "2024-10-04", "last_sale": "2024-10-04"}}, {"type": "Feature", "geometry": {"type": "Point", "coordinates": [2.688839, 49.036017]}, "properties": {"id_parcelle": "774200000B2808", "address": "9 ALL DE LA TERRASSE", "sales": 6, "median_price": 307500.0, "median_price_per_sqm": 3186.4798109965636, "median_rooms": 0.0, "first_sale": "2025-02-17", "last_sale": "2025-02-27"}}, {"type": "Feature", "geometry": {"type": "Point", "coordinates": [2.69339, 49.037707]}, "properties": {"id_parcelle": "774200000B1410", "address": "6 BD DE LA REPUBLIQUE", "sales": 4, "median_price": 340000.0, "median_price_per_sqm": 2060.6060606060605, "median_rooms": 4.0, "first_sale": "2024-05-16", "last_sale": "2024-05-16"}}, {"type": "Feature", "geometry": {"type": "Point", "coordinates": [2.696158, 49.03169]}, "properties": {"id_parcelle": "774200000B1848", "address": "64 AV DE LA GARE", "sales": 4, "median_price": 458900.0, "median_price_per_sqm": 3059.3333333333335, "median_rooms": 2.5, "first_sale": "2022-08-29", "last_sale": "2022-08-29"}}, {"type": "Feature", "geometry": {"type": "Point", "coordinates": [2.696731, 49.041799]}, "properties": {"id_parcelle": "774200000B1321", "address": "68 RUE MONTAUBERT", "sales": 4, "median_price": 435000.0, "median_price_per_sqm": 4833.333333333333, "median_rooms": 2.0, "first_sale": "2024-02-29", "last_sale": "2024-02-29"}}, {"type": "Feature", "geometry": {"type": "Point", "coordinates": [2.696967, 49.032297]}, "properties": {"id_parcelle": "774200000B1215", "address": "60 AV DE LA GARE", "sales": 4, "median_price": 260000.0, "median_price_per_sqm": 3714.285714285714, "median_rooms": 0.0, "first_sale": "2024-11-07", "last_sale": "2024-11-07"}}, {"type": "Feature", "geometry": {"type": "Point", "coordinates": [2.697676, 49.038215]}, "properties": {"id_parcelle": "774200000B2087", "address": "48 CHE DES FOSSES", "sales": 4, "median_price": 328000.0, "median_price_per_sqm": 3644.4444444444443, "median_rooms": 2.0, "first_sale": "2025-01-24", "last_sale": "2025-01-24"}}, {"type": "Feature", "geometry": {"type": "Point", "coordinates": [2.698175, 49.039003]}, "properties": {"id_parcelle": "774200000B2071", "address": "38 CHE DES FOSSES", "sales": 4, "median_price": 355000.0, "median_price_per_sqm": 3446.6019417475727, "median_rooms": 2.5, "first_sale": "2024-10-31", "last_sale": "2024-10-31"}}, {"type": "Feature", "geometry": {"type": "Point", "coordinates": [2.694271, 49.042229]}, "properties": {"id_parcelle": "774200000B2281", "address": "1 RUE DE LA CAVIGNONNE", "sales": 4, "median_price": 365000.0, "median_price_per_sqm": 3509.6153846153848, "median_rooms": 1.5, "first_sale": "2023-01-25", "last_sale": "2023-01-25"}}, {"type": "Feature", "geometry": {"type": "Point", "coordinates": [2.696377, 49.041771]}, "properties": {"id_parcelle": "774200000B2022", "address": "66 RUE MONTAUBERT", "sales": 4, "median_price": 325000.0, "median_price_per_sqm": 3250.0, "median_rooms": 0.0, "first_sale": "2025-10-01", "last_sale": "2025-10-01"}}, {"type": "Feature", "geometry": {"type": "Point", "coordinates": [2.685868, 49.035374]}, "properties": {"id_parcelle": "774200000B2507", "address": "19 CHE DU CHATEAU", "sales": 4, "median_price": 405000.0, "median_price_per_sqm": 3552.6315789473683, "median_rooms": 2.0, "first_sale": "2022-08-09", "last_sale": "2022-08-09"}}, {"type": "Feature", "geometry": {"type": "Point", "coordinates": [2.695183, 49.035357]}, "properties": {"id_parcelle": "774200000B2258", "address": "29 AV DE LA GARE", "sales": 3, "median_price": 205000.0, "median_price_per_sqm": 3602.1505376344085, "median_rooms": 0.0, "first_sale": "2024-02-26", "last_sale": "2024-02-26"}}, {"type": "Feature", "geometry": {"type": "Point", "coordinates": [2.69618, 49.038998]}, "properties": {"id_parcelle": "774200000B2128", "address": "18 RUE MONTAUBERT", "sales": 3, "median_price": 188000.0, "median_price_per_sqm": 2238.095238095238, "median_rooms": 0.0, "first_sale": "2024-06-28", "last_sale": "2024-06-28"}}, {"type": "Feature", "geometry": {"type": "Point", "coordinates": [2.696161, 49.041708]}, "properties": {"id_parcelle": "774200000B2238", "address": "1 IMP DU PUITS MONTAUBERT", "sales": 3, "median_price": 175000.0, "median_price_per_sqm": 2283.91132572432, "median_rooms": 3.0, "first_sale": "2021-10-01", "last_sale": "2021-10-01"}}, {"type": "Feature", "geometry": {"type": "Point", "coordinates": [2.697166, 49.033165]}, "properties": {"id_parcelle": "774200000B1235", "address": "67 AV DE LA GARE", "sales": 3, "median_price": 140000.0, "median_price_per_sqm": 2372.8813559322034, "median_rooms": 0.0, "first_sale": "2024-04-22", "last_sale": "2024-04-22"}}, {"type": "Feature", "geometry": {"type": "Point", "coordinates": [2.693994, 49.040474]}, "properties": {"id_parcelle": "774200000B0518", "address": "30 RUE DU DOCTEUR ROUX", "sales": 3, "median_price": 312000.0, "median_price_per_sqm": 2025.974025974026, "median_rooms": 0.0, "first_sale": "2021-07-06", "last_sale": "2021-07-06"}}, {"type": "Feature", "geometry": {"type": "Point", "coordinates": [2.697125, 49.036186]}, "properties": {"id_parcelle": "774200000B2199", "address": "20 RUE GAMBETTA", "sales": 3, "median_price": 149000.0, "median_price_per_sqm": 3820.5128205128203, "median_rooms": 0.0, "first_sale": "2023-07-07", "last_sale": "2023-07-07"}}, {"type": "Feature", "geometry": {"type": "Point", "coordinates": [2.700873, 49.035469]}, "properties": {"id_parcelle": "774200000B2706", "address": "25 RUE PASTEUR", "sales": 3, "median_price": 282000.0, "median_price_per_sqm": 3662.3376623376626, "median_rooms": 0.0, "first_sale": "2025-06-10", "last_sale": "2025-06-10"}}, {"type": "Feature", "geometry": {"type": "Point", "coordinates": [2.695306, 49.035081]}, "properties": {"id_parcelle": "774200000B2798", "address": "35 AV DE LA GARE", "sales": 3, "median_price": 285000.0, "median_price_per_sqm": 2500.0, "median_rooms": 0.0, "first_sale": "2022-02-25", "last_sale": "2022-02-25"}}, {"type": "Feature", "geometry": {"type": "Point", "coordinates": [2.698341, 49.030066]}, "properties": {"id_parcelle": "77420000YA0082", "address": "82 RTE DE JUILLY", "sales": 3, "median_price": 580000.0, "median_price_per_sqm": 4531.25, "median_rooms": 0.0, "first_sale": "2023-07-24", "last_sale": "2023-07-24"}}, {"type": "Feature", "geometry": {"type": "Point", "coordinates": [2.691624, 49.041394]}, "properties": {"id_parcelle": "774200000B0420", "address": "LE MOULIN A VENT", "sales": 2, "median_price": 186000.0, "median_price_per_sqm": null, "median_rooms": null, "first_sale": "2021-04-28", "last_sale": "2025-07-22"}}, {"type": "Feature", "geometry": {"type": "Point", "coordinates": [2.691785, 49.041327]}, "properties": {"id_parcelle": "774200000B0419", "address": "31 BD DE LA REPUBLIQUE", "sales": 2, "median_price": 371000.0, "median_price_per_sqm": 3372.7272727272725, "median_rooms": 7.0, "first_sale": "2025-07-22", "last_sale": "2025-07-22"}}, {"type": "Feature", "geometry": {"type": "Point", "coordinates": [2.693774, 49.042083]}, "properties": {"id_parcelle": "774200000B1893", "address": "44 RUE DU DOCTEUR ROUX", "sales": 2, "median_price": 390000.0, "median_price_per_sqm": 3545.4545454545455, "median_rooms": 4.0, "first_sale": "2021-06-30", "last_sale": "2021-06-30"}}, {"type": "Feature", "geometry": {"type": "Point", "coordinates": [2.693748, 49.04306]}, "properties": {"id_parcelle": "774200000B1885", "address": "50 RUE DU DOCTEUR ROUX", "sales": 2, "median_price": 460000.0, "median_price_per_sqm": 2277.227722772277, "median_rooms": 6.0, "first_sale": "2025-09-10", "last_sale": "2025-09-10"}}, {"type": "Feature", "geometry": {"type": "Point", "coordinates": [2.697297, 49.037864]}, "properties": {"id_parcelle": "774200000B1808", "address": "15 RUE CURIE", "sales": 2, "median_price": 440000.0, "median_price_per_sqm": 2802.547770700637, "median_rooms": 6.0, "first_sale": "2024-05-28", "last_sale": "2024-05-28"}}, {"type": "Feature", "geometry": {"type": "Point", "coordinates": [2.697222, 49.035681]}, "properties": {"id_parcelle": "774200000B1778", "address": "24 RUE GAMBETTA", "sales": 2, "median_price": 167000.5, "median_price_per_sqm": null, "median_rooms": null, "first_sale": "2023-02-08", "last_sale": "2025-01-23"}}, {"type": "Feature", "geometry": {"type": "Point", "coordinates": [2.69392, 49.036074]}, "properties": {"id_parcelle": "774200000B1595", "address": "10 AV DE LA GARE", "sales": 2, "median_price": 97500.0, "median_price_per_sqm": 2751.984126984127, "median_rooms": 0.0, "first_sale": "2022-01-31", "last_sale": "2024-06-14"}}, {"type": "Feature", "geometry": {"type": "Point", "coordinates": [2.685339, 49.035747]}, "properties": {"id_parcelle": "774200000B1655", "address": "19 ALL DU MARCHAT", "sales": 2, "median_price": 99400.0, "median_price_per_sqm": 520.4188481675393, "median_rooms": 4.0, "first_sale": "2021-07-27", "last_sale": "2021-07-27"}}, {"type": "Feature", "geometry": {"type": "Point", "coordinates": [2.692998, 49.03931]}, "properties": {"id_parcelle": "774200000B1426", "address": "20 BD DE LA REPUBLIQUE", "sales": 2, "median_price": 360000.0, "median_price_per_sqm": 2517.4825174825173, "median_rooms": 3.0, "first_sale": "2025-07-10", "last_sale": "2025-07-10"}}, {"type": "Feature", "geometry": {"type": "Point", "coordinates": [2.691521, 49.041301]}, "properties": {"id_parcelle": "774200000B1587", "address": "33 BD DE LA REPUBLIQUE", "sales": 2, "median_price": 230000.0, "median_price_per_sqm": 2421.0526315789475, "median_rooms": 5.0, "first_sale": "2025-05-16", "last_sale": "2025-05-16"}}, {"type": "Feature", "geometry": {"type": "Point", "coordinates": [2.696499, 49.04182]}, "properties": {"id_parcelle": "774200000B1320", "address": "68 RUE MONTAUBERT", "sales": 2, "median_price": 435000.0, "median_price_per_sqm": 7250.0, "median_rooms": 1.5, "first_sale": "2024-02-29", "last_sale": "2024-02-29"}}, {"type": "Feature", "geometry": {"type": "Point", "coordinates": [2.696174, 49.037191]}, "properties": {"id_parcelle": "774200000B1363", "address": "26 RUE DE LA MAIRIE", "sales": 2, "median_price": 180000.0, "median_price_per_sqm": 2475.4098360655735, "median_rooms": 1.5, "first_sale": "2024-05-29", "last_sale": "2024-05-29"}}, {"type": "Feature", "geometry": {"type": "Point", "coordinates": [2.693965, 49.041451]}, "properties": {"id_parcelle": "774200000B1418", "address": "38 RUE DU DOCTEUR ROUX", "sales": 2, "median_price": 335000.0, "median_price_per_sqm": 3383.838383838384, "median_rooms": 2.5, "first_sale": "2023-04-24", "last_sale": "2023-04-24"}}, {"type": "Feature", "geometry": {"type": "Point", "coordinates": [2.6927, 49.036825]}, "properties": {"id_parcelle": "774200000B1378", "address": "6 RUE DU MOUTIERS", "sales": 2, "median_price": 230000.0, "median_price_per_sqm": 2771.0843373493976, "median_rooms": 2.0, "first_sale": "2023-04-20", "last_sale": "2023-04-20"}}, {"type": "Feature", "geometry": {"type": "Point", "coordinates": [2.692424, 49.037005]}, "properties": {"id_parcelle": "774200000B1181", "address": "12 RUE DU MOUTIERS", "sales": 2, "median_price": 220000.0, "median_price_per_sqm": 3384.6153846153848, "median_rooms": 1.5, "first_sale": "2023-05-31", "last_sale": "2023-05-31"}}, {"type": "Feature", "geometry": {"type": "Point", "coordinates": [2.690653, 49.036045]}, "properties": {"id_parcelle": "774200000B0811", "address": "5 RUE ROBERT CORVISIER", "sales": 2, "median_price": 145000.0, "median_price_per_sqm": 4833.333333333333, "median_rooms": 1.0, "first_sale": "2021-05-21", "last_sale": "2021-05-21"}}, {"type": "Feature", "geometry": {"type": "Point", "coordinates": [2.694856, 49.039836]}, "properties": {"id_parcelle": "774200000B0679", "address": "3 RUE PIHETTE", "sales": 2, "median_price": 106000.0, "median_price_per_sqm": 3028.5714285714284, "median_rooms": 1.0, "first_sale": "2022-01-04", "last_sale": "2022-01-04"}}, {"type": "Feature", "geometry": {"type": "Point", "coordinates": [2.692933, 49.036446]}, "properties": {"id_parcelle": "774200000B1232", "address": "LE PRESBYTERE", "sales": 2, "median_price": 213191.025, "median_price_per_sqm": null, "median_rooms": null, "first_sale": "2023-10-26", "last_sale": "2025-05-21"}}, {"type": "Feature", "geometry": {"type": "Point", "coordinates": [2.696785, 49.042527]}, "properties": {"id_parcelle": "774200000B0028", "address": "65 RUE MONTAUBERT", "sales": 2, "median_price": 296000.0, "median_price_per_sqm": 2069.9300699300697, "median_rooms": 2.5, "first_sale": "2024-04-22", "last_sale": "2024-04-22"}}, {"type": "Feature", "geometry": {"type": "Point", "coordinates": [2.696817, 49.042377]}, "properties": {"id_parcelle": "774200000B0030", "address": "61 RUE MONTAUBERT", "sales": 2, "median_price": 273000.0, "median_price_per_sqm": 3455.6962025316457, "median_rooms": 1.5, "first_sale": "2022-06-02", "last_sale": "2022-06-02"}}, {"type": "Feature", "geometry": {"type": "Point", "coordinates": [2.694971, 49.040775]}, "properties": {"id_parcelle": "774200000B0513", "address": "33 RUE MONTAUBERT", "sales": 2, "median_price": 269900.0, "median_price_per_sqm": 4353.225806451613, "median_rooms": 1.5, "first_sale": "2023-05-24", "last_sale": "2023-05-24"}}, {"type": "Feature", "geometry": {"type": "Point", "coordinates": [2.695735, 49.039588]}, "properties": {"id_parcelle": "774200000B0644", "address": "30 RUE MONTAUBERT", "sales": 2, "median_price": 162400.0, "median_price_per_sqm": 4273.684210526316, "median_rooms": 0.5, "first_sale": "2025-10-27", "last_sale": "2025-10-27"}}, {"type": "Feature", "geometry": {"type": "Point", "coordinates": [2.699809, 49.039817]}, "properties": {"id_parcelle": "774200000B2157", "address": "3 IMP DE LA PROCESSION", "sales": 2, "median_price": 393000.0, "median_price_per_sqm": 3508.9285714285716, "median_rooms": 5.0, "first_sale": "2021-07-15", "last_sale": "2021-07-15"}}, {"type": "Feature", "geometry": {"type": "Point", "coordinates": [2.69737, 49.038756]}, "properties": {"id_parcelle": "774200000B2182", "address": "8 RUE MONTAUBERT", "sales": 2, "median_price": 331000.0, "median_price_per_sqm": 3484.2105263157896, "median_rooms": 3.0, "first_sale": "2022-02-16", "last_sale": "2022-02-16"}}, {"type": "Feature", "geometry": {"type": "Point", "coordinates": [2.697266, 49.034866]}, "properties": {"id_parcelle": "774200000B2041", "address": "3 RUE VICTOR HUGO", "sales": 2, "median_price": 320000.0, "median_price_per_sqm": 3809.5238095238096, "median_rooms": 5.0, "first_sale": "2022-07-22", "last_sale": "2022-07-22"}}, {"type": "Feature", "geometry": {"type": "Point", "coordinates": [2.693836, 49.042503]}, "properties": {"id_parcelle": "774200000B2050", "address": "44 RUE DU DOCTEUR ROUX", "sales": 2, "median_price": 370000.0, "median_price_per_sqm": 3057.8512396694214, "median_rooms": 6.0, "first_sale": "2024-12-19", "last_sale": "2024-12-19"}}, {"type": "Feature", "geometry": {"type": "Point", "coordinates": [2.694127, 49.039207]}, "properties": {"id_parcelle": "774200000B2318", "address": "14 RUE DU DOCTEUR ROUX", "sales": 2, "median_price": 390000.0, "median_price_per_sqm": 3046.875, "median_rooms": 6.0, "first_sale": "2025-07-04", "last_sale": "2025-07-04"}}, {"type": "Feature", "geometry": {"type": "Point", "coordinates": [2.694486, 49.041583]}, "properties": {"id_parcelle": "774200000B2276", "address": "2 RUE DE LA CAVIGNONNE", "sales": 2, "median_price": 163500.0, "median_price_per_sqm": 1229.3233082706768, "median_rooms": 5.0, "first_sale": "2023-05-15", "last_sale": "2023-05-15"}}, {"type": "Feature", "geometry": {"type": "Point", "coordinates": [2.697901, 49.038887]}, "properties": {"id_parcelle": "774200000B2070", "address": "36 CHE DES FOSSES", "sales": 2, "median_price": 301455.0, "median_price_per_sqm": 2817.336448598131, "median_rooms": 4.0, "first_sale": "2024-07-30", "last_sale": "2024-07-30"}}, {"type": "Feature", "geometry": {"type": "Point", "coordinates": [2.6986, 49.039317]}, "properties": {"id_parcelle": "774200000B1938", "address": "25 CHE DES FOSSES", "sales": 2, "median_price": 312000.0, "median_price_per_sqm": 2736.842105263158, "median_rooms": 2.5, "first_sale": "2021-09-13", "last_sale": "2021-09-13"}}, {"type": "Feature", "geometry": {"type": "Point", "coordinates": [2.699671, 49.041673]}, "properties": {"id_parcelle": "774200000B1986", "address": "6 CHE DU PUITS", "sales": 2, "median_price": 305000.0, "median_price_per_sqm": 3588.235294117647, "median_rooms": 2.0, "first_sale": "2025-07-24", "last_sale": "2025-07-24"}}, {"type": "Feature", "geometry": {"type": "Point", "coordinates": [2.69976, 49.039457]}, "properties": {"id_parcelle": "774200000B2025", "address": "7 CHE DE LA PROCESSION", "sales": 2, "median_price": 312000.0, "median_price_per_sqm": 2260.8695652173915, "median_rooms": 5.0, "first_sale": "2023-04-24", "last_sale": "2023-04-24"}}, {"type": "Feature", "geometry": {"type": "Point", "coordinates": [2.699053, 49.042131]}, "properties": {"id_parcelle": "774200000B1983", "address": "1 CHE DES FOSSES", "sales": 2, "median_price": 293000.0, "median_price_per_sqm": 2504.2735042735044, "median_rooms": 2.5, "first_sale": "2025-09-18", "last_sale": "2025-09-18"}}, {"type": "Feature", "geometry": {"type": "Point", "coordinates": [2.698818, 49.040584]}, "properties": {"id_parcelle": "774200000B1903", "address": "17 CHE DES FOSSES", "sales": 2, "median_price": 372400.0, "median_price_per_sqm": 4184.269662921349, "median_rooms": 2.0, "first_sale": "2021-08-31", "last_sale": "2021-08-31"}}, {"type": "Feature", "geometry": {"type": "Point", "coordinates": [2.694699, 49.039818]}, "properties": {"id_parcelle": "774200000B2593", "address": "5 RUE PIHETTE", "sales": 2, "median_price": 106000.0, "median_price_per_sqm": 2038.4615384615386, "median_rooms": 1.0, "first_sale": "2022-01-04", "last_sale": "2022-01-04"}}, {"type": "Feature", "geometry": {"type": "Point", "coordinates": [2.693053, 49.038657]}, "properties": {"id_parcelle": "774200000B2533", "address": "1 RUE DU DOCTEUR ROUX", "sales": 2, "median_price": 261000.0, "median_price_per_sqm": 3107.1428571428573, "median_rooms": 2.0, "first_sale": "2022-01-07", "last_sale": "2022-01-07"}}, {"type": "Feature", "geometry": {"type": "Point", "coordinates": [2.697498, 49.032414]}, "properties": {"id_parcelle": "774200000B2530", "address": "75 AV DE LA GARE", "sales": 2, "median_price": 318500.0, "median_price_per_sqm": 2769.5652173913045, "median_rooms": 5.0, "first_sale": "2023-10-16", "last_sale": "2023-10-16"}}, {"type": "Feature", "geometry": {"type": "Point", "coordinates": [2.695523, 49.040696]}, "properties": {"id_parcelle": "774200000B2396", "address": "48 RUE MONTAUBERT", "sales": 2, "median_price": 275000.0, "median_price_per_sqm": 6547.619047619048, "median_rooms": 1.0, "first_sale": "2022-03-03", "last_sale": "2022-03-03"}}, {"type": "Feature", "geometry": {"type": "Point", "coordinates": [2.695883, 49.034651]}, "properties": {"id_parcelle": "774200000B2324", "address": "41 AV DE LA GARE", "sales": 2, "median_price": 287000.0, "median_price_per_sqm": 2870.0, "median_rooms": 1.5, "first_sale": "2022-03-28", "last_sale": "2022-03-28"}}, {"type": "Feature", "geometry": {"type": "Point", "coordinates": [2.692924, 49.041599]}, "properties": {"id_parcelle": "774200000B2203", "address": "1 RUE DE LA SENTE GROS JEAN", "sales": 2, "median_price": 369250.0, "median_price_per_sqm": 5058.219178082192, "median_rooms": 2.0, "first_sale": "2022-07-18", "last_sale": "2022-07-18"}}, {"type": "Feature", "geometry": {"type": "Point", "coordinates": [2.693359, 49.037894]}, "properties": {"id_parcelle": "774200000B2824", "address": "8 BD DE LA REPUBLIQUE", "sales": 2, "median_price": 452800.0, "median_price_per_sqm": 2668.913857677903, "median_rooms": 6.0, "first_sale": "2022-03-25", "last_sale": "2025-12-03"}}, {"type": "Feature", "geometry": {"type": "Point", "coordinates": [2.693762, 49.037945]}, "properties": {"id_parcelle": "774200000B2825", "address": "8 BD DE LA REPUBLIQUE", "sales": 2, "median_price": 452800.0, "median_price_per_sqm": null, "median_rooms": null, "first_sale": "2022-03-25", "last_sale": "2025-12-03"}}, {"type": "Feature", "geometry": {"type": "Point", "coordinates": [2.698173, 49.032766]}, "properties": {"id_parcelle": "774200000B2846", "address": "5 RUE PASTEUR", "sales": 2, "median_price": 285000.0, "median_price_per_sqm": 4523.809523809524, "median_rooms": 3.0, "first_sale": "2023-06-29", "last_sale": "2024-10-07"}}, {"type": "Feature", "geometry": {"type": "Point", "coordinates": [2.694156, 49.034049]}, "properties": {"id_parcelle": "774200000B2858", "address": "12 RUE PARMENTIER", "sales": 2, "median_price": 272000.0, "median_price_per_sqm": 2956.521739130435, "median_rooms": 5.0, "first_sale": "2024-10-15", "last_sale": "2024-10-15"}}, {"type": "Feature", "geometry": {"type": "Point", "coordinates": [2.698357, 49.029919]}, "properties": {"id_parcelle": "77420000YA0083", "address": "82 RTE DE JUILLY", "sales": 2, "median_price": 580000.0, "median_price_per_sqm": null, "median_rooms": null, "first_sale": "2023-07-24", "last_sale": "2023-07-24"}}, {"type": "Feature", "geometry": {"type": "Point", "coordinates": [2.688244, 49.039213]}, "properties": {"id_parcelle": "77420000ZA0181", "address": "15 AV DES DEUX MOULINS", "sales": 2, "median_price": 2155200.0500000003, "median_price_per_sqm": null, "median_rooms": null, "first_sale": "2022-03-11", "last_sale": "2022-03-11"}}, {"type": "Feature", "geometry": {"type": "Point", "coordinates": [2.687782, 49.03954]}, "properties": {"id_parcelle": "77420000ZA0183", "address": "15 AV DES DEUX MOULINS", "sales": 2, "median_price": 2155200.0500000003, "median_price_per_sqm": null, "median_rooms": null, "first_sale": "2022-03-11", "last_sale": "2022-03-11"}}, {"type": "Feature", "geometry": {"type": "Point", "coordinates": [2.687746, 49.039752]}, "properties": {"id_parcelle": "77420000ZA0184", "address": "15 AV DES DEUX MOULINS", "sales": 2, "median_price": 2155200.0500000003, "median_price_per_sqm": null, "median_rooms": null, "first_sale": "2022-03-11", "last_sale": "2022-03-11"}}, {"type": "Feature", "geometry": {"type": "Point", "coordinates": [2.69323, 49.037888]}, "properties": {"id_parcelle": "774200000B2841", "address": "8 BD DE LA REPUBLIQUE", "sales": 2, "median_price": 356800.0, "median_price_per_sqm": null, "median_rooms": null, "first_sale": "2025-10-17", "last_sale": "2025-12-03"}}, {"type": "Feature", "geometry": {"type": "Point", "coordinates": [2.695078, 49.040052]}, "properties": {"id_parcelle": "774200000B2790", "address": "23 RUE MONTAUBERT", "sales": 2, "median_price": 232000.0, "median_price_per_sqm": 4833.333333333334, "median_rooms": 2.5, "first_sale": "2022-02-18", "last_sale": "2022-02-18"}}, {"type": "Feature", "geometry": {"type": "Point", "coordinates": [2.697047, 49.04412]}, "properties": {"id_parcelle": "77420000ZB0086", "address": "79 RUE MONTAUBERT", "sales": 2, "median_price": 70000.0, "median_price_per_sqm": 654.2056074766355, "median_rooms": 5.0, "first_sale": "2021-12-28", "last_sale": "2021-12-28"}}, {"type": "Feature", "geometry": {"type": "Point", "coordinates": [2.696951, 49.04395]}, "properties": {"id_parcelle": "77420000ZB0085", "address": "75 MONTAUBERT", "sales": 2, "median_price": 283000.0, "median_price_per_sqm": 3675.3246753246754, "median_rooms": 4.0, "first_sale": "2023-07-27", "last_sale": "2023-07-27"}}, {"type": "Feature", "geometry": {"type": "Point", "coordinates": [2.692583, 49.041853]}, "properties": {"id_parcelle": "77420000ZB0090", "address": "4 RUE DE LA SENTE GROS JEAN", "sales": 2, "median_price": 450000.0, "median_price_per_sqm": 3125.0, "median_rooms": 5.0, "first_sale": "2023-07-05", "last_sale": "2023-07-05"}}, {"type": "Feature", "geometry": {"type": "Point", "coordinates": [2.691465, 49.042585]}, "properties": {"id_parcelle": "77420000ZB0108", "address": "15 RUE DE LA SENTE GROS JEAN", "sales": 2, "median_price": 326830.0, "median_price_per_sqm": 3268.3, "median_rooms": 5.0, "first_sale": "2023-11-13", "last_sale": "2023-11-13"}}, {"type": "Feature", "geometry": {"type": "Point", "coordinates": [2.705868, 49.042605]}, "properties": {"id_parcelle": "77420000ZC0170", "address": "11 ALL DE L ORME TOUZE", "sales": 2, "median_price": 245000.0, "median_price_per_sqm": 4298.245614035088, "median_rooms": 1.5, "first_sale": "2024-06-12", "last_sale": "2024-06-12"}}, {"type": "Feature", "geometry": {"type": "Point", "coordinates": [2.705328, 49.044427]}, "properties": {"id_parcelle": "77420000ZC0191", "address": "49 ALL DE L ORME TOUZE", "sales": 2, "median_price": 346000.0, "median_price_per_sqm": 4493.506493506494, "median_rooms": 2.0, "first_sale": "2025-05-23", "last_sale": "2025-05-23"}}, {"type": "Feature", "geometry": {"type": "Point", "coordinates": [2.70648, 49.042682]}, "properties": {"id_parcelle": "77420000ZC0163", "address": "5 PL DU GROS MERISIER", "sales": 2, "median_price": 234936.51, "median_price_per_sqm": 5220.811333333333, "median_rooms": 3.0, "first_sale": "2022-03-16", "last_sale": "2024-05-27"}}, {"type": "Feature", "geometry": {"type": "Point", "coordinates": [2.70595, 49.04272]}, "properties": {"id_parcelle": "77420000ZC0168", "address": "10 PL DU GROS MERISIER", "sales": 2, "median_price": 249770.0, "median_price_per_sqm": 4541.272727272727, "median_rooms": 1.5, "first_sale": "2024-04-24", "last_sale": "2024-04-24"}}, {"type": "Feature", "geometry": {"type": "Point", "coordinates": [2.704932, 49.04053]}, "properties": {"id_parcelle": "77420000ZI0070", "address": "42 RUE DES ONZE ARPENTS", "sales": 2, "median_price": 355000.0, "median_price_per_sqm": 3317.7570093457944, "median_rooms": 4.0, "first_sale": "2025-09-03", "last_sale": "2025-09-03"}}, {"type": "Feature", "geometry": {"type": "Point", "coordinates": [2.704391, 49.043983]}, "properties": {"id_parcelle": "77420000ZC0217", "address": "34 ALL DE L ORME TOUZE", "sales": 2, "median_price": 310000.0, "median_price_per_sqm": 3604.6511627906975, "median_rooms": 4.0, "first_sale": "2023-10-05", "last_sale": "2023-10-05"}}, {"type": "Feature", "geometry": {"type": "Point", "coordinates": [2.703825, 49.040391]}, "properties": {"id_parcelle": "77420000ZI0075", "address": "11 RUE DES ONZE ARPENTS", "sales": 2, "median_price": 450000.0, "median_price_per_sqm": 3515.625, "median_rooms": 5.0, "first_sale": "2022-11-04", "last_sale": "2022-11-04"}}, {"type": "Feature", "geometry": {"type": "Point", "coordinates": [2.704507, 49.040037]}, "properties": {"id_parcelle": "77420000ZI0079", "address": "34 RUE DES ONZE ARPENTS", "sales": 2, "median_price": 480000.0, "median_price_per_sqm": 3503.6496350364964, "median_rooms": 5.0, "first_sale": "2023-10-13", "last_sale": "2023-10-13"}}, {"type": "Feature", "geometry": {"type": "Point", "coordinates": [2.704214, 49.039694]}, "properties": {"id_parcelle": "77420000ZI0085", "address": "28 RUE DES ONZE ARPENTS", "sales": 2, "median_price": 410000.0, "median_price_per_sqm": 3037.037037037037, "median_rooms": 6.0, "first_sale": "2021-01-26", "last_sale": "2021-01-26"}}, {"type": "Feature", "geometry": {"type": "Point", "coordinates": [2.703994, 49.039917]}, "properties": {"id_parcelle": "77420000ZI0084", "address": "30 RUE DES ONZE ARPENTS", "sales": 2, "median_price": 450000.0, "median_price_per_sqm": 3600.0, "median_rooms": 6.0, "first_sale": "2024-07-22", "last_sale": "2024-07-22"}}, {"type": "Feature", "geometry": {"type": "Point", "coordinates": [2.702874, 49.041135]}, "properties": {"id_parcelle": "77420000ZI0115", "address": "11 RUE DE LA SAUSSAIE FLEURIE", "sales": 2, "median_price": 390000.0, "median_price_per_sqm": 2727.2727272727275, "median_rooms": 5.0, "first_sale": "2022-07-08", "last_sale": "2022-07-08"}}, {"type": "Feature", "geometry": {"type": "Point", "coordinates": [2.70117, 49.041132]}, "properties": {"id_parcelle": "77420000ZI0131", "address": "33 RUE DES ONZE ARPENTS", "sales": 2, "median_price": 380000.0, "median_price_per_sqm": 3800.0, "median_rooms": 4.0, "first_sale": "2021-02-01", "last_sale": "2021-02-01"}}]}