{"type": "FeatureCollection", "features": [{"type": "Feature", "geometry": {"type": "Point", "coordinates": [2.806475, 48.58505]}, "properties": {"id_parcelle": "770820000C0860", "address": "2 PL DU MARCHE", "sales": 15, "median_price": 129000.0, "median_price_per_sqm": 3127.906976744186, "median_rooms": 0.0, "first_sale": "2021-08-27", "last_sale": "2025-10-03"}}, {"type": "Feature", "geometry": {"type": "Point", "coordinates": [2.807193, 48.583684]}, "properties": {"id_parcelle": "770820000C0876", "address": "6 RUE SAINTE FARE", "sales": 13, "median_price": 135000.0, "median_price_per_sqm": 3654.3055555555557, "median_rooms": 0.0, "first_sale": "2021-01-26", "last_sale": "2022-10-07"}}, {"type": "Feature", "geometry": {"type": "Point", "coordinates": [2.813279, 48.585294]}, "properties": {"id_parcelle": "77082000ZL0173", "address": "29 RUE DU STADE", "sales": 6, "median_price": 505000.0, "median_price_per_sqm": 3886.2188937374685, "median_rooms": 2.5, "first_sale": "2024-09-27", "last_sale": "2024-09-27"}}, {"type": "Feature", "geometry": {"type": "Point", "coordinates": [2.806648, 48.586844]}, "properties": {"id_parcelle": "770820000C0716", "address": "10 RUE DU PRE DU PAIN", "sales": 6, "median_price": 294000.0, "median_price_per_sqm": 2279.0697674418607, "median_rooms": 0.0, "first_sale": "2022-07-22", "last_sale": "2025-07-18"}}, {"type": "Feature", "geometry": {"type": "Point", "coordinates": [2.804492, 48.583588]}, "properties": {"id_parcelle": "770820000C0145", "address": "2 RUE DE LA LIBERATION", "sales": 6, "median_price": 167150.0, "median_price_per_sqm": 2471.6403162055335, "median_rooms": 0.0, "first_sale": "2023-01-25", "last_sale": "2023-11-29"}}, {"type": "Feature", "geometry": {"type": "Point", "coordinates": [2.8059, 48.586955]}, "properties": {"id_parcelle": "770820000C0923", "address": "14 RUE RAOUL COUTANT", "sales": 4, "median_price": 125820.0, "median_price_per_sqm": 2516.4, "median_rooms": 0.0, "first_sale": "2022-07-20", "last_sale": "2022-07-20"}}, {"type": "Feature", "geometry": {"type": "Point", "coordinates": [2.811309, 48.586968]}, "properties": {"id_parcelle": "77082000ZL0084", "address": "22 RUE DE LA TUILERIE", "sales": 4, "median_price": 380000.0, "median_price_per_sqm": 2814.814814814815, "median_rooms": 3.0, "first_sale": "2022-02-04", "last_sale": "2022-02-04"}}, {"type": "Feature", "geometry": {"type": "Point", "coordinates": [2.805498, 48.586473]}, "properties": {"id_parcelle": "770820000C0842", "address": "12 RUE RAOUL COUTANT", "sales": 4, "median_price": 631890.0, "median_price_per_sqm": 2038.3548387096773, "median_rooms": 0.0, "first_sale": "2021-08-23", "last_sale": "2021-08-23"}}, {"type": "Feature", "geometry": {"type": "Point", "coordinates": [2.809551, 48.568783]}, "properties": {"id_parcelle": "77082000YB0005", "address": "5001 CHE DE BLANDY A ST MERY", "sales": 4, "median_price": 451000.0, "median_price_per_sqm": 4545.66936728395, "median_rooms": 1.5, "first_sale": "2023-01-03", "last_sale": "2023-01-03"}}, {"type": "Feature", "geometry": {"type": "Point", "coordinates": [2.805579, 48.586905]}, "properties": {"id_parcelle": "770820000C0924", "address": "14 RUE RAOUL COUTANT", "sales": 3, "median_price": 86000.0, "median_price_per_sqm": 934.7826086956521, "median_rooms": 0.0, "first_sale": "2025-10-27", "last_sale": "2025-10-27"}}, {"type": "Feature", "geometry": {"type": "Point", "coordinates": [2.804969, 48.58413]}, "properties": {"id_parcelle": "770820000C0152", "address": "9 RUE DE LA FERRONNERIE", "sales": 3, "median_price": 165000.0, "median_price_per_sqm": 1833.3333333333333, "median_rooms": 0.0, "first_sale": "2024-09-20", "last_sale": "2024-09-20"}}, {"type": "Feature", "geometry": {"type": "Point", "coordinates": [2.808234, 48.587427]}, "properties": {"id_parcelle": "77082000ZL0035", "address": "8 RUE DE VARVANNE", "sales": 3, "median_price": 280000.0, "median_price_per_sqm": 2545.4545454545455, "median_rooms": 4.0, "first_sale": "2022-07-27", "last_sale": "2024-12-05"}}, {"type": "Feature", "geometry": {"type": "Point", "coordinates": [2.808598, 48.585297]}, "properties": {"id_parcelle": "770820000C0862", "address": "2 RUE DE MALVOISINE", "sales": 3, "median_price": 66666.66, "median_price_per_sqm": 569.8005128205128, "median_rooms": 0.0, "first_sale": "2024-05-03", "last_sale": "2024-05-03"}}, {"type": "Feature", "geometry": {"type": "Point", "coordinates": [2.805153, 48.583071]}, "properties": {"id_parcelle": "770820000C0833", "address": "RUE SAINT LEONARD", "sales": 2, "median_price": 129850.0, "median_price_per_sqm": null, "median_rooms": null, "first_sale": "2021-10-04", "last_sale": "2022-02-04"}}, {"type": "Feature", "geometry": {"type": "Point", "coordinates": [2.80516, 48.583092]}, "properties": {"id_parcelle": "770820000C0824", "address": "CHAMPEAUX", "sales": 2, "median_price": 129850.0, "median_price_per_sqm": null, "median_rooms": null, "first_sale": "2021-10-04", "last_sale": "2022-02-04"}}, {"type": "Feature", "geometry": {"type": "Point", "coordinates": [2.820804, 48.587872]}, "properties": {"id_parcelle": "770820000C0800", "address": "BOIS DE SAINT MARTIN", "sales": 2, "median_price": 205000.0, "median_price_per_sqm": null, "median_rooms": null, "first_sale": "2021-10-14", "last_sale": "2021-10-14"}}, {"type": "Feature", "geometry": {"type": "Point", "coordinates": [2.8055, 48.583682]}, "properties": {"id_parcelle": "770820000C0649", "address": "8 RUE DE LA FERRONNERIE", "sales": 2, "median_price": 200000.0, "median_price_per_sqm": 2027.7777777777778, "median_rooms": 1.5, "first_sale": "2021-06-01", "last_sale": "2021-06-01"}}, {"type": "Feature", "geometry": {"type": "Point", "coordinates": [2.805633, 48.583884]}, "properties": {"id_parcelle": "770820000C0272", "address": "14 RUE DE LA FERRONNERIE", "sales": 2, "median_price": 235000.0, "median_price_per_sqm": 2797.6190476190477, "median_rooms": 1.5, "first_sale": "2022-05-20", "last_sale": "2022-05-20"}}, {"type": "Feature", "geometry": {"type": "Point", "coordinates": [2.805234, 48.583503]}, "properties": {"id_parcelle": "770820000C0276", "address": "2 RUE DE LA FERRONNERIE", "sales": 2, "median_price": 165000.0, "median_price_per_sqm": 1122.4489795918369, "median_rooms": 3.0, "first_sale": "2021-08-30", "last_sale": "2023-09-06"}}, {"type": "Feature", "geometry": {"type": "Point", "coordinates": [2.806423, 48.583873]}, "properties": {"id_parcelle": "770820000C0267", "address": "10 RUE DU CLOITRE", "sales": 2, "median_price": 145000.0, "median_price_per_sqm": 2900.0, "median_rooms": 1.5, "first_sale": "2025-12-10", "last_sale": "2025-12-10"}}, {"type": "Feature", "geometry": {"type": "Point", "coordinates": [2.805296, 48.584317]}, "properties": {"id_parcelle": "770820000C0159", "address": "4 RUE DES CHAMPARTS", "sales": 2, "median_price": 177000.0, "median_price_per_sqm": null, "median_rooms": 0.0, "first_sale": "2022-08-25", "last_sale": "2022-08-25"}}, {"type": "Feature", "geometry": {"type": "Point", "coordinates": [2.804821, 48.583676]}, "properties": {"id_parcelle": "770820000C0147", "address": "1 RUE DE LA FERRONNERIE", "sales": 2, "median_price": 165000.0, "median_price_per_sqm": 3586.9565217391305, "median_rooms": 1.5, "first_sale": "2025-08-28", "last_sale": "2025-08-28"}}, {"type": "Feature", "geometry": {"type": "Point", "coordinates": [2.804798, 48.583799]}, "properties": {"id_parcelle": "770820000C0148", "address": "3 RUE DE LA FERRONNERIE", "sales": 2, "median_price": 290000.0, "median_price_per_sqm": 14500.0, "median_rooms": 0.5, "first_sale": "2023-02-28", "last_sale": "2023-02-28"}}, {"type": "Feature", "geometry": {"type": "Point", "coordinates": [2.805243, 48.583129]}, "properties": {"id_parcelle": "770820000C0934", "address": "7 RUE SAINT LEONARD", "sales": 2, "median_price": 258200.0, "median_price_per_sqm": 3227.5, "median_rooms": 2.0, "first_sale": "2022-02-04", "last_sale": "2022-02-04"}}, {"type": "Feature", "geometry": {"type": "Point", "coordinates": [2.813566, 48.569741]}, "properties": {"id_parcelle": "77082000YB0008", "address": "PENTES DU MOULIN DE CHAUNO", "sales": 2, "median_price": 58000.0, "median_price_per_sqm": null, "median_rooms": null, "first_sale": "2024-05-16", "last_sale": "2024-05-16"}}, {"type": "Feature", "geometry": {"type": "Point", "coordinates": [2.805064, 48.587669]}, "properties": {"id_parcelle": "77082000ZB0004", "address": "RUE DE LA LIBERATION", "sales": 2, "median_price": 1000.0, "median_price_per_sqm": null, "median_rooms": null, "first_sale": "2022-02-14", "last_sale": "2022-02-14"}}, {"type": "Feature", "geometry": {"type": "Point", "coordinates": [2.814018, 48.565664]}, "properties": {"id_parcelle": "77082000YA0006", "address": "PENTES DE CHAUNOY", "sales": 2, "median_price": 1171900.0, "median_price_per_sqm": null, "median_rooms": null, "first_sale": "2025-03-05", "last_sale": "2025-03-05"}}, {"type": "Feature", "geometry": {"type": "Point", "coordinates": [2.809177, 48.570491]}, "properties": {"id_parcelle": "77082000YB0007", "address": "PENTES DU MOULIN DE CHAUNO", "sales": 2, "median_price": 85000.0, "median_price_per_sqm": null, "median_rooms": null, "first_sale": "2021-06-14", "last_sale": "2021-06-14"}}, {"type": "Feature", "geometry": {"type": "Point", "coordinates": [2.807625, 48.585578]}, "properties": {"id_parcelle": "770820000C0850", "address": "CHAMPEAUX", "sales": 2, "median_price": 310000.0, "median_price_per_sqm": null, "median_rooms": null, "first_sale": "2022-02-01", "last_sale": "2022-02-01"}}, {"type": "Feature", "geometry": {"type": "Point", "coordinates": [2.826857, 48.594888]}, "properties": {"id_parcelle": "77082000ZK0010", "address": "LA TEMPETE", "sales": 2, "median_price": 71687.5, "median_price_per_sqm": null, "median_rooms": null, "first_sale": "2024-04-30", "last_sale": "2024-04-30"}}, {"type": "Feature", "geometry": {"type": "Point", "coordinates": [2.826007, 48.594659]}, "properties": {"id_parcelle": "77082000ZK0009", "address": "LA TEMPETE", "sales": 2, "median_price": 71687.5, "median_price_per_sqm": null, "median_rooms": null, "first_sale": "2024-04-30", "last_sale": "2024-04-30"}}, {"type": "Feature", "geometry": {"type": "Point", "coordinates": [2.825086, 48.593746]}, "properties": {"id_parcelle": "77082000ZK0008", "address": "LA TEMPETE", "sales": 2, "median_price": 409955.0, "median_price_per_sqm": null, "median_rooms": null, "first_sale": "2022-12-20", "last_sale": "2022-12-20"}}, {"type": "Feature", "geometry": {"type": "Point", "coordinates": [2.827112, 48.595598]}, "properties": {"id_parcelle": "77082000ZK0012", "address": "LA TEMPETE", "sales": 2, "median_price": 18232.0, "median_price_per_sqm": null, "median_rooms": null, "first_sale": "2021-08-04", "last_sale": "2021-08-04"}}, {"type": "Feature", "geometry": {"type": "Point", "coordinates": [2.821081, 48.589346]}, "properties": {"id_parcelle": "77082000ZL0020", "address": "SAULE COURGEMONT", "sales": 2, "median_price": 409955.0, "median_price_per_sqm": null, "median_rooms": null, "first_sale": "2022-12-20", "last_sale": "2022-12-20"}}, {"type": "Feature", "geometry": {"type": "Point", "coordinates": [2.808689, 48.587412]}, "properties": {"id_parcelle": "77082000ZL0037", "address": "4 RUE DE VARVANNE", "sales": 2, "median_price": 233280.0, "median_price_per_sqm": 3430.5882352941176, "median_rooms": 4.0, "first_sale": "2023-06-16", "last_sale": "2023-06-16"}}, {"type": "Feature", "geometry": {"type": "Point", "coordinates": [2.821709, 48.589748]}, "properties": {"id_parcelle": "77082000ZL0019", "address": "SAULE COURGEMONT", "sales": 2, "median_price": 409955.0, "median_price_per_sqm": null, "median_rooms": null, "first_sale": "2022-12-20", "last_sale": "2022-12-20"}}, {"type": "Feature", "geometry": {"type": "Point", "coordinates": [2.823239, 48.591387]}, "properties": {"id_parcelle": "77082000ZL0018", "address": "SAULE COURGEMONT", "sales": 2, "median_price": 409955.0, "median_price_per_sqm": null, "median_rooms": null, "first_sale": "2022-12-20", "last_sale": "2022-12-20"}}, {"type": "Feature", "geometry": {"type": "Point", "coordinates": [2.805825, 48.587687]}, "properties": {"id_parcelle": "77082000ZL0053", "address": "26 RUE DE VARVANNE", "sales": 2, "median_price": 337000.0, "median_price_per_sqm": 2042.4242424242425, "median_rooms": 5.0, "first_sale": "2023-08-28", "last_sale": "2023-08-28"}}, {"type": "Feature", "geometry": {"type": "Point", "coordinates": [2.807176, 48.587566]}, "properties": {"id_parcelle": "77082000ZL0043", "address": "16 RUE DE VARVANNE", "sales": 2, "median_price": 250000.0, "median_price_per_sqm": 1923.076923076923, "median_rooms": 6.0, "first_sale": "2025-09-16", "last_sale": "2025-09-16"}}, {"type": "Feature", "geometry": {"type": "Point", "coordinates": [2.810827, 48.586684]}, "properties": {"id_parcelle": "77082000ZL0094", "address": "9 RUE DE LA TUILERIE", "sales": 2, "median_price": 325000.0, "median_price_per_sqm": 2443.6090225563908, "median_rooms": 3.0, "first_sale": "2021-10-01", "last_sale": "2021-10-01"}}, {"type": "Feature", "geometry": {"type": "Point", "coordinates": [2.809014, 48.58674]}, "properties": {"id_parcelle": "77082000ZL0062", "address": "12 RUE DE MALVOISINE", "sales": 2, "median_price": 276500.0, "median_price_per_sqm": 3787.6712328767126, "median_rooms": 4.0, "first_sale": "2022-01-18", "last_sale": "2025-09-23"}}, {"type": "Feature", "geometry": {"type": "Point", "coordinates": [2.810856, 48.585259]}, "properties": {"id_parcelle": "77082000ZL0142", "address": "15 RUE DU STADE", "sales": 2, "median_price": 173000.0, "median_price_per_sqm": 3195.833333333333, "median_rooms": 2.5, "first_sale": "2021-10-27", "last_sale": "2023-02-09"}}, {"type": "Feature", "geometry": {"type": "Point", "coordinates": [2.810713, 48.585288]}, "properties": {"id_parcelle": "77082000ZL0143", "address": "LA TUILERIE", "sales": 2, "median_price": 173000.0, "median_price_per_sqm": null, "median_rooms": null, "first_sale": "2021-10-27", "last_sale": "2023-02-09"}}, {"type": "Feature", "geometry": {"type": "Point", "coordinates": [2.810718, 48.585452]}, "properties": {"id_parcelle": "77082000ZL0146", "address": "LA TUILERIE", "sales": 2, "median_price": 173000.0, "median_price_per_sqm": null, "median_rooms": null, "first_sale": "2021-10-27", "last_sale": "2023-02-09"}}, {"type": "Feature", "geometry": {"type": "Point", "coordinates": [2.809449, 48.584031]}, "properties": {"id_parcelle": "77082000ZM0173", "address": "694 RUE DU POURTOUR DES FOSSES", "sales": 2, "median_price": 294500.0, "median_price_per_sqm": 2394.308943089431, "median_rooms": 5.0, "first_sale": "2023-08-01", "last_sale": "2023-08-01"}}]}