{"type": "FeatureCollection", "features": [{"type": "Feature", "geometry": {"type": "Polygon", "coordinates": [[[2.9887, 48.983482], [2.988157, 48.98498], [2.987463, 48.986952], [2.986895, 48.988514], [2.986306, 48.990206], [2.985642, 48.991901], [2.985573, 48.992162], [2.987315, 48.992284], [2.988965, 48.992497], [2.990179, 48.992709], [2.990935, 48.992915], [2.993938, 48.994039], [2.995355, 48.994617], [2.995808, 48.994929], [2.997454, 48.996641], [2.99933, 48.998546], [3.000175, 48.999461], [3.000478, 48.999989], [3.00081, 49.000506], [3.001128, 49.000883], [3.001296, 49.000985], [3.001293, 49.001058], [3.001047, 49.001302], [3.001028, 49.0014], [3.001119, 49.001466], [3.001581, 49.001673], [3.002004, 49.002011], [3.002252, 49.002136], [3.002657, 49.002254], [3.002988, 49.002295], [3.003846, 49.002117], [3.00404, 49.002202], [3.00531, 49.002903], [3.00736, 49.00432], [3.008277, 49.005057], [3.008974, 49.005839], [3.009311, 49.006317], [3.009787, 49.00721], [3.010195, 49.008216], [3.010328, 49.008806], [3.010351, 49.009005], [3.010525, 49.009135], [3.010896, 49.00936], [3.01125, 49.009827], [3.011525, 49.010471], [3.01162, 49.010949], [3.011744, 49.011795], [3.011726, 49.011888], [3.011529, 49.012142], [3.011506, 49.012295], [3.011763, 49.012533], [3.012284, 49.013099], [3.012758, 49.013457], [3.013413, 49.013819], [3.013551, 49.013881], [3.014742, 49.014296], [3.015807, 49.01456], [3.016728, 49.0147], [3.01771, 49.014755], [3.018655, 49.014746], [3.020612, 49.014395], [3.022699, 49.013906], [3.023465, 49.013538], [3.024453, 49.012959], [3.025051, 49.012699], [3.026581, 49.012185], [3.026943, 49.012042], [3.027685, 49.011719], [3.0287, 49.011192], [3.029318, 49.010927], [3.029858, 49.010812], [3.030865, 49.010654], [3.03168, 49.010514], [3.032288, 49.010305], [3.032855, 49.009961], [3.033321, 49.009558], [3.033602, 49.009121], [3.033912, 49.008377], [3.034257, 49.007681], [3.034477, 49.007367], [3.03527, 49.006889], [3.034922, 49.006234], [3.035329, 49.005851], [3.034933, 49.005698], [3.033009, 49.005252], [3.032043, 49.005037], [3.031571, 49.004761], [3.031157, 49.004487], [3.030826, 49.004398], [3.031066, 49.004023], [3.031432, 49.003637], [3.031953, 49.002877], [3.033873, 48.999137], [3.034474, 48.997979], [3.035662, 48.995651], [3.036053, 48.994959], [3.035766, 48.994863], [3.035595, 48.994841], [3.032614, 48.994179], [3.031428, 48.993898], [3.029919, 48.993568], [3.029383, 48.993434], [3.028898, 48.99333], [3.027332, 48.992966], [3.02652, 48.992754], [3.024113, 48.991833], [3.023475, 48.991577], [3.022158, 48.991081], [3.020232, 48.990348], [3.019624, 48.990188], [3.019146, 48.990038], [3.018193, 48.989829], [3.017339, 48.989608], [3.016034, 48.989227], [3.015184, 48.988927], [3.015412, 48.988575], [3.014133, 48.988258], [3.013699, 48.988039], [3.013338, 48.987918], [3.012301, 48.987633], [3.011369, 48.987392], [3.010469, 48.987189], [3.010038, 48.987103], [3.008736, 48.986665], [3.006493, 48.985926], [3.005405, 48.985582], [3.004443, 48.985264], [3.003824, 48.984939], [3.002802, 48.984516], [3.001527, 48.983838], [2.999806, 48.982934], [2.999015, 48.982874], [2.997014, 48.982741], [2.996927, 48.983275], [2.99606, 48.983036], [2.994754, 48.982695], [2.994594, 48.982643], [2.992849, 48.982382], [2.992915, 48.981971], [2.992833, 48.981258], [2.99178, 48.981213], [2.991594, 48.98173], [2.990958, 48.983322], [2.990786, 48.983781], [2.990466, 48.984719], [2.990515, 48.984973], [2.989204, 48.983918], [2.9887, 48.983482]]]}, "properties": {"code_iris": "772310000", "nom_iris": "Isles-les-Meldeuses (commune entière)", "type_iris": "Z", "lat": 48.998, "lng": 3.0108, "dvf_sales_total": 174, "dvf_sales_appt": 0, "dvf_sales_maison": 0, "dvf_median_price": 205000.0, "dvf_median_ppsqm": 2836.3636363636365, "dvf_by_year": "[{\"year\": 2021, \"sales\": 53, \"median_price\": 225000.0}, {\"year\": 2022, \"sales\": 22, \"median_price\": 175000.0}, {\"year\": 2023, \"sales\": 44, \"median_price\": 182500.0}, {\"year\": 2024, \"sales\": 33, \"median_price\": 230000.0}, {\"year\": 2025, \"sales\": 22, \"median_price\": 247200.0}]", "population": 760, "n_log": null, "n_rp": null, "pct_proprio": null, "pct_hlm": null, "pct_appart": null, "pct_cadres": null, "pct_bac5p": null, "pct_etrangers": null, "pct_0_14": null, "pct_65p": null, "bpe_total": null, "bpe_commerces": null, "bpe_enseignement": null, "bpe_sante": null, "dpe": null, "attractivity_score": null, "rank_attractivity_score": null, "rank_total_attractivity_score": 1, "commune_avg": null, "is_stub": true}}]}