{"type": "FeatureCollection", "features": [{"type": "Feature", "geometry": {"type": "Point", "coordinates": [3.005291, 49.000128]}, "properties": {"year": 2021, "valeur_fonciere": 290593, "type_local": "Maison", "surface_reelle_bati": 121.0, "nombre_pieces_principales": 5.0, "adresse_nom_voie": "RUE DU BAC", "price_per_sqm": 2401.595041322314, "date_iso": "2021-01-22", "parcelle": "772310000B0874", "addr_num": "13"}}, {"type": "Feature", "geometry": {"type": "Point", "coordinates": [3.005291, 49.000128]}, "properties": {"year": 2021, "valeur_fonciere": 290593, "type_local": "Maison", "surface_reelle_bati": 121.0, "nombre_pieces_principales": 5.0, "adresse_nom_voie": "RUE DU BAC", "price_per_sqm": 2401.595041322314, "date_iso": "2021-01-22", "parcelle": "772310000B0874", "addr_num": "13"}}, {"type": "Feature", "geometry": {"type": "Point", "coordinates": [3.00314, 48.998324]}, "properties": {"year": 2021, "valeur_fonciere": 84460, "type_local": "Appartement", "surface_reelle_bati": 76.0, "nombre_pieces_principales": 3.0, "adresse_nom_voie": "RTE DE TRILPORT", "price_per_sqm": 1111.3157894736842, "date_iso": "2021-02-25", "parcelle": "772310000B0715", "addr_num": "11"}}, {"type": "Feature", "geometry": {"type": "Point", "coordinates": [3.00314, 48.998324]}, "properties": {"year": 2021, "valeur_fonciere": 84460, "type_local": "Appartement", "surface_reelle_bati": 97.0, "nombre_pieces_principales": 4.0, "adresse_nom_voie": "RTE DE TRILPORT", "price_per_sqm": 870.7216494845361, "date_iso": "2021-02-25", "parcelle": "772310000B0715", "addr_num": "11"}}, {"type": "Feature", "geometry": {"type": "Point", "coordinates": [3.00314, 48.998324]}, "properties": {"year": 2021, "valeur_fonciere": 84460, "type_local": "Appartement", "surface_reelle_bati": 91.0, "nombre_pieces_principales": 4.0, "adresse_nom_voie": "RTE DE TRILPORT", "price_per_sqm": 928.1318681318681, "date_iso": "2021-02-25", "parcelle": "772310000B0715", "addr_num": "11"}}, {"type": "Feature", "geometry": {"type": "Point", "coordinates": [3.00314, 48.998324]}, "properties": {"year": 2021, "valeur_fonciere": 84460, "type_local": "Dépendance", "surface_reelle_bati": null, "nombre_pieces_principales": 0.0, "adresse_nom_voie": "RTE DE TRILPORT", "price_per_sqm": null, "date_iso": "2021-02-25", "parcelle": "772310000B0715", "addr_num": "11"}}, {"type": "Feature", "geometry": {"type": "Point", "coordinates": [3.00314, 48.998324]}, "properties": {"year": 2021, "valeur_fonciere": 84460, "type_local": "Dépendance", "surface_reelle_bati": null, "nombre_pieces_principales": 0.0, "adresse_nom_voie": "RTE DE TRILPORT", "price_per_sqm": null, "date_iso": "2021-02-25", "parcelle": "772310000B0715", "addr_num": "11"}}, {"type": "Feature", "geometry": {"type": "Point", "coordinates": [3.00314, 48.998324]}, "properties": {"year": 2021, "valeur_fonciere": 84460, "type_local": "Dépendance", "surface_reelle_bati": null, "nombre_pieces_principales": 0.0, "adresse_nom_voie": "RTE DE TRILPORT", "price_per_sqm": null, "date_iso": "2021-02-25", "parcelle": "772310000B0715", "addr_num": "11"}}, {"type": "Feature", "geometry": {"type": "Point", "coordinates": [3.00314, 48.998324]}, "properties": {"year": 2021, "valeur_fonciere": 84460, "type_local": "Dépendance", "surface_reelle_bati": null, "nombre_pieces_principales": 0.0, "adresse_nom_voie": "RTE DE TRILPORT", "price_per_sqm": null, "date_iso": "2021-02-25", "parcelle": "772310000B0715", "addr_num": "11"}}, {"type": "Feature", "geometry": {"type": "Point", "coordinates": [3.00314, 48.998324]}, "properties": {"year": 2021, "valeur_fonciere": 84460, "type_local": "Dépendance", "surface_reelle_bati": null, "nombre_pieces_principales": 0.0, "adresse_nom_voie": "RTE DE TRILPORT", "price_per_sqm": null, "date_iso": "2021-02-25", "parcelle": "772310000B0715", "addr_num": "11"}}, {"type": "Feature", "geometry": {"type": "Point", "coordinates": [3.00314, 48.998324]}, "properties": {"year": 2021, "valeur_fonciere": 84460, "type_local": "Appartement", "surface_reelle_bati": 71.0, "nombre_pieces_principales": 3.0, "adresse_nom_voie": "RTE DE TRILPORT", "price_per_sqm": 1189.5774647887324, "date_iso": "2021-02-25", "parcelle": "772310000B0715", "addr_num": "11"}}, {"type": "Feature", "geometry": {"type": "Point", "coordinates": [3.00314, 48.998324]}, "properties": {"year": 2021, "valeur_fonciere": 84460, "type_local": "Appartement", "surface_reelle_bati": 81.0, "nombre_pieces_principales": 4.0, "adresse_nom_voie": "RTE DE TRILPORT", "price_per_sqm": 1042.716049382716, "date_iso": "2021-02-25", "parcelle": "772310000B0715", "addr_num": "11"}}, {"type": "Feature", "geometry": {"type": "Point", "coordinates": [3.00314, 48.998324]}, "properties": {"year": 2021, "valeur_fonciere": 84460, "type_local": "Appartement", "surface_reelle_bati": 21.0, "nombre_pieces_principales": 1.0, "adresse_nom_voie": "RTE DE TRILPORT", "price_per_sqm": 4021.904761904762, "date_iso": "2021-02-25", "parcelle": "772310000B0715", "addr_num": "11"}}, {"type": "Feature", "geometry": {"type": "Point", "coordinates": [3.002669, 48.997112]}, "properties": {"year": 2021, "valeur_fonciere": 84460, "type_local": "Dépendance", "surface_reelle_bati": null, "nombre_pieces_principales": 0.0, "adresse_nom_voie": "CHE DU CORNOUILLET", "price_per_sqm": null, "date_iso": "2021-02-25", "parcelle": "77231000ZD0004", "addr_num": "3"}}, {"type": "Feature", "geometry": {"type": "Point", "coordinates": [3.002669, 48.997112]}, "properties": {"year": 2021, "valeur_fonciere": 84460, "type_local": "Dépendance", "surface_reelle_bati": null, "nombre_pieces_principales": 0.0, "adresse_nom_voie": "CHE DU CORNOUILLET", "price_per_sqm": null, "date_iso": "2021-02-25", "parcelle": "77231000ZD0004", "addr_num": "3"}}, {"type": "Feature", "geometry": {"type": "Point", "coordinates": [3.002669, 48.997112]}, "properties": {"year": 2021, "valeur_fonciere": 84460, "type_local": "Dépendance", "surface_reelle_bati": null, "nombre_pieces_principales": 0.0, "adresse_nom_voie": "CHE DU CORNOUILLET", "price_per_sqm": null, "date_iso": "2021-02-25", "parcelle": "77231000ZD0004", "addr_num": "3"}}, {"type": "Feature", "geometry": {"type": "Point", "coordinates": [3.002669, 48.997112]}, "properties": {"year": 2021, "valeur_fonciere": 84460, "type_local": "Dépendance", "surface_reelle_bati": null, "nombre_pieces_principales": 0.0, "adresse_nom_voie": "CHE DU CORNOUILLET", "price_per_sqm": null, "date_iso": "2021-02-25", "parcelle": "77231000ZD0004", "addr_num": "3"}}, {"type": "Feature", "geometry": {"type": "Point", "coordinates": [3.002669, 48.997112]}, "properties": {"year": 2021, "valeur_fonciere": 84460, "type_local": "Dépendance", "surface_reelle_bati": null, "nombre_pieces_principales": 0.0, "adresse_nom_voie": "CHE DU CORNOUILLET", "price_per_sqm": null, "date_iso": "2021-02-25", "parcelle": "77231000ZD0004", "addr_num": "3"}}, {"type": "Feature", "geometry": {"type": "Point", "coordinates": [3.002669, 48.997112]}, "properties": {"year": 2021, "valeur_fonciere": 84460, "type_local": "Dépendance", "surface_reelle_bati": null, "nombre_pieces_principales": 0.0, "adresse_nom_voie": "CHE DU CORNOUILLET", "price_per_sqm": null, "date_iso": "2021-02-25", "parcelle": "77231000ZD0004", "addr_num": "3"}}, {"type": "Feature", "geometry": {"type": "Point", "coordinates": [3.002669, 48.997112]}, "properties": {"year": 2021, "valeur_fonciere": 84460, "type_local": "Dépendance", "surface_reelle_bati": null, "nombre_pieces_principales": 0.0, "adresse_nom_voie": "CHE DU CORNOUILLET", "price_per_sqm": null, "date_iso": "2021-02-25", "parcelle": "77231000ZD0004", "addr_num": "3"}}, {"type": "Feature", "geometry": {"type": "Point", "coordinates": [3.002669, 48.997112]}, "properties": {"year": 2021, "valeur_fonciere": 84460, "type_local": "Dépendance", "surface_reelle_bati": null, "nombre_pieces_principales": 0.0, "adresse_nom_voie": "CHE DU CORNOUILLET", "price_per_sqm": null, "date_iso": "2021-02-25", "parcelle": "77231000ZD0004", "addr_num": "3"}}, {"type": "Feature", "geometry": {"type": "Point", "coordinates": [3.002537, 48.996963]}, "properties": {"year": 2021, "valeur_fonciere": 84460, "type_local": null, "surface_reelle_bati": null, "nombre_pieces_principales": null, "adresse_nom_voie": "LA MALLE FOSSE", "price_per_sqm": null, "date_iso": "2021-02-25", "parcelle": "77231000ZD0074", "addr_num": ""}}, {"type": "Feature", "geometry": {"type": "Point", "coordinates": [3.004666, 48.999245]}, "properties": {"year": 2021, "valeur_fonciere": 262500, "type_local": "Dépendance", "surface_reelle_bati": null, "nombre_pieces_principales": 0.0, "adresse_nom_voie": "PL DE VERDUN", "price_per_sqm": null, "date_iso": "2021-03-19", "parcelle": "772310000B0385", "addr_num": "11"}}, {"type": "Feature", "geometry": {"type": "Point", "coordinates": [3.004444, 48.999283]}, "properties": {"year": 2021, "valeur_fonciere": 262500, "type_local": "Maison", "surface_reelle_bati": 91.0, "nombre_pieces_principales": 5.0, "adresse_nom_voie": "PL DE VERDUN", "price_per_sqm": 2884.6153846153848, "date_iso": "2021-03-19", "parcelle": "772310000B0386", "addr_num": "3"}}, {"type": "Feature", "geometry": {"type": "Point", "coordinates": [3.004748, 48.999413]}, "properties": {"year": 2021, "valeur_fonciere": 262500, "type_local": null, "surface_reelle_bati": null, "nombre_pieces_principales": null, "adresse_nom_voie": "ISLES LES MELDEUSES", "price_per_sqm": null, "date_iso": "2021-03-19", "parcelle": "772310000B0580", "addr_num": ""}}, {"type": "Feature", "geometry": {"type": "Point", "coordinates": [3.004332, 48.999365]}, "properties": {"year": 2021, "valeur_fonciere": 262500, "type_local": null, "surface_reelle_bati": null, "nombre_pieces_principales": null, "adresse_nom_voie": "PL DE VERDUN", "price_per_sqm": null, "date_iso": "2021-03-19", "parcelle": "772310000B0834", "addr_num": ""}}, {"type": "Feature", "geometry": {"type": "Point", "coordinates": [3.004535, 48.999335]}, "properties": {"year": 2021, "valeur_fonciere": 262500, "type_local": null, "surface_reelle_bati": null, "nombre_pieces_principales": null, "adresse_nom_voie": "PL DE VERDUN", "price_per_sqm": null, "date_iso": "2021-03-19", "parcelle": "772310000B0835", "addr_num": "11"}}, {"type": "Feature", "geometry": {"type": "Point", "coordinates": [3.004251, 48.999566]}, "properties": {"year": 2021, "valeur_fonciere": 252000, "type_local": null, "surface_reelle_bati": null, "nombre_pieces_principales": null, "adresse_nom_voie": "ISLES LES MELDEUSES", "price_per_sqm": null, "date_iso": "2021-03-31", "parcelle": "772310000B0376", "addr_num": ""}}, {"type": "Feature", "geometry": {"type": "Point", "coordinates": [3.004299, 48.999474]}, "properties": {"year": 2021, "valeur_fonciere": 252000, "type_local": "Maison", "surface_reelle_bati": 172.0, "nombre_pieces_principales": 7.0, "adresse_nom_voie": "PL DE VERDUN", "price_per_sqm": 1465.1162790697674, "date_iso": "2021-03-31", "parcelle": "772310000B0381", "addr_num": "7"}}, {"type": "Feature", "geometry": {"type": "Point", "coordinates": [3.004332, 48.999365]}, "properties": {"year": 2021, "valeur_fonciere": 252000, "type_local": null, "surface_reelle_bati": null, "nombre_pieces_principales": null, "adresse_nom_voie": "PL DE VERDUN", "price_per_sqm": null, "date_iso": "2021-03-31", "parcelle": "772310000B0834", "addr_num": ""}}, {"type": "Feature", "geometry": {"type": "Point", "coordinates": [3.01587, 49.004889]}, "properties": {"year": 2021, "valeur_fonciere": 88000, "type_local": null, "surface_reelle_bati": null, "nombre_pieces_principales": null, "adresse_nom_voie": "RTE DE MARY PROLONGEE", "price_per_sqm": null, "date_iso": "2021-05-07", "parcelle": "77231000ZA0084", "addr_num": ""}}, {"type": "Feature", "geometry": {"type": "Point", "coordinates": [3.008413, 48.998851]}, "properties": {"year": 2021, "valeur_fonciere": 350000, "type_local": "Dépendance", "surface_reelle_bati": null, "nombre_pieces_principales": 0.0, "adresse_nom_voie": "CHE D ARMENTIERES", "price_per_sqm": null, "date_iso": "2021-08-03", "parcelle": "772310000B0693", "addr_num": "2"}}, {"type": "Feature", "geometry": {"type": "Point", "coordinates": [3.008413, 48.998851]}, "properties": {"year": 2021, "valeur_fonciere": 350000, "type_local": "Maison", "surface_reelle_bati": 98.0, "nombre_pieces_principales": 5.0, "adresse_nom_voie": "CHE D ARMENTIERES", "price_per_sqm": 3571.4285714285716, "date_iso": "2021-08-03", "parcelle": "772310000B0693", "addr_num": "2"}}, {"type": "Feature", "geometry": {"type": "Point", "coordinates": [3.008413, 48.998851]}, "properties": {"year": 2021, "valeur_fonciere": 350000, "type_local": "Dépendance", "surface_reelle_bati": null, "nombre_pieces_principales": 0.0, "adresse_nom_voie": "CHE D ARMENTIERES", "price_per_sqm": null, "date_iso": "2021-08-03", "parcelle": "772310000B0693", "addr_num": "2"}}, {"type": "Feature", "geometry": {"type": "Point", "coordinates": [3.008413, 48.998851]}, "properties": {"year": 2021, "valeur_fonciere": 350000, "type_local": "Maison", "surface_reelle_bati": 98.0, "nombre_pieces_principales": 5.0, "adresse_nom_voie": "CHE D ARMENTIERES", "price_per_sqm": 3571.4285714285716, "date_iso": "2021-08-03", "parcelle": "772310000B0693", "addr_num": "2"}}, {"type": "Feature", "geometry": {"type": "Point", "coordinates": [3.007585, 48.998984]}, "properties": {"year": 2021, "valeur_fonciere": 260000, "type_local": "Maison", "surface_reelle_bati": 82.0, "nombre_pieces_principales": 5.0, "adresse_nom_voie": "CHE D ARMENTIERES", "price_per_sqm": 3170.731707317073, "date_iso": "2021-07-27", "parcelle": "772310000B0672", "addr_num": "8"}}, {"type": "Feature", "geometry": {"type": "Point", "coordinates": [3.007585, 48.998984]}, "properties": {"year": 2021, "valeur_fonciere": 260000, "type_local": "Maison", "surface_reelle_bati": 82.0, "nombre_pieces_principales": 5.0, "adresse_nom_voie": "CHE D ARMENTIERES", "price_per_sqm": 3170.731707317073, "date_iso": "2021-07-27", "parcelle": "772310000B0672", "addr_num": "8"}}, {"type": "Feature", "geometry": {"type": "Point", "coordinates": [3.006131, 48.999299]}, "properties": {"year": 2021, "valeur_fonciere": 165000, "type_local": "Maison", "surface_reelle_bati": 97.0, "nombre_pieces_principales": 4.0, "adresse_nom_voie": "RTE DE MARY", "price_per_sqm": 1701.0309278350514, "date_iso": "2021-08-12", "parcelle": "772310000B0811", "addr_num": "6"}}, {"type": "Feature", "geometry": {"type": "Point", "coordinates": [3.006131, 48.999299]}, "properties": {"year": 2021, "valeur_fonciere": 165000, "type_local": "Dépendance", "surface_reelle_bati": null, "nombre_pieces_principales": 0.0, "adresse_nom_voie": "RTE DE MARY", "price_per_sqm": null, "date_iso": "2021-08-12", "parcelle": "772310000B0811", "addr_num": "6"}}, {"type": "Feature", "geometry": {"type": "Point", "coordinates": [3.005762, 48.999148]}, "properties": {"year": 2021, "valeur_fonciere": 165000, "type_local": null, "surface_reelle_bati": null, "nombre_pieces_principales": null, "adresse_nom_voie": "RTE DE MARY", "price_per_sqm": null, "date_iso": "2021-08-12", "parcelle": "772310000B0814", "addr_num": "6"}}, {"type": "Feature", "geometry": {"type": "Point", "coordinates": [3.005849, 48.999223]}, "properties": {"year": 2021, "valeur_fonciere": 165000, "type_local": null, "surface_reelle_bati": null, "nombre_pieces_principales": null, "adresse_nom_voie": "RTE DE MARY", "price_per_sqm": null, "date_iso": "2021-08-12", "parcelle": "772310000B0816", "addr_num": "4"}}, {"type": "Feature", "geometry": {"type": "Point", "coordinates": [3.007583, 48.997749]}, "properties": {"year": 2021, "valeur_fonciere": 284360, "type_local": "Maison", "surface_reelle_bati": 110.0, "nombre_pieces_principales": 4.0, "adresse_nom_voie": "RTE D ARMENTIERES", "price_per_sqm": 2585.090909090909, "date_iso": "2021-09-03", "parcelle": "77231000ZC0140", "addr_num": "2"}}, {"type": "Feature", "geometry": {"type": "Point", "coordinates": [3.007583, 48.997749]}, "properties": {"year": 2021, "valeur_fonciere": 284360, "type_local": "Maison", "surface_reelle_bati": 110.0, "nombre_pieces_principales": 4.0, "adresse_nom_voie": "RTE D ARMENTIERES", "price_per_sqm": 2585.090909090909, "date_iso": "2021-09-03", "parcelle": "77231000ZC0140", "addr_num": "2"}}, {"type": "Feature", "geometry": {"type": "Point", "coordinates": [3.006725, 48.998358]}, "properties": {"year": 2021, "valeur_fonciere": 323000, "type_local": "Maison", "surface_reelle_bati": 209.0, "nombre_pieces_principales": 7.0, "adresse_nom_voie": "RUE DE LA GARE", "price_per_sqm": 1545.4545454545455, "date_iso": "2021-09-22", "parcelle": "772310000B0439", "addr_num": "12"}}, {"type": "Feature", "geometry": {"type": "Point", "coordinates": [3.006725, 48.998358]}, "properties": {"year": 2021, "valeur_fonciere": 323000, "type_local": "Local industriel. commercial ou assimilé", "surface_reelle_bati": 55.0, "nombre_pieces_principales": 0.0, "adresse_nom_voie": "RUE DE LA GARE", "price_per_sqm": 5872.727272727273, "date_iso": "2021-09-22", "parcelle": "772310000B0439", "addr_num": "12"}}, {"type": "Feature", "geometry": {"type": "Point", "coordinates": [3.006318, 48.997096]}, "properties": {"year": 2021, "valeur_fonciere": 247000, "type_local": "Maison", "surface_reelle_bati": 90.0, "nombre_pieces_principales": 4.0, "adresse_nom_voie": "CHE DES CLOS", "price_per_sqm": 2744.4444444444443, "date_iso": "2021-10-20", "parcelle": "772310000B0749", "addr_num": "3"}}, {"type": "Feature", "geometry": {"type": "Point", "coordinates": [3.006318, 48.997096]}, "properties": {"year": 2021, "valeur_fonciere": 247000, "type_local": "Maison", "surface_reelle_bati": 90.0, "nombre_pieces_principales": 4.0, "adresse_nom_voie": "CHE DES CLOS", "price_per_sqm": 2744.4444444444443, "date_iso": "2021-10-20", "parcelle": "772310000B0749", "addr_num": "3"}}, {"type": "Feature", "geometry": {"type": "Point", "coordinates": [3.007689, 48.998734]}, "properties": {"year": 2021, "valeur_fonciere": 225000, "type_local": "Maison", "surface_reelle_bati": 130.0, "nombre_pieces_principales": 6.0, "adresse_nom_voie": "CHE D ARMENTIERES", "price_per_sqm": 1730.7692307692307, "date_iso": "2021-10-11", "parcelle": "772310000B0765", "addr_num": "10"}}, {"type": "Feature", "geometry": {"type": "Point", "coordinates": [3.008157, 48.998934]}, "properties": {"year": 2021, "valeur_fonciere": 312000, "type_local": "Maison", "surface_reelle_bati": 110.0, "nombre_pieces_principales": 5.0, "adresse_nom_voie": "CHE D ARMENTIERES", "price_per_sqm": 2836.3636363636365, "date_iso": "2021-12-10", "parcelle": "772310000B0692", "addr_num": "4"}}, {"type": "Feature", "geometry": {"type": "Point", "coordinates": [3.008157, 48.998934]}, "properties": {"year": 2021, "valeur_fonciere": 312000, "type_local": "Dépendance", "surface_reelle_bati": null, "nombre_pieces_principales": 0.0, "adresse_nom_voie": "CHE D ARMENTIERES", "price_per_sqm": null, "date_iso": "2021-12-10", "parcelle": "772310000B0692", "addr_num": "4"}}, {"type": "Feature", "geometry": {"type": "Point", "coordinates": [3.008157, 48.998934]}, "properties": {"year": 2021, "valeur_fonciere": 312000, "type_local": "Maison", "surface_reelle_bati": 110.0, "nombre_pieces_principales": 5.0, "adresse_nom_voie": "CHE D ARMENTIERES", "price_per_sqm": 2836.3636363636365, "date_iso": "2021-12-10", "parcelle": "772310000B0692", "addr_num": "4"}}, {"type": "Feature", "geometry": {"type": "Point", "coordinates": [3.008157, 48.998934]}, "properties": {"year": 2021, "valeur_fonciere": 312000, "type_local": "Dépendance", "surface_reelle_bati": null, "nombre_pieces_principales": 0.0, "adresse_nom_voie": "CHE D ARMENTIERES", "price_per_sqm": null, "date_iso": "2021-12-10", "parcelle": "772310000B0692", "addr_num": "4"}}, {"type": "Feature", "geometry": {"type": "Point", "coordinates": [3.005558, 48.996518]}, "properties": {"year": 2021, "valeur_fonciere": 122000, "type_local": null, "surface_reelle_bati": null, "nombre_pieces_principales": null, "adresse_nom_voie": "RUE RESIDENCE CHAMP BRILLE", "price_per_sqm": null, "date_iso": "2021-12-27", "parcelle": "77231000ZD0130", "addr_num": ""}}, {"type": "Feature", "geometry": {"type": "Point", "coordinates": [3.00559, 48.998815]}, "properties": {"year": 2022, "valeur_fonciere": 175000, "type_local": "Maison", "surface_reelle_bati": 85.0, "nombre_pieces_principales": 4.0, "adresse_nom_voie": "RUE DE LA GARE", "price_per_sqm": 2058.823529411765, "date_iso": "2022-01-15", "parcelle": "772310000B0453", "addr_num": "1"}}, {"type": "Feature", "geometry": {"type": "Point", "coordinates": [3.00561, 48.998888]}, "properties": {"year": 2022, "valeur_fonciere": 175000, "type_local": null, "surface_reelle_bati": null, "nombre_pieces_principales": null, "adresse_nom_voie": "RUE DE LA GARE", "price_per_sqm": null, "date_iso": "2022-01-15", "parcelle": "772310000B0454", "addr_num": ""}}, {"type": "Feature", "geometry": {"type": "Point", "coordinates": [3.005792, 48.998797]}, "properties": {"year": 2022, "valeur_fonciere": 175000, "type_local": null, "surface_reelle_bati": null, "nombre_pieces_principales": null, "adresse_nom_voie": "RUE DE LA GARE", "price_per_sqm": null, "date_iso": "2022-01-15", "parcelle": "772310000B0731", "addr_num": ""}}, {"type": "Feature", "geometry": {"type": "Point", "coordinates": [3.005583, 48.998753]}, "properties": {"year": 2022, "valeur_fonciere": 175000, "type_local": null, "surface_reelle_bati": null, "nombre_pieces_principales": null, "adresse_nom_voie": "RUE DE LA GARE", "price_per_sqm": null, "date_iso": "2022-01-15", "parcelle": "772310000B0741", "addr_num": "1"}}, {"type": "Feature", "geometry": {"type": "Point", "coordinates": [3.005541, 48.998884]}, "properties": {"year": 2022, "valeur_fonciere": 175000, "type_local": null, "surface_reelle_bati": null, "nombre_pieces_principales": null, "adresse_nom_voie": "RUE DE LA GARE", "price_per_sqm": null, "date_iso": "2022-01-15", "parcelle": "772310000B0777", "addr_num": "1"}}, {"type": "Feature", "geometry": {"type": "Point", "coordinates": [3.005708, 48.998782]}, "properties": {"year": 2022, "valeur_fonciere": 175000, "type_local": null, "surface_reelle_bati": null, "nombre_pieces_principales": null, "adresse_nom_voie": "RUE DE LA GARE", "price_per_sqm": null, "date_iso": "2022-01-15", "parcelle": "772310000B0849", "addr_num": ""}}, {"type": "Feature", "geometry": {"type": "Point", "coordinates": [3.016905, 49.003998]}, "properties": {"year": 2022, "valeur_fonciere": 100000, "type_local": null, "surface_reelle_bati": null, "nombre_pieces_principales": null, "adresse_nom_voie": "RTE DE MARY PROLONGEE", "price_per_sqm": null, "date_iso": "2022-02-15", "parcelle": "77231000ZB0067", "addr_num": ""}}, {"type": "Feature", "geometry": {"type": "Point", "coordinates": [3.016959, 49.003695]}, "properties": {"year": 2022, "valeur_fonciere": 90000, "type_local": null, "surface_reelle_bati": null, "nombre_pieces_principales": null, "adresse_nom_voie": "RTE DE MARY PROLONGEE", "price_per_sqm": null, "date_iso": "2022-02-14", "parcelle": "77231000ZB0065", "addr_num": ""}}, {"type": "Feature", "geometry": {"type": "Point", "coordinates": [3.005299, 48.996754]}, "properties": {"year": 2022, "valeur_fonciere": 290000, "type_local": "Maison", "surface_reelle_bati": 85.0, "nombre_pieces_principales": 4.0, "adresse_nom_voie": "CHE DES CLOS", "price_per_sqm": 3411.764705882353, "date_iso": "2022-02-16", "parcelle": "77231000ZD0079", "addr_num": "11"}}, {"type": "Feature", "geometry": {"type": "Point", "coordinates": [3.005299, 48.996754]}, "properties": {"year": 2022, "valeur_fonciere": 290000, "type_local": "Maison", "surface_reelle_bati": 85.0, "nombre_pieces_principales": 4.0, "adresse_nom_voie": "CHE DES CLOS", "price_per_sqm": 3411.764705882353, "date_iso": "2022-02-16", "parcelle": "77231000ZD0079", "addr_num": "11"}}, {"type": "Feature", "geometry": {"type": "Point", "coordinates": [3.015826, 49.003873]}, "properties": {"year": 2022, "valeur_fonciere": 84900, "type_local": null, "surface_reelle_bati": null, "nombre_pieces_principales": null, "adresse_nom_voie": "RTE DE MARY PROLONGEE", "price_per_sqm": null, "date_iso": "2022-02-22", "parcelle": "77231000ZB0054", "addr_num": ""}}, {"type": "Feature", "geometry": {"type": "Point", "coordinates": [3.017098, 49.003811]}, "properties": {"year": 2022, "valeur_fonciere": 104900, "type_local": null, "surface_reelle_bati": null, "nombre_pieces_principales": null, "adresse_nom_voie": "RTE DE MARY PROLONGEE", "price_per_sqm": null, "date_iso": "2022-03-17", "parcelle": "77231000ZB0066", "addr_num": ""}}, {"type": "Feature", "geometry": {"type": "Point", "coordinates": [3.004188, 48.998828]}, "properties": {"year": 2022, "valeur_fonciere": 268000, "type_local": "Dépendance", "surface_reelle_bati": null, "nombre_pieces_principales": 0.0, "adresse_nom_voie": "RTE DE CONGIS", "price_per_sqm": null, "date_iso": "2022-02-22", "parcelle": "772310000B0354", "addr_num": "2"}}, {"type": "Feature", "geometry": {"type": "Point", "coordinates": [3.004188, 48.998828]}, "properties": {"year": 2022, "valeur_fonciere": 268000, "type_local": "Maison", "surface_reelle_bati": 87.0, "nombre_pieces_principales": 4.0, "adresse_nom_voie": "RTE DE CONGIS", "price_per_sqm": 3080.4597701149423, "date_iso": "2022-02-22", "parcelle": "772310000B0354", "addr_num": "2"}}, {"type": "Feature", "geometry": {"type": "Point", "coordinates": [3.01658, 49.004058]}, "properties": {"year": 2022, "valeur_fonciere": 104900, "type_local": null, "surface_reelle_bati": null, "nombre_pieces_principales": null, "adresse_nom_voie": "RTE DE MARY PROLONGEE", "price_per_sqm": null, "date_iso": "2022-03-25", "parcelle": "77231000ZB0068", "addr_num": ""}}, {"type": "Feature", "geometry": {"type": "Point", "coordinates": [3.016198, 49.003588]}, "properties": {"year": 2022, "valeur_fonciere": 84900, "type_local": null, "surface_reelle_bati": null, "nombre_pieces_principales": null, "adresse_nom_voie": "RTE DE MARY PROLONGEE", "price_per_sqm": null, "date_iso": "2022-04-07", "parcelle": "77231000ZB0055", "addr_num": ""}}, {"type": "Feature", "geometry": {"type": "Point", "coordinates": [3.016404, 49.004341]}, "properties": {"year": 2022, "valeur_fonciere": 99900, "type_local": null, "surface_reelle_bati": null, "nombre_pieces_principales": null, "adresse_nom_voie": "RTE DE MARY PROLONGEE", "price_per_sqm": null, "date_iso": "2022-04-15", "parcelle": "77231000ZB0071", "addr_num": ""}}, {"type": "Feature", "geometry": {"type": "Point", "coordinates": [3.015764, 49.004004]}, "properties": {"year": 2022, "valeur_fonciere": 90000, "type_local": null, "surface_reelle_bati": null, "nombre_pieces_principales": null, "adresse_nom_voie": "RTE DE MARY PROLONGEE", "price_per_sqm": null, "date_iso": "2022-05-16", "parcelle": "77231000ZB0053", "addr_num": ""}}, {"type": "Feature", "geometry": {"type": "Point", "coordinates": [3.006383, 48.999429]}, "properties": {"year": 2022, "valeur_fonciere": 185000, "type_local": "Maison", "surface_reelle_bati": 50.0, "nombre_pieces_principales": 3.0, "adresse_nom_voie": "RTE DE MARY", "price_per_sqm": 3700.0, "date_iso": "2022-06-14", "parcelle": "772310000B0424", "addr_num": "10"}}, {"type": "Feature", "geometry": {"type": "Point", "coordinates": [3.006383, 48.999429]}, "properties": {"year": 2022, "valeur_fonciere": 185000, "type_local": "Dépendance", "surface_reelle_bati": null, "nombre_pieces_principales": 0.0, "adresse_nom_voie": "RTE DE MARY", "price_per_sqm": null, "date_iso": "2022-06-14", "parcelle": "772310000B0424", "addr_num": "10"}}, {"type": "Feature", "geometry": {"type": "Point", "coordinates": [3.016262, 49.004124]}, "properties": {"year": 2022, "valeur_fonciere": 180000, "type_local": null, "surface_reelle_bati": null, "nombre_pieces_principales": null, "adresse_nom_voie": "RTE DE MARY PROLONGEE", "price_per_sqm": null, "date_iso": "2022-12-20", "parcelle": "77231000ZB0069", "addr_num": ""}}, {"type": "Feature", "geometry": {"type": "Point", "coordinates": [3.016096, 49.004255]}, "properties": {"year": 2022, "valeur_fonciere": 180000, "type_local": null, "surface_reelle_bati": null, "nombre_pieces_principales": null, "adresse_nom_voie": "RTE DE MARY PROLONGEE", "price_per_sqm": null, "date_iso": "2022-12-20", "parcelle": "77231000ZB0070", "addr_num": ""}}, {"type": "Feature", "geometry": {"type": "Point", "coordinates": [3.00703, 48.9882]}, "properties": {"year": 2023, "valeur_fonciere": 10500, "type_local": null, "surface_reelle_bati": null, "nombre_pieces_principales": null, "adresse_nom_voie": "LES POMMENOTIERS", "price_per_sqm": null, "date_iso": "2023-02-08", "parcelle": "77231000ZD0024", "addr_num": ""}}, {"type": "Feature", "geometry": {"type": "Point", "coordinates": [3.007249, 48.988096]}, "properties": {"year": 2023, "valeur_fonciere": 10500, "type_local": null, "surface_reelle_bati": null, "nombre_pieces_principales": null, "adresse_nom_voie": "LES POMMENOTIERS", "price_per_sqm": null, "date_iso": "2023-02-08", "parcelle": "77231000ZD0025", "addr_num": ""}}, {"type": "Feature", "geometry": {"type": "Point", "coordinates": [3.008295, 48.989208]}, "properties": {"year": 2023, "valeur_fonciere": 10500, "type_local": null, "surface_reelle_bati": null, "nombre_pieces_principales": null, "adresse_nom_voie": "LES POMMENOTIERS", "price_per_sqm": null, "date_iso": "2023-02-08", "parcelle": "77231000ZD0044", "addr_num": ""}}, {"type": "Feature", "geometry": {"type": "Point", "coordinates": [3.006716, 48.987795]}, "properties": {"year": 2023, "valeur_fonciere": 10500, "type_local": null, "surface_reelle_bati": null, "nombre_pieces_principales": null, "adresse_nom_voie": "LES POMMENOTIERS", "price_per_sqm": null, "date_iso": "2023-02-08", "parcelle": "77231000ZD0049", "addr_num": ""}}, {"type": "Feature", "geometry": {"type": "Point", "coordinates": [3.008007, 48.98838]}, "properties": {"year": 2023, "valeur_fonciere": 10500, "type_local": null, "surface_reelle_bati": null, "nombre_pieces_principales": null, "adresse_nom_voie": "LES POMMENOTIERS", "price_per_sqm": null, "date_iso": "2023-02-08", "parcelle": "77231000ZD0050", "addr_num": ""}}, {"type": "Feature", "geometry": {"type": "Point", "coordinates": [3.015317, 49.003526]}, "properties": {"year": 2023, "valeur_fonciere": 250000, "type_local": null, "surface_reelle_bati": null, "nombre_pieces_principales": null, "adresse_nom_voie": "ROBIN MARION", "price_per_sqm": null, "date_iso": "2023-02-10", "parcelle": "77231000ZC0013", "addr_num": ""}}, {"type": "Feature", "geometry": {"type": "Point", "coordinates": [3.003229, 48.998323]}, "properties": {"year": 2023, "valeur_fonciere": 250000, "type_local": "Dépendance", "surface_reelle_bati": null, "nombre_pieces_principales": 0.0, "adresse_nom_voie": "RTE DE TRILPORT", "price_per_sqm": null, "date_iso": "2023-03-03", "parcelle": "772310000B0714", "addr_num": "11"}}, {"type": "Feature", "geometry": {"type": "Point", "coordinates": [3.003229, 48.998323]}, "properties": {"year": 2023, "valeur_fonciere": 250000, "type_local": "Maison", "surface_reelle_bati": 75.0, "nombre_pieces_principales": 4.0, "adresse_nom_voie": "RTE DE TRILPORT", "price_per_sqm": 3333.3333333333335, "date_iso": "2023-03-03", "parcelle": "772310000B0714", "addr_num": "11"}}, {"type": "Feature", "geometry": {"type": "Point", "coordinates": [3.002246, 48.997188]}, "properties": {"year": 2023, "valeur_fonciere": 7000, "type_local": null, "surface_reelle_bati": null, "nombre_pieces_principales": null, "adresse_nom_voie": "ISLES LES MELDEUSES", "price_per_sqm": null, "date_iso": "2023-03-09", "parcelle": "772310000B0304", "addr_num": ""}}, {"type": "Feature", "geometry": {"type": "Point", "coordinates": [3.00859, 49.000011]}, "properties": {"year": 2023, "valeur_fonciere": 400000, "type_local": "Dépendance", "surface_reelle_bati": null, "nombre_pieces_principales": 0.0, "adresse_nom_voie": "RUE RESIDENCE D ASNIERES", "price_per_sqm": null, "date_iso": "2023-03-23", "parcelle": "772310000B0707", "addr_num": "8"}}, {"type": "Feature", "geometry": {"type": "Point", "coordinates": [3.00859, 49.000011]}, "properties": {"year": 2023, "valeur_fonciere": 400000, "type_local": "Dépendance", "surface_reelle_bati": null, "nombre_pieces_principales": 0.0, "adresse_nom_voie": "RUE RESIDENCE D ASNIERES", "price_per_sqm": null, "date_iso": "2023-03-23", "parcelle": "772310000B0707", "addr_num": "8"}}, {"type": "Feature", "geometry": {"type": "Point", "coordinates": [3.00859, 49.000011]}, "properties": {"year": 2023, "valeur_fonciere": 400000, "type_local": "Maison", "surface_reelle_bati": 200.0, "nombre_pieces_principales": 5.0, "adresse_nom_voie": "RUE RESIDENCE D ASNIERES", "price_per_sqm": 2000.0, "date_iso": "2023-03-23", "parcelle": "772310000B0707", "addr_num": "8"}}, {"type": "Feature", "geometry": {"type": "Point", "coordinates": [3.00859, 49.000011]}, "properties": {"year": 2023, "valeur_fonciere": 400000, "type_local": "Maison", "surface_reelle_bati": 200.0, "nombre_pieces_principales": 5.0, "adresse_nom_voie": "RUE RESIDENCE D ASNIERES", "price_per_sqm": 2000.0, "date_iso": "2023-03-23", "parcelle": "772310000B0707", "addr_num": "8"}}, {"type": "Feature", "geometry": {"type": "Point", "coordinates": [3.008733, 48.99978]}, "properties": {"year": 2023, "valeur_fonciere": 400000, "type_local": null, "surface_reelle_bati": null, "nombre_pieces_principales": null, "adresse_nom_voie": "LE CHEMIN D ARMENTIERES", "price_per_sqm": null, "date_iso": "2023-03-23", "parcelle": "77231000ZC0133", "addr_num": ""}}, {"type": "Feature", "geometry": {"type": "Point", "coordinates": [3.008149, 48.997853]}, "properties": {"year": 2023, "valeur_fonciere": 230000, "type_local": "Maison", "surface_reelle_bati": 76.0, "nombre_pieces_principales": 3.0, "adresse_nom_voie": "RUE DES ACACIAS", "price_per_sqm": 3026.315789473684, "date_iso": "2023-04-19", "parcelle": "77231000ZC0090", "addr_num": "1"}}, {"type": "Feature", "geometry": {"type": "Point", "coordinates": [3.008149, 48.997853]}, "properties": {"year": 2023, "valeur_fonciere": 230000, "type_local": "Maison", "surface_reelle_bati": 76.0, "nombre_pieces_principales": 3.0, "adresse_nom_voie": "RUE DES ACACIAS", "price_per_sqm": 3026.315789473684, "date_iso": "2023-04-19", "parcelle": "77231000ZC0090", "addr_num": "1"}}, {"type": "Feature", "geometry": {"type": "Point", "coordinates": [3.016363, 49.003508]}, "properties": {"year": 2023, "valeur_fonciere": 108000, "type_local": null, "surface_reelle_bati": null, "nombre_pieces_principales": null, "adresse_nom_voie": "RTE DE MARY PROLONGEE", "price_per_sqm": null, "date_iso": "2023-06-05", "parcelle": "77231000ZB0056", "addr_num": ""}}, {"type": "Feature", "geometry": {"type": "Point", "coordinates": [3.016447, 49.003299]}, "properties": {"year": 2023, "valeur_fonciere": 108000, "type_local": null, "surface_reelle_bati": null, "nombre_pieces_principales": null, "adresse_nom_voie": "RTE DE MARY PROLONGEE", "price_per_sqm": null, "date_iso": "2023-06-05", "parcelle": "77231000ZB0061", "addr_num": ""}}, {"type": "Feature", "geometry": {"type": "Point", "coordinates": [3.016816, 49.003591]}, "properties": {"year": 2023, "valeur_fonciere": 110000, "type_local": null, "surface_reelle_bati": null, "nombre_pieces_principales": null, "adresse_nom_voie": "RTE DE MARY PROLONGEE", "price_per_sqm": null, "date_iso": "2023-06-13", "parcelle": "77231000ZB0064", "addr_num": ""}}, {"type": "Feature", "geometry": {"type": "Point", "coordinates": [3.006888, 48.998466]}, "properties": {"year": 2023, "valeur_fonciere": 69000, "type_local": null, "surface_reelle_bati": null, "nombre_pieces_principales": null, "adresse_nom_voie": "CHE D ARMENTIERES", "price_per_sqm": null, "date_iso": "2023-06-05", "parcelle": "772310000B0879", "addr_num": "24"}}, {"type": "Feature", "geometry": {"type": "Point", "coordinates": [3.002487, 48.997476]}, "properties": {"year": 2023, "valeur_fonciere": 185000, "type_local": null, "surface_reelle_bati": null, "nombre_pieces_principales": null, "adresse_nom_voie": "ISLES LES MELDEUSES", "price_per_sqm": null, "date_iso": "2023-06-15", "parcelle": "772310000B0308", "addr_num": ""}}, {"type": "Feature", "geometry": {"type": "Point", "coordinates": [3.002526, 48.997638]}, "properties": {"year": 2023, "valeur_fonciere": 185000, "type_local": "Maison", "surface_reelle_bati": 100.0, "nombre_pieces_principales": 5.0, "adresse_nom_voie": "COUR DE LA FERRONNERIE", "price_per_sqm": 1850.0, "date_iso": "2023-06-15", "parcelle": "772310000B0562", "addr_num": "1"}}, {"type": "Feature", "geometry": {"type": "Point", "coordinates": [3.008066, 49.00064]}, "properties": {"year": 2023, "valeur_fonciere": 165000, "type_local": "Maison", "surface_reelle_bati": 45.0, "nombre_pieces_principales": 2.0, "adresse_nom_voie": "RTE DE MARY", "price_per_sqm": 3666.6666666666665, "date_iso": "2023-08-01", "parcelle": "77231000ZC0176", "addr_num": "31"}}, {"type": "Feature", "geometry": {"type": "Point", "coordinates": [3.007427, 48.996686]}, "properties": {"year": 2023, "valeur_fonciere": 355000, "type_local": "Maison", "surface_reelle_bati": 93.0, "nombre_pieces_principales": 4.0, "adresse_nom_voie": "CHE DES BRUYERES", "price_per_sqm": 3817.2043010752686, "date_iso": "2023-09-08", "parcelle": "772310000B0588", "addr_num": "7"}}, {"type": "Feature", "geometry": {"type": "Point", "coordinates": [3.007427, 48.996686]}, "properties": {"year": 2023, "valeur_fonciere": 355000, "type_local": "Dépendance", "surface_reelle_bati": null, "nombre_pieces_principales": 0.0, "adresse_nom_voie": "CHE DES BRUYERES", "price_per_sqm": null, "date_iso": "2023-09-08", "parcelle": "772310000B0588", "addr_num": "7"}}, {"type": "Feature", "geometry": {"type": "Point", "coordinates": [3.007427, 48.996686]}, "properties": {"year": 2023, "valeur_fonciere": 355000, "type_local": "Dépendance", "surface_reelle_bati": null, "nombre_pieces_principales": 0.0, "adresse_nom_voie": "CHE DES BRUYERES", "price_per_sqm": null, "date_iso": "2023-09-08", "parcelle": "772310000B0588", "addr_num": "7"}}, {"type": "Feature", "geometry": {"type": "Point", "coordinates": [3.007427, 48.996686]}, "properties": {"year": 2023, "valeur_fonciere": 355000, "type_local": "Dépendance", "surface_reelle_bati": null, "nombre_pieces_principales": 0.0, "adresse_nom_voie": "CHE DES BRUYERES", "price_per_sqm": null, "date_iso": "2023-09-08", "parcelle": "772310000B0588", "addr_num": "7"}}, {"type": "Feature", "geometry": {"type": "Point", "coordinates": [3.007427, 48.996686]}, "properties": {"year": 2023, "valeur_fonciere": 355000, "type_local": "Maison", "surface_reelle_bati": 93.0, "nombre_pieces_principales": 4.0, "adresse_nom_voie": "CHE DES BRUYERES", "price_per_sqm": 3817.2043010752686, "date_iso": "2023-09-08", "parcelle": "772310000B0588", "addr_num": "7"}}, {"type": "Feature", "geometry": {"type": "Point", "coordinates": [3.007427, 48.996686]}, "properties": {"year": 2023, "valeur_fonciere": 355000, "type_local": "Dépendance", "surface_reelle_bati": null, "nombre_pieces_principales": 0.0, "adresse_nom_voie": "CHE DES BRUYERES", "price_per_sqm": null, "date_iso": "2023-09-08", "parcelle": "772310000B0588", "addr_num": "7"}}, {"type": "Feature", "geometry": {"type": "Point", "coordinates": [3.004822, 48.999144]}, "properties": {"year": 2023, "valeur_fonciere": 180000, "type_local": "Maison", "surface_reelle_bati": 110.0, "nombre_pieces_principales": 4.0, "adresse_nom_voie": "PL OLIVIER MARTEAUX", "price_per_sqm": 1636.3636363636363, "date_iso": "2023-10-28", "parcelle": "772310000B0392", "addr_num": "9"}}, {"type": "Feature", "geometry": {"type": "Point", "coordinates": [3.004867, 48.99935]}, "properties": {"year": 2023, "valeur_fonciere": 180000, "type_local": null, "surface_reelle_bati": null, "nombre_pieces_principales": null, "adresse_nom_voie": "ISLES LES MELDEUSES", "price_per_sqm": null, "date_iso": "2023-10-28", "parcelle": "772310000B0574", "addr_num": ""}}, {"type": "Feature", "geometry": {"type": "Point", "coordinates": [3.004972, 48.999445]}, "properties": {"year": 2023, "valeur_fonciere": 180000, "type_local": null, "surface_reelle_bati": null, "nombre_pieces_principales": null, "adresse_nom_voie": "ISLES LES MELDEUSES", "price_per_sqm": null, "date_iso": "2023-10-28", "parcelle": "772310000B0576", "addr_num": ""}}, {"type": "Feature", "geometry": {"type": "Point", "coordinates": [3.004811, 48.999307]}, "properties": {"year": 2023, "valeur_fonciere": 180000, "type_local": null, "surface_reelle_bati": null, "nombre_pieces_principales": null, "adresse_nom_voie": "ISLES LES MELDEUSES", "price_per_sqm": null, "date_iso": "2023-10-28", "parcelle": "772310000B0581", "addr_num": ""}}, {"type": "Feature", "geometry": {"type": "Point", "coordinates": [3.015317, 49.003526]}, "properties": {"year": 2023, "valeur_fonciere": 60000, "type_local": null, "surface_reelle_bati": null, "nombre_pieces_principales": null, "adresse_nom_voie": "ROBIN MARION", "price_per_sqm": null, "date_iso": "2023-11-14", "parcelle": "77231000ZC0013", "addr_num": ""}}, {"type": "Feature", "geometry": {"type": "Point", "coordinates": [3.015557, 49.003893]}, "properties": {"year": 2023, "valeur_fonciere": 60000, "type_local": "Dépendance", "surface_reelle_bati": null, "nombre_pieces_principales": 0.0, "adresse_nom_voie": "RTE DE MARY PROLONGEE", "price_per_sqm": null, "date_iso": "2023-11-14", "parcelle": "77231000ZC0174", "addr_num": "2"}}, {"type": "Feature", "geometry": {"type": "Point", "coordinates": [3.005116, 48.998564]}, "properties": {"year": 2023, "valeur_fonciere": 295000, "type_local": "Maison", "surface_reelle_bati": 79.0, "nombre_pieces_principales": 3.0, "adresse_nom_voie": "PAS DE LA GARE", "price_per_sqm": 3734.1772151898736, "date_iso": "2023-11-15", "parcelle": "772310000B0477", "addr_num": "5"}}, {"type": "Feature", "geometry": {"type": "Point", "coordinates": [3.005116, 48.998564]}, "properties": {"year": 2023, "valeur_fonciere": 295000, "type_local": "Dépendance", "surface_reelle_bati": null, "nombre_pieces_principales": 0.0, "adresse_nom_voie": "PAS DE LA GARE", "price_per_sqm": null, "date_iso": "2023-11-15", "parcelle": "772310000B0477", "addr_num": "5"}}, {"type": "Feature", "geometry": {"type": "Point", "coordinates": [3.005317, 48.998603]}, "properties": {"year": 2023, "valeur_fonciere": 295000, "type_local": null, "surface_reelle_bati": null, "nombre_pieces_principales": null, "adresse_nom_voie": "PAS DE LA GARE", "price_per_sqm": null, "date_iso": "2023-11-15", "parcelle": "772310000B0754", "addr_num": ""}}, {"type": "Feature", "geometry": {"type": "Point", "coordinates": [3.005141, 48.998494]}, "properties": {"year": 2023, "valeur_fonciere": 295000, "type_local": null, "surface_reelle_bati": null, "nombre_pieces_principales": null, "adresse_nom_voie": "PAS DE LA GARE", "price_per_sqm": null, "date_iso": "2023-11-15", "parcelle": "772310000B0797", "addr_num": ""}}, {"type": "Feature", "geometry": {"type": "Point", "coordinates": [3.005714, 48.998719]}, "properties": {"year": 2023, "valeur_fonciere": 125000, "type_local": null, "surface_reelle_bati": null, "nombre_pieces_principales": null, "adresse_nom_voie": "PAS DE LA GARE", "price_per_sqm": null, "date_iso": "2023-12-21", "parcelle": "772310000B0845", "addr_num": ""}}, {"type": "Feature", "geometry": {"type": "Point", "coordinates": [3.005738, 48.998733]}, "properties": {"year": 2023, "valeur_fonciere": 125000, "type_local": null, "surface_reelle_bati": null, "nombre_pieces_principales": null, "adresse_nom_voie": "PAS DE LA GARE", "price_per_sqm": null, "date_iso": "2023-12-21", "parcelle": "772310000B0848", "addr_num": ""}}, {"type": "Feature", "geometry": {"type": "Point", "coordinates": [3.005582, 48.998473]}, "properties": {"year": 2023, "valeur_fonciere": 125000, "type_local": "Dépendance", "surface_reelle_bati": null, "nombre_pieces_principales": 0.0, "adresse_nom_voie": "PAS DE LA GARE", "price_per_sqm": null, "date_iso": "2023-12-21", "parcelle": "772310000B0862", "addr_num": "17"}}, {"type": "Feature", "geometry": {"type": "Point", "coordinates": [3.005582, 48.998473]}, "properties": {"year": 2023, "valeur_fonciere": 125000, "type_local": "Maison", "surface_reelle_bati": 45.0, "nombre_pieces_principales": 3.0, "adresse_nom_voie": "PAS DE LA GARE", "price_per_sqm": 2777.777777777778, "date_iso": "2023-12-21", "parcelle": "772310000B0862", "addr_num": "17"}}, {"type": "Feature", "geometry": {"type": "Point", "coordinates": [3.005587, 48.998528]}, "properties": {"year": 2023, "valeur_fonciere": 125000, "type_local": null, "surface_reelle_bati": null, "nombre_pieces_principales": null, "adresse_nom_voie": "PAS DE LA GARE", "price_per_sqm": null, "date_iso": "2023-12-21", "parcelle": "772310000B0865", "addr_num": "19"}}, {"type": "Feature", "geometry": {"type": "Point", "coordinates": [3.005487, 48.998693]}, "properties": {"year": 2024, "valeur_fonciere": 255000, "type_local": "Maison", "surface_reelle_bati": 142.0, "nombre_pieces_principales": 8.0, "adresse_nom_voie": "PAS DE LA GARE", "price_per_sqm": 1795.774647887324, "date_iso": "2024-04-03", "parcelle": "772310000B0721", "addr_num": "6"}}, {"type": "Feature", "geometry": {"type": "Point", "coordinates": [3.005317, 48.998603]}, "properties": {"year": 2024, "valeur_fonciere": 255000, "type_local": null, "surface_reelle_bati": null, "nombre_pieces_principales": null, "adresse_nom_voie": "PAS DE LA GARE", "price_per_sqm": null, "date_iso": "2024-04-03", "parcelle": "772310000B0754", "addr_num": ""}}, {"type": "Feature", "geometry": {"type": "Point", "coordinates": [3.00563, 48.999493]}, "properties": {"year": 2024, "valeur_fonciere": 230000, "type_local": "Dépendance", "surface_reelle_bati": null, "nombre_pieces_principales": 0.0, "adresse_nom_voie": "RTE DE MARY", "price_per_sqm": null, "date_iso": "2024-03-23", "parcelle": "772310000B0880", "addr_num": "1"}}, {"type": "Feature", "geometry": {"type": "Point", "coordinates": [3.00563, 48.999493]}, "properties": {"year": 2024, "valeur_fonciere": 230000, "type_local": "Appartement", "surface_reelle_bati": 49.0, "nombre_pieces_principales": 3.0, "adresse_nom_voie": "RTE DE MARY", "price_per_sqm": 4693.877551020408, "date_iso": "2024-03-23", "parcelle": "772310000B0880", "addr_num": "1"}}, {"type": "Feature", "geometry": {"type": "Point", "coordinates": [3.00563, 48.999493]}, "properties": {"year": 2024, "valeur_fonciere": 230000, "type_local": "Dépendance", "surface_reelle_bati": null, "nombre_pieces_principales": 0.0, "adresse_nom_voie": "RTE DE MARY", "price_per_sqm": null, "date_iso": "2024-03-23", "parcelle": "772310000B0880", "addr_num": "1"}}, {"type": "Feature", "geometry": {"type": "Point", "coordinates": [3.00563, 48.999493]}, "properties": {"year": 2024, "valeur_fonciere": 230000, "type_local": "Appartement", "surface_reelle_bati": 41.0, "nombre_pieces_principales": 3.0, "adresse_nom_voie": "RTE DE MARY", "price_per_sqm": 5609.756097560976, "date_iso": "2024-03-23", "parcelle": "772310000B0880", "addr_num": "1"}}, {"type": "Feature", "geometry": {"type": "Point", "coordinates": [3.00563, 48.999493]}, "properties": {"year": 2024, "valeur_fonciere": 230000, "type_local": "Appartement", "surface_reelle_bati": 32.0, "nombre_pieces_principales": 1.0, "adresse_nom_voie": "RTE DE MARY", "price_per_sqm": 7187.5, "date_iso": "2024-03-23", "parcelle": "772310000B0880", "addr_num": "1"}}, {"type": "Feature", "geometry": {"type": "Point", "coordinates": [3.00563, 48.999493]}, "properties": {"year": 2024, "valeur_fonciere": 230000, "type_local": "Dépendance", "surface_reelle_bati": null, "nombre_pieces_principales": 0.0, "adresse_nom_voie": "RTE DE MARY", "price_per_sqm": null, "date_iso": "2024-03-23", "parcelle": "772310000B0880", "addr_num": "1"}}, {"type": "Feature", "geometry": {"type": "Point", "coordinates": [3.00563, 48.999493]}, "properties": {"year": 2024, "valeur_fonciere": 230000, "type_local": "Dépendance", "surface_reelle_bati": null, "nombre_pieces_principales": 0.0, "adresse_nom_voie": "RTE DE MARY", "price_per_sqm": null, "date_iso": "2024-03-23", "parcelle": "772310000B0880", "addr_num": "1"}}, {"type": "Feature", "geometry": {"type": "Point", "coordinates": [3.00563, 48.999493]}, "properties": {"year": 2024, "valeur_fonciere": 230000, "type_local": "Dépendance", "surface_reelle_bati": null, "nombre_pieces_principales": 0.0, "adresse_nom_voie": "RTE DE MARY", "price_per_sqm": null, "date_iso": "2024-03-23", "parcelle": "772310000B0880", "addr_num": "1"}}, {"type": "Feature", "geometry": {"type": "Point", "coordinates": [3.00563, 48.999493]}, "properties": {"year": 2024, "valeur_fonciere": 230000, "type_local": "Local industriel. commercial ou assimilé", "surface_reelle_bati": 81.0, "nombre_pieces_principales": 0.0, "adresse_nom_voie": "RTE DE MARY", "price_per_sqm": 2839.5061728395062, "date_iso": "2024-03-23", "parcelle": "772310000B0880", "addr_num": "1"}}, {"type": "Feature", "geometry": {"type": "Point", "coordinates": [3.00563, 48.999493]}, "properties": {"year": 2024, "valeur_fonciere": 230000, "type_local": "Dépendance", "surface_reelle_bati": null, "nombre_pieces_principales": 0.0, "adresse_nom_voie": "RTE DE MARY", "price_per_sqm": null, "date_iso": "2024-03-23", "parcelle": "772310000B0880", "addr_num": "1"}}, {"type": "Feature", "geometry": {"type": "Point", "coordinates": [3.00563, 48.999493]}, "properties": {"year": 2024, "valeur_fonciere": 230000, "type_local": "Appartement", "surface_reelle_bati": 28.0, "nombre_pieces_principales": 1.0, "adresse_nom_voie": "RTE DE MARY", "price_per_sqm": 8214.285714285714, "date_iso": "2024-03-23", "parcelle": "772310000B0880", "addr_num": "1"}}, {"type": "Feature", "geometry": {"type": "Point", "coordinates": [3.016523, 49.003552]}, "properties": {"year": 2024, "valeur_fonciere": 110000, "type_local": null, "surface_reelle_bati": null, "nombre_pieces_principales": null, "adresse_nom_voie": "RUE RESIDENCE LES OLIVIERS", "price_per_sqm": null, "date_iso": "2024-05-16", "parcelle": "77231000ZB0057", "addr_num": "5"}}, {"type": "Feature", "geometry": {"type": "Point", "coordinates": [3.016674, 49.003423]}, "properties": {"year": 2024, "valeur_fonciere": 110000, "type_local": null, "surface_reelle_bati": null, "nombre_pieces_principales": null, "adresse_nom_voie": "RUE RESIDENCE LES OLIVIERS", "price_per_sqm": null, "date_iso": "2024-05-16", "parcelle": "77231000ZB0062", "addr_num": "5"}}, {"type": "Feature", "geometry": {"type": "Point", "coordinates": [3.006821, 48.999645]}, "properties": {"year": 2024, "valeur_fonciere": 195000, "type_local": null, "surface_reelle_bati": null, "nombre_pieces_principales": null, "adresse_nom_voie": "COUR DES TILLEULS", "price_per_sqm": null, "date_iso": "2024-05-30", "parcelle": "772310000B0414", "addr_num": ""}}, {"type": "Feature", "geometry": {"type": "Point", "coordinates": [3.007039, 48.999481]}, "properties": {"year": 2024, "valeur_fonciere": 195000, "type_local": "Dépendance", "surface_reelle_bati": null, "nombre_pieces_principales": 0.0, "adresse_nom_voie": "COUR DES TILLEULS", "price_per_sqm": null, "date_iso": "2024-05-30", "parcelle": "772310000B0420", "addr_num": "3"}}, {"type": "Feature", "geometry": {"type": "Point", "coordinates": [3.007039, 48.999481]}, "properties": {"year": 2024, "valeur_fonciere": 195000, "type_local": "Maison", "surface_reelle_bati": 95.0, "nombre_pieces_principales": 4.0, "adresse_nom_voie": "COUR DES TILLEULS", "price_per_sqm": 2052.6315789473683, "date_iso": "2024-05-30", "parcelle": "772310000B0420", "addr_num": "3"}}, {"type": "Feature", "geometry": {"type": "Point", "coordinates": [3.005485, 48.999265]}, "properties": {"year": 2024, "valeur_fonciere": 145000, "type_local": null, "surface_reelle_bati": null, "nombre_pieces_principales": null, "adresse_nom_voie": "RTE DE MARY", "price_per_sqm": null, "date_iso": "2024-06-03", "parcelle": "772310000B0881", "addr_num": ""}}, {"type": "Feature", "geometry": {"type": "Point", "coordinates": [3.005383, 48.999306]}, "properties": {"year": 2024, "valeur_fonciere": 145000, "type_local": null, "surface_reelle_bati": null, "nombre_pieces_principales": null, "adresse_nom_voie": "RTE DE MARY", "price_per_sqm": null, "date_iso": "2024-06-03", "parcelle": "772310000B0884", "addr_num": ""}}, {"type": "Feature", "geometry": {"type": "Point", "coordinates": [3.008083, 48.999342]}, "properties": {"year": 2024, "valeur_fonciere": 115000, "type_local": "Maison", "surface_reelle_bati": 40.0, "nombre_pieces_principales": 3.0, "adresse_nom_voie": "RTE DE MARY", "price_per_sqm": 2875.0, "date_iso": "2024-07-26", "parcelle": "77231000ZC0148", "addr_num": "18"}}, {"type": "Feature", "geometry": {"type": "Point", "coordinates": [3.004637, 48.996574]}, "properties": {"year": 2024, "valeur_fonciere": 300000, "type_local": "Maison", "surface_reelle_bati": 92.0, "nombre_pieces_principales": 4.0, "adresse_nom_voie": "RUE RESIDENCE CHAMP BRILLE", "price_per_sqm": 3260.8695652173915, "date_iso": "2024-09-06", "parcelle": "77231000ZD0086", "addr_num": "2"}}, {"type": "Feature", "geometry": {"type": "Point", "coordinates": [3.004637, 48.996574]}, "properties": {"year": 2024, "valeur_fonciere": 300000, "type_local": "Maison", "surface_reelle_bati": 92.0, "nombre_pieces_principales": 4.0, "adresse_nom_voie": "RUE RESIDENCE CHAMP BRILLE", "price_per_sqm": 3260.8695652173915, "date_iso": "2024-09-06", "parcelle": "77231000ZD0086", "addr_num": "2"}}, {"type": "Feature", "geometry": {"type": "Point", "coordinates": [3.004188, 48.998828]}, "properties": {"year": 2024, "valeur_fonciere": 296954, "type_local": "Dépendance", "surface_reelle_bati": null, "nombre_pieces_principales": 0.0, "adresse_nom_voie": "RTE DE CONGIS", "price_per_sqm": null, "date_iso": "2024-09-03", "parcelle": "772310000B0354", "addr_num": "2"}}, {"type": "Feature", "geometry": {"type": "Point", "coordinates": [3.004188, 48.998828]}, "properties": {"year": 2024, "valeur_fonciere": 296954, "type_local": "Maison", "surface_reelle_bati": 87.0, "nombre_pieces_principales": 4.0, "adresse_nom_voie": "RTE DE CONGIS", "price_per_sqm": 3413.264367816092, "date_iso": "2024-09-03", "parcelle": "772310000B0354", "addr_num": "2"}}, {"type": "Feature", "geometry": {"type": "Point", "coordinates": [3.01251, 49.000978]}, "properties": {"year": 2024, "valeur_fonciere": 80000, "type_local": null, "surface_reelle_bati": null, "nombre_pieces_principales": null, "adresse_nom_voie": "LA SABLONNIERE", "price_per_sqm": null, "date_iso": "2024-10-25", "parcelle": "77231000ZC0179", "addr_num": ""}}, {"type": "Feature", "geometry": {"type": "Point", "coordinates": [3.005393, 48.998657]}, "properties": {"year": 2024, "valeur_fonciere": 135000, "type_local": "Dépendance", "surface_reelle_bati": null, "nombre_pieces_principales": 0.0, "adresse_nom_voie": "PAS DE LA GARE", "price_per_sqm": null, "date_iso": "2024-11-07", "parcelle": "772310000B0720", "addr_num": "2"}}, {"type": "Feature", "geometry": {"type": "Point", "coordinates": [3.005393, 48.998657]}, "properties": {"year": 2024, "valeur_fonciere": 135000, "type_local": "Dépendance", "surface_reelle_bati": null, "nombre_pieces_principales": 0.0, "adresse_nom_voie": "PAS DE LA GARE", "price_per_sqm": null, "date_iso": "2024-11-07", "parcelle": "772310000B0720", "addr_num": "2"}}, {"type": "Feature", "geometry": {"type": "Point", "coordinates": [3.005393, 48.998657]}, "properties": {"year": 2024, "valeur_fonciere": 135000, "type_local": "Maison", "surface_reelle_bati": 85.0, "nombre_pieces_principales": 2.0, "adresse_nom_voie": "PAS DE LA GARE", "price_per_sqm": 1588.235294117647, "date_iso": "2024-11-07", "parcelle": "772310000B0720", "addr_num": "2"}}, {"type": "Feature", "geometry": {"type": "Point", "coordinates": [3.005317, 48.998603]}, "properties": {"year": 2024, "valeur_fonciere": 135000, "type_local": null, "surface_reelle_bati": null, "nombre_pieces_principales": null, "adresse_nom_voie": "PAS DE LA GARE", "price_per_sqm": null, "date_iso": "2024-11-07", "parcelle": "772310000B0754", "addr_num": ""}}, {"type": "Feature", "geometry": {"type": "Point", "coordinates": [3.015317, 49.003526]}, "properties": {"year": 2024, "valeur_fonciere": 205000, "type_local": null, "surface_reelle_bati": null, "nombre_pieces_principales": null, "adresse_nom_voie": "ROBIN MARION", "price_per_sqm": null, "date_iso": "2024-11-30", "parcelle": "77231000ZC0013", "addr_num": ""}}, {"type": "Feature", "geometry": {"type": "Point", "coordinates": [3.015236, 49.003759]}, "properties": {"year": 2024, "valeur_fonciere": 205000, "type_local": "Maison", "surface_reelle_bati": 100.0, "nombre_pieces_principales": 4.0, "adresse_nom_voie": "RTE DE MARY PROLONGEE", "price_per_sqm": 2050.0, "date_iso": "2024-11-30", "parcelle": "77231000ZC0173", "addr_num": "2"}}, {"type": "Feature", "geometry": {"type": "Point", "coordinates": [3.015236, 49.003759]}, "properties": {"year": 2024, "valeur_fonciere": 205000, "type_local": "Maison", "surface_reelle_bati": 100.0, "nombre_pieces_principales": 4.0, "adresse_nom_voie": "RTE DE MARY PROLONGEE", "price_per_sqm": 2050.0, "date_iso": "2024-11-30", "parcelle": "77231000ZC0173", "addr_num": "2"}}, {"type": "Feature", "geometry": {"type": "Point", "coordinates": [3.009016, 49.000349]}, "properties": {"year": 2025, "valeur_fonciere": 249400, "type_local": "Maison", "surface_reelle_bati": 75.0, "nombre_pieces_principales": 3.0, "adresse_nom_voie": "RUE RESIDENCE D ASNIERES", "price_per_sqm": 3325.3333333333335, "date_iso": "2025-01-07", "parcelle": "772310000B0704", "addr_num": "2"}}, {"type": "Feature", "geometry": {"type": "Point", "coordinates": [3.005287, 48.999197]}, "properties": {"year": 2025, "valeur_fonciere": 206500, "type_local": null, "surface_reelle_bati": null, "nombre_pieces_principales": null, "adresse_nom_voie": "ISLES LES MELDEUSES", "price_per_sqm": null, "date_iso": "2025-02-14", "parcelle": "772310000B0571", "addr_num": ""}}, {"type": "Feature", "geometry": {"type": "Point", "coordinates": [3.005254, 48.999136]}, "properties": {"year": 2025, "valeur_fonciere": 206500, "type_local": "Maison", "surface_reelle_bati": 96.0, "nombre_pieces_principales": 4.0, "adresse_nom_voie": "PL OLIVIER MARTEAUX", "price_per_sqm": 2151.0416666666665, "date_iso": "2025-02-14", "parcelle": "772310000B0759", "addr_num": "17"}}, {"type": "Feature", "geometry": {"type": "Point", "coordinates": [3.014723, 49.00349]}, "properties": {"year": 2025, "valeur_fonciere": 285000, "type_local": "Maison", "surface_reelle_bati": 113.0, "nombre_pieces_principales": 6.0, "adresse_nom_voie": "LA BRIQUETERIE", "price_per_sqm": 2522.1238938053098, "date_iso": "2025-03-03", "parcelle": "77231000ZC0168", "addr_num": "29"}}, {"type": "Feature", "geometry": {"type": "Point", "coordinates": [3.014723, 49.00349]}, "properties": {"year": 2025, "valeur_fonciere": 285000, "type_local": "Maison", "surface_reelle_bati": 113.0, "nombre_pieces_principales": 6.0, "adresse_nom_voie": "LA BRIQUETERIE", "price_per_sqm": 2522.1238938053098, "date_iso": "2025-03-03", "parcelle": "77231000ZC0168", "addr_num": "29"}}, {"type": "Feature", "geometry": {"type": "Point", "coordinates": [3.006383, 48.999429]}, "properties": {"year": 2025, "valeur_fonciere": 181000, "type_local": "Dépendance", "surface_reelle_bati": null, "nombre_pieces_principales": 0.0, "adresse_nom_voie": "RTE DE MARY", "price_per_sqm": null, "date_iso": "2025-07-01", "parcelle": "772310000B0424", "addr_num": "10"}}, {"type": "Feature", "geometry": {"type": "Point", "coordinates": [3.006383, 48.999429]}, "properties": {"year": 2025, "valeur_fonciere": 181000, "type_local": "Maison", "surface_reelle_bati": 50.0, "nombre_pieces_principales": 3.0, "adresse_nom_voie": "RTE DE MARY", "price_per_sqm": 3620.0, "date_iso": "2025-07-01", "parcelle": "772310000B0424", "addr_num": "10"}}, {"type": "Feature", "geometry": {"type": "Point", "coordinates": [3.001002, 48.996861]}, "properties": {"year": 2025, "valeur_fonciere": 245000, "type_local": null, "surface_reelle_bati": null, "nombre_pieces_principales": null, "adresse_nom_voie": "RTE DE TRILPORT", "price_per_sqm": null, "date_iso": "2025-07-29", "parcelle": "772310000B0838", "addr_num": ""}}, {"type": "Feature", "geometry": {"type": "Point", "coordinates": [3.001327, 48.996812]}, "properties": {"year": 2025, "valeur_fonciere": 245000, "type_local": "Maison", "surface_reelle_bati": 102.0, "nombre_pieces_principales": 4.0, "adresse_nom_voie": "RTE DE TRILPORT", "price_per_sqm": 2401.9607843137255, "date_iso": "2025-07-29", "parcelle": "772310000B0839", "addr_num": "24"}}, {"type": "Feature", "geometry": {"type": "Point", "coordinates": [3.006454, 48.999514]}, "properties": {"year": 2025, "valeur_fonciere": 216000, "type_local": "Maison", "surface_reelle_bati": 174.0, "nombre_pieces_principales": 6.0, "adresse_nom_voie": "RTE DE MARY", "price_per_sqm": 1241.3793103448277, "date_iso": "2025-07-11", "parcelle": "772310000B0828", "addr_num": "10"}}, {"type": "Feature", "geometry": {"type": "Point", "coordinates": [3.007311, 48.996906]}, "properties": {"year": 2025, "valeur_fonciere": 166000, "type_local": null, "surface_reelle_bati": null, "nombre_pieces_principales": null, "adresse_nom_voie": "CHE DES BRUYERES", "price_per_sqm": null, "date_iso": "2025-10-02", "parcelle": "772310000B0595", "addr_num": ""}}, {"type": "Feature", "geometry": {"type": "Point", "coordinates": [3.007137, 48.996806]}, "properties": {"year": 2025, "valeur_fonciere": 166000, "type_local": "Maison", "surface_reelle_bati": 60.0, "nombre_pieces_principales": 3.0, "adresse_nom_voie": "CHE DES BRUYERES", "price_per_sqm": 2766.6666666666665, "date_iso": "2025-10-02", "parcelle": "772310000B0596", "addr_num": "5"}}, {"type": "Feature", "geometry": {"type": "Point", "coordinates": [3.007137, 48.996806]}, "properties": {"year": 2025, "valeur_fonciere": 166000, "type_local": "Dépendance", "surface_reelle_bati": null, "nombre_pieces_principales": 0.0, "adresse_nom_voie": "CHE DES BRUYERES", "price_per_sqm": null, "date_iso": "2025-10-02", "parcelle": "772310000B0596", "addr_num": "5"}}, {"type": "Feature", "geometry": {"type": "Point", "coordinates": [3.00834, 49.00024]}, "properties": {"year": 2025, "valeur_fonciere": 245000, "type_local": "Maison", "surface_reelle_bati": 81.0, "nombre_pieces_principales": 5.0, "adresse_nom_voie": "RUE RESIDENCE D ASNIERES", "price_per_sqm": 3024.6913580246915, "date_iso": "2025-09-25", "parcelle": "772310000B0699", "addr_num": "9"}}, {"type": "Feature", "geometry": {"type": "Point", "coordinates": [3.005943, 48.999048]}, "properties": {"year": 2025, "valeur_fonciere": 312500, "type_local": "Maison", "surface_reelle_bati": 120.0, "nombre_pieces_principales": 5.0, "adresse_nom_voie": "RTE DE MARY", "price_per_sqm": 2604.1666666666665, "date_iso": "2025-10-03", "parcelle": "772310000B0813", "addr_num": "4"}}, {"type": "Feature", "geometry": {"type": "Point", "coordinates": [3.005849, 48.999223]}, "properties": {"year": 2025, "valeur_fonciere": 312500, "type_local": null, "surface_reelle_bati": null, "nombre_pieces_principales": null, "adresse_nom_voie": "RTE DE MARY", "price_per_sqm": null, "date_iso": "2025-10-03", "parcelle": "772310000B0816", "addr_num": "4"}}, {"type": "Feature", "geometry": {"type": "Point", "coordinates": [3.007301, 48.998472]}, "properties": {"year": 2025, "valeur_fonciere": 290850, "type_local": "Maison", "surface_reelle_bati": 60.0, "nombre_pieces_principales": 2.0, "adresse_nom_voie": "CHE D ARMENTIERES", "price_per_sqm": 4847.5, "date_iso": "2025-10-09", "parcelle": "772310000B0767", "addr_num": "18"}}, {"type": "Feature", "geometry": {"type": "Point", "coordinates": [3.007301, 48.998472]}, "properties": {"year": 2025, "valeur_fonciere": 290850, "type_local": "Dépendance", "surface_reelle_bati": null, "nombre_pieces_principales": 0.0, "adresse_nom_voie": "CHE D ARMENTIERES", "price_per_sqm": null, "date_iso": "2025-10-09", "parcelle": "772310000B0767", "addr_num": "18"}}, {"type": "Feature", "geometry": {"type": "Point", "coordinates": [3.007284, 48.998388]}, "properties": {"year": 2025, "valeur_fonciere": 290850, "type_local": null, "surface_reelle_bati": null, "nombre_pieces_principales": null, "adresse_nom_voie": "CHE D ARMENTIERES", "price_per_sqm": null, "date_iso": "2025-10-09", "parcelle": "772310000B0886", "addr_num": ""}}, {"type": "Feature", "geometry": {"type": "Point", "coordinates": [3.007187, 48.998418]}, "properties": {"year": 2025, "valeur_fonciere": 290850, "type_local": null, "surface_reelle_bati": null, "nombre_pieces_principales": null, "adresse_nom_voie": "CHE D ARMENTIERES", "price_per_sqm": null, "date_iso": "2025-10-09", "parcelle": "772310000B0887", "addr_num": ""}}, {"type": "Feature", "geometry": {"type": "Point", "coordinates": [3.007598, 49.000698]}, "properties": {"year": 2025, "valeur_fonciere": 260000, "type_local": "Dépendance", "surface_reelle_bati": null, "nombre_pieces_principales": 0.0, "adresse_nom_voie": "RTE DE MARY", "price_per_sqm": null, "date_iso": "2025-12-18", "parcelle": "77231000ZC0027", "addr_num": "27"}}, {"type": "Feature", "geometry": {"type": "Point", "coordinates": [3.007598, 49.000698]}, "properties": {"year": 2025, "valeur_fonciere": 260000, "type_local": "Maison", "surface_reelle_bati": 90.0, "nombre_pieces_principales": 4.0, "adresse_nom_voie": "RTE DE MARY", "price_per_sqm": 2888.8888888888887, "date_iso": "2025-12-18", "parcelle": "77231000ZC0027", "addr_num": "27"}}]}