{"type": "FeatureCollection", "features": [{"type": "Feature", "geometry": {"type": "Polygon", "coordinates": [[[2.727347, 48.902688], [2.726185, 48.902745], [2.725635, 48.902758], [2.724466, 48.902802], [2.724267, 48.902825], [2.723892, 48.902787], [2.723268, 48.90279], [2.722817, 48.902806], [2.722094, 48.90281], [2.721626, 48.902837], [2.720861, 48.902966], [2.720457, 48.903074], [2.719403, 48.90346], [2.718652, 48.903903], [2.718038, 48.904313], [2.717775, 48.904523], [2.717538, 48.904747], [2.717379, 48.904854], [2.716372, 48.904738], [2.716129, 48.904975], [2.715741, 48.904775], [2.715959, 48.904593], [2.715298, 48.904222], [2.714955, 48.904558], [2.713588, 48.904373], [2.713195, 48.904341], [2.712383, 48.904221], [2.712053, 48.904184], [2.710871, 48.904012], [2.710283, 48.903877], [2.70983, 48.904558], [2.709754, 48.904746], [2.708758, 48.90456], [2.708723, 48.904463], [2.708044, 48.904242], [2.707894, 48.904356], [2.707871, 48.904544], [2.707688, 48.904725], [2.707673, 48.905041], [2.707614, 48.9054], [2.706318, 48.905196], [2.706234, 48.905384], [2.706126, 48.905851], [2.706158, 48.905993], [2.706407, 48.906425], [2.706514, 48.90651], [2.706737, 48.906772], [2.706816, 48.906929], [2.706873, 48.907181], [2.706965, 48.907319], [2.705771, 48.907434], [2.705744, 48.907342], [2.704765, 48.907396], [2.704641, 48.907264], [2.704193, 48.907973], [2.703924, 48.908359], [2.703571, 48.908778], [2.702592, 48.909882], [2.702418, 48.909951], [2.70228, 48.909953], [2.701633, 48.909858], [2.701306, 48.909888], [2.70049, 48.910148], [2.699985, 48.910297], [2.699553, 48.910329], [2.698971, 48.910248], [2.698166, 48.910094], [2.697203, 48.909898], [2.696856, 48.909844], [2.696529, 48.909881], [2.696332, 48.909967], [2.696224, 48.909953], [2.693645, 48.909977], [2.692715, 48.910903], [2.692155, 48.911306], [2.691755, 48.911532], [2.69129, 48.911898], [2.691057, 48.912055], [2.69082, 48.911984], [2.690513, 48.911837], [2.690249, 48.911659], [2.689992, 48.911318], [2.689686, 48.911142], [2.689619, 48.910967], [2.689236, 48.910829], [2.688975, 48.91079], [2.687883, 48.910776], [2.687805, 48.910798], [2.68734, 48.911211], [2.686763, 48.911513], [2.686485, 48.911634], [2.686436, 48.911607], [2.686164, 48.911714], [2.685673, 48.911942], [2.685105, 48.91214], [2.684318, 48.912554], [2.683756, 48.912898], [2.682595, 48.914112], [2.682394, 48.914253], [2.680689, 48.913951], [2.680069, 48.914457], [2.677095, 48.916658], [2.676266, 48.916747], [2.676133, 48.916774], [2.675826, 48.916767], [2.674905, 48.91678], [2.674402, 48.917878], [2.673554, 48.917776], [2.672583, 48.917602], [2.672667, 48.917375], [2.671767, 48.917403], [2.671935, 48.917906], [2.672005, 48.918492], [2.671981, 48.918826], [2.671808, 48.919157], [2.67164, 48.919579], [2.671572, 48.919814], [2.671456, 48.920043], [2.671694, 48.920612], [2.671864, 48.920926], [2.671933, 48.921122], [2.671985, 48.921996], [2.671062, 48.923191], [2.672947, 48.923982], [2.672625, 48.924639], [2.672466, 48.9252], [2.672186, 48.925788], [2.672219, 48.925849], [2.672496, 48.925989], [2.672975, 48.926328], [2.673699, 48.926602], [2.674564, 48.926904], [2.674934, 48.927076], [2.675044, 48.927103], [2.67555, 48.927121], [2.676469, 48.927038], [2.677662, 48.926828], [2.67903, 48.926555], [2.680312, 48.926193], [2.679112, 48.925001], [2.678846, 48.924757], [2.680295, 48.924039], [2.680797, 48.924171], [2.681229, 48.924236], [2.681426, 48.924299], [2.681641, 48.924508], [2.681868, 48.924636], [2.682218, 48.924906], [2.682338, 48.924943], [2.682971, 48.924505], [2.683778, 48.925096], [2.683142, 48.925468], [2.683319, 48.925645], [2.6837, 48.926143], [2.68426, 48.926612], [2.684589, 48.926972], [2.684683, 48.927318], [2.684664, 48.928042], [2.684591, 48.928515], [2.684399, 48.929212], [2.684912, 48.929181], [2.685745, 48.929169], [2.686368, 48.929202], [2.687184, 48.929352], [2.687552, 48.929407], [2.688111, 48.929455], [2.688535, 48.929469], [2.689185, 48.929465], [2.691943, 48.932531], [2.691987, 48.932552], [2.692515, 48.931894], [2.693378, 48.931016], [2.69353, 48.930969], [2.693798, 48.930645], [2.694044, 48.930169], [2.694147, 48.929872], [2.694557, 48.930838], [2.695515, 48.933156], [2.695684, 48.93369], [2.695635, 48.933704], [2.695815, 48.934197], [2.69638, 48.935794], [2.69667, 48.936596], [2.697039, 48.937721], [2.697335, 48.938225], [2.697981, 48.939383], [2.698119, 48.939645], [2.698379, 48.939538], [2.698863, 48.9393], [2.698892, 48.93935], [2.701601, 48.938175], [2.701863, 48.938171], [2.702148, 48.938082], [2.704426, 48.941047], [2.705489, 48.942894], [2.705925, 48.942971], [2.706163, 48.943335], [2.706291, 48.943145], [2.706412, 48.942866], [2.706672, 48.942092], [2.70681, 48.941384], [2.707342, 48.941353], [2.707512, 48.941307], [2.708303, 48.940955], [2.708767, 48.940661], [2.709122, 48.940493], [2.709525, 48.940378], [2.709579, 48.940536], [2.709959, 48.941465], [2.710079, 48.94171], [2.710071, 48.94192], [2.710139, 48.941963], [2.710358, 48.942373], [2.710579, 48.942197], [2.710746, 48.942206], [2.7114, 48.942341], [2.711469, 48.942433], [2.713006, 48.942681], [2.715956, 48.943144], [2.719054, 48.943637], [2.719405, 48.943334], [2.719375, 48.943134], [2.719767, 48.942922], [2.720121, 48.942706], [2.720434, 48.942388], [2.72073, 48.942361], [2.721096, 48.942434], [2.721276, 48.942414], [2.721409, 48.942284], [2.721832, 48.942322], [2.722047, 48.942275], [2.722386, 48.942073], [2.723162, 48.940957], [2.723723, 48.940289], [2.723926, 48.939989], [2.724361, 48.939547], [2.725748, 48.93831], [2.72588, 48.938213], [2.726131, 48.937945], [2.727249, 48.936818], [2.72751, 48.936457], [2.728311, 48.935855], [2.728733, 48.935446], [2.729754, 48.934485], [2.730395, 48.933916], [2.730848, 48.933535], [2.731144, 48.933263], [2.731978, 48.932548], [2.73223, 48.93229], [2.732003, 48.931774], [2.732046, 48.93171], [2.732887, 48.930951], [2.7341, 48.929826], [2.735034, 48.929027], [2.735486, 48.928751], [2.736487, 48.927815], [2.737464, 48.926867], [2.738318, 48.926126], [2.739334, 48.925282], [2.740575, 48.924325], [2.7413, 48.923795], [2.741431, 48.923805], [2.74241, 48.923142], [2.742336, 48.922766], [2.741762, 48.922789], [2.74144, 48.922827], [2.740946, 48.922926], [2.740092, 48.923256], [2.739854, 48.923311], [2.738835, 48.923498], [2.738163, 48.923578], [2.737834, 48.923586], [2.737419, 48.923627], [2.735513, 48.923711], [2.734941, 48.923697], [2.734638, 48.923639], [2.734014, 48.923441], [2.733177, 48.923057], [2.732989, 48.922932], [2.733234, 48.922546], [2.734566, 48.920498], [2.733361, 48.920073], [2.734716, 48.918572], [2.732638, 48.91739], [2.731136, 48.916422], [2.730094, 48.915694], [2.72981, 48.915466], [2.729936, 48.914714], [2.729411, 48.914845], [2.729257, 48.914558], [2.728978, 48.91418], [2.728352, 48.912783], [2.728195, 48.912188], [2.727991, 48.911188], [2.727996, 48.911022], [2.728315, 48.909888], [2.728723, 48.908382], [2.728442, 48.90775], [2.729493, 48.907497], [2.728583, 48.905456], [2.727491, 48.902989], [2.727347, 48.902688]]]}, "properties": {"code_iris": "770050000", "nom_iris": "Annet-sur-Marne (commune entière)", "type_iris": "Z", "lat": 48.9232, "lng": 2.7067, "dvf_sales_total": 784, "dvf_sales_appt": 0, "dvf_sales_maison": 0, "dvf_median_price": 240000.0, "dvf_median_ppsqm": 3795.0819672131147, "dvf_by_year": "[{\"year\": 2021, \"sales\": 131, \"median_price\": 305000.0}, {\"year\": 2022, \"sales\": 190, \"median_price\": 295000.0}, {\"year\": 2023, \"sales\": 136, \"median_price\": 189500.0}, {\"year\": 2024, \"sales\": 142, \"median_price\": 235485.0}, {\"year\": 2025, \"sales\": 185, \"median_price\": 223000.0}]", "population": 3408, "n_log": null, "n_rp": null, "pct_proprio": null, "pct_hlm": null, "pct_appart": null, "pct_cadres": null, "pct_bac5p": null, "pct_etrangers": null, "pct_0_14": null, "pct_65p": null, "bpe_total": null, "bpe_commerces": null, "bpe_enseignement": null, "bpe_sante": null, "dpe": null, "attractivity_score": null, "rank_attractivity_score": null, "rank_total_attractivity_score": 1, "commune_avg": null, "is_stub": true}}]}