{"type": "FeatureCollection", "features": [{"type": "Feature", "geometry": {"type": "Polygon", "coordinates": [[[3.073429, 48.796898], [3.07314, 48.796947], [3.072503, 48.797006], [3.071746, 48.797121], [3.071202, 48.797174], [3.070887, 48.797185], [3.069296, 48.797192], [3.06776, 48.797166], [3.066403, 48.797226], [3.065409, 48.797297], [3.064687, 48.797432], [3.063387, 48.797701], [3.062843, 48.797793], [3.06198, 48.797967], [3.061413, 48.798034], [3.060175, 48.798137], [3.059472, 48.798242], [3.059051, 48.798345], [3.058528, 48.798601], [3.057863, 48.798944], [3.05718, 48.799238], [3.056537, 48.799482], [3.05531, 48.799995], [3.05421, 48.800422], [3.053716, 48.8006], [3.052487, 48.801093], [3.051748, 48.801412], [3.05083, 48.801774], [3.051007, 48.802121], [3.051333, 48.802816], [3.051827, 48.803777], [3.052032, 48.804205], [3.052155, 48.804529], [3.05217, 48.804734], [3.051887, 48.805336], [3.051681, 48.805667], [3.051566, 48.805911], [3.051632, 48.806504], [3.051722, 48.806725], [3.05184, 48.80747], [3.051835, 48.807648], [3.05176, 48.807922], [3.051746, 48.808172], [3.051733, 48.809199], [3.051992, 48.809802], [3.051494, 48.809901], [3.050839, 48.809944], [3.050263, 48.809895], [3.049276, 48.809863], [3.048507, 48.809962], [3.048391, 48.810026], [3.047913, 48.810123], [3.046891, 48.810233], [3.046407, 48.810327], [3.046202, 48.810416], [3.044535, 48.811705], [3.044158, 48.811952], [3.044039, 48.811998], [3.043291, 48.8124], [3.04278, 48.812746], [3.042504, 48.812966], [3.042265, 48.813187], [3.041926, 48.813457], [3.041353, 48.813856], [3.040363, 48.814377], [3.040147, 48.814517], [3.039202, 48.815293], [3.038922, 48.815354], [3.038354, 48.815329], [3.037975, 48.815377], [3.037432, 48.815495], [3.037595, 48.816696], [3.03777, 48.817037], [3.037824, 48.817455], [3.037797, 48.817853], [3.037871, 48.81791], [3.037486, 48.818389], [3.037218, 48.818669], [3.036495, 48.818712], [3.033902, 48.819015], [3.032742, 48.819075], [3.031422, 48.819192], [3.031415, 48.819222], [3.030014, 48.819551], [3.030394, 48.820457], [3.030189, 48.820561], [3.029997, 48.820739], [3.029764, 48.820841], [3.029302, 48.820844], [3.028812, 48.820768], [3.028499, 48.820635], [3.028264, 48.820492], [3.028054, 48.822432], [3.027842, 48.822403], [3.027279, 48.82211], [3.02674, 48.82201], [3.025716, 48.821904], [3.024062, 48.821759], [3.023403, 48.821807], [3.022575, 48.821742], [3.022543, 48.821883], [3.022258, 48.82268], [3.022425, 48.822712], [3.022336, 48.823207], [3.022091, 48.823828], [3.022151, 48.823922], [3.02279, 48.824383], [3.022839, 48.824474], [3.022853, 48.824752], [3.023343, 48.824901], [3.023703, 48.825097], [3.02356, 48.825264], [3.023407, 48.825827], [3.023202, 48.826386], [3.023141, 48.826621], [3.022547, 48.826566], [3.022095, 48.826575], [3.021463, 48.826567], [3.020694, 48.82668], [3.020406, 48.826693], [3.01971, 48.826652], [3.01873, 48.826581], [3.017299, 48.826378], [3.017023, 48.826303], [3.016675, 48.826121], [3.016384, 48.825862], [3.015856, 48.825644], [3.015689, 48.82618], [3.015403, 48.827349], [3.014993, 48.828619], [3.014946, 48.828685], [3.014751, 48.829254], [3.013968, 48.829234], [3.013039, 48.829149], [3.012206, 48.829046], [3.011538, 48.828948], [3.010961, 48.828848], [3.010867, 48.828986], [3.01054, 48.829362], [3.010456, 48.829568], [3.010451, 48.82986], [3.010391, 48.829998], [3.010241, 48.830184], [3.009951, 48.830475], [3.00992, 48.83055], [3.009857, 48.831015], [3.009905, 48.831238], [3.0102, 48.831605], [3.010339, 48.831856], [3.010119, 48.831895], [3.009874, 48.832289], [3.010236, 48.832356], [3.010741, 48.832707], [3.010891, 48.832833], [3.010856, 48.833341], [3.010739, 48.833744], [3.010738, 48.834566], [3.010711, 48.834797], [3.010569, 48.835297], [3.010536, 48.835512], [3.010611, 48.835789], [3.010741, 48.835858], [3.012075, 48.836656], [3.013139, 48.837255], [3.014035, 48.83777], [3.015002, 48.838498], [3.015522, 48.83885], [3.016371, 48.839468], [3.016753, 48.839648], [3.018012, 48.840382], [3.018325, 48.840572], [3.01847, 48.840483], [3.019111, 48.840596], [3.019587, 48.84064], [3.020091, 48.840625], [3.020453, 48.840547], [3.021588, 48.840212], [3.021821, 48.840011], [3.022157, 48.839773], [3.023344, 48.83912], [3.023924, 48.838724], [3.025141, 48.838759], [3.026999, 48.838904], [3.027723, 48.839008], [3.028227, 48.839119], [3.028796, 48.839266], [3.030982, 48.839403], [3.031482, 48.839582], [3.033826, 48.84046], [3.0341, 48.840631], [3.035936, 48.842256], [3.036118, 48.842399], [3.037271, 48.843153], [3.038241, 48.843812], [3.03828, 48.843877], [3.037663, 48.844215], [3.037351, 48.844407], [3.036644, 48.844884], [3.036858, 48.844935], [3.037353, 48.845091], [3.038211, 48.845405], [3.038893, 48.845631], [3.039749, 48.845931], [3.042023, 48.846564], [3.042593, 48.846687], [3.04306, 48.846735], [3.043614, 48.84673], [3.044014, 48.847525], [3.043523, 48.847652], [3.043822, 48.84839], [3.044503, 48.849252], [3.044959, 48.849104], [3.046246, 48.850763], [3.046927, 48.852083], [3.04741, 48.853042], [3.047989, 48.853039], [3.04904, 48.853008], [3.049758, 48.852954], [3.050437, 48.852882], [3.050974, 48.852787], [3.051416, 48.852682], [3.052683, 48.852321], [3.053751, 48.851954], [3.05429, 48.851779], [3.055189, 48.851569], [3.055782, 48.851474], [3.057182, 48.851275], [3.057858, 48.851152], [3.058531, 48.850919], [3.059608, 48.850476], [3.059918, 48.850383], [3.060234, 48.850346], [3.060629, 48.850328], [3.06145, 48.850025], [3.062261, 48.849629], [3.062894, 48.849295], [3.063516, 48.848953], [3.064844, 48.848049], [3.064372, 48.847628], [3.064269, 48.847457], [3.064126, 48.846975], [3.06412, 48.846572], [3.064347, 48.846262], [3.064473, 48.846196], [3.065618, 48.845967], [3.066368, 48.844223], [3.067036, 48.842621], [3.067392, 48.841749], [3.069608, 48.84196], [3.069947, 48.839273], [3.069924, 48.837999], [3.072184, 48.837816], [3.072185, 48.837648], [3.073591, 48.837576], [3.074148, 48.837539], [3.073793, 48.836796], [3.073169, 48.835349], [3.072881, 48.835017], [3.072659, 48.834812], [3.072949, 48.834684], [3.076756, 48.834887], [3.076693, 48.83469], [3.076996, 48.834642], [3.078369, 48.834502], [3.079266, 48.834431], [3.080137, 48.834319], [3.081031, 48.834155], [3.080796, 48.833696], [3.082694, 48.833803], [3.083105, 48.833801], [3.083733, 48.833741], [3.08513, 48.833497], [3.085427, 48.833574], [3.085648, 48.833322], [3.086165, 48.832787], [3.086377, 48.832611], [3.087303, 48.831795], [3.087393, 48.831748], [3.087336, 48.830052], [3.086617, 48.829837], [3.085763, 48.8297], [3.085416, 48.829622], [3.084097, 48.829027], [3.083534, 48.828854], [3.083217, 48.828847], [3.080899, 48.828901], [3.077737, 48.828983], [3.076473, 48.828996], [3.075635, 48.82898], [3.075119, 48.828902], [3.073819, 48.828659], [3.071995, 48.828257], [3.072303, 48.827699], [3.072537, 48.827217], [3.072647, 48.827075], [3.072989, 48.826481], [3.073146, 48.826441], [3.073114, 48.826053], [3.073331, 48.825294], [3.073282, 48.825053], [3.073138, 48.824865], [3.073079, 48.824642], [3.072981, 48.824434], [3.07298, 48.824283], [3.073138, 48.824012], [3.073194, 48.823845], [3.07309, 48.82341], [3.073302, 48.823115], [3.073521, 48.822768], [3.073832, 48.822324], [3.074309, 48.822231], [3.074435, 48.822133], [3.074669, 48.822082], [3.075158, 48.822143], [3.075435, 48.822142], [3.07606, 48.821983], [3.076727, 48.821677], [3.07701, 48.821513], [3.077233, 48.82135], [3.077423, 48.821057], [3.077448, 48.820675], [3.07738, 48.820321], [3.076942, 48.820093], [3.076704, 48.819881], [3.076421, 48.819296], [3.075476, 48.819322], [3.074835, 48.819501], [3.074946, 48.819397], [3.075071, 48.819081], [3.074589, 48.818446], [3.074387, 48.818074], [3.074099, 48.817397], [3.074, 48.816936], [3.073844, 48.815971], [3.073736, 48.815742], [3.072985, 48.814705], [3.072875, 48.814478], [3.072678, 48.813975], [3.072196, 48.81346], [3.072116, 48.813214], [3.071883, 48.812641], [3.071654, 48.812196], [3.071527, 48.811757], [3.071334, 48.81142], [3.070952, 48.810518], [3.07051, 48.809846], [3.070407, 48.809601], [3.070593, 48.808974], [3.070634, 48.80848], [3.070548, 48.808218], [3.070285, 48.807912], [3.069717, 48.807518], [3.069646, 48.807429], [3.06944, 48.80703], [3.069432, 48.806587], [3.069515, 48.806115], [3.069482, 48.805987], [3.069581, 48.805889], [3.069718, 48.80506], [3.069765, 48.804919], [3.069781, 48.804433], [3.069728, 48.803568], [3.069742, 48.802756], [3.069826, 48.802396], [3.070012, 48.802168], [3.070155, 48.802045], [3.070489, 48.801844], [3.070953, 48.801502], [3.072023, 48.800685], [3.072329, 48.800384], [3.073139, 48.79923], [3.073737, 48.798419], [3.073967, 48.798175], [3.074014, 48.798082], [3.074071, 48.797775], [3.074088, 48.797462], [3.07388, 48.797285], [3.073742, 48.797077], [3.073429, 48.796898]]]}, "properties": {"code_iris": "773200000", "nom_iris": "Mouroux (commune entière)", "type_iris": "Z", "lat": 48.825, "lng": 3.0486, "dvf_sales_total": 1585, "dvf_sales_appt": 0, "dvf_sales_maison": 0, "dvf_median_price": 229150.0, "dvf_median_ppsqm": 2694.0950226244345, "dvf_by_year": "[{\"year\": 2021, \"sales\": 391, \"median_price\": 205000.0}, {\"year\": 2022, \"sales\": 373, \"median_price\": 243000.0}, {\"year\": 2023, \"sales\": 314, \"median_price\": 237000.0}, {\"year\": 2024, \"sales\": 234, \"median_price\": 245000.0}, {\"year\": 2025, \"sales\": 273, \"median_price\": 209000.0}]", "population": 5810, "n_log": null, "n_rp": null, "pct_proprio": null, "pct_hlm": null, "pct_appart": null, "pct_cadres": null, "pct_bac5p": null, "pct_etrangers": null, "pct_0_14": null, "pct_65p": null, "bpe_total": null, "bpe_commerces": null, "bpe_enseignement": null, "bpe_sante": null, "dpe": null, "attractivity_score": null, "rank_attractivity_score": null, "rank_total_attractivity_score": 1, "commune_avg": null, "is_stub": true}}]}