{"type": "FeatureCollection", "features": [{"type": "Feature", "geometry": {"type": "Point", "coordinates": [3.029131, 48.828355]}, "properties": {"street_name": "AV DU GENERAL DE GAULLE", "sales": 87, "sales_appt": 13, "sales_maison": 23, "median_price": 165000.0, "median_price_per_sqm": 2764.252112462006, "turnover_score": 100.0, "turnover_rank": 1, "first_year": 2021, "last_year": 2025, "years_active": 5}}, {"type": "Feature", "geometry": {"type": "Point", "coordinates": [3.0473925, 48.819642]}, "properties": {"street_name": "RUE DU LIETON", "sales": 76, "sales_appt": 4, "sales_maison": 22, "median_price": 230000.0, "median_price_per_sqm": 2353.4693877551017, "turnover_score": 87.4, "turnover_rank": 2, "first_year": 2021, "last_year": 2025, "years_active": 5}}, {"type": "Feature", "geometry": {"type": "Point", "coordinates": [3.060318, 48.821905]}, "properties": {"street_name": "RUE DU CHATEAU", "sales": 75, "sales_appt": 7, "sales_maison": 36, "median_price": 265000.0, "median_price_per_sqm": 2695.8823529411766, "turnover_score": 86.2, "turnover_rank": 3, "first_year": 2021, "last_year": 2025, "years_active": 5}}, {"type": "Feature", "geometry": {"type": "Point", "coordinates": [3.034855, 48.83187]}, "properties": {"street_name": "RUE DE GIREMOUTIERS", "sales": 45, "sales_appt": 1, "sales_maison": 25, "median_price": 286000.0, "median_price_per_sqm": 2901.7611336032387, "turnover_score": 51.7, "turnover_rank": 4, "first_year": 2021, "last_year": 2025, "years_active": 5}}, {"type": "Feature", "geometry": {"type": "Point", "coordinates": [3.047328, 48.820815]}, "properties": {"street_name": "AV DU MARECHAL LECLERC", "sales": 41, "sales_appt": 1, "sales_maison": 13, "median_price": 230000.0, "median_price_per_sqm": 2554.3478260869565, "turnover_score": 47.1, "turnover_rank": 5, "first_year": 2021, "last_year": 2025, "years_active": 5}}, {"type": "Feature", "geometry": {"type": "Point", "coordinates": [3.0565305, 48.820123]}, "properties": {"street_name": "RUE MICHELET", "sales": 40, "sales_appt": 0, "sales_maison": 4, "median_price": 200000.0, "median_price_per_sqm": 2600.0, "turnover_score": 46.0, "turnover_rank": 6, "first_year": 2021, "last_year": 2025, "years_active": 3}}, {"type": "Feature", "geometry": {"type": "Point", "coordinates": [3.053835, 48.8213]}, "properties": {"street_name": "LE BOIS CAUSSIEN", "sales": 39, "sales_appt": 0, "sales_maison": 0, "median_price": 25000.0, "median_price_per_sqm": null, "turnover_score": 44.8, "turnover_rank": 7, "first_year": 2021, "last_year": 2025, "years_active": 3}}, {"type": "Feature", "geometry": {"type": "Point", "coordinates": [3.057598, 48.806047]}, "properties": {"street_name": "RUE DES BOIS GALLOIS", "sales": 35, "sales_appt": 0, "sales_maison": 14, "median_price": 380000.0, "median_price_per_sqm": 2092.829528718704, "turnover_score": 40.2, "turnover_rank": 8, "first_year": 2021, "last_year": 2025, "years_active": 3}}, {"type": "Feature", "geometry": {"type": "Point", "coordinates": [3.0657025, 48.804649]}, "properties": {"street_name": "LES PARRICHETS", "sales": 32, "sales_appt": 0, "sales_maison": 0, "median_price": 167500.0, "median_price_per_sqm": null, "turnover_score": 36.8, "turnover_rank": 9, "first_year": 2021, "last_year": 2025, "years_active": 5}}, {"type": "Feature", "geometry": {"type": "Point", "coordinates": [3.04882, 48.824536]}, "properties": {"street_name": "RUE DES MERISIERS", "sales": 31, "sales_appt": 0, "sales_maison": 11, "median_price": 312590.0, "median_price_per_sqm": 2704.225352112676, "turnover_score": 35.6, "turnover_rank": 10, "first_year": 2021, "last_year": 2025, "years_active": 5}}, {"type": "Feature", "geometry": {"type": "Point", "coordinates": [3.050574, 48.822466]}, "properties": {"street_name": "RUE DE BOIS-GUYOT", "sales": 30, "sales_appt": 0, "sales_maison": 15, "median_price": 192125.0, "median_price_per_sqm": 2555.5555555555557, "turnover_score": 34.5, "turnover_rank": 11, "first_year": 2021, "last_year": 2025, "years_active": 5}}, {"type": "Feature", "geometry": {"type": "Point", "coordinates": [3.02547, 48.827816]}, "properties": {"street_name": "RUE DU MONT-RENARD", "sales": 25, "sales_appt": 0, "sales_maison": 10, "median_price": 225000.0, "median_price_per_sqm": 2232.2580645161293, "turnover_score": 28.7, "turnover_rank": 12, "first_year": 2021, "last_year": 2025, "years_active": 4}}, {"type": "Feature", "geometry": {"type": "Point", "coordinates": [3.039752, 48.8170255]}, "properties": {"street_name": "AV DE LA GARE", "sales": 24, "sales_appt": 0, "sales_maison": 10, "median_price": 234000.0, "median_price_per_sqm": 2707.746823069404, "turnover_score": 27.6, "turnover_rank": 13, "first_year": 2021, "last_year": 2025, "years_active": 5}}, {"type": "Feature", "geometry": {"type": "Point", "coordinates": [3.0347835, 48.824305499999994]}, "properties": {"street_name": "LE BOISSELET", "sales": 24, "sales_appt": 0, "sales_maison": 0, "median_price": 58000.0, "median_price_per_sqm": null, "turnover_score": 27.6, "turnover_rank": 13, "first_year": 2021, "last_year": 2021, "years_active": 1}}, {"type": "Feature", "geometry": {"type": "Point", "coordinates": [3.042548, 48.8220545]}, "properties": {"street_name": "RUE DE LA CAPUCINERIE", "sales": 22, "sales_appt": 1, "sales_maison": 9, "median_price": 233500.0, "median_price_per_sqm": 2420.4545454545455, "turnover_score": 25.3, "turnover_rank": 14, "first_year": 2021, "last_year": 2023, "years_active": 3}}, {"type": "Feature", "geometry": {"type": "Point", "coordinates": [3.049167, 48.831866]}, "properties": {"street_name": "RUE DES LOMBARDS", "sales": 22, "sales_appt": 7, "sales_maison": 4, "median_price": 750000.0, "median_price_per_sqm": 6000.0, "turnover_score": 25.3, "turnover_rank": 14, "first_year": 2022, "last_year": 2024, "years_active": 3}}, {"type": "Feature", "geometry": {"type": "Point", "coordinates": [3.055228, 48.823761000000005]}, "properties": {"street_name": "RUE DES CRABOCHES", "sales": 22, "sales_appt": 0, "sales_maison": 8, "median_price": 260000.0, "median_price_per_sqm": 3139.8726358223767, "turnover_score": 25.3, "turnover_rank": 14, "first_year": 2021, "last_year": 2023, "years_active": 3}}, {"type": "Feature", "geometry": {"type": "Point", "coordinates": [3.027074, 48.8275365]}, "properties": {"street_name": "RUE DES VIGNES", "sales": 22, "sales_appt": 1, "sales_maison": 11, "median_price": 250000.0, "median_price_per_sqm": 3327.8368794326243, "turnover_score": 25.3, "turnover_rank": 14, "first_year": 2021, "last_year": 2025, "years_active": 4}}, {"type": "Feature", "geometry": {"type": "Point", "coordinates": [3.027798, 48.826349]}, "properties": {"street_name": "RUE DES BIBARNOUX", "sales": 21, "sales_appt": 0, "sales_maison": 8, "median_price": 425000.0, "median_price_per_sqm": 2041.0628019323672, "turnover_score": 24.1, "turnover_rank": 15, "first_year": 2021, "last_year": 2025, "years_active": 4}}, {"type": "Feature", "geometry": {"type": "Point", "coordinates": [3.0595689999999998, 48.821713]}, "properties": {"street_name": "MITHEUIL", "sales": 20, "sales_appt": 0, "sales_maison": 0, "median_price": 220000.0, "median_price_per_sqm": null, "turnover_score": 23.0, "turnover_rank": 16, "first_year": 2021, "last_year": 2025, "years_active": 5}}, {"type": "Feature", "geometry": {"type": "Point", "coordinates": [3.049279, 48.823568]}, "properties": {"street_name": "RUE DE REBAIS", "sales": 19, "sales_appt": 0, "sales_maison": 8, "median_price": 340000.0, "median_price_per_sqm": 2682.7731092436975, "turnover_score": 21.8, "turnover_rank": 17, "first_year": 2022, "last_year": 2025, "years_active": 3}}, {"type": "Feature", "geometry": {"type": "Point", "coordinates": [3.0666770000000003, 48.8051985]}, "properties": {"street_name": "RUE DE CHAMPAGNE", "sales": 18, "sales_appt": 0, "sales_maison": 11, "median_price": 232000.0, "median_price_per_sqm": 2120.3703703703704, "turnover_score": 20.7, "turnover_rank": 18, "first_year": 2021, "last_year": 2025, "years_active": 5}}, {"type": "Feature", "geometry": {"type": "Point", "coordinates": [3.050307, 48.821049]}, "properties": {"street_name": "RUE ROYALE", "sales": 18, "sales_appt": 0, "sales_maison": 10, "median_price": 270000.0, "median_price_per_sqm": 2115.3846153846152, "turnover_score": 20.7, "turnover_rank": 18, "first_year": 2021, "last_year": 2025, "years_active": 5}}, {"type": "Feature", "geometry": {"type": "Point", "coordinates": [3.053859, 48.811359]}, "properties": {"street_name": "RUE DE LA COUR", "sales": 17, "sales_appt": 0, "sales_maison": 4, "median_price": 104000.0, "median_price_per_sqm": 2431.058101472995, "turnover_score": 19.5, "turnover_rank": 19, "first_year": 2022, "last_year": 2024, "years_active": 3}}, {"type": "Feature", "geometry": {"type": "Point", "coordinates": [3.035731, 48.821114]}, "properties": {"street_name": "RUE DU MOULIN", "sales": 17, "sales_appt": 0, "sales_maison": 9, "median_price": 305000.0, "median_price_per_sqm": 2747.747747747748, "turnover_score": 19.5, "turnover_rank": 19, "first_year": 2021, "last_year": 2025, "years_active": 4}}, {"type": "Feature", "geometry": {"type": "Point", "coordinates": [3.029278, 48.828831]}, "properties": {"street_name": "VOISINS", "sales": 17, "sales_appt": 0, "sales_maison": 0, "median_price": 227200.0, "median_price_per_sqm": null, "turnover_score": 19.5, "turnover_rank": 19, "first_year": 2021, "last_year": 2025, "years_active": 5}}, {"type": "Feature", "geometry": {"type": "Point", "coordinates": [3.036057, 48.823044]}, "properties": {"street_name": "AV DE LA LIBERATION", "sales": 17, "sales_appt": 1, "sales_maison": 10, "median_price": 170000.0, "median_price_per_sqm": 2098.5915492957747, "turnover_score": 19.5, "turnover_rank": 19, "first_year": 2021, "last_year": 2025, "years_active": 5}}, {"type": "Feature", "geometry": {"type": "Point", "coordinates": [3.034886, 48.832396]}, "properties": {"street_name": "BOUSSOIS", "sales": 16, "sales_appt": 0, "sales_maison": 0, "median_price": 180000.0, "median_price_per_sqm": null, "turnover_score": 18.4, "turnover_rank": 20, "first_year": 2022, "last_year": 2025, "years_active": 4}}, {"type": "Feature", "geometry": {"type": "Point", "coordinates": [3.0605175, 48.8105815]}, "properties": {"street_name": "RUE DES CHALVERGNES", "sales": 16, "sales_appt": 0, "sales_maison": 10, "median_price": 300000.0, "median_price_per_sqm": 2382.8125, "turnover_score": 18.4, "turnover_rank": 20, "first_year": 2021, "last_year": 2025, "years_active": 4}}, {"type": "Feature", "geometry": {"type": "Point", "coordinates": [3.0529075, 48.8118855]}, "properties": {"street_name": "COUBERTIN", "sales": 16, "sales_appt": 0, "sales_maison": 0, "median_price": 184500.0, "median_price_per_sqm": null, "turnover_score": 18.4, "turnover_rank": 20, "first_year": 2022, "last_year": 2024, "years_active": 3}}, {"type": "Feature", "geometry": {"type": "Point", "coordinates": [3.0358525, 48.823609000000005]}, "properties": {"street_name": "LES GRANDS JARDINS", "sales": 14, "sales_appt": 0, "sales_maison": 0, "median_price": 130000.0, "median_price_per_sqm": null, "turnover_score": 16.1, "turnover_rank": 21, "first_year": 2021, "last_year": 2025, "years_active": 3}}, {"type": "Feature", "geometry": {"type": "Point", "coordinates": [3.035879, 48.8223955]}, "properties": {"street_name": "RUE DES CITES", "sales": 14, "sales_appt": 1, "sales_maison": 8, "median_price": 210000.0, "median_price_per_sqm": 3308.0, "turnover_score": 16.1, "turnover_rank": 21, "first_year": 2021, "last_year": 2025, "years_active": 4}}, {"type": "Feature", "geometry": {"type": "Point", "coordinates": [3.026971, 48.829632]}, "properties": {"street_name": "RUE DE L AERODROME", "sales": 14, "sales_appt": 0, "sales_maison": 10, "median_price": 266000.0, "median_price_per_sqm": 3103.59477124183, "turnover_score": 16.1, "turnover_rank": 21, "first_year": 2021, "last_year": 2024, "years_active": 4}}, {"type": "Feature", "geometry": {"type": "Point", "coordinates": [3.067684, 48.806335]}, "properties": {"street_name": "RUE DE COULOMMIERS", "sales": 13, "sales_appt": 0, "sales_maison": 8, "median_price": 245000.0, "median_price_per_sqm": 2734.209715518127, "turnover_score": 14.9, "turnover_rank": 22, "first_year": 2021, "last_year": 2024, "years_active": 4}}, {"type": "Feature", "geometry": {"type": "Point", "coordinates": [3.054171, 48.820585]}, "properties": {"street_name": "RUE DES AISANCES", "sales": 13, "sales_appt": 0, "sales_maison": 7, "median_price": 160000.0, "median_price_per_sqm": 3220.0, "turnover_score": 14.9, "turnover_rank": 22, "first_year": 2022, "last_year": 2025, "years_active": 4}}, {"type": "Feature", "geometry": {"type": "Point", "coordinates": [3.02828, 48.829551]}, "properties": {"street_name": "RUE DU CLOS DES ANTES", "sales": 13, "sales_appt": 0, "sales_maison": 6, "median_price": 350000.0, "median_price_per_sqm": 2305.9071729957805, "turnover_score": 14.9, "turnover_rank": 22, "first_year": 2021, "last_year": 2024, "years_active": 3}}, {"type": "Feature", "geometry": {"type": "Point", "coordinates": [3.023012, 48.823839]}, "properties": {"street_name": "PT MONT-MARTIN", "sales": 13, "sales_appt": 0, "sales_maison": 0, "median_price": 200000.0, "median_price_per_sqm": null, "turnover_score": 14.9, "turnover_rank": 22, "first_year": 2021, "last_year": 2024, "years_active": 2}}, {"type": "Feature", "geometry": {"type": "Point", "coordinates": [3.039982, 48.822437]}, "properties": {"street_name": "RUE CORNU", "sales": 11, "sales_appt": 3, "sales_maison": 3, "median_price": 252000.0, "median_price_per_sqm": 3340.116279069767, "turnover_score": 12.6, "turnover_rank": 23, "first_year": 2021, "last_year": 2023, "years_active": 3}}, {"type": "Feature", "geometry": {"type": "Point", "coordinates": [3.0242009999999997, 48.826404999999994]}, "properties": {"street_name": "MONT-MARTIN", "sales": 10, "sales_appt": 0, "sales_maison": 0, "median_price": 291500.0, "median_price_per_sqm": null, "turnover_score": 11.5, "turnover_rank": 24, "first_year": 2021, "last_year": 2024, "years_active": 3}}, {"type": "Feature", "geometry": {"type": "Point", "coordinates": [3.040774, 48.815538000000004]}, "properties": {"street_name": "AV DE VILLEPERDUE", "sales": 10, "sales_appt": 0, "sales_maison": 2, "median_price": 135000.0, "median_price_per_sqm": 1816.9240669240671, "turnover_score": 11.5, "turnover_rank": 24, "first_year": 2021, "last_year": 2024, "years_active": 4}}, {"type": "Feature", "geometry": {"type": "Point", "coordinates": [3.065952, 48.804566]}, "properties": {"street_name": "RUE DES VIGNERONS", "sales": 10, "sales_appt": 2, "sales_maison": 5, "median_price": 185000.0, "median_price_per_sqm": 2421.875, "turnover_score": 11.5, "turnover_rank": 24, "first_year": 2021, "last_year": 2025, "years_active": 4}}, {"type": "Feature", "geometry": {"type": "Point", "coordinates": [3.042007, 48.821163]}, "properties": {"street_name": "LE PT MOUROUX", "sales": 10, "sales_appt": 0, "sales_maison": 0, "median_price": 121500.0, "median_price_per_sqm": null, "turnover_score": 11.5, "turnover_rank": 24, "first_year": 2022, "last_year": 2024, "years_active": 3}}, {"type": "Feature", "geometry": {"type": "Point", "coordinates": [3.066089, 48.821082000000004]}, "properties": {"street_name": "LES MOULINS NEUFS", "sales": 10, "sales_appt": 0, "sales_maison": 0, "median_price": 15000.0, "median_price_per_sqm": null, "turnover_score": 11.5, "turnover_rank": 24, "first_year": 2021, "last_year": 2025, "years_active": 3}}, {"type": "Feature", "geometry": {"type": "Point", "coordinates": [3.073905, 48.821968]}, "properties": {"street_name": "RUE DU MOULIN TROCHARD", "sales": 10, "sales_appt": 0, "sales_maison": 4, "median_price": 550000.0, "median_price_per_sqm": 1150.6276150627616, "turnover_score": 11.5, "turnover_rank": 24, "first_year": 2025, "last_year": 2025, "years_active": 1}}, {"type": "Feature", "geometry": {"type": "Point", "coordinates": [3.048964, 48.823038]}, "properties": {"street_name": "CHP CANET", "sales": 9, "sales_appt": 0, "sales_maison": 0, "median_price": 225000.0, "median_price_per_sqm": null, "turnover_score": 10.3, "turnover_rank": 25, "first_year": 2021, "last_year": 2024, "years_active": 4}}, {"type": "Feature", "geometry": {"type": "Point", "coordinates": [3.052415, 48.813192]}, "properties": {"street_name": "RUE DU CHAMP JOLI", "sales": 9, "sales_appt": 0, "sales_maison": 2, "median_price": 265000.0, "median_price_per_sqm": 4206.349206349207, "turnover_score": 10.3, "turnover_rank": 25, "first_year": 2022, "last_year": 2022, "years_active": 1}}, {"type": "Feature", "geometry": {"type": "Point", "coordinates": [3.025631, 48.827629]}, "properties": {"street_name": "RUE DU COTOY", "sales": 9, "sales_appt": 0, "sales_maison": 4, "median_price": 192000.0, "median_price_per_sqm": 2689.7645789707467, "turnover_score": 10.3, "turnover_rank": 25, "first_year": 2022, "last_year": 2025, "years_active": 3}}, {"type": "Feature", "geometry": {"type": "Point", "coordinates": [3.064578, 48.803783]}, "properties": {"street_name": "RUE ST VINCENT", "sales": 9, "sales_appt": 0, "sales_maison": 4, "median_price": 270000.0, "median_price_per_sqm": 2282.3529411764703, "turnover_score": 10.3, "turnover_rank": 25, "first_year": 2021, "last_year": 2025, "years_active": 4}}, {"type": "Feature", "geometry": {"type": "Point", "coordinates": [3.030515, 48.829672]}, "properties": {"street_name": "RUE DE LA TROUSS COTT", "sales": 9, "sales_appt": 1, "sales_maison": 5, "median_price": 268850.0, "median_price_per_sqm": 2682.2722127900397, "turnover_score": 10.3, "turnover_rank": 25, "first_year": 2022, "last_year": 2025, "years_active": 3}}, {"type": "Feature", "geometry": {"type": "Point", "coordinates": [3.037877, 48.822466]}, "properties": {"street_name": "RUE ABEL LEBLANC", "sales": 9, "sales_appt": 0, "sales_maison": 5, "median_price": 380525.0, "median_price_per_sqm": 3308.913043478261, "turnover_score": 10.3, "turnover_rank": 25, "first_year": 2021, "last_year": 2023, "years_active": 3}}, {"type": "Feature", "geometry": {"type": "Point", "coordinates": [3.065346, 48.809185]}, "properties": {"street_name": "LES TROIS FONTAINES", "sales": 9, "sales_appt": 0, "sales_maison": 0, "median_price": 242000.0, "median_price_per_sqm": null, "turnover_score": 10.3, "turnover_rank": 25, "first_year": 2021, "last_year": 2022, "years_active": 2}}, {"type": "Feature", "geometry": {"type": "Point", "coordinates": [3.03339, 48.830712]}, "properties": {"street_name": "RUE DE LA GRANGE AUX DIMES", "sales": 9, "sales_appt": 0, "sales_maison": 8, "median_price": 240000.0, "median_price_per_sqm": 2854.9240681086058, "turnover_score": 10.3, "turnover_rank": 25, "first_year": 2021, "last_year": 2025, "years_active": 5}}, {"type": "Feature", "geometry": {"type": "Point", "coordinates": [3.049116, 48.825529]}, "properties": {"street_name": "LES BROSSES", "sales": 9, "sales_appt": 0, "sales_maison": 0, "median_price": 312590.0, "median_price_per_sqm": null, "turnover_score": 10.3, "turnover_rank": 25, "first_year": 2023, "last_year": 2023, "years_active": 1}}, {"type": "Feature", "geometry": {"type": "Point", "coordinates": [3.038077, 48.821724]}, "properties": {"street_name": "PL DE LA MAIRIE", "sales": 9, "sales_appt": 1, "sales_maison": 3, "median_price": 190000.0, "median_price_per_sqm": 2021.276595744681, "turnover_score": 10.3, "turnover_rank": 25, "first_year": 2022, "last_year": 2025, "years_active": 3}}, {"type": "Feature", "geometry": {"type": "Point", "coordinates": [3.0620415, 48.804734]}, "properties": {"street_name": "RUE DE L ECOLE", "sales": 8, "sales_appt": 0, "sales_maison": 6, "median_price": 230000.0, "median_price_per_sqm": 2804.878048780488, "turnover_score": 9.2, "turnover_rank": 26, "first_year": 2021, "last_year": 2024, "years_active": 4}}, {"type": "Feature", "geometry": {"type": "Point", "coordinates": [3.0321165, 48.8285955]}, "properties": {"street_name": "RUE DE LA MARDOTTE", "sales": 8, "sales_appt": 0, "sales_maison": 6, "median_price": 932500.0, "median_price_per_sqm": 7142.857142857143, "turnover_score": 9.2, "turnover_rank": 26, "first_year": 2023, "last_year": 2025, "years_active": 3}}, {"type": "Feature", "geometry": {"type": "Point", "coordinates": [3.028104, 48.8270205]}, "properties": {"street_name": "LES PARUCHES", "sales": 8, "sales_appt": 0, "sales_maison": 0, "median_price": 134000.0, "median_price_per_sqm": null, "turnover_score": 9.2, "turnover_rank": 26, "first_year": 2021, "last_year": 2025, "years_active": 4}}, {"type": "Feature", "geometry": {"type": "Point", "coordinates": [3.028909, 48.830687999999995]}, "properties": {"street_name": "RUE DE LA CROIX DES GRES", "sales": 8, "sales_appt": 0, "sales_maison": 7, "median_price": 284500.0, "median_price_per_sqm": 2625.225225225225, "turnover_score": 9.2, "turnover_rank": 26, "first_year": 2021, "last_year": 2025, "years_active": 3}}, {"type": "Feature", "geometry": {"type": "Point", "coordinates": [3.031764, 48.8299495]}, "properties": {"street_name": "RUE DES PETUNIAS", "sales": 8, "sales_appt": 0, "sales_maison": 4, "median_price": 242500.0, "median_price_per_sqm": 1831.291921843103, "turnover_score": 9.2, "turnover_rank": 26, "first_year": 2021, "last_year": 2022, "years_active": 2}}, {"type": "Feature", "geometry": {"type": "Point", "coordinates": [3.0506705, 48.822070499999995]}, "properties": {"street_name": "BOIS GUYOT", "sales": 8, "sales_appt": 0, "sales_maison": 0, "median_price": 182500.0, "median_price_per_sqm": null, "turnover_score": 9.2, "turnover_rank": 26, "first_year": 2021, "last_year": 2023, "years_active": 3}}, {"type": "Feature", "geometry": {"type": "Point", "coordinates": [3.0538945, 48.8072985]}, "properties": {"street_name": "LE BOIS DE LA COUR", "sales": 8, "sales_appt": 0, "sales_maison": 0, "median_price": 2500.0, "median_price_per_sqm": null, "turnover_score": 9.2, "turnover_rank": 26, "first_year": 2022, "last_year": 2025, "years_active": 4}}, {"type": "Feature", "geometry": {"type": "Point", "coordinates": [3.039995, 48.827086]}, "properties": {"street_name": "RUE DES MESANGES", "sales": 7, "sales_appt": 0, "sales_maison": 4, "median_price": 224600.0, "median_price_per_sqm": 2519.700460829493, "turnover_score": 8.0, "turnover_rank": 27, "first_year": 2023, "last_year": 2024, "years_active": 2}}, {"type": "Feature", "geometry": {"type": "Point", "coordinates": [3.052796, 48.816942]}, "properties": {"street_name": "RUE JEAN MONNET", "sales": 7, "sales_appt": 2, "sales_maison": 0, "median_price": 1220000.0, "median_price_per_sqm": 3297.2972972972975, "turnover_score": 8.0, "turnover_rank": 27, "first_year": 2022, "last_year": 2023, "years_active": 2}}, {"type": "Feature", "geometry": {"type": "Point", "coordinates": [3.056791, 48.820961]}, "properties": {"street_name": "LE CHP DU FOUR", "sales": 7, "sales_appt": 0, "sales_maison": 2, "median_price": 90000.0, "median_price_per_sqm": 1347.6923076923076, "turnover_score": 8.0, "turnover_rank": 27, "first_year": 2021, "last_year": 2022, "years_active": 2}}, {"type": "Feature", "geometry": {"type": "Point", "coordinates": [3.045148, 48.822317]}, "properties": {"street_name": "LE CHP JUS", "sales": 7, "sales_appt": 0, "sales_maison": 0, "median_price": 434000.0, "median_price_per_sqm": null, "turnover_score": 8.0, "turnover_rank": 27, "first_year": 2022, "last_year": 2023, "years_active": 2}}, {"type": "Feature", "geometry": {"type": "Point", "coordinates": [3.044124, 48.821491]}, "properties": {"street_name": "RUE DU CHAMP LANDRY", "sales": 7, "sales_appt": 0, "sales_maison": 7, "median_price": 210000.0, "median_price_per_sqm": 2500.0, "turnover_score": 8.0, "turnover_rank": 27, "first_year": 2021, "last_year": 2025, "years_active": 3}}, {"type": "Feature", "geometry": {"type": "Point", "coordinates": [3.06625, 48.803033]}, "properties": {"street_name": "RUE DE LA BUTTE", "sales": 7, "sales_appt": 1, "sales_maison": 3, "median_price": 153000.0, "median_price_per_sqm": 2469.858156028369, "turnover_score": 8.0, "turnover_rank": 27, "first_year": 2021, "last_year": 2025, "years_active": 5}}, {"type": "Feature", "geometry": {"type": "Point", "coordinates": [3.029139, 48.826906]}, "properties": {"street_name": "RUE DES PARUCHES", "sales": 7, "sales_appt": 0, "sales_maison": 3, "median_price": 150000.0, "median_price_per_sqm": 2830.188679245283, "turnover_score": 8.0, "turnover_rank": 27, "first_year": 2021, "last_year": 2025, "years_active": 3}}, {"type": "Feature", "geometry": {"type": "Point", "coordinates": [3.040696, 48.824738]}, "properties": {"street_name": "RUE DES ALLELUIAS", "sales": 7, "sales_appt": 0, "sales_maison": 7, "median_price": 334600.0, "median_price_per_sqm": 3379.7979797979797, "turnover_score": 8.0, "turnover_rank": 27, "first_year": 2021, "last_year": 2022, "years_active": 2}}, {"type": "Feature", "geometry": {"type": "Point", "coordinates": [3.047056, 48.817469]}, "properties": {"street_name": "CHP DE LA COUTURE", "sales": 7, "sales_appt": 0, "sales_maison": 0, "median_price": 43535.0, "median_price_per_sqm": null, "turnover_score": 8.0, "turnover_rank": 27, "first_year": 2021, "last_year": 2024, "years_active": 4}}, {"type": "Feature", "geometry": {"type": "Point", "coordinates": [3.063633, 48.82052]}, "properties": {"street_name": "LE BOIS BRIBE", "sales": 7, "sales_appt": 0, "sales_maison": 0, "median_price": 15000.0, "median_price_per_sqm": null, "turnover_score": 8.0, "turnover_rank": 27, "first_year": 2021, "last_year": 2021, "years_active": 1}}, {"type": "Feature", "geometry": {"type": "Point", "coordinates": [3.062593, 48.820352]}, "properties": {"street_name": "RUE AUX PRETRES", "sales": 7, "sales_appt": 0, "sales_maison": 1, "median_price": 401900.0, "median_price_per_sqm": 2697.3154362416108, "turnover_score": 8.0, "turnover_rank": 27, "first_year": 2022, "last_year": 2022, "years_active": 1}}, {"type": "Feature", "geometry": {"type": "Point", "coordinates": [3.0256825000000003, 48.825275000000005]}, "properties": {"street_name": "LE BOIS DES FOSSES", "sales": 6, "sales_appt": 0, "sales_maison": 0, "median_price": 422000.0, "median_price_per_sqm": null, "turnover_score": 6.9, "turnover_rank": 28, "first_year": 2022, "last_year": 2024, "years_active": 2}}, {"type": "Feature", "geometry": {"type": "Point", "coordinates": [3.057057, 48.818232]}, "properties": {"street_name": "RUE DES NOUEES", "sales": 6, "sales_appt": 0, "sales_maison": 4, "median_price": 300000.0, "median_price_per_sqm": 4600.0, "turnover_score": 6.9, "turnover_rank": 28, "first_year": 2021, "last_year": 2025, "years_active": 2}}, {"type": "Feature", "geometry": {"type": "Point", "coordinates": [3.047151, 48.818615]}, "properties": {"street_name": "RUE PIERRE MENDES-FRANCE", "sales": 6, "sales_appt": 0, "sales_maison": 4, "median_price": 260000.0, "median_price_per_sqm": 2436.2753036437243, "turnover_score": 6.9, "turnover_rank": 28, "first_year": 2022, "last_year": 2025, "years_active": 2}}, {"type": "Feature", "geometry": {"type": "Point", "coordinates": [3.064548, 48.804430499999995]}, "properties": {"street_name": "RUE FOULONS", "sales": 6, "sales_appt": 1, "sales_maison": 0, "median_price": 105000.0, "median_price_per_sqm": 3290.3225806451615, "turnover_score": 6.9, "turnover_rank": 28, "first_year": 2021, "last_year": 2022, "years_active": 2}}, {"type": "Feature", "geometry": {"type": "Point", "coordinates": [3.0394795, 48.821715999999995]}, "properties": {"street_name": "RUE DU CHEMIN VERT", "sales": 6, "sales_appt": 0, "sales_maison": 4, "median_price": 182500.0, "median_price_per_sqm": 2410.78753076292, "turnover_score": 6.9, "turnover_rank": 28, "first_year": 2021, "last_year": 2023, "years_active": 3}}, {"type": "Feature", "geometry": {"type": "Point", "coordinates": [3.033793, 48.825692]}, "properties": {"street_name": "RUE GAMBETTA", "sales": 6, "sales_appt": 0, "sales_maison": 5, "median_price": 280000.0, "median_price_per_sqm": 2933.3333333333335, "turnover_score": 6.9, "turnover_rank": 28, "first_year": 2021, "last_year": 2023, "years_active": 2}}, {"type": "Feature", "geometry": {"type": "Point", "coordinates": [3.0616865, 48.806588500000004]}, "properties": {"street_name": "LES COURROIS", "sales": 6, "sales_appt": 0, "sales_maison": 0, "median_price": 233000.0, "median_price_per_sqm": null, "turnover_score": 6.9, "turnover_rank": 28, "first_year": 2022, "last_year": 2025, "years_active": 3}}, {"type": "Feature", "geometry": {"type": "Point", "coordinates": [3.057515, 48.824099]}, "properties": {"street_name": "LES AISANCES", "sales": 6, "sales_appt": 0, "sales_maison": 0, "median_price": 22500.0, "median_price_per_sqm": null, "turnover_score": 6.9, "turnover_rank": 28, "first_year": 2022, "last_year": 2023, "years_active": 2}}, {"type": "Feature", "geometry": {"type": "Point", "coordinates": [3.064007, 48.817731]}, "properties": {"street_name": "LE CHP DE LA MAHONNE", "sales": 6, "sales_appt": 0, "sales_maison": 0, "median_price": 12500.0, "median_price_per_sqm": null, "turnover_score": 6.9, "turnover_rank": 28, "first_year": 2024, "last_year": 2024, "years_active": 1}}, {"type": "Feature", "geometry": {"type": "Point", "coordinates": [3.069824, 48.810055]}, "properties": {"street_name": "LA RUE CREUSE", "sales": 6, "sales_appt": 0, "sales_maison": 2, "median_price": 80000.0, "median_price_per_sqm": 4000.0, "turnover_score": 6.9, "turnover_rank": 28, "first_year": 2022, "last_year": 2022, "years_active": 1}}, {"type": "Feature", "geometry": {"type": "Point", "coordinates": [3.066225, 48.8070855]}, "properties": {"street_name": "LA FOSSE MONDOT", "sales": 6, "sales_appt": 0, "sales_maison": 0, "median_price": 3500.0, "median_price_per_sqm": null, "turnover_score": 6.9, "turnover_rank": 28, "first_year": 2022, "last_year": 2022, "years_active": 1}}, {"type": "Feature", "geometry": {"type": "Point", "coordinates": [3.0497855, 48.821437]}, "properties": {"street_name": "LA FOSSE AUX LIEVRES", "sales": 6, "sales_appt": 0, "sales_maison": 0, "median_price": 365000.0, "median_price_per_sqm": null, "turnover_score": 6.9, "turnover_rank": 28, "first_year": 2021, "last_year": 2025, "years_active": 4}}, {"type": "Feature", "geometry": {"type": "Point", "coordinates": [3.0373055, 48.831279499999994]}, "properties": {"street_name": "LES PRES DE BOUSSOIS", "sales": 6, "sales_appt": 0, "sales_maison": 0, "median_price": 146110.8, "median_price_per_sqm": null, "turnover_score": 6.9, "turnover_rank": 28, "first_year": 2021, "last_year": 2025, "years_active": 4}}, {"type": "Feature", "geometry": {"type": "Point", "coordinates": [3.052737, 48.826675]}, "properties": {"street_name": "LES CRABOCHES", "sales": 6, "sales_appt": 0, "sales_maison": 0, "median_price": 21300.0, "median_price_per_sqm": null, "turnover_score": 6.9, "turnover_rank": 28, "first_year": 2022, "last_year": 2025, "years_active": 3}}, {"type": "Feature", "geometry": {"type": "Point", "coordinates": [3.037395, 48.821365]}, "properties": {"street_name": "MOUROUX", "sales": 6, "sales_appt": 0, "sales_maison": 0, "median_price": 204500.0, "median_price_per_sqm": null, "turnover_score": 6.9, "turnover_rank": 28, "first_year": 2023, "last_year": 2024, "years_active": 2}}, {"type": "Feature", "geometry": {"type": "Point", "coordinates": [3.029278, 48.824698]}, "properties": {"street_name": "LES CAROUGELES", "sales": 6, "sales_appt": 0, "sales_maison": 0, "median_price": 3000.0, "median_price_per_sqm": null, "turnover_score": 6.9, "turnover_rank": 28, "first_year": 2022, "last_year": 2025, "years_active": 2}}, {"type": "Feature", "geometry": {"type": "Point", "coordinates": [3.060612, 48.810204]}, "properties": {"street_name": "LES CHALVERGNES", "sales": 5, "sales_appt": 0, "sales_maison": 0, "median_price": 3000.0, "median_price_per_sqm": null, "turnover_score": 5.7, "turnover_rank": 29, "first_year": 2021, "last_year": 2024, "years_active": 3}}, {"type": "Feature", "geometry": {"type": "Point", "coordinates": [3.038923, 48.820012]}, "properties": {"street_name": "LES AUCHES", "sales": 5, "sales_appt": 0, "sales_maison": 0, "median_price": 449900.0, "median_price_per_sqm": null, "turnover_score": 5.7, "turnover_rank": 29, "first_year": 2023, "last_year": 2023, "years_active": 1}}, {"type": "Feature", "geometry": {"type": "Point", "coordinates": [3.025074, 48.82408]}, "properties": {"street_name": "RUE DE LA DANSERIE", "sales": 5, "sales_appt": 0, "sales_maison": 5, "median_price": 57000.0, "median_price_per_sqm": 3500.0, "turnover_score": 5.7, "turnover_rank": 29, "first_year": 2023, "last_year": 2024, "years_active": 2}}, {"type": "Feature", "geometry": {"type": "Point", "coordinates": [3.02475, 48.828567]}, "properties": {"street_name": "RUE DE MONTMARTIN", "sales": 5, "sales_appt": 0, "sales_maison": 2, "median_price": 230749.0, "median_price_per_sqm": 2345.0968614718613, "turnover_score": 5.7, "turnover_rank": 29, "first_year": 2021, "last_year": 2025, "years_active": 3}}, {"type": "Feature", "geometry": {"type": "Point", "coordinates": [3.065279, 48.823002]}, "properties": {"street_name": "LE PT MITHEUIL", "sales": 5, "sales_appt": 0, "sales_maison": 0, "median_price": 200000.0, "median_price_per_sqm": null, "turnover_score": 5.7, "turnover_rank": 29, "first_year": 2021, "last_year": 2024, "years_active": 3}}, {"type": "Feature", "geometry": {"type": "Point", "coordinates": [3.056729, 48.817478]}, "properties": {"street_name": "AV DE PARIS", "sales": 5, "sales_appt": 0, "sales_maison": 3, "median_price": 143000.0, "median_price_per_sqm": 2704.081632653061, "turnover_score": 5.7, "turnover_rank": 29, "first_year": 2021, "last_year": 2024, "years_active": 3}}, {"type": "Feature", "geometry": {"type": "Point", "coordinates": [3.065256, 48.825301]}, "properties": {"street_name": "LA MALADRERIE", "sales": 5, "sales_appt": 0, "sales_maison": 0, "median_price": 375000.0, "median_price_per_sqm": null, "turnover_score": 5.7, "turnover_rank": 29, "first_year": 2023, "last_year": 2023, "years_active": 1}}, {"type": "Feature", "geometry": {"type": "Point", "coordinates": [3.024681, 48.822499]}, "properties": {"street_name": "LA DANSERIE", "sales": 5, "sales_appt": 0, "sales_maison": 0, "median_price": 63000.0, "median_price_per_sqm": null, "turnover_score": 5.7, "turnover_rank": 29, "first_year": 2022, "last_year": 2022, "years_active": 1}}, {"type": "Feature", "geometry": {"type": "Point", "coordinates": [3.039764, 48.815591]}, "properties": {"street_name": "ALL DU CENTAURE", "sales": 5, "sales_appt": 0, "sales_maison": 4, "median_price": 200000.0, "median_price_per_sqm": 2198.168498168498, "turnover_score": 5.7, "turnover_rank": 29, "first_year": 2021, "last_year": 2024, "years_active": 3}}, {"type": "Feature", "geometry": {"type": "Point", "coordinates": [3.04598, 48.820667]}, "properties": {"street_name": "RUE TRUCHOT", "sales": 5, "sales_appt": 0, "sales_maison": 4, "median_price": 283000.0, "median_price_per_sqm": 2330.5137844611527, "turnover_score": 5.7, "turnover_rank": 29, "first_year": 2022, "last_year": 2025, "years_active": 3}}, {"type": "Feature", "geometry": {"type": "Point", "coordinates": [3.04026, 48.8265495]}, "properties": {"street_name": "RUE DU CHAMPS GERARD", "sales": 4, "sales_appt": 0, "sales_maison": 4, "median_price": 274850.0, "median_price_per_sqm": 2768.0952380952385, "turnover_score": 4.6, "turnover_rank": 30, "first_year": 2022, "last_year": 2025, "years_active": 3}}, {"type": "Feature", "geometry": {"type": "Point", "coordinates": [3.0324774999999997, 48.829291]}, "properties": {"street_name": "CHE DE LA MARDOTTE", "sales": 4, "sales_appt": 0, "sales_maison": 4, "median_price": 353850.0, "median_price_per_sqm": 2552.0967326987393, "turnover_score": 4.6, "turnover_rank": 30, "first_year": 2021, "last_year": 2024, "years_active": 3}}, {"type": "Feature", "geometry": {"type": "Point", "coordinates": [3.027932, 48.829955999999996]}, "properties": {"street_name": "ALL DU CHATEAU D'EAU", "sales": 4, "sales_appt": 0, "sales_maison": 1, "median_price": 135000.0, "median_price_per_sqm": 2011.4942528735633, "turnover_score": 4.6, "turnover_rank": 30, "first_year": 2021, "last_year": 2025, "years_active": 2}}, {"type": "Feature", "geometry": {"type": "Point", "coordinates": [3.0394025, 48.816762]}, "properties": {"street_name": "VILLEPERDUE", "sales": 4, "sales_appt": 0, "sales_maison": 0, "median_price": 375000.0, "median_price_per_sqm": null, "turnover_score": 4.6, "turnover_rank": 30, "first_year": 2021, "last_year": 2024, "years_active": 2}}, {"type": "Feature", "geometry": {"type": "Point", "coordinates": [3.0595435, 48.8092085]}, "properties": {"street_name": "LE BOIS DES JARDINS", "sales": 4, "sales_appt": 0, "sales_maison": 0, "median_price": 3000.0, "median_price_per_sqm": null, "turnover_score": 4.6, "turnover_rank": 30, "first_year": 2022, "last_year": 2022, "years_active": 1}}, {"type": "Feature", "geometry": {"type": "Point", "coordinates": [3.030469, 48.827047]}, "properties": {"street_name": "LES PRES DE VOISINS", "sales": 4, "sales_appt": 0, "sales_maison": 0, "median_price": 699500.0, "median_price_per_sqm": null, "turnover_score": 4.6, "turnover_rank": 30, "first_year": 2021, "last_year": 2023, "years_active": 2}}, {"type": "Feature", "geometry": {"type": "Point", "coordinates": [3.0544624999999996, 48.809891]}, "properties": {"street_name": "LE BOIS DU THEIL", "sales": 4, "sales_appt": 0, "sales_maison": 0, "median_price": 2500.0, "median_price_per_sqm": null, "turnover_score": 4.6, "turnover_rank": 30, "first_year": 2022, "last_year": 2024, "years_active": 2}}, {"type": "Feature", "geometry": {"type": "Point", "coordinates": [3.042142, 48.823968]}, "properties": {"street_name": "RES DES ALLELUIAS", "sales": 4, "sales_appt": 0, "sales_maison": 3, "median_price": 291000.0, "median_price_per_sqm": 2789.915966386555, "turnover_score": 4.6, "turnover_rank": 30, "first_year": 2021, "last_year": 2023, "years_active": 3}}, {"type": "Feature", "geometry": {"type": "Point", "coordinates": [3.029462, 48.829803]}, "properties": {"street_name": "RUE DE LA FERME DE VOISINS", "sales": 4, "sales_appt": 0, "sales_maison": 2, "median_price": 247500.0, "median_price_per_sqm": 3125.0, "turnover_score": 4.6, "turnover_rank": 30, "first_year": 2023, "last_year": 2025, "years_active": 2}}, {"type": "Feature", "geometry": {"type": "Point", "coordinates": [3.060898, 48.818708]}, "properties": {"street_name": "RUE DU BOIS POUTY", "sales": 4, "sales_appt": 0, "sales_maison": 2, "median_price": 560000.0, "median_price_per_sqm": 2800.0, "turnover_score": 4.6, "turnover_rank": 30, "first_year": 2021, "last_year": 2021, "years_active": 1}}, {"type": "Feature", "geometry": {"type": "Point", "coordinates": [3.0492635, 48.828648]}, "properties": {"street_name": "RUE DU RUISSEAU", "sales": 4, "sales_appt": 0, "sales_maison": 4, "median_price": 283850.0, "median_price_per_sqm": 3124.3197278911566, "turnover_score": 4.6, "turnover_rank": 30, "first_year": 2021, "last_year": 2025, "years_active": 2}}, {"type": "Feature", "geometry": {"type": "Point", "coordinates": [3.0413905000000003, 48.822384]}, "properties": {"street_name": "RUE ROBERT FOURNIER", "sales": 4, "sales_appt": 0, "sales_maison": 3, "median_price": 247500.0, "median_price_per_sqm": 2732.5581395348836, "turnover_score": 4.6, "turnover_rank": 30, "first_year": 2022, "last_year": 2024, "years_active": 2}}, {"type": "Feature", "geometry": {"type": "Point", "coordinates": [3.0672285, 48.809643]}, "properties": {"street_name": "RUE CREUSE", "sales": 4, "sales_appt": 0, "sales_maison": 2, "median_price": 162000.0, "median_price_per_sqm": 1779.4117647058824, "turnover_score": 4.6, "turnover_rank": 30, "first_year": 2021, "last_year": 2024, "years_active": 2}}, {"type": "Feature", "geometry": {"type": "Point", "coordinates": [3.0332965, 48.8333025]}, "properties": {"street_name": "RUE DE LA QUENOUILLE", "sales": 4, "sales_appt": 0, "sales_maison": 4, "median_price": 259575.0, "median_price_per_sqm": 2702.92482940788, "turnover_score": 4.6, "turnover_rank": 30, "first_year": 2021, "last_year": 2025, "years_active": 2}}, {"type": "Feature", "geometry": {"type": "Point", "coordinates": [3.023415, 48.827768]}, "properties": {"street_name": "CLOS DE MONTMARTIN", "sales": 3, "sales_appt": 0, "sales_maison": 3, "median_price": 305000.0, "median_price_per_sqm": 3112.2448979591836, "turnover_score": 3.4, "turnover_rank": 31, "first_year": 2021, "last_year": 2023, "years_active": 2}}, {"type": "Feature", "geometry": {"type": "Point", "coordinates": [3.061507, 48.806032]}, "properties": {"street_name": "ALL DU RU FUMELIER", "sales": 3, "sales_appt": 0, "sales_maison": 1, "median_price": 233000.0, "median_price_per_sqm": 3426.470588235294, "turnover_score": 3.4, "turnover_rank": 31, "first_year": 2023, "last_year": 2023, "years_active": 1}}, {"type": "Feature", "geometry": {"type": "Point", "coordinates": [3.057601, 48.82147]}, "properties": {"street_name": "LE CHAMP DU FOUR", "sales": 3, "sales_appt": 0, "sales_maison": 0, "median_price": 90000.0, "median_price_per_sqm": null, "turnover_score": 3.4, "turnover_rank": 31, "first_year": 2025, "last_year": 2025, "years_active": 1}}, {"type": "Feature", "geometry": {"type": "Point", "coordinates": [3.074896, 48.821821]}, "properties": {"street_name": "PRAIRIES DES GDS MAISONS", "sales": 3, "sales_appt": 0, "sales_maison": 0, "median_price": 550000.0, "median_price_per_sqm": null, "turnover_score": 3.4, "turnover_rank": 31, "first_year": 2025, "last_year": 2025, "years_active": 1}}, {"type": "Feature", "geometry": {"type": "Point", "coordinates": [3.05993, 48.846134]}, "properties": {"street_name": "MAISONNEUVE", "sales": 3, "sales_appt": 0, "sales_maison": 2, "median_price": 227000.0, "median_price_per_sqm": 3603.1746031746034, "turnover_score": 3.4, "turnover_rank": 31, "first_year": 2021, "last_year": 2021, "years_active": 1}}, {"type": "Feature", "geometry": {"type": "Point", "coordinates": [3.060992, 48.819518]}, "properties": {"street_name": "LE BOIS POUTY", "sales": 3, "sales_appt": 0, "sales_maison": 0, "median_price": 560000.0, "median_price_per_sqm": null, "turnover_score": 3.4, "turnover_rank": 31, "first_year": 2021, "last_year": 2021, "years_active": 1}}, {"type": "Feature", "geometry": {"type": "Point", "coordinates": [3.045188, 48.823913]}, "properties": {"street_name": "LES MAILLETINS", "sales": 3, "sales_appt": 0, "sales_maison": 0, "median_price": 1385.0, "median_price_per_sqm": null, "turnover_score": 3.4, "turnover_rank": 31, "first_year": 2022, "last_year": 2023, "years_active": 2}}, {"type": "Feature", "geometry": {"type": "Point", "coordinates": [3.063321, 48.803506]}, "properties": {"street_name": "RUE DE LA CROIX ST CLAUDE", "sales": 3, "sales_appt": 0, "sales_maison": 2, "median_price": 340000.0, "median_price_per_sqm": 2579.3246993524517, "turnover_score": 3.4, "turnover_rank": 31, "first_year": 2021, "last_year": 2022, "years_active": 2}}, {"type": "Feature", "geometry": {"type": "Point", "coordinates": [3.038845, 48.820198]}, "properties": {"street_name": "CHE DES OUCHES", "sales": 2, "sales_appt": 0, "sales_maison": 2, "median_price": 449900.0, "median_price_per_sqm": 2227.227722772277, "turnover_score": 2.3, "turnover_rank": 32, "first_year": 2023, "last_year": 2023, "years_active": 1}}, {"type": "Feature", "geometry": {"type": "Point", "coordinates": [3.0709225, 48.8230595]}, "properties": {"street_name": "LES HTES HOTTES", "sales": 2, "sales_appt": 0, "sales_maison": 0, "median_price": 82500.0, "median_price_per_sqm": null, "turnover_score": 2.3, "turnover_rank": 32, "first_year": 2021, "last_year": 2025, "years_active": 2}}, {"type": "Feature", "geometry": {"type": "Point", "coordinates": [3.057123, 48.818714]}, "properties": {"street_name": "LES SERBENOIS", "sales": 2, "sales_appt": 0, "sales_maison": 0, "median_price": 5446.0, "median_price_per_sqm": null, "turnover_score": 2.3, "turnover_rank": 32, "first_year": 2021, "last_year": 2021, "years_active": 1}}, {"type": "Feature", "geometry": {"type": "Point", "coordinates": [3.0678845, 48.807362499999996]}, "properties": {"street_name": "LES GRANDS SILLONS", "sales": 2, "sales_appt": 0, "sales_maison": 0, "median_price": 41500.0, "median_price_per_sqm": null, "turnover_score": 2.3, "turnover_rank": 32, "first_year": 2022, "last_year": 2023, "years_active": 2}}, {"type": "Feature", "geometry": {"type": "Point", "coordinates": [3.035872, 48.828793]}, "properties": {"street_name": "LES CHICOTETS", "sales": 2, "sales_appt": 0, "sales_maison": 0, "median_price": 3921854.5, "median_price_per_sqm": null, "turnover_score": 2.3, "turnover_rank": 32, "first_year": 2022, "last_year": 2022, "years_active": 1}}, {"type": "Feature", "geometry": {"type": "Point", "coordinates": [3.033191, 48.823243000000005]}, "properties": {"street_name": "LE CHP DES VIGNES", "sales": 2, "sales_appt": 0, "sales_maison": 0, "median_price": 725.0, "median_price_per_sqm": null, "turnover_score": 2.3, "turnover_rank": 32, "first_year": 2022, "last_year": 2022, "years_active": 1}}, {"type": "Feature", "geometry": {"type": "Point", "coordinates": [3.032295, 48.835699000000005]}, "properties": {"street_name": "LE CHEM DE BOUSSOIS", "sales": 2, "sales_appt": 0, "sales_maison": 0, "median_price": 25000.0, "median_price_per_sqm": null, "turnover_score": 2.3, "turnover_rank": 32, "first_year": 2021, "last_year": 2021, "years_active": 1}}, {"type": "Feature", "geometry": {"type": "Point", "coordinates": [3.063865, 48.819352499999994]}, "properties": {"street_name": "LE CHP DE LA CLOCHE AU LIN", "sales": 2, "sales_appt": 0, "sales_maison": 0, "median_price": 15000.0, "median_price_per_sqm": null, "turnover_score": 2.3, "turnover_rank": 32, "first_year": 2021, "last_year": 2021, "years_active": 1}}, {"type": "Feature", "geometry": {"type": "Point", "coordinates": [3.0507445, 48.8201385]}, "properties": {"street_name": "LE CHP DU BOIS GUYOT", "sales": 2, "sales_appt": 0, "sales_maison": 0, "median_price": 3000.0, "median_price_per_sqm": null, "turnover_score": 2.3, "turnover_rank": 32, "first_year": 2022, "last_year": 2022, "years_active": 1}}, {"type": "Feature", "geometry": {"type": "Point", "coordinates": [3.040379, 48.827115]}, "properties": {"street_name": "RUE DES CHARDONNERETS", "sales": 2, "sales_appt": 0, "sales_maison": 1, "median_price": 255000.0, "median_price_per_sqm": 2865.1685393258426, "turnover_score": 2.3, "turnover_rank": 32, "first_year": 2025, "last_year": 2025, "years_active": 1}}, {"type": "Feature", "geometry": {"type": "Point", "coordinates": [3.07467, 48.818852]}, "properties": {"street_name": "RUE EMILE ZOLA", "sales": 2, "sales_appt": 0, "sales_maison": 1, "median_price": 210000.0, "median_price_per_sqm": 1615.3846153846155, "turnover_score": 2.3, "turnover_rank": 32, "first_year": 2025, "last_year": 2025, "years_active": 1}}, {"type": "Feature", "geometry": {"type": "Point", "coordinates": [3.065004, 48.803036]}, "properties": {"street_name": "RUE SAINT VINCENT", "sales": 2, "sales_appt": 0, "sales_maison": 2, "median_price": 313000.0, "median_price_per_sqm": 4471.428571428572, "turnover_score": 2.3, "turnover_rank": 32, "first_year": 2025, "last_year": 2025, "years_active": 1}}, {"type": "Feature", "geometry": {"type": "Point", "coordinates": [3.073593, 48.816799]}, "properties": {"street_name": "RUE DES GRANDES MAISONS", "sales": 2, "sales_appt": 0, "sales_maison": 1, "median_price": 255000.0, "median_price_per_sqm": 3109.756097560976, "turnover_score": 2.3, "turnover_rank": 32, "first_year": 2023, "last_year": 2023, "years_active": 1}}, {"type": "Feature", "geometry": {"type": "Point", "coordinates": [3.0660165, 48.808486]}, "properties": {"street_name": "LES TRAVERS", "sales": 2, "sales_appt": 0, "sales_maison": 0, "median_price": 3342.0, "median_price_per_sqm": null, "turnover_score": 2.3, "turnover_rank": 32, "first_year": 2021, "last_year": 2021, "years_active": 1}}, {"type": "Feature", "geometry": {"type": "Point", "coordinates": [3.063778, 48.806236999999996]}, "properties": {"street_name": "LES PARREUX", "sales": 2, "sales_appt": 0, "sales_maison": 0, "median_price": 2750.0, "median_price_per_sqm": null, "turnover_score": 2.3, "turnover_rank": 32, "first_year": 2022, "last_year": 2023, "years_active": 2}}, {"type": "Feature", "geometry": {"type": "Point", "coordinates": [3.023008, 48.824303]}, "properties": {"street_name": "CHE DE LA REPUBLIQUE", "sales": 2, "sales_appt": 0, "sales_maison": 1, "median_price": 200000.0, "median_price_per_sqm": 2150.537634408602, "turnover_score": 2.3, "turnover_rank": 32, "first_year": 2021, "last_year": 2021, "years_active": 1}}, {"type": "Feature", "geometry": {"type": "Point", "coordinates": [3.0679629999999998, 48.823153500000004]}, "properties": {"street_name": "LES PLATRIERES", "sales": 2, "sales_appt": 0, "sales_maison": 0, "median_price": 15000.0, "median_price_per_sqm": null, "turnover_score": 2.3, "turnover_rank": 32, "first_year": 2021, "last_year": 2021, "years_active": 1}}, {"type": "Feature", "geometry": {"type": "Point", "coordinates": [3.067311, 48.809443]}, "properties": {"street_name": "LES TERRAPEAUX", "sales": 2, "sales_appt": 0, "sales_maison": 1, "median_price": 41200.0, "median_price_per_sqm": 1863.6363636363637, "turnover_score": 2.3, "turnover_rank": 32, "first_year": 2024, "last_year": 2024, "years_active": 1}}, {"type": "Feature", "geometry": {"type": "Point", "coordinates": [3.058274, 48.85005]}, "properties": {"street_name": "LA JUSTICE", "sales": 1, "sales_appt": 0, "sales_maison": 0, "median_price": 241501.0, "median_price_per_sqm": null, "turnover_score": 1.1, "turnover_rank": 33, "first_year": 2022, "last_year": 2022, "years_active": 1}}, {"type": "Feature", "geometry": {"type": "Point", "coordinates": [3.05455, 48.823312]}, "properties": {"street_name": "LE BOIS CAMUS", "sales": 1, "sales_appt": 0, "sales_maison": 0, "median_price": 73000.0, "median_price_per_sqm": null, "turnover_score": 1.1, "turnover_rank": 33, "first_year": 2023, "last_year": 2023, "years_active": 1}}, {"type": "Feature", "geometry": {"type": "Point", "coordinates": [3.01493, 48.832454]}, "properties": {"street_name": "LA CHAPELLE DE CHERU", "sales": 1, "sales_appt": 0, "sales_maison": 0, "median_price": 20000.0, "median_price_per_sqm": null, "turnover_score": 1.1, "turnover_rank": 33, "first_year": 2024, "last_year": 2024, "years_active": 1}}, {"type": "Feature", "geometry": {"type": "Point", "coordinates": [3.035218, 48.831314]}, "properties": {"street_name": "IMP DE LA SOURCE", "sales": 1, "sales_appt": 0, "sales_maison": 1, "median_price": 280000.0, "median_price_per_sqm": 2522.5225225225226, "turnover_score": 1.1, "turnover_rank": 33, "first_year": 2021, "last_year": 2021, "years_active": 1}}, {"type": "Feature", "geometry": {"type": "Point", "coordinates": [3.054263, 48.809253]}, "properties": {"street_name": "LA FOSSE MALIERE", "sales": 1, "sales_appt": 0, "sales_maison": 0, "median_price": 3000.0, "median_price_per_sqm": null, "turnover_score": 1.1, "turnover_rank": 33, "first_year": 2022, "last_year": 2022, "years_active": 1}}, {"type": "Feature", "geometry": {"type": "Point", "coordinates": [3.036737, 48.826983]}, "properties": {"street_name": "LA HAIE BENOIST", "sales": 1, "sales_appt": 0, "sales_maison": 0, "median_price": 18000.0, "median_price_per_sqm": null, "turnover_score": 1.1, "turnover_rank": 33, "first_year": 2021, "last_year": 2021, "years_active": 1}}, {"type": "Feature", "geometry": {"type": "Point", "coordinates": [3.027185, 48.831106]}, "properties": {"street_name": "CHP DES BUTTES", "sales": 1, "sales_appt": 0, "sales_maison": 0, "median_price": 1706.0, "median_price_per_sqm": null, "turnover_score": 1.1, "turnover_rank": 33, "first_year": 2024, "last_year": 2024, "years_active": 1}}, {"type": "Feature", "geometry": {"type": "Point", "coordinates": [3.022931, 48.828058]}, "properties": {"street_name": "CHAMPANCOURT", "sales": 1, "sales_appt": 0, "sales_maison": 0, "median_price": 360000.0, "median_price_per_sqm": null, "turnover_score": 1.1, "turnover_rank": 33, "first_year": 2021, "last_year": 2021, "years_active": 1}}, {"type": "Feature", "geometry": {"type": "Point", "coordinates": [3.049252, 48.823639]}, "properties": {"street_name": "CHAMP CANET", "sales": 1, "sales_appt": 0, "sales_maison": 0, "median_price": 216000.0, "median_price_per_sqm": null, "turnover_score": 1.1, "turnover_rank": 33, "first_year": 2025, "last_year": 2025, "years_active": 1}}, {"type": "Feature", "geometry": {"type": "Point", "coordinates": [3.046519, 48.832718]}, "properties": {"street_name": "BOIS DE LA VILLE", "sales": 1, "sales_appt": 0, "sales_maison": 0, "median_price": 9000.0, "median_price_per_sqm": null, "turnover_score": 1.1, "turnover_rank": 33, "first_year": 2025, "last_year": 2025, "years_active": 1}}, {"type": "Feature", "geometry": {"type": "Point", "coordinates": [3.06307, 48.804027]}, "properties": {"street_name": "BOIS FRIHOUILLEUX", "sales": 1, "sales_appt": 0, "sales_maison": 0, "median_price": 272550.0, "median_price_per_sqm": null, "turnover_score": 1.1, "turnover_rank": 33, "first_year": 2024, "last_year": 2024, "years_active": 1}}, {"type": "Feature", "geometry": {"type": "Point", "coordinates": [3.06837, 48.805658]}, "properties": {"street_name": "CHP DE L ORME", "sales": 1, "sales_appt": 0, "sales_maison": 0, "median_price": 88000.0, "median_price_per_sqm": null, "turnover_score": 1.1, "turnover_rank": 33, "first_year": 2024, "last_year": 2024, "years_active": 1}}, {"type": "Feature", "geometry": {"type": "Point", "coordinates": [3.040212, 48.815733]}, "properties": {"street_name": "ALL DU PHENIX", "sales": 1, "sales_appt": 0, "sales_maison": 1, "median_price": 225000.0, "median_price_per_sqm": 3461.5384615384614, "turnover_score": 1.1, "turnover_rank": 33, "first_year": 2021, "last_year": 2021, "years_active": 1}}, {"type": "Feature", "geometry": {"type": "Point", "coordinates": [3.067268, 48.809944]}, "properties": {"street_name": "LA HAIE LUCAS", "sales": 1, "sales_appt": 0, "sales_maison": 0, "median_price": 30625.93, "median_price_per_sqm": null, "turnover_score": 1.1, "turnover_rank": 33, "first_year": 2021, "last_year": 2021, "years_active": 1}}, {"type": "Feature", "geometry": {"type": "Point", "coordinates": [3.066851, 48.802316]}, "properties": {"street_name": "LE MAZOIS", "sales": 1, "sales_appt": 0, "sales_maison": 0, "median_price": 99000.0, "median_price_per_sqm": null, "turnover_score": 1.1, "turnover_rank": 33, "first_year": 2024, "last_year": 2024, "years_active": 1}}, {"type": "Feature", "geometry": {"type": "Point", "coordinates": [3.064143, 48.805724]}, "properties": {"street_name": "PAS DES PAREUX", "sales": 1, "sales_appt": 0, "sales_maison": 1, "median_price": 175000.0, "median_price_per_sqm": 3240.740740740741, "turnover_score": 1.1, "turnover_rank": 33, "first_year": 2021, "last_year": 2021, "years_active": 1}}, {"type": "Feature", "geometry": {"type": "Point", "coordinates": [3.067467, 48.825453]}, "properties": {"street_name": "MONTBLU", "sales": 1, "sales_appt": 0, "sales_maison": 0, "median_price": 230000.0, "median_price_per_sqm": null, "turnover_score": 1.1, "turnover_rank": 33, "first_year": 2024, "last_year": 2024, "years_active": 1}}, {"type": "Feature", "geometry": {"type": "Point", "coordinates": [3.055711, 48.811224]}, "properties": {"street_name": "PRAIRIE DE MAISON FROMAIN", "sales": 1, "sales_appt": 0, "sales_maison": 0, "median_price": 30000.0, "median_price_per_sqm": null, "turnover_score": 1.1, "turnover_rank": 33, "first_year": 2021, "last_year": 2021, "years_active": 1}}, {"type": "Feature", "geometry": {"type": "Point", "coordinates": [3.037064, 48.819883]}, "properties": {"street_name": "PRES DE LA GDE ROUE", "sales": 1, "sales_appt": 0, "sales_maison": 0, "median_price": 9000.0, "median_price_per_sqm": null, "turnover_score": 1.1, "turnover_rank": 33, "first_year": 2025, "last_year": 2025, "years_active": 1}}, {"type": "Feature", "geometry": {"type": "Point", "coordinates": [3.061107, 48.820064]}, "properties": {"street_name": "LES PAROCHES", "sales": 1, "sales_appt": 0, "sales_maison": 0, "median_price": 750.0, "median_price_per_sqm": null, "turnover_score": 1.1, "turnover_rank": 33, "first_year": 2023, "last_year": 2023, "years_active": 1}}, {"type": "Feature", "geometry": {"type": "Point", "coordinates": [3.052894, 48.812952]}, "properties": {"street_name": "LES PRES PANIER", "sales": 1, "sales_appt": 0, "sales_maison": 0, "median_price": 265000.0, "median_price_per_sqm": null, "turnover_score": 1.1, "turnover_rank": 33, "first_year": 2022, "last_year": 2022, "years_active": 1}}, {"type": "Feature", "geometry": {"type": "Point", "coordinates": [3.012505, 48.830812]}, "properties": {"street_name": "LES BOULEAUX", "sales": 1, "sales_appt": 0, "sales_maison": 0, "median_price": 25850.0, "median_price_per_sqm": null, "turnover_score": 1.1, "turnover_rank": 33, "first_year": 2021, "last_year": 2021, "years_active": 1}}, {"type": "Feature", "geometry": {"type": "Point", "coordinates": [3.064965, 48.817231]}, "properties": {"street_name": "LES COQUILLETTES", "sales": 1, "sales_appt": 0, "sales_maison": 0, "median_price": 25000.0, "median_price_per_sqm": null, "turnover_score": 1.1, "turnover_rank": 33, "first_year": 2025, "last_year": 2025, "years_active": 1}}, {"type": "Feature", "geometry": {"type": "Point", "coordinates": [3.065285, 48.82246]}, "properties": {"street_name": "LE CLOS STE MARIE", "sales": 1, "sales_appt": 0, "sales_maison": 0, "median_price": 15000.0, "median_price_per_sqm": null, "turnover_score": 1.1, "turnover_rank": 33, "first_year": 2022, "last_year": 2022, "years_active": 1}}, {"type": "Feature", "geometry": {"type": "Point", "coordinates": [3.059763, 48.818549]}, "properties": {"street_name": "LE CHP DES PLEUX", "sales": 1, "sales_appt": 0, "sales_maison": 0, "median_price": 1500.0, "median_price_per_sqm": null, "turnover_score": 1.1, "turnover_rank": 33, "first_year": 2022, "last_year": 2022, "years_active": 1}}, {"type": "Feature", "geometry": {"type": "Point", "coordinates": [3.070781, 48.82578]}, "properties": {"street_name": "LE CHP DE LA FOLIE", "sales": 1, "sales_appt": 0, "sales_maison": 0, "median_price": 15000.0, "median_price_per_sqm": null, "turnover_score": 1.1, "turnover_rank": 33, "first_year": 2021, "last_year": 2021, "years_active": 1}}, {"type": "Feature", "geometry": {"type": "Point", "coordinates": [3.063573, 48.805787]}, "properties": {"street_name": "LE BOIS DU RU", "sales": 1, "sales_appt": 0, "sales_maison": 0, "median_price": 2500.0, "median_price_per_sqm": null, "turnover_score": 1.1, "turnover_rank": 33, "first_year": 2023, "last_year": 2023, "years_active": 1}}, {"type": "Feature", "geometry": {"type": "Point", "coordinates": [3.072594, 48.822866]}, "properties": {"street_name": "RUE DES MOULINS NEUFS", "sales": 1, "sales_appt": 0, "sales_maison": 1, "median_price": 150000.0, "median_price_per_sqm": 1923.076923076923, "turnover_score": 1.1, "turnover_rank": 33, "first_year": 2025, "last_year": 2025, "years_active": 1}}, {"type": "Feature", "geometry": {"type": "Point", "coordinates": [3.034391, 48.829214]}, "properties": {"street_name": "RUE DES LILAS", "sales": 1, "sales_appt": 0, "sales_maison": 1, "median_price": 317100.0, "median_price_per_sqm": 3078.640776699029, "turnover_score": 1.1, "turnover_rank": 33, "first_year": 2025, "last_year": 2025, "years_active": 1}}, {"type": "Feature", "geometry": {"type": "Point", "coordinates": [3.034364, 48.829635]}, "properties": {"street_name": "RUE DES HORTENSIAS", "sales": 1, "sales_appt": 0, "sales_maison": 1, "median_price": 310000.0, "median_price_per_sqm": 2719.2982456140353, "turnover_score": 1.1, "turnover_rank": 33, "first_year": 2022, "last_year": 2022, "years_active": 1}}, {"type": "Feature", "geometry": {"type": "Point", "coordinates": [3.062254, 48.805319]}, "properties": {"street_name": "RUE DU CHAMP MARQUET", "sales": 1, "sales_appt": 0, "sales_maison": 1, "median_price": 80000.0, "median_price_per_sqm": 1333.3333333333333, "turnover_score": 1.1, "turnover_rank": 33, "first_year": 2021, "last_year": 2021, "years_active": 1}}]}