{"type": "FeatureCollection", "features": [{"type": "Feature", "geometry": {"type": "Point", "coordinates": [3.013913, 48.261304]}, "properties": {"street_name": "LE GRAND AUNOY", "sales": 53, "sales_appt": 0, "sales_maison": 0, "median_price": 5155.0, "median_price_per_sqm": null, "turnover_score": 100.0, "turnover_rank": 1, "first_year": 2021, "last_year": 2025, "years_active": 5}}, {"type": "Feature", "geometry": {"type": "Point", "coordinates": [3.011421, 48.247823999999994]}, "properties": {"street_name": "VILLOISEAU", "sales": 22, "sales_appt": 0, "sales_maison": 4, "median_price": 75000.0, "median_price_per_sqm": 1315.7894736842104, "turnover_score": 41.5, "turnover_rank": 2, "first_year": 2021, "last_year": 2025, "years_active": 5}}, {"type": "Feature", "geometry": {"type": "Point", "coordinates": [3.045233, 48.268628]}, "properties": {"street_name": "LES CHAPELLES", "sales": 21, "sales_appt": 0, "sales_maison": 1, "median_price": 130000.0, "median_price_per_sqm": 928.5714285714286, "turnover_score": 39.6, "turnover_rank": 3, "first_year": 2021, "last_year": 2024, "years_active": 3}}, {"type": "Feature", "geometry": {"type": "Point", "coordinates": [3.006097, 48.266736]}, "properties": {"street_name": "LAUNOY", "sales": 21, "sales_appt": 0, "sales_maison": 0, "median_price": 122500.0, "median_price_per_sqm": null, "turnover_score": 39.6, "turnover_rank": 3, "first_year": 2021, "last_year": 2025, "years_active": 4}}, {"type": "Feature", "geometry": {"type": "Point", "coordinates": [3.003883, 48.2481025]}, "properties": {"street_name": "LES ALOUETTES", "sales": 20, "sales_appt": 0, "sales_maison": 0, "median_price": 41168.0, "median_price_per_sqm": null, "turnover_score": 37.7, "turnover_rank": 4, "first_year": 2025, "last_year": 2025, "years_active": 1}}, {"type": "Feature", "geometry": {"type": "Point", "coordinates": [3.005283, 48.266513]}, "properties": {"street_name": "RUE DU CHEVAL BLANC", "sales": 19, "sales_appt": 0, "sales_maison": 9, "median_price": 137500.0, "median_price_per_sqm": 1145.8333333333333, "turnover_score": 35.8, "turnover_rank": 5, "first_year": 2021, "last_year": 2024, "years_active": 4}}, {"type": "Feature", "geometry": {"type": "Point", "coordinates": [3.010847, 48.225984]}, "properties": {"street_name": "VILLENEUVE LES ORMES", "sales": 18, "sales_appt": 0, "sales_maison": 2, "median_price": 735750.0, "median_price_per_sqm": 2412.2950819672133, "turnover_score": 34.0, "turnover_rank": 6, "first_year": 2025, "last_year": 2025, "years_active": 1}}, {"type": "Feature", "geometry": {"type": "Point", "coordinates": [3.0196785000000004, 48.255919]}, "properties": {"street_name": "LES PRES DES SORINS", "sales": 18, "sales_appt": 0, "sales_maison": 0, "median_price": 41168.0, "median_price_per_sqm": null, "turnover_score": 34.0, "turnover_rank": 6, "first_year": 2025, "last_year": 2025, "years_active": 1}}, {"type": "Feature", "geometry": {"type": "Point", "coordinates": [3.022625, 48.257064]}, "properties": {"street_name": "BLENNES", "sales": 17, "sales_appt": 0, "sales_maison": 2, "median_price": 201290.23, "median_price_per_sqm": 1625.0, "turnover_score": 32.1, "turnover_rank": 7, "first_year": 2021, "last_year": 2025, "years_active": 4}}, {"type": "Feature", "geometry": {"type": "Point", "coordinates": [3.011654, 48.248594]}, "properties": {"street_name": "RUE STE GENEVIEVE", "sales": 16, "sales_appt": 0, "sales_maison": 7, "median_price": 163230.0, "median_price_per_sqm": 1905.111111111111, "turnover_score": 30.2, "turnover_rank": 8, "first_year": 2022, "last_year": 2024, "years_active": 2}}, {"type": "Feature", "geometry": {"type": "Point", "coordinates": [2.9915255, 48.236312]}, "properties": {"street_name": "VILLEMAUGIS", "sales": 14, "sales_appt": 0, "sales_maison": 0, "median_price": 328750.0, "median_price_per_sqm": null, "turnover_score": 26.4, "turnover_rank": 9, "first_year": 2021, "last_year": 2025, "years_active": 4}}, {"type": "Feature", "geometry": {"type": "Point", "coordinates": [3.0181725, 48.255737499999995]}, "properties": {"street_name": "LA RAIE CREUSE", "sales": 12, "sales_appt": 0, "sales_maison": 2, "median_price": 41168.0, "median_price_per_sqm": 927.1523178807947, "turnover_score": 22.6, "turnover_rank": 10, "first_year": 2023, "last_year": 2025, "years_active": 2}}, {"type": "Feature", "geometry": {"type": "Point", "coordinates": [2.991301, 48.236425]}, "properties": {"street_name": "RUE SAINT VICTOR", "sales": 11, "sales_appt": 0, "sales_maison": 5, "median_price": 328750.0, "median_price_per_sqm": 1790.3561517113785, "turnover_score": 20.8, "turnover_rank": 11, "first_year": 2021, "last_year": 2025, "years_active": 4}}, {"type": "Feature", "geometry": {"type": "Point", "coordinates": [3.0304729999999998, 48.253892]}, "properties": {"street_name": "LES BASSES LOGES", "sales": 10, "sales_appt": 0, "sales_maison": 0, "median_price": 34334.0, "median_price_per_sqm": null, "turnover_score": 18.9, "turnover_rank": 12, "first_year": 2021, "last_year": 2025, "years_active": 4}}, {"type": "Feature", "geometry": {"type": "Point", "coordinates": [2.996855, 48.2494195]}, "properties": {"street_name": "LES PETITS BOIS", "sales": 10, "sales_appt": 0, "sales_maison": 0, "median_price": 41168.0, "median_price_per_sqm": null, "turnover_score": 18.9, "turnover_rank": 12, "first_year": 2023, "last_year": 2025, "years_active": 2}}, {"type": "Feature", "geometry": {"type": "Point", "coordinates": [3.045315, 48.268791]}, "properties": {"street_name": "RUE DES MARCHAIS", "sales": 8, "sales_appt": 0, "sales_maison": 6, "median_price": 130000.0, "median_price_per_sqm": 1199.591144794575, "turnover_score": 15.1, "turnover_rank": 13, "first_year": 2024, "last_year": 2024, "years_active": 1}}, {"type": "Feature", "geometry": {"type": "Point", "coordinates": [3.003508, 48.26806]}, "properties": {"street_name": "LE CHEVAL BLANC", "sales": 7, "sales_appt": 0, "sales_maison": 0, "median_price": 900.0, "median_price_per_sqm": null, "turnover_score": 13.2, "turnover_rank": 14, "first_year": 2021, "last_year": 2025, "years_active": 4}}, {"type": "Feature", "geometry": {"type": "Point", "coordinates": [3.029545, 48.254957]}, "properties": {"street_name": "LE PETIT MOULIN", "sales": 7, "sales_appt": 0, "sales_maison": 0, "median_price": 2000.0, "median_price_per_sqm": null, "turnover_score": 13.2, "turnover_rank": 14, "first_year": 2021, "last_year": 2025, "years_active": 2}}, {"type": "Feature", "geometry": {"type": "Point", "coordinates": [3.01717, 48.260402]}, "properties": {"street_name": "LE MOULIN DES MOINES", "sales": 7, "sales_appt": 0, "sales_maison": 2, "median_price": 41168.0, "median_price_per_sqm": 1538.4615384615386, "turnover_score": 13.2, "turnover_rank": 14, "first_year": 2021, "last_year": 2025, "years_active": 3}}, {"type": "Feature", "geometry": {"type": "Point", "coordinates": [3.003874, 48.266392]}, "properties": {"street_name": "RUE DU GOLFE", "sales": 7, "sales_appt": 0, "sales_maison": 4, "median_price": 238000.0, "median_price_per_sqm": 1966.9421487603306, "turnover_score": 13.2, "turnover_rank": 14, "first_year": 2023, "last_year": 2025, "years_active": 3}}, {"type": "Feature", "geometry": {"type": "Point", "coordinates": [3.024761, 48.2560455]}, "properties": {"street_name": "LES PRES DE LA MOTTE", "sales": 6, "sales_appt": 0, "sales_maison": 0, "median_price": 390000.0, "median_price_per_sqm": null, "turnover_score": 11.3, "turnover_rank": 15, "first_year": 2021, "last_year": 2025, "years_active": 2}}, {"type": "Feature", "geometry": {"type": "Point", "coordinates": [3.019894, 48.253617]}, "properties": {"street_name": "LES SORINS", "sales": 6, "sales_appt": 0, "sales_maison": 0, "median_price": 252000.0, "median_price_per_sqm": null, "turnover_score": 11.3, "turnover_rank": 15, "first_year": 2021, "last_year": 2021, "years_active": 1}}, {"type": "Feature", "geometry": {"type": "Point", "coordinates": [3.011647, 48.266614]}, "properties": {"street_name": "LA PLANCHE DE VILLE", "sales": 5, "sales_appt": 0, "sales_maison": 0, "median_price": 2500.0, "median_price_per_sqm": null, "turnover_score": 9.4, "turnover_rank": 16, "first_year": 2024, "last_year": 2025, "years_active": 2}}, {"type": "Feature", "geometry": {"type": "Point", "coordinates": [3.022129, 48.25489]}, "properties": {"street_name": "LE CHAMP DES SORINS", "sales": 5, "sales_appt": 0, "sales_maison": 0, "median_price": 12120.0, "median_price_per_sqm": null, "turnover_score": 9.4, "turnover_rank": 16, "first_year": 2021, "last_year": 2025, "years_active": 4}}, {"type": "Feature", "geometry": {"type": "Point", "coordinates": [2.99151, 48.235218]}, "properties": {"street_name": "SUR VILLEMAUGIS", "sales": 5, "sales_appt": 0, "sales_maison": 0, "median_price": 85000.0, "median_price_per_sqm": null, "turnover_score": 9.4, "turnover_rank": 16, "first_year": 2021, "last_year": 2023, "years_active": 3}}, {"type": "Feature", "geometry": {"type": "Point", "coordinates": [2.991389, 48.2350505]}, "properties": {"street_name": "RUE DE LA JUSTICE", "sales": 4, "sales_appt": 0, "sales_maison": 4, "median_price": 111650.0, "median_price_per_sqm": 1791.0181236673775, "turnover_score": 7.5, "turnover_rank": 17, "first_year": 2021, "last_year": 2023, "years_active": 3}}, {"type": "Feature", "geometry": {"type": "Point", "coordinates": [3.0095805, 48.248776500000005]}, "properties": {"street_name": "LES VIGNES DE VILLOISEAU", "sales": 4, "sales_appt": 0, "sales_maison": 2, "median_price": 45000.0, "median_price_per_sqm": 1550.0, "turnover_score": 7.5, "turnover_rank": 17, "first_year": 2024, "last_year": 2025, "years_active": 2}}, {"type": "Feature", "geometry": {"type": "Point", "coordinates": [2.999943, 48.222339]}, "properties": {"street_name": "HAM DE MAUREPAS", "sales": 4, "sales_appt": 0, "sales_maison": 2, "median_price": 55550.0, "median_price_per_sqm": 730.921052631579, "turnover_score": 7.5, "turnover_rank": 17, "first_year": 2024, "last_year": 2024, "years_active": 1}}, {"type": "Feature", "geometry": {"type": "Point", "coordinates": [3.002446, 48.2557045]}, "properties": {"street_name": "CHEMIN DU SIONNET", "sales": 4, "sales_appt": 0, "sales_maison": 0, "median_price": 4500.0, "median_price_per_sqm": null, "turnover_score": 7.5, "turnover_rank": 17, "first_year": 2024, "last_year": 2024, "years_active": 1}}, {"type": "Feature", "geometry": {"type": "Point", "coordinates": [2.990941, 48.234515]}, "properties": {"street_name": "RUE DE LA CROIX SAINT VICTOR", "sales": 4, "sales_appt": 0, "sales_maison": 2, "median_price": 150000.0, "median_price_per_sqm": 1000.0, "turnover_score": 7.5, "turnover_rank": 17, "first_year": 2025, "last_year": 2025, "years_active": 1}}, {"type": "Feature", "geometry": {"type": "Point", "coordinates": [3.014274, 48.251872]}, "properties": {"street_name": "HAM DU BOULOY", "sales": 4, "sales_appt": 0, "sales_maison": 2, "median_price": 364500.0, "median_price_per_sqm": 2039.0625, "turnover_score": 7.5, "turnover_rank": 17, "first_year": 2022, "last_year": 2022, "years_active": 1}}, {"type": "Feature", "geometry": {"type": "Point", "coordinates": [3.0145790000000003, 48.252288]}, "properties": {"street_name": "LE BOULOY", "sales": 4, "sales_appt": 0, "sales_maison": 0, "median_price": 253230.0, "median_price_per_sqm": null, "turnover_score": 7.5, "turnover_rank": 17, "first_year": 2022, "last_year": 2024, "years_active": 2}}, {"type": "Feature", "geometry": {"type": "Point", "coordinates": [3.022385, 48.258555]}, "properties": {"street_name": "RUE DES BRANDONS", "sales": 4, "sales_appt": 0, "sales_maison": 2, "median_price": 135000.0, "median_price_per_sqm": 1655.4846274101094, "turnover_score": 7.5, "turnover_rank": 17, "first_year": 2021, "last_year": 2022, "years_active": 2}}, {"type": "Feature", "geometry": {"type": "Point", "coordinates": [3.027362, 48.252143]}, "properties": {"street_name": "RUE DE LA PLAINE", "sales": 4, "sales_appt": 0, "sales_maison": 2, "median_price": 110000.0, "median_price_per_sqm": 1486.4864864864865, "turnover_score": 7.5, "turnover_rank": 17, "first_year": 2025, "last_year": 2025, "years_active": 1}}, {"type": "Feature", "geometry": {"type": "Point", "coordinates": [3.0002995, 48.253584000000004]}, "properties": {"street_name": "LE SIONNET", "sales": 4, "sales_appt": 0, "sales_maison": 0, "median_price": 41168.0, "median_price_per_sqm": null, "turnover_score": 7.5, "turnover_rank": 17, "first_year": 2025, "last_year": 2025, "years_active": 1}}, {"type": "Feature", "geometry": {"type": "Point", "coordinates": [2.995148, 48.2137185]}, "properties": {"street_name": "SOUS LA CROIX SAINTE APPOL", "sales": 4, "sales_appt": 0, "sales_maison": 0, "median_price": 41168.0, "median_price_per_sqm": null, "turnover_score": 7.5, "turnover_rank": 17, "first_year": 2025, "last_year": 2025, "years_active": 1}}, {"type": "Feature", "geometry": {"type": "Point", "coordinates": [3.030893, 48.259155]}, "properties": {"street_name": "LES CHEVANNIERS", "sales": 3, "sales_appt": 0, "sales_maison": 0, "median_price": 1000.0, "median_price_per_sqm": null, "turnover_score": 5.7, "turnover_rank": 18, "first_year": 2021, "last_year": 2021, "years_active": 1}}, {"type": "Feature", "geometry": {"type": "Point", "coordinates": [3.001503, 48.253416]}, "properties": {"street_name": "LE GRAND REAGE", "sales": 3, "sales_appt": 0, "sales_maison": 0, "median_price": 4500.0, "median_price_per_sqm": null, "turnover_score": 5.7, "turnover_rank": 18, "first_year": 2022, "last_year": 2024, "years_active": 2}}, {"type": "Feature", "geometry": {"type": "Point", "coordinates": [3.007644, 48.264713]}, "properties": {"street_name": "LA PENTE DE LAUNOY", "sales": 3, "sales_appt": 0, "sales_maison": 0, "median_price": 250000.0, "median_price_per_sqm": null, "turnover_score": 5.7, "turnover_rank": 18, "first_year": 2023, "last_year": 2023, "years_active": 1}}, {"type": "Feature", "geometry": {"type": "Point", "coordinates": [3.009595, 48.255555]}, "properties": {"street_name": "CHE DES SABLES", "sales": 3, "sales_appt": 0, "sales_maison": 3, "median_price": 299000.0, "median_price_per_sqm": 1768.2926829268292, "turnover_score": 5.7, "turnover_rank": 18, "first_year": 2021, "last_year": 2025, "years_active": 3}}, {"type": "Feature", "geometry": {"type": "Point", "coordinates": [3.007048, 48.26683]}, "properties": {"street_name": "HAM DE LAUNOY", "sales": 3, "sales_appt": 0, "sales_maison": 1, "median_price": 130000.0, "median_price_per_sqm": 1710.5263157894738, "turnover_score": 5.7, "turnover_rank": 18, "first_year": 2021, "last_year": 2021, "years_active": 1}}, {"type": "Feature", "geometry": {"type": "Point", "coordinates": [3.020136, 48.253462]}, "properties": {"street_name": "HAM DES SORINS", "sales": 3, "sales_appt": 0, "sales_maison": 2, "median_price": 252000.0, "median_price_per_sqm": 1150.6849315068494, "turnover_score": 5.7, "turnover_rank": 18, "first_year": 2021, "last_year": 2021, "years_active": 1}}, {"type": "Feature", "geometry": {"type": "Point", "coordinates": [3.020601, 48.253433]}, "properties": {"street_name": "RUE DU CHATEAU BRULE", "sales": 3, "sales_appt": 0, "sales_maison": 1, "median_price": 130000.0, "median_price_per_sqm": 2031.25, "turnover_score": 5.7, "turnover_rank": 18, "first_year": 2021, "last_year": 2021, "years_active": 1}}, {"type": "Feature", "geometry": {"type": "Point", "coordinates": [3.022744, 48.257088]}, "properties": {"street_name": "RUE GRANDE", "sales": 3, "sales_appt": 0, "sales_maison": 1, "median_price": 201290.23, "median_price_per_sqm": 774.1931923076924, "turnover_score": 5.7, "turnover_rank": 18, "first_year": 2021, "last_year": 2021, "years_active": 1}}, {"type": "Feature", "geometry": {"type": "Point", "coordinates": [3.00255, 48.262445]}, "properties": {"street_name": "LES CAILLOUX DE LAUNOY", "sales": 3, "sales_appt": 0, "sales_maison": 0, "median_price": 7500.0, "median_price_per_sqm": null, "turnover_score": 5.7, "turnover_rank": 18, "first_year": 2023, "last_year": 2024, "years_active": 2}}, {"type": "Feature", "geometry": {"type": "Point", "coordinates": [3.045908, 48.254662]}, "properties": {"street_name": "LES BERGERIES", "sales": 3, "sales_appt": 0, "sales_maison": 1, "median_price": 170000.0, "median_price_per_sqm": 1650.485436893204, "turnover_score": 5.7, "turnover_rank": 18, "first_year": 2022, "last_year": 2022, "years_active": 1}}, {"type": "Feature", "geometry": {"type": "Point", "coordinates": [3.024947, 48.256886]}, "properties": {"street_name": "IMP DU FORGERON", "sales": 3, "sales_appt": 0, "sales_maison": 1, "median_price": 390000.0, "median_price_per_sqm": 2727.2727272727275, "turnover_score": 5.7, "turnover_rank": 18, "first_year": 2025, "last_year": 2025, "years_active": 1}}, {"type": "Feature", "geometry": {"type": "Point", "coordinates": [3.02419, 48.260721000000004]}, "properties": {"street_name": "LE CHEMIN DE VILLENEUVE", "sales": 2, "sales_appt": 0, "sales_maison": 0, "median_price": 23584.0, "median_price_per_sqm": null, "turnover_score": 3.8, "turnover_rank": 19, "first_year": 2022, "last_year": 2025, "years_active": 2}}, {"type": "Feature", "geometry": {"type": "Point", "coordinates": [2.999362, 48.268631]}, "properties": {"street_name": "EPIGNY", "sales": 2, "sales_appt": 0, "sales_maison": 0, "median_price": 77500.0, "median_price_per_sqm": null, "turnover_score": 3.8, "turnover_rank": 19, "first_year": 2023, "last_year": 2023, "years_active": 1}}, {"type": "Feature", "geometry": {"type": "Point", "coordinates": [2.990016, 48.234233]}, "properties": {"street_name": "HAM DE VILLEMAUGIS", "sales": 2, "sales_appt": 0, "sales_maison": 0, "median_price": 161000.0, "median_price_per_sqm": null, "turnover_score": 3.8, "turnover_rank": 19, "first_year": 2025, "last_year": 2025, "years_active": 1}}, {"type": "Feature", "geometry": {"type": "Point", "coordinates": [3.007188, 48.264953]}, "properties": {"street_name": "LA MARNIERE AUX MOUCHES", "sales": 2, "sales_appt": 0, "sales_maison": 1, "median_price": 250000.0, "median_price_per_sqm": 1666.6666666666667, "turnover_score": 3.8, "turnover_rank": 19, "first_year": 2023, "last_year": 2023, "years_active": 1}}, {"type": "Feature", "geometry": {"type": "Point", "coordinates": [3.00845, 48.240482]}, "properties": {"street_name": "BUISSON BEZOUT", "sales": 2, "sales_appt": 0, "sales_maison": 0, "median_price": 5250.0, "median_price_per_sqm": null, "turnover_score": 3.8, "turnover_rank": 19, "first_year": 2025, "last_year": 2025, "years_active": 1}}, {"type": "Feature", "geometry": {"type": "Point", "coordinates": [3.0091835, 48.267486]}, "properties": {"street_name": "DERRIERE LE MOULIN DE LAUN", "sales": 2, "sales_appt": 0, "sales_maison": 0, "median_price": 490.0, "median_price_per_sqm": null, "turnover_score": 3.8, "turnover_rank": 19, "first_year": 2023, "last_year": 2024, "years_active": 2}}, {"type": "Feature", "geometry": {"type": "Point", "coordinates": [3.020178, 48.257028000000005]}, "properties": {"street_name": "LA GRANDE COUR", "sales": 2, "sales_appt": 0, "sales_maison": 0, "median_price": 6000.0, "median_price_per_sqm": null, "turnover_score": 3.8, "turnover_rank": 19, "first_year": 2022, "last_year": 2022, "years_active": 1}}, {"type": "Feature", "geometry": {"type": "Point", "coordinates": [2.9941475, 48.2554635]}, "properties": {"street_name": "LE GOLFE", "sales": 2, "sales_appt": 0, "sales_maison": 0, "median_price": 11402.5, "median_price_per_sqm": null, "turnover_score": 3.8, "turnover_rank": 19, "first_year": 2022, "last_year": 2025, "years_active": 2}}, {"type": "Feature", "geometry": {"type": "Point", "coordinates": [2.991764, 48.249908500000004]}, "properties": {"street_name": "LES VALLEES", "sales": 2, "sales_appt": 0, "sales_maison": 0, "median_price": 26584.0, "median_price_per_sqm": null, "turnover_score": 3.8, "turnover_rank": 19, "first_year": 2024, "last_year": 2025, "years_active": 2}}, {"type": "Feature", "geometry": {"type": "Point", "coordinates": [2.9993135, 48.207704500000006]}, "properties": {"street_name": "LES PENTES", "sales": 2, "sales_appt": 0, "sales_maison": 0, "median_price": 1444.0, "median_price_per_sqm": null, "turnover_score": 3.8, "turnover_rank": 19, "first_year": 2021, "last_year": 2021, "years_active": 1}}, {"type": "Feature", "geometry": {"type": "Point", "coordinates": [3.007905, 48.266316]}, "properties": {"street_name": "MOULIN DE LAUNOY", "sales": 2, "sales_appt": 0, "sales_maison": 1, "median_price": 231000.0, "median_price_per_sqm": 1650.0, "turnover_score": 3.8, "turnover_rank": 19, "first_year": 2022, "last_year": 2022, "years_active": 1}}, {"type": "Feature", "geometry": {"type": "Point", "coordinates": [3.02287, 48.258081]}, "properties": {"street_name": "RUE CHAUDE", "sales": 2, "sales_appt": 0, "sales_maison": 1, "median_price": 137000.0, "median_price_per_sqm": 1304.7619047619048, "turnover_score": 3.8, "turnover_rank": 19, "first_year": 2024, "last_year": 2024, "years_active": 1}}, {"type": "Feature", "geometry": {"type": "Point", "coordinates": [3.009762, 48.245968]}, "properties": {"street_name": "LE CHEMIN DE LA GRANDE BRA", "sales": 2, "sales_appt": 0, "sales_maison": 1, "median_price": 274000.0, "median_price_per_sqm": 1826.6666666666667, "turnover_score": 3.8, "turnover_rank": 19, "first_year": 2021, "last_year": 2021, "years_active": 1}}, {"type": "Feature", "geometry": {"type": "Point", "coordinates": [3.026096, 48.2522185]}, "properties": {"street_name": "LA PENTE DU COUDRAY", "sales": 2, "sales_appt": 0, "sales_maison": 0, "median_price": 12120.0, "median_price_per_sqm": null, "turnover_score": 3.8, "turnover_rank": 19, "first_year": 2022, "last_year": 2022, "years_active": 1}}, {"type": "Feature", "geometry": {"type": "Point", "coordinates": [3.0224155, 48.259072]}, "properties": {"street_name": "LES BRANDONS", "sales": 2, "sales_appt": 0, "sales_maison": 0, "median_price": 325000.0, "median_price_per_sqm": null, "turnover_score": 3.8, "turnover_rank": 19, "first_year": 2022, "last_year": 2022, "years_active": 1}}, {"type": "Feature", "geometry": {"type": "Point", "coordinates": [3.0267345, 48.2712165]}, "properties": {"street_name": "LES CHAMPOREES", "sales": 2, "sales_appt": 0, "sales_maison": 0, "median_price": 11000.0, "median_price_per_sqm": null, "turnover_score": 3.8, "turnover_rank": 19, "first_year": 2023, "last_year": 2023, "years_active": 1}}, {"type": "Feature", "geometry": {"type": "Point", "coordinates": [3.0083965, 48.2551495]}, "properties": {"street_name": "LA ROUSTIERE", "sales": 2, "sales_appt": 0, "sales_maison": 0, "median_price": 299000.0, "median_price_per_sqm": null, "turnover_score": 3.8, "turnover_rank": 19, "first_year": 2021, "last_year": 2021, "years_active": 1}}, {"type": "Feature", "geometry": {"type": "Point", "coordinates": [3.031179, 48.261858000000004]}, "properties": {"street_name": "LA TUILERIE", "sales": 2, "sales_appt": 0, "sales_maison": 0, "median_price": 29804.0, "median_price_per_sqm": null, "turnover_score": 3.8, "turnover_rank": 19, "first_year": 2021, "last_year": 2025, "years_active": 2}}, {"type": "Feature", "geometry": {"type": "Point", "coordinates": [3.0001455, 48.2454015]}, "properties": {"street_name": "LA PESSONNIERE", "sales": 2, "sales_appt": 0, "sales_maison": 0, "median_price": 41168.0, "median_price_per_sqm": null, "turnover_score": 3.8, "turnover_rank": 19, "first_year": 2025, "last_year": 2025, "years_active": 1}}, {"type": "Feature", "geometry": {"type": "Point", "coordinates": [2.992643, 48.246408]}, "properties": {"street_name": "BOIS BOSSON", "sales": 1, "sales_appt": 0, "sales_maison": 0, "median_price": 20605.0, "median_price_per_sqm": null, "turnover_score": 1.9, "turnover_rank": 20, "first_year": 2025, "last_year": 2025, "years_active": 1}}, {"type": "Feature", "geometry": {"type": "Point", "coordinates": [3.009344, 48.255873]}, "properties": {"street_name": "HAM DE LA ROUSTIERE", "sales": 1, "sales_appt": 0, "sales_maison": 0, "median_price": 299000.0, "median_price_per_sqm": null, "turnover_score": 1.9, "turnover_rank": 20, "first_year": 2021, "last_year": 2021, "years_active": 1}}, {"type": "Feature", "geometry": {"type": "Point", "coordinates": [3.009056, 48.265589]}, "properties": {"street_name": "FERME DE LAUNOY", "sales": 1, "sales_appt": 0, "sales_maison": 0, "median_price": 55000.0, "median_price_per_sqm": null, "turnover_score": 1.9, "turnover_rank": 20, "first_year": 2023, "last_year": 2023, "years_active": 1}}, {"type": "Feature", "geometry": {"type": "Point", "coordinates": [3.014412, 48.252143]}, "properties": {"street_name": "CHE DE LA MESSE", "sales": 1, "sales_appt": 0, "sales_maison": 1, "median_price": 129000.0, "median_price_per_sqm": 1653.8461538461538, "turnover_score": 1.9, "turnover_rank": 20, "first_year": 2025, "last_year": 2025, "years_active": 1}}, {"type": "Feature", "geometry": {"type": "Point", "coordinates": [2.996573, 48.242468]}, "properties": {"street_name": "CROIX SAINT VICTOR", "sales": 1, "sales_appt": 0, "sales_maison": 0, "median_price": 2500.0, "median_price_per_sqm": null, "turnover_score": 1.9, "turnover_rank": 20, "first_year": 2021, "last_year": 2021, "years_active": 1}}, {"type": "Feature", "geometry": {"type": "Point", "coordinates": [2.992738, 48.252231]}, "properties": {"street_name": "LA HAIE DES PIERRES", "sales": 1, "sales_appt": 0, "sales_maison": 0, "median_price": 41168.0, "median_price_per_sqm": null, "turnover_score": 1.9, "turnover_rank": 20, "first_year": 2025, "last_year": 2025, "years_active": 1}}, {"type": "Feature", "geometry": {"type": "Point", "coordinates": [3.022336, 48.266342]}, "properties": {"street_name": "L EPINE", "sales": 1, "sales_appt": 0, "sales_maison": 0, "median_price": 3500.0, "median_price_per_sqm": null, "turnover_score": 1.9, "turnover_rank": 20, "first_year": 2022, "last_year": 2022, "years_active": 1}}, {"type": "Feature", "geometry": {"type": "Point", "coordinates": [2.999217, 48.268792]}, "properties": {"street_name": "IMP DU GOLFE", "sales": 1, "sales_appt": 0, "sales_maison": 1, "median_price": 143000.0, "median_price_per_sqm": 821.8390804597701, "turnover_score": 1.9, "turnover_rank": 20, "first_year": 2023, "last_year": 2023, "years_active": 1}}, {"type": "Feature", "geometry": {"type": "Point", "coordinates": [3.009911, 48.24703]}, "properties": {"street_name": "HAM DE VILLOISEAU", "sales": 1, "sales_appt": 0, "sales_maison": 0, "median_price": 240000.0, "median_price_per_sqm": null, "turnover_score": 1.9, "turnover_rank": 20, "first_year": 2022, "last_year": 2022, "years_active": 1}}, {"type": "Feature", "geometry": {"type": "Point", "coordinates": [3.022277, 48.26642]}, "properties": {"street_name": "LA SAUTARDIERE", "sales": 1, "sales_appt": 0, "sales_maison": 0, "median_price": 3500.0, "median_price_per_sqm": null, "turnover_score": 1.9, "turnover_rank": 20, "first_year": 2022, "last_year": 2022, "years_active": 1}}, {"type": "Feature", "geometry": {"type": "Point", "coordinates": [3.011571, 48.248272]}, "properties": {"street_name": "LES GATINEAUX", "sales": 1, "sales_appt": 0, "sales_maison": 0, "median_price": 27500.0, "median_price_per_sqm": null, "turnover_score": 1.9, "turnover_rank": 20, "first_year": 2024, "last_year": 2024, "years_active": 1}}, {"type": "Feature", "geometry": {"type": "Point", "coordinates": [3.007877, 48.249886]}, "properties": {"street_name": "LA VALLEE VALLOT", "sales": 1, "sales_appt": 0, "sales_maison": 0, "median_price": 41168.0, "median_price_per_sqm": null, "turnover_score": 1.9, "turnover_rank": 20, "first_year": 2025, "last_year": 2025, "years_active": 1}}, {"type": "Feature", "geometry": {"type": "Point", "coordinates": [3.03396, 48.260851]}, "properties": {"street_name": "LE CHEMIN DES LIMOSINS", "sales": 1, "sales_appt": 0, "sales_maison": 0, "median_price": 41168.0, "median_price_per_sqm": null, "turnover_score": 1.9, "turnover_rank": 20, "first_year": 2025, "last_year": 2025, "years_active": 1}}, {"type": "Feature", "geometry": {"type": "Point", "coordinates": [3.022923, 48.258296]}, "properties": {"street_name": "LES MARNES", "sales": 1, "sales_appt": 0, "sales_maison": 0, "median_price": 137000.0, "median_price_per_sqm": null, "turnover_score": 1.9, "turnover_rank": 20, "first_year": 2024, "last_year": 2024, "years_active": 1}}, {"type": "Feature", "geometry": {"type": "Point", "coordinates": [3.010393, 48.245609]}, "properties": {"street_name": "RUE DE LA MARE", "sales": 1, "sales_appt": 0, "sales_maison": 1, "median_price": 310000.0, "median_price_per_sqm": 3369.5652173913045, "turnover_score": 1.9, "turnover_rank": 20, "first_year": 2022, "last_year": 2022, "years_active": 1}}, {"type": "Feature", "geometry": {"type": "Point", "coordinates": [3.02987, 48.271128]}, "properties": {"street_name": "LES MARNONS", "sales": 1, "sales_appt": 0, "sales_maison": 0, "median_price": 41168.0, "median_price_per_sqm": null, "turnover_score": 1.9, "turnover_rank": 20, "first_year": 2025, "last_year": 2025, "years_active": 1}}, {"type": "Feature", "geometry": {"type": "Point", "coordinates": [3.001856, 48.25839]}, "properties": {"street_name": "LES TERRES ROUGES", "sales": 1, "sales_appt": 0, "sales_maison": 0, "median_price": 3600.0, "median_price_per_sqm": null, "turnover_score": 1.9, "turnover_rank": 20, "first_year": 2023, "last_year": 2023, "years_active": 1}}, {"type": "Feature", "geometry": {"type": "Point", "coordinates": [2.995044, 48.220391]}, "properties": {"street_name": "LES MONTGERONS", "sales": 1, "sales_appt": 0, "sales_maison": 0, "median_price": 15000.0, "median_price_per_sqm": null, "turnover_score": 1.9, "turnover_rank": 20, "first_year": 2024, "last_year": 2024, "years_active": 1}}, {"type": "Feature", "geometry": {"type": "Point", "coordinates": [3.0274, 48.258024]}, "properties": {"street_name": "MONTAUBAN", "sales": 1, "sales_appt": 0, "sales_maison": 0, "median_price": 41168.0, "median_price_per_sqm": null, "turnover_score": 1.9, "turnover_rank": 20, "first_year": 2025, "last_year": 2025, "years_active": 1}}, {"type": "Feature", "geometry": {"type": "Point", "coordinates": [3.011619, 48.246592]}, "properties": {"street_name": "RUE DU CHATEAU D'EAU", "sales": 1, "sales_appt": 0, "sales_maison": 1, "median_price": 195000.0, "median_price_per_sqm": 2119.5652173913045, "turnover_score": 1.9, "turnover_rank": 20, "first_year": 2023, "last_year": 2023, "years_active": 1}}, {"type": "Feature", "geometry": {"type": "Point", "coordinates": [3.002015, 48.246276]}, "properties": {"street_name": "VALLEE DE VILLOISEAU", "sales": 1, "sales_appt": 0, "sales_maison": 0, "median_price": 41168.0, "median_price_per_sqm": null, "turnover_score": 1.9, "turnover_rank": 20, "first_year": 2025, "last_year": 2025, "years_active": 1}}]}