{"type": "FeatureCollection", "features": [{"type": "Feature", "geometry": {"type": "Point", "coordinates": [2.908867, 48.880683]}, "properties": {"street_name": "RUE DU MONT", "sales": 63, "sales_appt": 10, "sales_maison": 15, "median_price": 233140.0, "median_price_per_sqm": 3000.0, "turnover_score": 100.0, "turnover_rank": 1, "first_year": 2021, "last_year": 2025, "years_active": 5}}, {"type": "Feature", "geometry": {"type": "Point", "coordinates": [2.909502, 48.88292]}, "properties": {"street_name": "RUE ROMAIN ROLLAND", "sales": 40, "sales_appt": 8, "sales_maison": 11, "median_price": 217000.0, "median_price_per_sqm": 3760.4938271604938, "turnover_score": 63.5, "turnover_rank": 2, "first_year": 2021, "last_year": 2025, "years_active": 5}}, {"type": "Feature", "geometry": {"type": "Point", "coordinates": [2.888397, 48.878238]}, "properties": {"street_name": "RUE DE MONTPICHET", "sales": 37, "sales_appt": 0, "sales_maison": 16, "median_price": 327000.0, "median_price_per_sqm": 3485.496085226543, "turnover_score": 58.7, "turnover_rank": 3, "first_year": 2021, "last_year": 2025, "years_active": 5}}, {"type": "Feature", "geometry": {"type": "Point", "coordinates": [2.90906, 48.877218]}, "properties": {"street_name": "RUE DES ROCHES", "sales": 25, "sales_appt": 0, "sales_maison": 10, "median_price": 355000.0, "median_price_per_sqm": 2973.0, "turnover_score": 39.7, "turnover_rank": 4, "first_year": 2021, "last_year": 2025, "years_active": 4}}, {"type": "Feature", "geometry": {"type": "Point", "coordinates": [2.931864, 48.87802]}, "properties": {"street_name": "RUE DU HAMEAU DE SARCY", "sales": 23, "sales_appt": 0, "sales_maison": 9, "median_price": 350000.0, "median_price_per_sqm": 3178.5714285714284, "turnover_score": 36.5, "turnover_rank": 5, "first_year": 2021, "last_year": 2024, "years_active": 4}}, {"type": "Feature", "geometry": {"type": "Point", "coordinates": [2.903766, 48.875325]}, "properties": {"street_name": "RUE DE LA REPUBLIQUE", "sales": 21, "sales_appt": 0, "sales_maison": 15, "median_price": 349000.0, "median_price_per_sqm": 4040.0, "turnover_score": 33.3, "turnover_rank": 6, "first_year": 2021, "last_year": 2025, "years_active": 4}}, {"type": "Feature", "geometry": {"type": "Point", "coordinates": [2.906162, 48.8817715]}, "properties": {"street_name": "RUE DE L EGLISE", "sales": 20, "sales_appt": 0, "sales_maison": 8, "median_price": 295000.0, "median_price_per_sqm": 2961.2903225806454, "turnover_score": 31.7, "turnover_rank": 7, "first_year": 2021, "last_year": 2025, "years_active": 3}}, {"type": "Feature", "geometry": {"type": "Point", "coordinates": [2.902662, 48.867942]}, "properties": {"street_name": "RUE DE CRECY", "sales": 19, "sales_appt": 0, "sales_maison": 8, "median_price": 324000.0, "median_price_per_sqm": 3288.7012230634828, "turnover_score": 30.2, "turnover_rank": 8, "first_year": 2022, "last_year": 2025, "years_active": 4}}, {"type": "Feature", "geometry": {"type": "Point", "coordinates": [2.918214, 48.874434]}, "properties": {"street_name": "LE BUAT", "sales": 13, "sales_appt": 0, "sales_maison": 0, "median_price": 17581.5, "median_price_per_sqm": null, "turnover_score": 20.6, "turnover_rank": 9, "first_year": 2023, "last_year": 2025, "years_active": 3}}, {"type": "Feature", "geometry": {"type": "Point", "coordinates": [2.906844, 48.889923]}, "properties": {"street_name": "LE BAS DE LA HUTTE", "sales": 13, "sales_appt": 0, "sales_maison": 1, "median_price": 843.6, "median_price_per_sqm": 7.328571428571428, "turnover_score": 20.6, "turnover_rank": 9, "first_year": 2021, "last_year": 2023, "years_active": 3}}, {"type": "Feature", "geometry": {"type": "Point", "coordinates": [2.904813, 48.881068]}, "properties": {"street_name": "RUE DE VIGNOT", "sales": 13, "sales_appt": 0, "sales_maison": 3, "median_price": 145000.0, "median_price_per_sqm": 2475.0, "turnover_score": 20.6, "turnover_rank": 9, "first_year": 2021, "last_year": 2025, "years_active": 3}}, {"type": "Feature", "geometry": {"type": "Point", "coordinates": [2.91309, 48.8788895]}, "properties": {"street_name": "RUE DU TILLEUL", "sales": 12, "sales_appt": 0, "sales_maison": 3, "median_price": 407200.0, "median_price_per_sqm": 3231.746031746032, "turnover_score": 19.0, "turnover_rank": 10, "first_year": 2022, "last_year": 2025, "years_active": 3}}, {"type": "Feature", "geometry": {"type": "Point", "coordinates": [2.915682, 48.872853500000005]}, "properties": {"street_name": "LE PRE BON", "sales": 10, "sales_appt": 0, "sales_maison": 0, "median_price": 16296.75, "median_price_per_sqm": null, "turnover_score": 15.9, "turnover_rank": 11, "first_year": 2022, "last_year": 2023, "years_active": 2}}, {"type": "Feature", "geometry": {"type": "Point", "coordinates": [2.908591, 48.881236]}, "properties": {"street_name": "RUE DU CORBIER", "sales": 10, "sales_appt": 1, "sales_maison": 0, "median_price": 690000.0, "median_price_per_sqm": 3168.8311688311687, "turnover_score": 15.9, "turnover_rank": 11, "first_year": 2022, "last_year": 2024, "years_active": 2}}, {"type": "Feature", "geometry": {"type": "Point", "coordinates": [2.9086705000000004, 48.8784645]}, "properties": {"street_name": "RLE OISELARD", "sales": 6, "sales_appt": 0, "sales_maison": 6, "median_price": 399600.0, "median_price_per_sqm": 3242.1052631578946, "turnover_score": 9.5, "turnover_rank": 12, "first_year": 2021, "last_year": 2023, "years_active": 3}}, {"type": "Feature", "geometry": {"type": "Point", "coordinates": [2.920366, 48.872994]}, "properties": {"street_name": "LE CHAMP DES USAGES", "sales": 6, "sales_appt": 0, "sales_maison": 0, "median_price": 88806.6, "median_price_per_sqm": null, "turnover_score": 9.5, "turnover_rank": 12, "first_year": 2023, "last_year": 2023, "years_active": 1}}, {"type": "Feature", "geometry": {"type": "Point", "coordinates": [2.912271, 48.873301]}, "properties": {"street_name": "LE CHAMP DE LAVAL", "sales": 5, "sales_appt": 0, "sales_maison": 0, "median_price": 15012.0, "median_price_per_sqm": null, "turnover_score": 7.9, "turnover_rank": 13, "first_year": 2021, "last_year": 2022, "years_active": 2}}, {"type": "Feature", "geometry": {"type": "Point", "coordinates": [2.903485, 48.875251]}, "properties": {"street_name": "LA RUE DE L EGOUT", "sales": 5, "sales_appt": 0, "sales_maison": 0, "median_price": 168000.0, "median_price_per_sqm": null, "turnover_score": 7.9, "turnover_rank": 13, "first_year": 2021, "last_year": 2024, "years_active": 3}}, {"type": "Feature", "geometry": {"type": "Point", "coordinates": [2.917379, 48.888382]}, "properties": {"street_name": "AU-DESSUS DES PRES DE LA N", "sales": 4, "sales_appt": 0, "sales_maison": 0, "median_price": 2000.0, "median_price_per_sqm": null, "turnover_score": 6.3, "turnover_rank": 14, "first_year": 2021, "last_year": 2021, "years_active": 1}}, {"type": "Feature", "geometry": {"type": "Point", "coordinates": [2.9094615, 48.8898025]}, "properties": {"street_name": "LA HUTTE", "sales": 4, "sales_appt": 0, "sales_maison": 0, "median_price": 3892.0, "median_price_per_sqm": null, "turnover_score": 6.3, "turnover_rank": 14, "first_year": 2021, "last_year": 2021, "years_active": 1}}, {"type": "Feature", "geometry": {"type": "Point", "coordinates": [2.89465, 48.867699]}, "properties": {"street_name": "SOUS LE BOIS", "sales": 3, "sales_appt": 0, "sales_maison": 0, "median_price": 3500.0, "median_price_per_sqm": null, "turnover_score": 4.8, "turnover_rank": 15, "first_year": 2023, "last_year": 2024, "years_active": 2}}, {"type": "Feature", "geometry": {"type": "Point", "coordinates": [2.909957, 48.883981]}, "properties": {"street_name": "CHE DE LAITRE", "sales": 3, "sales_appt": 0, "sales_maison": 2, "median_price": 298700.0, "median_price_per_sqm": 4143.902027027027, "turnover_score": 4.8, "turnover_rank": 15, "first_year": 2021, "last_year": 2023, "years_active": 2}}, {"type": "Feature", "geometry": {"type": "Point", "coordinates": [2.908177, 48.869704]}, "properties": {"street_name": "LA RUE DE CRECY", "sales": 3, "sales_appt": 0, "sales_maison": 0, "median_price": 30000.0, "median_price_per_sqm": null, "turnover_score": 4.8, "turnover_rank": 15, "first_year": 2023, "last_year": 2023, "years_active": 1}}, {"type": "Feature", "geometry": {"type": "Point", "coordinates": [2.905701, 48.888736]}, "properties": {"street_name": "PARON", "sales": 3, "sales_appt": 0, "sales_maison": 0, "median_price": 752.4, "median_price_per_sqm": null, "turnover_score": 4.8, "turnover_rank": 15, "first_year": 2021, "last_year": 2022, "years_active": 2}}, {"type": "Feature", "geometry": {"type": "Point", "coordinates": [2.920212, 48.882399]}, "properties": {"street_name": "LUTE", "sales": 3, "sales_appt": 0, "sales_maison": 0, "median_price": 3000.0, "median_price_per_sqm": null, "turnover_score": 4.8, "turnover_rank": 15, "first_year": 2024, "last_year": 2025, "years_active": 2}}, {"type": "Feature", "geometry": {"type": "Point", "coordinates": [2.907675, 48.888698]}, "properties": {"street_name": "LE HAUT DES MEZIERES", "sales": 3, "sales_appt": 0, "sales_maison": 0, "median_price": 1945.6, "median_price_per_sqm": null, "turnover_score": 4.8, "turnover_rank": 15, "first_year": 2022, "last_year": 2025, "years_active": 3}}, {"type": "Feature", "geometry": {"type": "Point", "coordinates": [2.934449, 48.875898]}, "properties": {"street_name": "LE DESSUS DU TAILLIS", "sales": 3, "sales_appt": 0, "sales_maison": 0, "median_price": 122400.0, "median_price_per_sqm": null, "turnover_score": 4.8, "turnover_rank": 15, "first_year": 2023, "last_year": 2023, "years_active": 1}}, {"type": "Feature", "geometry": {"type": "Point", "coordinates": [2.899432, 48.866968]}, "properties": {"street_name": "FOLLES EN PRISES", "sales": 3, "sales_appt": 0, "sales_maison": 0, "median_price": 900.0, "median_price_per_sqm": null, "turnover_score": 4.8, "turnover_rank": 15, "first_year": 2021, "last_year": 2022, "years_active": 2}}, {"type": "Feature", "geometry": {"type": "Point", "coordinates": [2.910178, 48.868509]}, "properties": {"street_name": "LAULOY", "sales": 2, "sales_appt": 0, "sales_maison": 0, "median_price": 88806.6, "median_price_per_sqm": null, "turnover_score": 3.2, "turnover_rank": 16, "first_year": 2023, "last_year": 2023, "years_active": 1}}, {"type": "Feature", "geometry": {"type": "Point", "coordinates": [2.932489, 48.878307]}, "properties": {"street_name": "RUE DE SARCY", "sales": 2, "sales_appt": 0, "sales_maison": 0, "median_price": 222500.0, "median_price_per_sqm": null, "turnover_score": 3.2, "turnover_rank": 16, "first_year": 2025, "last_year": 2025, "years_active": 1}}, {"type": "Feature", "geometry": {"type": "Point", "coordinates": [2.903422, 48.873722]}, "properties": {"street_name": "RUE MARIE BREANT", "sales": 2, "sales_appt": 0, "sales_maison": 2, "median_price": 380000.0, "median_price_per_sqm": 2878.787878787879, "turnover_score": 3.2, "turnover_rank": 16, "first_year": 2021, "last_year": 2021, "years_active": 1}}, {"type": "Feature", "geometry": {"type": "Point", "coordinates": [2.883112, 48.868739]}, "properties": {"street_name": "RUE SINOEL", "sales": 2, "sales_appt": 0, "sales_maison": 2, "median_price": 255000.0, "median_price_per_sqm": 2684.2105263157896, "turnover_score": 3.2, "turnover_rank": 16, "first_year": 2024, "last_year": 2024, "years_active": 1}}, {"type": "Feature", "geometry": {"type": "Point", "coordinates": [2.887521, 48.877429500000005]}, "properties": {"street_name": "MONTPICHET", "sales": 2, "sales_appt": 0, "sales_maison": 0, "median_price": 6000.0, "median_price_per_sqm": null, "turnover_score": 3.2, "turnover_rank": 16, "first_year": 2024, "last_year": 2024, "years_active": 1}}, {"type": "Feature", "geometry": {"type": "Point", "coordinates": [2.9051774999999997, 48.8774165]}, "properties": {"street_name": "LES ROCHES", "sales": 2, "sales_appt": 0, "sales_maison": 0, "median_price": 9500.0, "median_price_per_sqm": null, "turnover_score": 3.2, "turnover_rank": 16, "first_year": 2021, "last_year": 2022, "years_active": 2}}, {"type": "Feature", "geometry": {"type": "Point", "coordinates": [2.9237159999999998, 48.874683000000005]}, "properties": {"street_name": "FROID CUL", "sales": 2, "sales_appt": 0, "sales_maison": 0, "median_price": 51909.3, "median_price_per_sqm": null, "turnover_score": 3.2, "turnover_rank": 16, "first_year": 2022, "last_year": 2023, "years_active": 2}}, {"type": "Feature", "geometry": {"type": "Point", "coordinates": [2.9080630000000003, 48.895992]}, "properties": {"street_name": "VIOLAINE", "sales": 2, "sales_appt": 0, "sales_maison": 0, "median_price": 1972.8, "median_price_per_sqm": null, "turnover_score": 3.2, "turnover_rank": 16, "first_year": 2022, "last_year": 2023, "years_active": 2}}, {"type": "Feature", "geometry": {"type": "Point", "coordinates": [2.895168, 48.873676]}, "properties": {"street_name": "SENTE DE LA LONGUE RAIE", "sales": 2, "sales_appt": 0, "sales_maison": 0, "median_price": 64820.4, "median_price_per_sqm": null, "turnover_score": 3.2, "turnover_rank": 16, "first_year": 2022, "last_year": 2022, "years_active": 1}}, {"type": "Feature", "geometry": {"type": "Point", "coordinates": [2.906509, 48.886876]}, "properties": {"street_name": "LES MEZIERES", "sales": 2, "sales_appt": 0, "sales_maison": 0, "median_price": 6755.0, "median_price_per_sqm": null, "turnover_score": 3.2, "turnover_rank": 16, "first_year": 2024, "last_year": 2024, "years_active": 1}}, {"type": "Feature", "geometry": {"type": "Point", "coordinates": [2.922163, 48.874572]}, "properties": {"street_name": "LE BAS DES USAGES", "sales": 1, "sales_appt": 0, "sales_maison": 0, "median_price": 88806.6, "median_price_per_sqm": null, "turnover_score": 1.6, "turnover_rank": 17, "first_year": 2023, "last_year": 2023, "years_active": 1}}, {"type": "Feature", "geometry": {"type": "Point", "coordinates": [2.889201, 48.880798]}, "properties": {"street_name": "LA ROUETTE", "sales": 1, "sales_appt": 0, "sales_maison": 0, "median_price": 15012.0, "median_price_per_sqm": null, "turnover_score": 1.6, "turnover_rank": 17, "first_year": 2022, "last_year": 2022, "years_active": 1}}, {"type": "Feature", "geometry": {"type": "Point", "coordinates": [2.90831, 48.884899]}, "properties": {"street_name": "CHEMIN DE COUILLY", "sales": 1, "sales_appt": 0, "sales_maison": 0, "median_price": 3700.0, "median_price_per_sqm": null, "turnover_score": 1.6, "turnover_rank": 17, "first_year": 2023, "last_year": 2023, "years_active": 1}}, {"type": "Feature", "geometry": {"type": "Point", "coordinates": [2.905072, 48.892689]}, "properties": {"street_name": "CHAMP DE MONT MIDI", "sales": 1, "sales_appt": 0, "sales_maison": 0, "median_price": 2310.4, "median_price_per_sqm": null, "turnover_score": 1.6, "turnover_rank": 17, "first_year": 2021, "last_year": 2021, "years_active": 1}}, {"type": "Feature", "geometry": {"type": "Point", "coordinates": [2.896837, 48.86723]}, "properties": {"street_name": "LA MAISON A GON", "sales": 1, "sales_appt": 0, "sales_maison": 0, "median_price": 30000.0, "median_price_per_sqm": null, "turnover_score": 1.6, "turnover_rank": 17, "first_year": 2023, "last_year": 2023, "years_active": 1}}, {"type": "Feature", "geometry": {"type": "Point", "coordinates": [2.903365, 48.870803]}, "properties": {"street_name": "LE CLOS AUX LORMIERS", "sales": 1, "sales_appt": 0, "sales_maison": 0, "median_price": 1421.2, "median_price_per_sqm": null, "turnover_score": 1.6, "turnover_rank": 17, "first_year": 2024, "last_year": 2024, "years_active": 1}}, {"type": "Feature", "geometry": {"type": "Point", "coordinates": [2.910315, 48.871455]}, "properties": {"street_name": "LE CHAMP DE LA FOLIE D EAU", "sales": 1, "sales_appt": 0, "sales_maison": 0, "median_price": 88806.6, "median_price_per_sqm": null, "turnover_score": 1.6, "turnover_rank": 17, "first_year": 2023, "last_year": 2023, "years_active": 1}}, {"type": "Feature", "geometry": {"type": "Point", "coordinates": [2.902725, 48.87071]}, "properties": {"street_name": "MONT BERCY", "sales": 1, "sales_appt": 0, "sales_maison": 0, "median_price": 30000.0, "median_price_per_sqm": null, "turnover_score": 1.6, "turnover_rank": 17, "first_year": 2023, "last_year": 2023, "years_active": 1}}, {"type": "Feature", "geometry": {"type": "Point", "coordinates": [2.908411, 48.87181]}, "properties": {"street_name": "LES CLOSEAUX", "sales": 1, "sales_appt": 0, "sales_maison": 0, "median_price": 2000.0, "median_price_per_sqm": null, "turnover_score": 1.6, "turnover_rank": 17, "first_year": 2023, "last_year": 2023, "years_active": 1}}, {"type": "Feature", "geometry": {"type": "Point", "coordinates": [2.918836, 48.883965]}, "properties": {"street_name": "LE HAUT DE LUTE", "sales": 1, "sales_appt": 0, "sales_maison": 0, "median_price": 1800.0, "median_price_per_sqm": null, "turnover_score": 1.6, "turnover_rank": 17, "first_year": 2024, "last_year": 2024, "years_active": 1}}, {"type": "Feature", "geometry": {"type": "Point", "coordinates": [2.89367, 48.881316]}, "properties": {"street_name": "LES BERGERES", "sales": 1, "sales_appt": 0, "sales_maison": 0, "median_price": 146769.0, "median_price_per_sqm": null, "turnover_score": 1.6, "turnover_rank": 17, "first_year": 2025, "last_year": 2025, "years_active": 1}}, {"type": "Feature", "geometry": {"type": "Point", "coordinates": [2.890345, 48.877842]}, "properties": {"street_name": "LES CHATAIGNIERS", "sales": 1, "sales_appt": 0, "sales_maison": 0, "median_price": 137000.0, "median_price_per_sqm": null, "turnover_score": 1.6, "turnover_rank": 17, "first_year": 2021, "last_year": 2021, "years_active": 1}}, {"type": "Feature", "geometry": {"type": "Point", "coordinates": [2.897682, 48.880889]}, "properties": {"street_name": "VIGNOT", "sales": 1, "sales_appt": 0, "sales_maison": 0, "median_price": 15012.0, "median_price_per_sqm": null, "turnover_score": 1.6, "turnover_rank": 17, "first_year": 2022, "last_year": 2022, "years_active": 1}}]}