{"type": "FeatureCollection", "features": [{"type": "Feature", "geometry": {"type": "Point", "coordinates": [2.408396, 48.825157]}, "properties": {"street_name": "RUE DE PARIS", "sales": 969, "sales_appt": 406, "sales_maison": 3, "median_price": 450000.0, "median_price_per_sqm": 8107.142857142857, "turnover_score": 100.0, "turnover_rank": 1, "first_year": 2021, "last_year": 2025, "years_active": 5}}, {"type": "Feature", "geometry": {"type": "Point", "coordinates": [2.407862, 48.825901]}, "properties": {"street_name": "AV DE GRAVELLE", "sales": 286, "sales_appt": 107, "sales_maison": 4, "median_price": 635000.0, "median_price_per_sqm": 9003.79213483146, "turnover_score": 29.5, "turnover_rank": 2, "first_year": 2021, "last_year": 2025, "years_active": 5}}, {"type": "Feature", "geometry": {"type": "Point", "coordinates": [2.407236, 48.822947]}, "properties": {"street_name": "ALL RONSARD", "sales": 276, "sales_appt": 99, "sales_maison": 0, "median_price": 12371500.0, "median_price_per_sqm": 193304.6875, "turnover_score": 28.5, "turnover_rank": 3, "first_year": 2021, "last_year": 2025, "years_active": 5}}, {"type": "Feature", "geometry": {"type": "Point", "coordinates": [2.417832, 48.822944]}, "properties": {"street_name": "RUE REPUBLIQUE", "sales": 248, "sales_appt": 92, "sales_maison": 1, "median_price": 367960.0, "median_price_per_sqm": 8162.878787878788, "turnover_score": 25.6, "turnover_rank": 4, "first_year": 2021, "last_year": 2025, "years_active": 5}}, {"type": "Feature", "geometry": {"type": "Point", "coordinates": [2.401323, 48.827927]}, "properties": {"street_name": "RUE PETIT CHATEAU", "sales": 225, "sales_appt": 90, "sales_maison": 0, "median_price": 342000.0, "median_price_per_sqm": 7619.718309859155, "turnover_score": 23.2, "turnover_rank": 5, "first_year": 2021, "last_year": 2025, "years_active": 5}}, {"type": "Feature", "geometry": {"type": "Point", "coordinates": [2.408543, 48.81938]}, "properties": {"street_name": "QUAI CARRIERES", "sales": 221, "sales_appt": 69, "sales_maison": 0, "median_price": 295000.0, "median_price_per_sqm": 5246.153846153846, "turnover_score": 22.8, "turnover_rank": 6, "first_year": 2021, "last_year": 2025, "years_active": 5}}, {"type": "Feature", "geometry": {"type": "Point", "coordinates": [2.410162, 48.820317]}, "properties": {"street_name": "VLA ST PIERRE", "sales": 167, "sales_appt": 63, "sales_maison": 6, "median_price": 381000.0, "median_price_per_sqm": 6307.692307692308, "turnover_score": 17.2, "turnover_rank": 7, "first_year": 2021, "last_year": 2025, "years_active": 5}}, {"type": "Feature", "geometry": {"type": "Point", "coordinates": [2.418802, 48.81957]}, "properties": {"street_name": "RUE GABRIEL PERI", "sales": 146, "sales_appt": 54, "sales_maison": 0, "median_price": 419000.0, "median_price_per_sqm": 8316.79292929293, "turnover_score": 15.1, "turnover_rank": 8, "first_year": 2021, "last_year": 2025, "years_active": 5}}, {"type": "Feature", "geometry": {"type": "Point", "coordinates": [2.415582, 48.823067]}, "properties": {"street_name": "RUE DU GEN LECLERC", "sales": 139, "sales_appt": 60, "sales_maison": 3, "median_price": 499200.0, "median_price_per_sqm": 8831.818181818182, "turnover_score": 14.3, "turnover_rank": 9, "first_year": 2021, "last_year": 2025, "years_active": 5}}, {"type": "Feature", "geometry": {"type": "Point", "coordinates": [2.406822, 48.824777]}, "properties": {"street_name": "RUE DE VERDUN", "sales": 137, "sales_appt": 51, "sales_maison": 0, "median_price": 379300.0, "median_price_per_sqm": 8062.5, "turnover_score": 14.1, "turnover_rank": 10, "first_year": 2021, "last_year": 2025, "years_active": 5}}, {"type": "Feature", "geometry": {"type": "Point", "coordinates": [2.40905, 48.821453]}, "properties": {"street_name": "RUE DES BORDEAUX", "sales": 131, "sales_appt": 55, "sales_maison": 0, "median_price": 366550.0, "median_price_per_sqm": 7187.5, "turnover_score": 13.5, "turnover_rank": 11, "first_year": 2021, "last_year": 2025, "years_active": 5}}, {"type": "Feature", "geometry": {"type": "Point", "coordinates": [2.41675, 48.820607]}, "properties": {"street_name": "RUE MARTY", "sales": 125, "sales_appt": 36, "sales_maison": 5, "median_price": 2100000.0, "median_price_per_sqm": 34750.08928571428, "turnover_score": 12.9, "turnover_rank": 12, "first_year": 2021, "last_year": 2025, "years_active": 5}}, {"type": "Feature", "geometry": {"type": "Point", "coordinates": [2.411521, 48.8240035]}, "properties": {"street_name": "AV ANATOLE FRANCE", "sales": 124, "sales_appt": 39, "sales_maison": 1, "median_price": 551760.0, "median_price_per_sqm": 8067.020250723241, "turnover_score": 12.8, "turnover_rank": 13, "first_year": 2021, "last_year": 2025, "years_active": 5}}, {"type": "Feature", "geometry": {"type": "Point", "coordinates": [2.406751, 48.82229]}, "properties": {"street_name": "RUE DE L'ARCHEVECHE", "sales": 118, "sales_appt": 38, "sales_maison": 2, "median_price": 410000.0, "median_price_per_sqm": 7664.220824598183, "turnover_score": 12.2, "turnover_rank": 14, "first_year": 2021, "last_year": 2025, "years_active": 5}}, {"type": "Feature", "geometry": {"type": "Point", "coordinates": [2.407873, 48.822065]}, "properties": {"street_name": "RUE JEAN PIGEON", "sales": 116, "sales_appt": 40, "sales_maison": 0, "median_price": 462000.0, "median_price_per_sqm": 7998.847926267281, "turnover_score": 12.0, "turnover_rank": 15, "first_year": 2021, "last_year": 2025, "years_active": 5}}, {"type": "Feature", "geometry": {"type": "Point", "coordinates": [2.418341, 48.821333]}, "properties": {"street_name": "RUE GABRIELLE", "sales": 110, "sales_appt": 54, "sales_maison": 3, "median_price": 393000.0, "median_price_per_sqm": 8516.414141414141, "turnover_score": 11.4, "turnover_rank": 16, "first_year": 2021, "last_year": 2025, "years_active": 5}}, {"type": "Feature", "geometry": {"type": "Point", "coordinates": [2.406822, 48.825157]}, "properties": {"street_name": "AV LIBERTE", "sales": 95, "sales_appt": 31, "sales_maison": 1, "median_price": 218500.0, "median_price_per_sqm": 8313.725490196079, "turnover_score": 9.8, "turnover_rank": 17, "first_year": 2021, "last_year": 2025, "years_active": 5}}, {"type": "Feature", "geometry": {"type": "Point", "coordinates": [2.414294, 48.820161]}, "properties": {"street_name": "RUE ARTHUR CROQUETTE", "sales": 93, "sales_appt": 37, "sales_maison": 0, "median_price": 333000.0, "median_price_per_sqm": 7324.324324324324, "turnover_score": 9.6, "turnover_rank": 18, "first_year": 2021, "last_year": 2025, "years_active": 5}}, {"type": "Feature", "geometry": {"type": "Point", "coordinates": [2.410855, 48.822111]}, "properties": {"street_name": "RUE DE CONFLANS", "sales": 93, "sales_appt": 45, "sales_maison": 1, "median_price": 480000.0, "median_price_per_sqm": 8052.830188679245, "turnover_score": 9.6, "turnover_rank": 18, "first_year": 2021, "last_year": 2025, "years_active": 5}}, {"type": "Feature", "geometry": {"type": "Point", "coordinates": [2.408483, 48.824604]}, "properties": {"street_name": "RUE CAMILLE MOUQUET", "sales": 89, "sales_appt": 39, "sales_maison": 1, "median_price": 420000.0, "median_price_per_sqm": 8052.163198247536, "turnover_score": 9.2, "turnover_rank": 19, "first_year": 2021, "last_year": 2025, "years_active": 5}}, {"type": "Feature", "geometry": {"type": "Point", "coordinates": [2.41938, 48.822971]}, "properties": {"street_name": "AV MAL DE LATTRE DE TASSIGNY", "sales": 88, "sales_appt": 38, "sales_maison": 0, "median_price": 432825.0, "median_price_per_sqm": 7980.208333333334, "turnover_score": 9.1, "turnover_rank": 20, "first_year": 2021, "last_year": 2025, "years_active": 5}}, {"type": "Feature", "geometry": {"type": "Point", "coordinates": [2.4032, 48.826787]}, "properties": {"street_name": "RUE DU GENERAL CHANZY", "sales": 78, "sales_appt": 26, "sales_maison": 0, "median_price": 653450.0, "median_price_per_sqm": 9291.845238095239, "turnover_score": 8.0, "turnover_rank": 21, "first_year": 2021, "last_year": 2025, "years_active": 5}}, {"type": "Feature", "geometry": {"type": "Point", "coordinates": [2.398757, 48.823696]}, "properties": {"street_name": "RUE DE L'HERAULT", "sales": 77, "sales_appt": 33, "sales_maison": 0, "median_price": 314050.0, "median_price_per_sqm": 5816.326530612245, "turnover_score": 7.9, "turnover_rank": 22, "first_year": 2021, "last_year": 2025, "years_active": 5}}, {"type": "Feature", "geometry": {"type": "Point", "coordinates": [2.411656, 48.820197]}, "properties": {"street_name": "RUE VICTOR HUGO", "sales": 72, "sales_appt": 31, "sales_maison": 1, "median_price": 345000.0, "median_price_per_sqm": 7087.5, "turnover_score": 7.4, "turnover_rank": 23, "first_year": 2021, "last_year": 2025, "years_active": 5}}, {"type": "Feature", "geometry": {"type": "Point", "coordinates": [2.403698, 48.827444]}, "properties": {"street_name": "RUE DE VALMY", "sales": 68, "sales_appt": 24, "sales_maison": 0, "median_price": 414500.0, "median_price_per_sqm": 8686.046511627907, "turnover_score": 7.0, "turnover_rank": 24, "first_year": 2021, "last_year": 2025, "years_active": 4}}, {"type": "Feature", "geometry": {"type": "Point", "coordinates": [2.410003, 48.820628]}, "properties": {"street_name": "RUE CERISAIE", "sales": 61, "sales_appt": 20, "sales_maison": 0, "median_price": 393295.0, "median_price_per_sqm": 6835.4989604989605, "turnover_score": 6.3, "turnover_rank": 25, "first_year": 2021, "last_year": 2025, "years_active": 5}}, {"type": "Feature", "geometry": {"type": "Point", "coordinates": [2.406408, 48.822861]}, "properties": {"street_name": "RUE DU PRESIDENT KENNEDY", "sales": 59, "sales_appt": 22, "sales_maison": 1, "median_price": 586500.0, "median_price_per_sqm": 8461.538461538461, "turnover_score": 6.1, "turnover_rank": 26, "first_year": 2021, "last_year": 2025, "years_active": 5}}, {"type": "Feature", "geometry": {"type": "Point", "coordinates": [2.415019, 48.823211]}, "properties": {"street_name": "RUE VICTOR BASCH", "sales": 56, "sales_appt": 21, "sales_maison": 2, "median_price": 631000.0, "median_price_per_sqm": 9375.0, "turnover_score": 5.8, "turnover_rank": 27, "first_year": 2021, "last_year": 2025, "years_active": 5}}, {"type": "Feature", "geometry": {"type": "Point", "coordinates": [2.418802, 48.819494]}, "properties": {"street_name": "ALL DE NAVARRE", "sales": 54, "sales_appt": 27, "sales_maison": 0, "median_price": 399000.0, "median_price_per_sqm": 8666.666666666666, "turnover_score": 5.6, "turnover_rank": 28, "first_year": 2021, "last_year": 2025, "years_active": 5}}, {"type": "Feature", "geometry": {"type": "Point", "coordinates": [2.415986, 48.823758]}, "properties": {"street_name": "RUE GUERIN", "sales": 49, "sales_appt": 22, "sales_maison": 1, "median_price": 340000.0, "median_price_per_sqm": 8149.91719361638, "turnover_score": 5.1, "turnover_rank": 29, "first_year": 2021, "last_year": 2025, "years_active": 5}}, {"type": "Feature", "geometry": {"type": "Point", "coordinates": [2.416544, 48.823942]}, "properties": {"street_name": "RUE ORMES", "sales": 49, "sales_appt": 22, "sales_maison": 0, "median_price": 484000.0, "median_price_per_sqm": 8772.017837235227, "turnover_score": 5.1, "turnover_rank": 29, "first_year": 2021, "last_year": 2025, "years_active": 4}}, {"type": "Feature", "geometry": {"type": "Point", "coordinates": [2.41015, 48.823264]}, "properties": {"street_name": "RUE NOCARD", "sales": 48, "sales_appt": 10, "sales_maison": 0, "median_price": 599500.0, "median_price_per_sqm": 8655.0, "turnover_score": 5.0, "turnover_rank": 30, "first_year": 2021, "last_year": 2025, "years_active": 5}}, {"type": "Feature", "geometry": {"type": "Point", "coordinates": [2.411434, 48.820522]}, "properties": {"street_name": "RUE SAINT PIERRE", "sales": 44, "sales_appt": 16, "sales_maison": 1, "median_price": 353500.0, "median_price_per_sqm": 7058.823529411765, "turnover_score": 4.5, "turnover_rank": 31, "first_year": 2021, "last_year": 2025, "years_active": 5}}, {"type": "Feature", "geometry": {"type": "Point", "coordinates": [2.403064, 48.822044]}, "properties": {"street_name": "RUE SEMINAIRE DE CONFLANS", "sales": 44, "sales_appt": 12, "sales_maison": 0, "median_price": 293600.0, "median_price_per_sqm": 7349.20634920635, "turnover_score": 4.5, "turnover_rank": 31, "first_year": 2021, "last_year": 2025, "years_active": 5}}, {"type": "Feature", "geometry": {"type": "Point", "coordinates": [2.395417, 48.825645]}, "properties": {"street_name": "JARD DU CARDINAL DE RICHELIEU", "sales": 44, "sales_appt": 15, "sales_maison": 0, "median_price": 490000.0, "median_price_per_sqm": 6645.2991452991455, "turnover_score": 4.5, "turnover_rank": 31, "first_year": 2021, "last_year": 2025, "years_active": 5}}, {"type": "Feature", "geometry": {"type": "Point", "coordinates": [2.418363, 48.822230000000005]}, "properties": {"street_name": "RUE DU PARC", "sales": 44, "sales_appt": 16, "sales_maison": 0, "median_price": 685000.0, "median_price_per_sqm": 8822.556248818302, "turnover_score": 4.5, "turnover_rank": 31, "first_year": 2021, "last_year": 2025, "years_active": 5}}, {"type": "Feature", "geometry": {"type": "Point", "coordinates": [2.40542, 48.82486]}, "properties": {"street_name": "AV WINSTON CHURCHILL", "sales": 43, "sales_appt": 17, "sales_maison": 0, "median_price": 560000.0, "median_price_per_sqm": 8455.555555555555, "turnover_score": 4.4, "turnover_rank": 32, "first_year": 2021, "last_year": 2025, "years_active": 5}}, {"type": "Feature", "geometry": {"type": "Point", "coordinates": [2.413721, 48.824083]}, "properties": {"street_name": "RUE D'ESTIENNE D'ORVES", "sales": 43, "sales_appt": 16, "sales_maison": 1, "median_price": 372000.0, "median_price_per_sqm": 8434.782608695652, "turnover_score": 4.4, "turnover_rank": 32, "first_year": 2021, "last_year": 2025, "years_active": 5}}, {"type": "Feature", "geometry": {"type": "Point", "coordinates": [2.40261, 48.827683]}, "properties": {"street_name": "RUE MARCELIN BERTHELOT", "sales": 42, "sales_appt": 19, "sales_maison": 0, "median_price": 182500.0, "median_price_per_sqm": 6900.0, "turnover_score": 4.3, "turnover_rank": 33, "first_year": 2021, "last_year": 2025, "years_active": 5}}, {"type": "Feature", "geometry": {"type": "Point", "coordinates": [2.414743, 48.823896]}, "properties": {"street_name": "AV STINVILLE", "sales": 40, "sales_appt": 16, "sales_maison": 0, "median_price": 762702.0, "median_price_per_sqm": 8392.857142857143, "turnover_score": 4.1, "turnover_rank": 34, "first_year": 2022, "last_year": 2025, "years_active": 4}}, {"type": "Feature", "geometry": {"type": "Point", "coordinates": [2.413777, 48.820564]}, "properties": {"street_name": "RUE DU CADRAN", "sales": 39, "sales_appt": 7, "sales_maison": 0, "median_price": 505000.0, "median_price_per_sqm": 6090.909090909091, "turnover_score": 4.0, "turnover_rank": 35, "first_year": 2021, "last_year": 2025, "years_active": 5}}, {"type": "Feature", "geometry": {"type": "Point", "coordinates": [2.415887, 48.821904]}, "properties": {"street_name": "RUE ALFRED SAVOURE", "sales": 38, "sales_appt": 15, "sales_maison": 1, "median_price": 604800.0, "median_price_per_sqm": 7943.666169895678, "turnover_score": 3.9, "turnover_rank": 36, "first_year": 2021, "last_year": 2025, "years_active": 4}}, {"type": "Feature", "geometry": {"type": "Point", "coordinates": [2.418891, 48.821805]}, "properties": {"street_name": "RUE THIEBAULT", "sales": 37, "sales_appt": 15, "sales_maison": 1, "median_price": 548500.0, "median_price_per_sqm": 9154.543468763652, "turnover_score": 3.8, "turnover_rank": 37, "first_year": 2021, "last_year": 2025, "years_active": 5}}, {"type": "Feature", "geometry": {"type": "Point", "coordinates": [2.398148, 48.823199]}, "properties": {"street_name": "RUE PORT AUX LIONS", "sales": 34, "sales_appt": 12, "sales_maison": 0, "median_price": 405000.0, "median_price_per_sqm": 6221.008403361345, "turnover_score": 3.5, "turnover_rank": 38, "first_year": 2021, "last_year": 2025, "years_active": 5}}, {"type": "Feature", "geometry": {"type": "Point", "coordinates": [2.395132, 48.825143]}, "properties": {"street_name": "AV GENERAL DE GAULLE", "sales": 32, "sales_appt": 11, "sales_maison": 0, "median_price": 311100.0, "median_price_per_sqm": 6216.555183946488, "turnover_score": 3.3, "turnover_rank": 39, "first_year": 2021, "last_year": 2025, "years_active": 5}}, {"type": "Feature", "geometry": {"type": "Point", "coordinates": [2.414072, 48.822654]}, "properties": {"street_name": "AV JEAN JAURES", "sales": 29, "sales_appt": 16, "sales_maison": 0, "median_price": 490000.0, "median_price_per_sqm": 8474.074074074073, "turnover_score": 3.0, "turnover_rank": 40, "first_year": 2021, "last_year": 2025, "years_active": 5}}, {"type": "Feature", "geometry": {"type": "Point", "coordinates": [2.418543, 48.821502]}, "properties": {"street_name": "RUE LABOURET", "sales": 27, "sales_appt": 14, "sales_maison": 0, "median_price": 443110.0, "median_price_per_sqm": 8584.070796460177, "turnover_score": 2.8, "turnover_rank": 41, "first_year": 2021, "last_year": 2025, "years_active": 5}}, {"type": "Feature", "geometry": {"type": "Point", "coordinates": [2.395417, 48.825645]}, "properties": {"street_name": "PL HENRI D'ASTIER", "sales": 23, "sales_appt": 8, "sales_maison": 0, "median_price": 450000.0, "median_price_per_sqm": 6033.488163020677, "turnover_score": 2.4, "turnover_rank": 42, "first_year": 2021, "last_year": 2025, "years_active": 5}}, {"type": "Feature", "geometry": {"type": "Point", "coordinates": [2.40542, 48.82486]}, "properties": {"street_name": "RUE FRAGONARD", "sales": 22, "sales_appt": 7, "sales_maison": 0, "median_price": 470000.0, "median_price_per_sqm": 8260.869565217392, "turnover_score": 2.3, "turnover_rank": 43, "first_year": 2021, "last_year": 2024, "years_active": 3}}, {"type": "Feature", "geometry": {"type": "Point", "coordinates": [2.417041, 48.820627]}, "properties": {"street_name": "RUE DE SULLY", "sales": 21, "sales_appt": 11, "sales_maison": 0, "median_price": 432000.0, "median_price_per_sqm": 8237.837837837838, "turnover_score": 2.2, "turnover_rank": 44, "first_year": 2021, "last_year": 2025, "years_active": 5}}, {"type": "Feature", "geometry": {"type": "Point", "coordinates": [2.397085, 48.823423]}, "properties": {"street_name": "RUE DU NOUVEAU BERCY", "sales": 20, "sales_appt": 6, "sales_maison": 0, "median_price": 490000.0, "median_price_per_sqm": 6438.793103448276, "turnover_score": 2.1, "turnover_rank": 45, "first_year": 2021, "last_year": 2024, "years_active": 4}}, {"type": "Feature", "geometry": {"type": "Point", "coordinates": [2.395132, 48.825143]}, "properties": {"street_name": "PL DE L'EUROPE", "sales": 20, "sales_appt": 6, "sales_maison": 0, "median_price": 564420.0, "median_price_per_sqm": 7225.0, "turnover_score": 2.1, "turnover_rank": 45, "first_year": 2021, "last_year": 2024, "years_active": 4}}, {"type": "Feature", "geometry": {"type": "Point", "coordinates": [2.401934, 48.828164]}, "properties": {"street_name": "RUE FELIX LANGLAIS", "sales": 19, "sales_appt": 9, "sales_maison": 0, "median_price": 227000.0, "median_price_per_sqm": 7963.793103448275, "turnover_score": 2.0, "turnover_rank": 46, "first_year": 2021, "last_year": 2025, "years_active": 4}}, {"type": "Feature", "geometry": {"type": "Point", "coordinates": [2.400857, 48.827619]}, "properties": {"street_name": "RUE MARIUS DELCHER", "sales": 18, "sales_appt": 4, "sales_maison": 0, "median_price": 825000.0, "median_price_per_sqm": 7321.479374110953, "turnover_score": 1.9, "turnover_rank": 47, "first_year": 2022, "last_year": 2025, "years_active": 3}}, {"type": "Feature", "geometry": {"type": "Point", "coordinates": [2.411761, 48.82159]}, "properties": {"street_name": "RUE DU MARECHAL JUIN", "sales": 17, "sales_appt": 3, "sales_maison": 0, "median_price": 552000.0, "median_price_per_sqm": 7477.064220183486, "turnover_score": 1.8, "turnover_rank": 48, "first_year": 2021, "last_year": 2024, "years_active": 4}}, {"type": "Feature", "geometry": {"type": "Point", "coordinates": [2.410162, 48.820317]}, "properties": {"street_name": "VLA SAINT PIERRE", "sales": 14, "sales_appt": 5, "sales_maison": 0, "median_price": 427700.0, "median_price_per_sqm": 6230.7692307692305, "turnover_score": 1.4, "turnover_rank": 49, "first_year": 2025, "last_year": 2025, "years_active": 1}}, {"type": "Feature", "geometry": {"type": "Point", "coordinates": [2.395713, 48.824682]}, "properties": {"street_name": "RUE ETIENNE MEHUL", "sales": 13, "sales_appt": 5, "sales_maison": 0, "median_price": 460000.0, "median_price_per_sqm": 6388.888888888889, "turnover_score": 1.3, "turnover_rank": 50, "first_year": 2021, "last_year": 2022, "years_active": 2}}, {"type": "Feature", "geometry": {"type": "Point", "coordinates": [2.404121, 48.826693]}, "properties": {"street_name": "ALL DES TILLEULS", "sales": 12, "sales_appt": 5, "sales_maison": 0, "median_price": 240000.0, "median_price_per_sqm": 8571.42857142857, "turnover_score": 1.2, "turnover_rank": 51, "first_year": 2022, "last_year": 2025, "years_active": 3}}, {"type": "Feature", "geometry": {"type": "Point", "coordinates": [2.417925, 48.818253]}, "properties": {"street_name": "RUE ABREUVOIR", "sales": 12, "sales_appt": 7, "sales_maison": 0, "median_price": 352884.62, "median_price_per_sqm": 10378.959411764707, "turnover_score": 1.2, "turnover_rank": 51, "first_year": 2021, "last_year": 2025, "years_active": 4}}, {"type": "Feature", "geometry": {"type": "Point", "coordinates": [2.416529, 48.82011]}, "properties": {"street_name": "PL ARTHUR DUSSAULT", "sales": 11, "sales_appt": 6, "sales_maison": 0, "median_price": 765000.0, "median_price_per_sqm": 7866.818039461321, "turnover_score": 1.1, "turnover_rank": 52, "first_year": 2021, "last_year": 2025, "years_active": 4}}, {"type": "Feature", "geometry": {"type": "Point", "coordinates": [2.415545, 48.822473]}, "properties": {"street_name": "VLA FLEURS", "sales": 9, "sales_appt": 2, "sales_maison": 1, "median_price": 350000.0, "median_price_per_sqm": 7321.014492753623, "turnover_score": 0.9, "turnover_rank": 53, "first_year": 2022, "last_year": 2025, "years_active": 4}}, {"type": "Feature", "geometry": {"type": "Point", "coordinates": [2.416903, 48.81852]}, "properties": {"street_name": "PL DE VALOIS", "sales": 8, "sales_appt": 4, "sales_maison": 0, "median_price": 595000.0, "median_price_per_sqm": 9315.217391304348, "turnover_score": 0.8, "turnover_rank": 54, "first_year": 2021, "last_year": 2025, "years_active": 3}}, {"type": "Feature", "geometry": {"type": "Point", "coordinates": [2.418027, 48.823916]}, "properties": {"street_name": "RUE DU BAC", "sales": 6, "sales_appt": 2, "sales_maison": 2, "median_price": 358000.0, "median_price_per_sqm": 7712.26868541216, "turnover_score": 0.6, "turnover_rank": 55, "first_year": 2021, "last_year": 2025, "years_active": 3}}, {"type": "Feature", "geometry": {"type": "Point", "coordinates": [2.40889, 48.82006]}, "properties": {"street_name": "RUE PAUL ELUARD", "sales": 5, "sales_appt": 3, "sales_maison": 0, "median_price": 380000.0, "median_price_per_sqm": 7169.811320754717, "turnover_score": 0.5, "turnover_rank": 56, "first_year": 2021, "last_year": 2022, "years_active": 2}}, {"type": "Feature", "geometry": {"type": "Point", "coordinates": [2.416833, 48.821594]}, "properties": {"street_name": "PL HENRI IV", "sales": 5, "sales_appt": 2, "sales_maison": 0, "median_price": 765000.0, "median_price_per_sqm": 10885.250412768299, "turnover_score": 0.5, "turnover_rank": 56, "first_year": 2022, "last_year": 2023, "years_active": 2}}, {"type": "Feature", "geometry": {"type": "Point", "coordinates": [2.405055, 48.826018]}, "properties": {"street_name": "PL DES MARSEILLAIS", "sales": 4, "sales_appt": 0, "sales_maison": 0, "median_price": 22205824.0, "median_price_per_sqm": null, "turnover_score": 0.4, "turnover_rank": 57, "first_year": 2024, "last_year": 2024, "years_active": 1}}, {"type": "Feature", "geometry": {"type": "Point", "coordinates": [2.397609, 48.825908]}, "properties": {"street_name": "GARE DE BERCY CONFLANS", "sales": 2, "sales_appt": 0, "sales_maison": 0, "median_price": 8203320.0, "median_price_per_sqm": null, "turnover_score": 0.2, "turnover_rank": 58, "first_year": 2022, "last_year": 2022, "years_active": 1}}, {"type": "Feature", "geometry": {"type": "Point", "coordinates": [2.40721, 48.824999]}, "properties": {"street_name": "RUE JEANNE D'ARC", "sales": 2, "sales_appt": 1, "sales_maison": 0, "median_price": 394000.0, "median_price_per_sqm": 7880.0, "turnover_score": 0.2, "turnover_rank": 58, "first_year": 2024, "last_year": 2024, "years_active": 1}}, {"type": "Feature", "geometry": {"type": "Point", "coordinates": [2.41535, 48.818586]}, "properties": {"street_name": "RUE DU SEJOUR", "sales": 2, "sales_appt": 1, "sales_maison": 0, "median_price": 202500.0, "median_price_per_sqm": 7788.461538461538, "turnover_score": 0.2, "turnover_rank": 58, "first_year": 2022, "last_year": 2022, "years_active": 1}}, {"type": "Feature", "geometry": {"type": "Point", "coordinates": [2.403489, 48.825747]}, "properties": {"street_name": "PL DE LA COUPOLE", "sales": 1, "sales_appt": 0, "sales_maison": 0, "median_price": 49000000.0, "median_price_per_sqm": null, "turnover_score": 0.1, "turnover_rank": 59, "first_year": 2024, "last_year": 2024, "years_active": 1}}, {"type": "Feature", "geometry": {"type": "Point", "coordinates": [2.399773, 48.824432]}, "properties": {"street_name": "RUE NECKER", "sales": 1, "sales_appt": 0, "sales_maison": 0, "median_price": 8203320.0, "median_price_per_sqm": null, "turnover_score": 0.1, "turnover_rank": 59, "first_year": 2022, "last_year": 2022, "years_active": 1}}, {"type": "Feature", "geometry": {"type": "Point", "coordinates": [2.397188, 48.824391]}, "properties": {"street_name": "RUE ROBERT GRENET", "sales": 1, "sales_appt": 0, "sales_maison": 0, "median_price": 16975000.0, "median_price_per_sqm": null, "turnover_score": 0.1, "turnover_rank": 59, "first_year": 2025, "last_year": 2025, "years_active": 1}}, {"type": "Feature", "geometry": {"type": "Point", "coordinates": [2.405861, 48.823311]}, "properties": {"street_name": "RUE PASTEUR", "sales": 1, "sales_appt": 1, "sales_maison": 0, "median_price": 323000.0, "median_price_per_sqm": 9228.57142857143, "turnover_score": 0.1, "turnover_rank": 59, "first_year": 2023, "last_year": 2023, "years_active": 1}}]}