{"type": "FeatureCollection", "features": [{"type": "Feature", "geometry": {"type": "Point", "coordinates": [2.838674, 48.643724]}, "properties": {"street_name": "GR GRANDE RUE", "sales": 67, "sales_appt": 0, "sales_maison": 66, "median_price": 130000.0, "median_price_per_sqm": 1857.142857142857, "turnover_score": 100.0, "turnover_rank": 1, "first_year": 2021, "last_year": 2021, "years_active": 1}}, {"type": "Feature", "geometry": {"type": "Point", "coordinates": [2.825978, 48.645745]}, "properties": {"street_name": "RUE PASTEUR", "sales": 54, "sales_appt": 4, "sales_maison": 6, "median_price": 370250.0, "median_price_per_sqm": 3131.868131868132, "turnover_score": 80.6, "turnover_rank": 2, "first_year": 2021, "last_year": 2025, "years_active": 4}}, {"type": "Feature", "geometry": {"type": "Point", "coordinates": [2.828033, 48.644435]}, "properties": {"street_name": "RUE DE LA GARE", "sales": 44, "sales_appt": 14, "sales_maison": 10, "median_price": 287000.0, "median_price_per_sqm": 4413.333333333333, "turnover_score": 65.7, "turnover_rank": 3, "first_year": 2021, "last_year": 2025, "years_active": 5}}, {"type": "Feature", "geometry": {"type": "Point", "coordinates": [2.832198, 48.645022]}, "properties": {"street_name": "RUE ARTHUR CHAUSSY", "sales": 36, "sales_appt": 5, "sales_maison": 14, "median_price": 246000.0, "median_price_per_sqm": 2885.245901639344, "turnover_score": 53.7, "turnover_rank": 4, "first_year": 2021, "last_year": 2025, "years_active": 5}}, {"type": "Feature", "geometry": {"type": "Point", "coordinates": [2.833239, 48.644442]}, "properties": {"street_name": "RUE JEAN JAURES", "sales": 24, "sales_appt": 2, "sales_maison": 7, "median_price": 343925.0, "median_price_per_sqm": 2214.285714285714, "turnover_score": 35.8, "turnover_rank": 5, "first_year": 2021, "last_year": 2025, "years_active": 5}}, {"type": "Feature", "geometry": {"type": "Point", "coordinates": [2.829949, 48.6447385]}, "properties": {"street_name": "RUE JULES GUESDE", "sales": 20, "sales_appt": 2, "sales_maison": 9, "median_price": 287500.0, "median_price_per_sqm": 3107.52688172043, "turnover_score": 29.9, "turnover_rank": 6, "first_year": 2021, "last_year": 2025, "years_active": 4}}, {"type": "Feature", "geometry": {"type": "Point", "coordinates": [2.840121, 48.642347]}, "properties": {"street_name": "RUE L OREE DU PARC", "sales": 13, "sales_appt": 0, "sales_maison": 13, "median_price": 315000.0, "median_price_per_sqm": 2818.181818181818, "turnover_score": 19.4, "turnover_rank": 7, "first_year": 2021, "last_year": 2025, "years_active": 4}}, {"type": "Feature", "geometry": {"type": "Point", "coordinates": [2.824273, 48.6475765]}, "properties": {"street_name": "RUE EDITH PIAF", "sales": 12, "sales_appt": 0, "sales_maison": 10, "median_price": 315000.0, "median_price_per_sqm": 3037.489943684634, "turnover_score": 17.9, "turnover_rank": 8, "first_year": 2021, "last_year": 2025, "years_active": 4}}, {"type": "Feature", "geometry": {"type": "Point", "coordinates": [2.836991, 48.643459]}, "properties": {"street_name": "RUE EMILE ZOLA", "sales": 11, "sales_appt": 0, "sales_maison": 3, "median_price": 273000.0, "median_price_per_sqm": 2608.695652173913, "turnover_score": 16.4, "turnover_rank": 9, "first_year": 2021, "last_year": 2025, "years_active": 3}}, {"type": "Feature", "geometry": {"type": "Point", "coordinates": [2.830676, 48.642]}, "properties": {"street_name": "RUE DES MESANGES", "sales": 9, "sales_appt": 0, "sales_maison": 6, "median_price": 269900.0, "median_price_per_sqm": 2837.2138826785904, "turnover_score": 13.4, "turnover_rank": 10, "first_year": 2021, "last_year": 2024, "years_active": 3}}, {"type": "Feature", "geometry": {"type": "Point", "coordinates": [2.81866, 48.645157]}, "properties": {"street_name": "RUE DENIS PAPIN", "sales": 9, "sales_appt": 1, "sales_maison": 0, "median_price": 550000.0, "median_price_per_sqm": 1174.8148148148148, "turnover_score": 13.4, "turnover_rank": 10, "first_year": 2021, "last_year": 2025, "years_active": 4}}, {"type": "Feature", "geometry": {"type": "Point", "coordinates": [2.8385565, 48.644701]}, "properties": {"street_name": "RUE DE L EGALITE", "sales": 8, "sales_appt": 1, "sales_maison": 4, "median_price": 320250.0, "median_price_per_sqm": 2918.9189189189187, "turnover_score": 11.9, "turnover_rank": 11, "first_year": 2021, "last_year": 2023, "years_active": 3}}, {"type": "Feature", "geometry": {"type": "Point", "coordinates": [2.8389535, 48.640836500000006]}, "properties": {"street_name": "RUE DES PLATANES", "sales": 8, "sales_appt": 0, "sales_maison": 8, "median_price": 290000.0, "median_price_per_sqm": 3053.909632034632, "turnover_score": 11.9, "turnover_rank": 11, "first_year": 2021, "last_year": 2025, "years_active": 4}}, {"type": "Feature", "geometry": {"type": "Point", "coordinates": [2.824792, 48.636349]}, "properties": {"street_name": "FONTAINES DE VERNOUILLET", "sales": 5, "sales_appt": 0, "sales_maison": 0, "median_price": 480000.0, "median_price_per_sqm": null, "turnover_score": 7.5, "turnover_rank": 12, "first_year": 2023, "last_year": 2023, "years_active": 1}}, {"type": "Feature", "geometry": {"type": "Point", "coordinates": [2.837459, 48.639519]}, "properties": {"street_name": "ALL DES PEUPLIERS", "sales": 5, "sales_appt": 0, "sales_maison": 4, "median_price": 329000.0, "median_price_per_sqm": 2577.281906657819, "turnover_score": 7.5, "turnover_rank": 12, "first_year": 2022, "last_year": 2024, "years_active": 2}}, {"type": "Feature", "geometry": {"type": "Point", "coordinates": [2.814984, 48.643233]}, "properties": {"street_name": "BOIS DE CRENNES", "sales": 5, "sales_appt": 0, "sales_maison": 0, "median_price": 550000.0, "median_price_per_sqm": null, "turnover_score": 7.5, "turnover_rank": 12, "first_year": 2021, "last_year": 2025, "years_active": 2}}, {"type": "Feature", "geometry": {"type": "Point", "coordinates": [2.830287, 48.645792]}, "properties": {"street_name": "RUE EDOUARD VAILLANT", "sales": 5, "sales_appt": 2, "sales_maison": 3, "median_price": 290000.0, "median_price_per_sqm": 3819.4444444444443, "turnover_score": 7.5, "turnover_rank": 12, "first_year": 2022, "last_year": 2025, "years_active": 3}}, {"type": "Feature", "geometry": {"type": "Point", "coordinates": [2.836796, 48.64403]}, "properties": {"street_name": "RUE MARCEL SEMBAT", "sales": 5, "sales_appt": 1, "sales_maison": 1, "median_price": 259900.0, "median_price_per_sqm": 2852.7690700104495, "turnover_score": 7.5, "turnover_rank": 12, "first_year": 2021, "last_year": 2021, "years_active": 1}}, {"type": "Feature", "geometry": {"type": "Point", "coordinates": [2.826913, 48.628608]}, "properties": {"street_name": "HAM DE L'ETANG", "sales": 5, "sales_appt": 0, "sales_maison": 2, "median_price": 135000.0, "median_price_per_sqm": 1425.0936329588014, "turnover_score": 7.5, "turnover_rank": 12, "first_year": 2021, "last_year": 2025, "years_active": 2}}, {"type": "Feature", "geometry": {"type": "Point", "coordinates": [2.834126, 48.6459415]}, "properties": {"street_name": "VERNEUIL", "sales": 4, "sales_appt": 0, "sales_maison": 0, "median_price": 192250.0, "median_price_per_sqm": null, "turnover_score": 6.0, "turnover_rank": 13, "first_year": 2021, "last_year": 2025, "years_active": 3}}, {"type": "Feature", "geometry": {"type": "Point", "coordinates": [2.839022, 48.64387]}, "properties": {"street_name": "RUE DU DOC ROUX", "sales": 4, "sales_appt": 0, "sales_maison": 2, "median_price": 149450.0, "median_price_per_sqm": 1966.4473684210525, "turnover_score": 6.0, "turnover_rank": 13, "first_year": 2023, "last_year": 2023, "years_active": 1}}, {"type": "Feature", "geometry": {"type": "Point", "coordinates": [2.828908, 48.645688]}, "properties": {"street_name": "QUARTIER DE LA GARE", "sales": 3, "sales_appt": 0, "sales_maison": 0, "median_price": 402500.0, "median_price_per_sqm": null, "turnover_score": 4.5, "turnover_rank": 14, "first_year": 2021, "last_year": 2023, "years_active": 3}}, {"type": "Feature", "geometry": {"type": "Point", "coordinates": [2.833892, 48.645539]}, "properties": {"street_name": "IMP ARTHUR CHAUSSY", "sales": 3, "sales_appt": 0, "sales_maison": 2, "median_price": 330000.0, "median_price_per_sqm": 4019.5283714075167, "turnover_score": 4.5, "turnover_rank": 14, "first_year": 2021, "last_year": 2022, "years_active": 2}}, {"type": "Feature", "geometry": {"type": "Point", "coordinates": [2.828571, 48.645567]}, "properties": {"street_name": "IMP LEON BLUM", "sales": 3, "sales_appt": 0, "sales_maison": 1, "median_price": 352000.0, "median_price_per_sqm": 3450.9803921568628, "turnover_score": 4.5, "turnover_rank": 14, "first_year": 2022, "last_year": 2023, "years_active": 2}}, {"type": "Feature", "geometry": {"type": "Point", "coordinates": [2.825348, 48.647031]}, "properties": {"street_name": "RUE GEORGES BRASSENS", "sales": 3, "sales_appt": 0, "sales_maison": 3, "median_price": 337000.0, "median_price_per_sqm": 2324.137931034483, "turnover_score": 4.5, "turnover_rank": 14, "first_year": 2022, "last_year": 2023, "years_active": 2}}, {"type": "Feature", "geometry": {"type": "Point", "coordinates": [2.808134, 48.63514]}, "properties": {"street_name": "MONCIENNE", "sales": 3, "sales_appt": 0, "sales_maison": 0, "median_price": 405000.0, "median_price_per_sqm": null, "turnover_score": 4.5, "turnover_rank": 14, "first_year": 2022, "last_year": 2022, "years_active": 1}}, {"type": "Feature", "geometry": {"type": "Point", "coordinates": [2.818526, 48.627369]}, "properties": {"street_name": "LA PIECE DU PARC", "sales": 3, "sales_appt": 0, "sales_maison": 0, "median_price": 1270.8, "median_price_per_sqm": null, "turnover_score": 4.5, "turnover_rank": 14, "first_year": 2023, "last_year": 2023, "years_active": 1}}, {"type": "Feature", "geometry": {"type": "Point", "coordinates": [2.83281, 48.642226]}, "properties": {"street_name": "RUE DES ROSIERS", "sales": 3, "sales_appt": 0, "sales_maison": 2, "median_price": 271000.0, "median_price_per_sqm": 2627.0833333333335, "turnover_score": 4.5, "turnover_rank": 14, "first_year": 2021, "last_year": 2025, "years_active": 2}}, {"type": "Feature", "geometry": {"type": "Point", "coordinates": [2.824593, 48.636225]}, "properties": {"street_name": "VERNOUILLET", "sales": 3, "sales_appt": 0, "sales_maison": 1, "median_price": 480000.0, "median_price_per_sqm": 2181.818181818182, "turnover_score": 4.5, "turnover_rank": 14, "first_year": 2023, "last_year": 2023, "years_active": 1}}, {"type": "Feature", "geometry": {"type": "Point", "coordinates": [2.831213, 48.642498]}, "properties": {"street_name": "RUE DES FAUVETTES", "sales": 3, "sales_appt": 0, "sales_maison": 3, "median_price": 278500.0, "median_price_per_sqm": 2744.8979591836733, "turnover_score": 4.5, "turnover_rank": 14, "first_year": 2021, "last_year": 2024, "years_active": 3}}, {"type": "Feature", "geometry": {"type": "Point", "coordinates": [2.830004, 48.646706]}, "properties": {"street_name": "RUE ALBERT HUBSCHWERLIN", "sales": 3, "sales_appt": 0, "sales_maison": 1, "median_price": 325000.0, "median_price_per_sqm": 2620.967741935484, "turnover_score": 4.5, "turnover_rank": 14, "first_year": 2021, "last_year": 2021, "years_active": 1}}, {"type": "Feature", "geometry": {"type": "Point", "coordinates": [2.825293, 48.64324]}, "properties": {"street_name": "RUE AUGUSTE BLANQUI", "sales": 3, "sales_appt": 0, "sales_maison": 2, "median_price": 288000.0, "median_price_per_sqm": 2185.4014598540143, "turnover_score": 4.5, "turnover_rank": 14, "first_year": 2022, "last_year": 2025, "years_active": 2}}, {"type": "Feature", "geometry": {"type": "Point", "coordinates": [2.8277845, 48.645613999999995]}, "properties": {"street_name": "IMP PIERRE MENDES FRANCE", "sales": 2, "sales_appt": 0, "sales_maison": 2, "median_price": 324500.0, "median_price_per_sqm": 2980.074257425743, "turnover_score": 3.0, "turnover_rank": 15, "first_year": 2023, "last_year": 2024, "years_active": 2}}, {"type": "Feature", "geometry": {"type": "Point", "coordinates": [2.8380855, 48.642169499999994]}, "properties": {"street_name": "LA PIERREE", "sales": 2, "sales_appt": 0, "sales_maison": 0, "median_price": 318000.0, "median_price_per_sqm": null, "turnover_score": 3.0, "turnover_rank": 15, "first_year": 2021, "last_year": 2021, "years_active": 1}}, {"type": "Feature", "geometry": {"type": "Point", "coordinates": [2.82752, 48.646437000000006]}, "properties": {"street_name": "RUE JACQUES BREL", "sales": 2, "sales_appt": 0, "sales_maison": 2, "median_price": 310000.0, "median_price_per_sqm": 3039.2605298265676, "turnover_score": 3.0, "turnover_rank": 15, "first_year": 2023, "last_year": 2025, "years_active": 2}}, {"type": "Feature", "geometry": {"type": "Point", "coordinates": [2.83444, 48.6426695]}, "properties": {"street_name": "RUE LAMARTINE", "sales": 2, "sales_appt": 0, "sales_maison": 2, "median_price": 345675.0, "median_price_per_sqm": 2140.591954022989, "turnover_score": 3.0, "turnover_rank": 15, "first_year": 2022, "last_year": 2023, "years_active": 2}}, {"type": "Feature", "geometry": {"type": "Point", "coordinates": [2.845466, 48.635527]}, "properties": {"street_name": "LE NOYER RIGAUD", "sales": 1, "sales_appt": 0, "sales_maison": 0, "median_price": 69100.0, "median_price_per_sqm": null, "turnover_score": 1.5, "turnover_rank": 16, "first_year": 2024, "last_year": 2024, "years_active": 1}}, {"type": "Feature", "geometry": {"type": "Point", "coordinates": [2.807762, 48.636272]}, "properties": {"street_name": "LE BOIS DU GLAND", "sales": 1, "sales_appt": 0, "sales_maison": 0, "median_price": 1096200.0, "median_price_per_sqm": null, "turnover_score": 1.5, "turnover_rank": 16, "first_year": 2022, "last_year": 2022, "years_active": 1}}, {"type": "Feature", "geometry": {"type": "Point", "coordinates": [2.855378, 48.634424]}, "properties": {"street_name": "LES HAUTS GRES", "sales": 1, "sales_appt": 0, "sales_maison": 0, "median_price": 28461.3, "median_price_per_sqm": null, "turnover_score": 1.5, "turnover_rank": 16, "first_year": 2024, "last_year": 2024, "years_active": 1}}, {"type": "Feature", "geometry": {"type": "Point", "coordinates": [2.839094, 48.648004]}, "properties": {"street_name": "LE PARC", "sales": 1, "sales_appt": 0, "sales_maison": 0, "median_price": 37500.0, "median_price_per_sqm": null, "turnover_score": 1.5, "turnover_rank": 16, "first_year": 2024, "last_year": 2024, "years_active": 1}}]}