{"type": "FeatureCollection", "features": [{"type": "Feature", "geometry": {"type": "Polygon", "coordinates": [[[2.587496, 48.865029], [2.588177, 48.864997], [2.589161, 48.865046], [2.590339, 48.865265], [2.590849, 48.865431], [2.591402, 48.865562], [2.592839, 48.865786], [2.593624, 48.866004], [2.59591, 48.866408], [2.597387, 48.86662], [2.598119, 48.86667], [2.59854, 48.86663], [2.599611, 48.866411], [2.599412, 48.866051], [2.599712, 48.865888], [2.600396, 48.865453], [2.600635, 48.865222], [2.600875, 48.86493], [2.601356, 48.864425], [2.601779, 48.864011], [2.60317, 48.862526], [2.606108, 48.860603], [2.606378, 48.860434], [2.606922, 48.860198], [2.609128, 48.859492], [2.609728, 48.85929], [2.610825, 48.859049], [2.610834, 48.859033], [2.610959, 48.854043], [2.610998, 48.852661], [2.61099, 48.852585], [2.611626, 48.852607], [2.612934, 48.852637], [2.613738, 48.852637], [2.613925, 48.852651], [2.613883, 48.852083], [2.613823, 48.850616], [2.613718, 48.850627], [2.613692, 48.850458], [2.613812, 48.850444], [2.613483, 48.848348], [2.613461, 48.847767], [2.613639, 48.846994], [2.611507, 48.847054], [2.611676, 48.845791], [2.61201, 48.843397], [2.610897, 48.843362], [2.611002, 48.842743], [2.61113, 48.842227], [2.611318, 48.840958], [2.611407, 48.840543], [2.611601, 48.839524], [2.611617, 48.839364], [2.611827, 48.838494], [2.611874, 48.838255], [2.612056, 48.838271], [2.612, 48.837736], [2.612044, 48.837075], [2.612381, 48.836683], [2.612419, 48.836554], [2.612387, 48.836415], [2.612206, 48.836109], [2.61204, 48.835232], [2.612088, 48.834742], [2.612029, 48.834452], [2.611835, 48.833934], [2.611828, 48.833447], [2.61179, 48.833249], [2.611597, 48.832909], [2.611046, 48.832134], [2.610836, 48.831743], [2.610864, 48.830658], [2.610881, 48.830341], [2.609419, 48.830501], [2.608256, 48.830646], [2.60646, 48.830896], [2.60485, 48.831159], [2.6033, 48.831433], [2.60216, 48.831642], [2.598872, 48.832278], [2.593159, 48.833393], [2.591589, 48.833686], [2.589566, 48.83401], [2.588085, 48.834213], [2.586732, 48.834379], [2.586182, 48.835216], [2.585258, 48.836589], [2.584577, 48.837617], [2.583666, 48.838966], [2.582463, 48.840771], [2.582283, 48.841028], [2.581559, 48.842123], [2.581076, 48.842831], [2.580139, 48.844258], [2.579224, 48.84562], [2.578115, 48.847421], [2.577594, 48.848255], [2.576728, 48.849743], [2.576685, 48.849853], [2.57651, 48.850035], [2.576117, 48.85063], [2.575197, 48.851962], [2.574357, 48.853165], [2.574174, 48.853444], [2.577137, 48.854574], [2.578063, 48.854885], [2.578987, 48.855146], [2.579284, 48.855214], [2.580081, 48.855352], [2.580555, 48.855375], [2.581167, 48.855367], [2.581877, 48.855298], [2.583225, 48.855416], [2.583023, 48.855931], [2.58191, 48.857935], [2.581442, 48.858987], [2.582789, 48.858511], [2.583242, 48.858367], [2.584782, 48.859044], [2.585596, 48.859418], [2.58589, 48.859565], [2.586965, 48.860233], [2.587541, 48.862348], [2.588069, 48.864321], [2.587496, 48.865029]]]}, "properties": {"code_iris": "770830000", "nom_iris": "Champs-sur-Marne (commune entière)", "type_iris": "Z", "lat": 48.8485, "lng": 2.594, "dvf_sales_total": 4021, "dvf_sales_appt": 0, "dvf_sales_maison": 0, "dvf_median_price": 285000.0, "dvf_median_ppsqm": 4333.333333333333, "dvf_by_year": "[{\"year\": 2021, \"sales\": 726, \"median_price\": 260000.0}, {\"year\": 2022, \"sales\": 833, \"median_price\": 256065.0}, {\"year\": 2023, \"sales\": 562, \"median_price\": 260000.0}, {\"year\": 2024, \"sales\": 1133, \"median_price\": 6700000.0}, {\"year\": 2025, \"sales\": 767, \"median_price\": 265000.0}]", "population": 27451, "n_log": null, "n_rp": null, "pct_proprio": null, "pct_hlm": null, "pct_appart": null, "pct_cadres": null, "pct_bac5p": null, "pct_etrangers": null, "pct_0_14": null, "pct_65p": null, "bpe_total": null, "bpe_commerces": null, "bpe_enseignement": null, "bpe_sante": null, "dpe": null, "attractivity_score": null, "rank_attractivity_score": null, "rank_total_attractivity_score": 1, "commune_avg": null, "is_stub": true}}]}