{"type": "FeatureCollection", "features": [{"type": "Feature", "geometry": {"type": "Polygon", "coordinates": [[[2.471887, 48.154523], [2.472396, 48.154335], [2.473567, 48.15401], [2.473948, 48.154494], [2.47455, 48.15516], [2.475322, 48.15617], [2.478398, 48.155007], [2.479325, 48.1563], [2.478399, 48.156631], [2.478499, 48.156937], [2.479005, 48.157958], [2.479363, 48.158722], [2.479679, 48.159297], [2.47972, 48.15934], [2.480128, 48.160104], [2.480346, 48.160687], [2.481018, 48.162535], [2.48092, 48.162654], [2.482755, 48.164258], [2.483156, 48.164601], [2.483796, 48.164203], [2.484353, 48.163918], [2.486745, 48.162784], [2.487989, 48.162231], [2.49338, 48.160839], [2.494025, 48.16057], [2.495304, 48.16022], [2.497239, 48.159671], [2.497866, 48.159507], [2.498287, 48.159426], [2.499083, 48.159354], [2.499267, 48.159248], [2.500388, 48.158888], [2.502523, 48.158217], [2.504827, 48.157077], [2.505954, 48.156506], [2.506638, 48.156153], [2.507581, 48.155637], [2.508001, 48.155439], [2.509101, 48.154945], [2.509766, 48.154634], [2.510732, 48.154157], [2.511811, 48.153585], [2.512812, 48.153044], [2.513246, 48.152829], [2.514519, 48.15227], [2.515555, 48.151792], [2.516533, 48.151261], [2.517002, 48.151088], [2.517842, 48.150742], [2.518478, 48.150449], [2.518845, 48.150246], [2.520884, 48.149006], [2.522597, 48.148059], [2.524274, 48.147138], [2.525511, 48.146626], [2.526342, 48.146244], [2.526643, 48.146267], [2.526598, 48.145605], [2.528596, 48.144868], [2.529635, 48.14449], [2.530176, 48.144194], [2.531214, 48.14331], [2.532387, 48.142468], [2.533406, 48.141943], [2.53491, 48.141365], [2.536222, 48.140774], [2.536461, 48.14066], [2.537331, 48.140176], [2.537057, 48.139998], [2.536275, 48.139453], [2.535396, 48.138822], [2.534014, 48.137777], [2.533221, 48.13717], [2.53254, 48.136605], [2.531935, 48.136154], [2.531383, 48.135795], [2.530617, 48.135322], [2.530138, 48.135007], [2.529767, 48.134708], [2.528564, 48.133648], [2.528389, 48.133505], [2.526804, 48.132104], [2.525666, 48.13108], [2.524245, 48.12983], [2.521621, 48.127626], [2.521577, 48.127582], [2.520774, 48.127147], [2.520466, 48.127474], [2.519932, 48.127213], [2.5196, 48.126964], [2.520491, 48.126153], [2.520806, 48.125893], [2.521201, 48.125678], [2.521456, 48.125572], [2.52187, 48.125437], [2.522172, 48.125318], [2.521843, 48.125203], [2.521461, 48.125097], [2.521184, 48.125048], [2.520718, 48.125054], [2.520545, 48.125092], [2.520069, 48.125133], [2.519626, 48.125203], [2.518677, 48.125433], [2.51743, 48.125711], [2.517067, 48.12581], [2.515799, 48.126355], [2.515099, 48.126708], [2.512683, 48.126685], [2.509119, 48.126659], [2.507641, 48.126541], [2.5073, 48.126523], [2.505879, 48.126504], [2.504158, 48.126509], [2.502496, 48.126506], [2.501395, 48.12651], [2.498345, 48.126547], [2.496845, 48.126576], [2.492901, 48.126614], [2.49064, 48.126633], [2.490227, 48.126662], [2.486561, 48.127412], [2.48496, 48.127737], [2.481805, 48.128387], [2.480615, 48.128621], [2.480458, 48.128641], [2.480425, 48.128723], [2.476552, 48.129393], [2.476255, 48.129829], [2.472554, 48.128563], [2.472346, 48.128353], [2.472143, 48.128076], [2.46912, 48.129402], [2.469056, 48.128705], [2.468797, 48.128145], [2.468129, 48.127325], [2.464922, 48.129351], [2.464118, 48.128849], [2.46283, 48.128206], [2.461988, 48.127899], [2.461718, 48.127729], [2.459844, 48.12693], [2.459595, 48.126727], [2.458733, 48.125799], [2.458856, 48.125626], [2.458762, 48.125465], [2.457939, 48.124882], [2.456524, 48.123894], [2.455506, 48.123198], [2.454346, 48.122435], [2.453037, 48.123134], [2.452606, 48.12328], [2.451958, 48.123371], [2.451513, 48.123489], [2.451165, 48.123618], [2.451296, 48.123754], [2.450157, 48.124506], [2.450036, 48.124601], [2.448962, 48.125716], [2.448922, 48.125737], [2.448599, 48.12546], [2.447819, 48.125036], [2.447629, 48.124963], [2.446113, 48.124642], [2.444605, 48.124342], [2.444494, 48.124332], [2.443946, 48.124412], [2.442007, 48.124719], [2.441775, 48.124769], [2.442368, 48.125305], [2.44253, 48.125491], [2.442671, 48.12578], [2.442748, 48.126055], [2.443042, 48.127256], [2.443325, 48.128365], [2.443535, 48.129322], [2.443724, 48.130018], [2.44387, 48.130878], [2.443959, 48.131584], [2.444228, 48.131594], [2.444559, 48.13167], [2.446068, 48.131427], [2.446387, 48.131398], [2.446652, 48.131409], [2.447014, 48.131518], [2.447686, 48.131884], [2.448143, 48.132192], [2.448578, 48.132376], [2.448855, 48.132417], [2.449495, 48.132349], [2.449986, 48.132368], [2.450546, 48.132339], [2.451405, 48.132233], [2.451434, 48.132512], [2.4516, 48.133513], [2.45175, 48.134212], [2.45181, 48.134375], [2.452049, 48.134523], [2.452707, 48.134734], [2.453131, 48.134904], [2.453497, 48.135118], [2.454199, 48.135559], [2.454431, 48.135722], [2.454662, 48.135809], [2.455277, 48.135796], [2.455691, 48.135819], [2.457335, 48.136235], [2.459915, 48.136867], [2.463581, 48.141374], [2.463769, 48.141356], [2.464185, 48.142278], [2.464413, 48.142823], [2.464566, 48.143474], [2.464605, 48.143864], [2.464492, 48.144544], [2.464538, 48.14483], [2.464831, 48.145321], [2.465389, 48.145105], [2.46585, 48.144942], [2.465894, 48.144995], [2.466828, 48.146532], [2.467198, 48.147436], [2.467457, 48.148272], [2.468549, 48.148375], [2.468888, 48.148378], [2.470074, 48.148497], [2.471604, 48.148671], [2.473618, 48.148882], [2.474625, 48.149004], [2.474497, 48.149575], [2.473969, 48.151853], [2.473714, 48.152173], [2.471887, 48.154523]]]}, "properties": {"code_iris": "770270000", "nom_iris": "Beaumont-du-Gâtinais (commune entière)", "type_iris": "Z", "lat": 48.1435, "lng": 2.4896, "dvf_sales_total": 464, "dvf_sales_appt": 0, "dvf_sales_maison": 0, "dvf_median_price": 100000.0, "dvf_median_ppsqm": 1315.9656029838375, "dvf_by_year": "[{\"year\": 2021, \"sales\": 113, \"median_price\": 98000.0}, {\"year\": 2022, \"sales\": 96, \"median_price\": 100000.0}, {\"year\": 2023, \"sales\": 77, \"median_price\": 109000.0}, {\"year\": 2024, \"sales\": 71, \"median_price\": 96720.0}, {\"year\": 2025, \"sales\": 107, \"median_price\": 111500.0}]", "population": 1129, "n_log": null, "n_rp": null, "pct_proprio": null, "pct_hlm": null, "pct_appart": null, "pct_cadres": null, "pct_bac5p": null, "pct_etrangers": null, "pct_0_14": null, "pct_65p": null, "bpe_total": null, "bpe_commerces": null, "bpe_enseignement": null, "bpe_sante": null, "dpe": null, "attractivity_score": null, "rank_attractivity_score": null, "rank_total_attractivity_score": 1, "commune_avg": null, "is_stub": true}}]}