{"type": "FeatureCollection", "features": [{"type": "Feature", "geometry": {"type": "Point", "coordinates": [2.8025469999999997, 48.281019]}, "properties": {"street_name": "LA BROSSE", "sales": 28, "sales_appt": 0, "sales_maison": 1, "median_price": 30000.0, "median_price_per_sqm": 1200.0, "turnover_score": 100.0, "turnover_rank": 1, "first_year": 2021, "last_year": 2024, "years_active": 3}}, {"type": "Feature", "geometry": {"type": "Point", "coordinates": [2.813377, 48.272688]}, "properties": {"street_name": "RUE GRANDE", "sales": 24, "sales_appt": 0, "sales_maison": 9, "median_price": 215000.0, "median_price_per_sqm": 2241.666666666667, "turnover_score": 85.7, "turnover_rank": 2, "first_year": 2021, "last_year": 2025, "years_active": 5}}, {"type": "Feature", "geometry": {"type": "Point", "coordinates": [2.8176135, 48.273507499999994]}, "properties": {"street_name": "LEVELAY", "sales": 18, "sales_appt": 0, "sales_maison": 0, "median_price": 145000.0, "median_price_per_sqm": null, "turnover_score": 64.3, "turnover_rank": 3, "first_year": 2021, "last_year": 2025, "years_active": 5}}, {"type": "Feature", "geometry": {"type": "Point", "coordinates": [2.812569, 48.272047]}, "properties": {"street_name": "LE PRESSOIR", "sales": 17, "sales_appt": 0, "sales_maison": 0, "median_price": 215000.0, "median_price_per_sqm": null, "turnover_score": 60.7, "turnover_rank": 4, "first_year": 2021, "last_year": 2023, "years_active": 3}}, {"type": "Feature", "geometry": {"type": "Point", "coordinates": [2.801474, 48.277701]}, "properties": {"street_name": "RUE DE L EGLISE", "sales": 10, "sales_appt": 0, "sales_maison": 5, "median_price": 130000.0, "median_price_per_sqm": 2452.830188679245, "turnover_score": 35.7, "turnover_rank": 5, "first_year": 2021, "last_year": 2022, "years_active": 2}}, {"type": "Feature", "geometry": {"type": "Point", "coordinates": [2.832944, 48.286825]}, "properties": {"street_name": "LA VALLEE AUX LOUPS", "sales": 10, "sales_appt": 0, "sales_maison": 0, "median_price": 38520.9, "median_price_per_sqm": null, "turnover_score": 35.7, "turnover_rank": 5, "first_year": 2024, "last_year": 2025, "years_active": 2}}, {"type": "Feature", "geometry": {"type": "Point", "coordinates": [2.8243985, 48.272541000000004]}, "properties": {"street_name": "LES GRANDES VIGNES", "sales": 8, "sales_appt": 0, "sales_maison": 0, "median_price": 5730.0, "median_price_per_sqm": null, "turnover_score": 28.6, "turnover_rank": 6, "first_year": 2021, "last_year": 2025, "years_active": 3}}, {"type": "Feature", "geometry": {"type": "Point", "coordinates": [2.8108310000000003, 48.274513]}, "properties": {"street_name": "RUE DE LA CROIX BONNARD", "sales": 8, "sales_appt": 0, "sales_maison": 6, "median_price": 185500.0, "median_price_per_sqm": 2861.5384615384614, "turnover_score": 28.6, "turnover_rank": 6, "first_year": 2021, "last_year": 2025, "years_active": 3}}, {"type": "Feature", "geometry": {"type": "Point", "coordinates": [2.802511, 48.278988]}, "properties": {"street_name": "CHE DE LA BROSSE", "sales": 8, "sales_appt": 0, "sales_maison": 4, "median_price": 525000.0, "median_price_per_sqm": 2915.0782997762863, "turnover_score": 28.6, "turnover_rank": 6, "first_year": 2021, "last_year": 2024, "years_active": 2}}, {"type": "Feature", "geometry": {"type": "Point", "coordinates": [2.77812, 48.266816]}, "properties": {"street_name": "LE FIEF MORNAY", "sales": 7, "sales_appt": 0, "sales_maison": 0, "median_price": 19097.0, "median_price_per_sqm": null, "turnover_score": 25.0, "turnover_rank": 7, "first_year": 2021, "last_year": 2024, "years_active": 2}}, {"type": "Feature", "geometry": {"type": "Point", "coordinates": [2.810597, 48.272632]}, "properties": {"street_name": "RUE DE LA VIGNE AUX VIEUX", "sales": 7, "sales_appt": 0, "sales_maison": 5, "median_price": 224000.0, "median_price_per_sqm": 2157.8947368421054, "turnover_score": 25.0, "turnover_rank": 7, "first_year": 2022, "last_year": 2024, "years_active": 2}}, {"type": "Feature", "geometry": {"type": "Point", "coordinates": [2.815202, 48.272743]}, "properties": {"street_name": "RUE CREUSE", "sales": 7, "sales_appt": 0, "sales_maison": 3, "median_price": 225000.0, "median_price_per_sqm": 2083.3333333333335, "turnover_score": 25.0, "turnover_rank": 7, "first_year": 2022, "last_year": 2025, "years_active": 3}}, {"type": "Feature", "geometry": {"type": "Point", "coordinates": [2.792704, 48.270235]}, "properties": {"street_name": "LAUNOY", "sales": 7, "sales_appt": 0, "sales_maison": 0, "median_price": 235000.0, "median_price_per_sqm": null, "turnover_score": 25.0, "turnover_rank": 7, "first_year": 2021, "last_year": 2023, "years_active": 2}}, {"type": "Feature", "geometry": {"type": "Point", "coordinates": [2.802593, 48.269847]}, "properties": {"street_name": "LE CHEM DE LA CLAIE", "sales": 6, "sales_appt": 0, "sales_maison": 3, "median_price": 192048.5, "median_price_per_sqm": 2786.259541984733, "turnover_score": 21.4, "turnover_rank": 8, "first_year": 2021, "last_year": 2024, "years_active": 3}}, {"type": "Feature", "geometry": {"type": "Point", "coordinates": [2.812633, 48.273527]}, "properties": {"street_name": "PL GUSTAVE MOUFROND", "sales": 6, "sales_appt": 0, "sales_maison": 2, "median_price": 281000.0, "median_price_per_sqm": 2676.190476190476, "turnover_score": 21.4, "turnover_rank": 8, "first_year": 2021, "last_year": 2021, "years_active": 1}}, {"type": "Feature", "geometry": {"type": "Point", "coordinates": [2.809545, 48.2738825]}, "properties": {"street_name": "RUE DU CLOS DU VEL", "sales": 6, "sales_appt": 0, "sales_maison": 3, "median_price": 257500.0, "median_price_per_sqm": 1838.235294117647, "turnover_score": 21.4, "turnover_rank": 8, "first_year": 2021, "last_year": 2023, "years_active": 2}}, {"type": "Feature", "geometry": {"type": "Point", "coordinates": [2.744565, 48.2733525]}, "properties": {"street_name": "LES COTES", "sales": 6, "sales_appt": 0, "sales_maison": 1, "median_price": 100000.0, "median_price_per_sqm": 740.7407407407408, "turnover_score": 21.4, "turnover_rank": 8, "first_year": 2022, "last_year": 2025, "years_active": 3}}, {"type": "Feature", "geometry": {"type": "Point", "coordinates": [2.77376, 48.249523]}, "properties": {"street_name": "BOIS DES BLESSEAUX", "sales": 5, "sales_appt": 0, "sales_maison": 0, "median_price": 200000.0, "median_price_per_sqm": null, "turnover_score": 17.9, "turnover_rank": 9, "first_year": 2021, "last_year": 2024, "years_active": 2}}, {"type": "Feature", "geometry": {"type": "Point", "coordinates": [2.784713, 48.274785]}, "properties": {"street_name": "LES VAUX VENANTS EST", "sales": 5, "sales_appt": 0, "sales_maison": 0, "median_price": 19097.0, "median_price_per_sqm": null, "turnover_score": 17.9, "turnover_rank": 9, "first_year": 2024, "last_year": 2024, "years_active": 1}}, {"type": "Feature", "geometry": {"type": "Point", "coordinates": [2.828556, 48.272451]}, "properties": {"street_name": "LE BOIS DE BEDON", "sales": 5, "sales_appt": 0, "sales_maison": 0, "median_price": 5500.0, "median_price_per_sqm": null, "turnover_score": 17.9, "turnover_rank": 9, "first_year": 2025, "last_year": 2025, "years_active": 1}}, {"type": "Feature", "geometry": {"type": "Point", "coordinates": [2.808965, 48.274521]}, "properties": {"street_name": "RUE DE NANTEAU", "sales": 5, "sales_appt": 0, "sales_maison": 3, "median_price": 185000.0, "median_price_per_sqm": 1516.3934426229507, "turnover_score": 17.9, "turnover_rank": 9, "first_year": 2022, "last_year": 2025, "years_active": 2}}, {"type": "Feature", "geometry": {"type": "Point", "coordinates": [2.792896, 48.270059]}, "properties": {"street_name": "RUE DU LUNAIN", "sales": 5, "sales_appt": 0, "sales_maison": 3, "median_price": 290000.0, "median_price_per_sqm": 2230.769230769231, "turnover_score": 17.9, "turnover_rank": 9, "first_year": 2021, "last_year": 2021, "years_active": 1}}, {"type": "Feature", "geometry": {"type": "Point", "coordinates": [2.7803095, 48.272366000000005]}, "properties": {"street_name": "LES VAUX VENANTS OUEST", "sales": 4, "sales_appt": 0, "sales_maison": 0, "median_price": 19097.0, "median_price_per_sqm": null, "turnover_score": 14.3, "turnover_rank": 10, "first_year": 2024, "last_year": 2024, "years_active": 1}}, {"type": "Feature", "geometry": {"type": "Point", "coordinates": [2.828458, 48.283233]}, "properties": {"street_name": "LES MARNIERES", "sales": 4, "sales_appt": 0, "sales_maison": 0, "median_price": 38520.9, "median_price_per_sqm": null, "turnover_score": 14.3, "turnover_rank": 10, "first_year": 2025, "last_year": 2025, "years_active": 1}}, {"type": "Feature", "geometry": {"type": "Point", "coordinates": [2.8016170000000002, 48.281642500000004]}, "properties": {"street_name": "BERTIGNY", "sales": 4, "sales_appt": 0, "sales_maison": 0, "median_price": 277500.0, "median_price_per_sqm": null, "turnover_score": 14.3, "turnover_rank": 10, "first_year": 2022, "last_year": 2024, "years_active": 2}}, {"type": "Feature", "geometry": {"type": "Point", "coordinates": [2.814074, 48.287233]}, "properties": {"street_name": "LA VALLEE DE VILLEMER", "sales": 4, "sales_appt": 0, "sales_maison": 0, "median_price": 19097.0, "median_price_per_sqm": null, "turnover_score": 14.3, "turnover_rank": 10, "first_year": 2024, "last_year": 2024, "years_active": 1}}, {"type": "Feature", "geometry": {"type": "Point", "coordinates": [2.791946, 48.269557]}, "properties": {"street_name": "PL DE LA POMPE", "sales": 4, "sales_appt": 0, "sales_maison": 2, "median_price": 131000.0, "median_price_per_sqm": 1007.6923076923077, "turnover_score": 14.3, "turnover_rank": 10, "first_year": 2021, "last_year": 2025, "years_active": 2}}, {"type": "Feature", "geometry": {"type": "Point", "coordinates": [2.8103415, 48.2733865]}, "properties": {"street_name": "LA VIGNE AUX VIEUX", "sales": 4, "sales_appt": 0, "sales_maison": 0, "median_price": 176000.0, "median_price_per_sqm": null, "turnover_score": 14.3, "turnover_rank": 10, "first_year": 2022, "last_year": 2024, "years_active": 3}}, {"type": "Feature", "geometry": {"type": "Point", "coordinates": [2.81985, 48.275779]}, "properties": {"street_name": "LES PIECES DE CANNES", "sales": 3, "sales_appt": 0, "sales_maison": 0, "median_price": 31246.5, "median_price_per_sqm": null, "turnover_score": 10.7, "turnover_rank": 11, "first_year": 2024, "last_year": 2024, "years_active": 1}}, {"type": "Feature", "geometry": {"type": "Point", "coordinates": [2.775378, 48.273998]}, "properties": {"street_name": "LE MONT BLANC", "sales": 3, "sales_appt": 0, "sales_maison": 0, "median_price": 19097.0, "median_price_per_sqm": null, "turnover_score": 10.7, "turnover_rank": 11, "first_year": 2024, "last_year": 2024, "years_active": 1}}, {"type": "Feature", "geometry": {"type": "Point", "coordinates": [2.821602, 48.281004]}, "properties": {"street_name": "LA ROCHE A BLAIN", "sales": 3, "sales_appt": 0, "sales_maison": 0, "median_price": 38520.9, "median_price_per_sqm": null, "turnover_score": 10.7, "turnover_rank": 11, "first_year": 2025, "last_year": 2025, "years_active": 1}}, {"type": "Feature", "geometry": {"type": "Point", "coordinates": [2.8326295, 48.272643]}, "properties": {"street_name": "BOULIN AUX GUICHARDS", "sales": 2, "sales_appt": 0, "sales_maison": 0, "median_price": 5500.0, "median_price_per_sqm": null, "turnover_score": 7.1, "turnover_rank": 12, "first_year": 2025, "last_year": 2025, "years_active": 1}}, {"type": "Feature", "geometry": {"type": "Point", "coordinates": [2.792547, 48.269811000000004]}, "properties": {"street_name": "HAM DE LAUNOY", "sales": 2, "sales_appt": 0, "sales_maison": 0, "median_price": 160000.0, "median_price_per_sqm": null, "turnover_score": 7.1, "turnover_rank": 12, "first_year": 2021, "last_year": 2021, "years_active": 1}}, {"type": "Feature", "geometry": {"type": "Point", "coordinates": [2.828135, 48.274408]}, "properties": {"street_name": "LE CHEM DE GRETZ", "sales": 2, "sales_appt": 0, "sales_maison": 0, "median_price": 38520.9, "median_price_per_sqm": null, "turnover_score": 7.1, "turnover_rank": 12, "first_year": 2025, "last_year": 2025, "years_active": 1}}, {"type": "Feature", "geometry": {"type": "Point", "coordinates": [2.8141635000000003, 48.2691215]}, "properties": {"street_name": "LE BOIS EDMEE", "sales": 2, "sales_appt": 0, "sales_maison": 0, "median_price": 5628.84, "median_price_per_sqm": null, "turnover_score": 7.1, "turnover_rank": 12, "first_year": 2024, "last_year": 2025, "years_active": 2}}, {"type": "Feature", "geometry": {"type": "Point", "coordinates": [2.800292, 48.277035]}, "properties": {"street_name": "LA VALLEE DE TREUZY", "sales": 2, "sales_appt": 0, "sales_maison": 0, "median_price": 303000.0, "median_price_per_sqm": null, "turnover_score": 7.1, "turnover_rank": 12, "first_year": 2021, "last_year": 2021, "years_active": 1}}, {"type": "Feature", "geometry": {"type": "Point", "coordinates": [2.808676, 48.275657]}, "properties": {"street_name": "RTE DE NANTEAU", "sales": 2, "sales_appt": 0, "sales_maison": 2, "median_price": 262000.0, "median_price_per_sqm": 1758.3892617449665, "turnover_score": 7.1, "turnover_rank": 12, "first_year": 2021, "last_year": 2021, "years_active": 1}}, {"type": "Feature", "geometry": {"type": "Point", "coordinates": [2.8024315, 48.2779865]}, "properties": {"street_name": "TREUZY", "sales": 2, "sales_appt": 0, "sales_maison": 0, "median_price": 124500.0, "median_price_per_sqm": null, "turnover_score": 7.1, "turnover_rank": 12, "first_year": 2022, "last_year": 2022, "years_active": 1}}, {"type": "Feature", "geometry": {"type": "Point", "coordinates": [2.8307409999999997, 48.2823875]}, "properties": {"street_name": "LE VIEUX PUITS", "sales": 2, "sales_appt": 0, "sales_maison": 0, "median_price": 22010.45, "median_price_per_sqm": null, "turnover_score": 7.1, "turnover_rank": 12, "first_year": 2025, "last_year": 2025, "years_active": 1}}, {"type": "Feature", "geometry": {"type": "Point", "coordinates": [2.83359, 48.274128]}, "properties": {"street_name": "LES VALLEES", "sales": 2, "sales_appt": 0, "sales_maison": 0, "median_price": 38520.9, "median_price_per_sqm": null, "turnover_score": 7.1, "turnover_rank": 12, "first_year": 2025, "last_year": 2025, "years_active": 1}}, {"type": "Feature", "geometry": {"type": "Point", "coordinates": [2.813197, 48.271877]}, "properties": {"street_name": "IMP DU PRESSOIR", "sales": 2, "sales_appt": 0, "sales_maison": 2, "median_price": 236100.0, "median_price_per_sqm": 2361.0, "turnover_score": 7.1, "turnover_rank": 12, "first_year": 2021, "last_year": 2021, "years_active": 1}}, {"type": "Feature", "geometry": {"type": "Point", "coordinates": [2.8127585, 48.2729265]}, "properties": {"street_name": "LES ORMES", "sales": 2, "sales_appt": 0, "sales_maison": 0, "median_price": 210000.0, "median_price_per_sqm": null, "turnover_score": 7.1, "turnover_rank": 12, "first_year": 2021, "last_year": 2021, "years_active": 1}}, {"type": "Feature", "geometry": {"type": "Point", "coordinates": [2.834924, 48.283009]}, "properties": {"street_name": "LA REMISE", "sales": 1, "sales_appt": 0, "sales_maison": 0, "median_price": 38520.9, "median_price_per_sqm": null, "turnover_score": 3.6, "turnover_rank": 13, "first_year": 2025, "last_year": 2025, "years_active": 1}}, {"type": "Feature", "geometry": {"type": "Point", "coordinates": [2.823359, 48.284645]}, "properties": {"street_name": "LA TUILERIE", "sales": 1, "sales_appt": 0, "sales_maison": 0, "median_price": 3000.0, "median_price_per_sqm": null, "turnover_score": 3.6, "turnover_rank": 13, "first_year": 2023, "last_year": 2023, "years_active": 1}}, {"type": "Feature", "geometry": {"type": "Point", "coordinates": [2.818042, 48.29252]}, "properties": {"street_name": "LE BOIS DE BEZANLEU", "sales": 1, "sales_appt": 0, "sales_maison": 0, "median_price": 5757.68, "median_price_per_sqm": null, "turnover_score": 3.6, "turnover_rank": 13, "first_year": 2024, "last_year": 2024, "years_active": 1}}, {"type": "Feature", "geometry": {"type": "Point", "coordinates": [2.750719, 48.274689]}, "properties": {"street_name": "DESSOUS LA LAPINIERE", "sales": 1, "sales_appt": 0, "sales_maison": 0, "median_price": 3213.0, "median_price_per_sqm": null, "turnover_score": 3.6, "turnover_rank": 13, "first_year": 2024, "last_year": 2024, "years_active": 1}}, {"type": "Feature", "geometry": {"type": "Point", "coordinates": [2.825328, 48.281868]}, "properties": {"street_name": "LES LONGS REAGES", "sales": 1, "sales_appt": 0, "sales_maison": 0, "median_price": 5500.0, "median_price_per_sqm": null, "turnover_score": 3.6, "turnover_rank": 13, "first_year": 2025, "last_year": 2025, "years_active": 1}}, {"type": "Feature", "geometry": {"type": "Point", "coordinates": [2.80988, 48.267402]}, "properties": {"street_name": "LE TROU DE SABLE", "sales": 1, "sales_appt": 0, "sales_maison": 0, "median_price": 5500.0, "median_price_per_sqm": null, "turnover_score": 3.6, "turnover_rank": 13, "first_year": 2025, "last_year": 2025, "years_active": 1}}, {"type": "Feature", "geometry": {"type": "Point", "coordinates": [2.796899, 48.275411]}, "properties": {"street_name": "LES PATURES", "sales": 1, "sales_appt": 0, "sales_maison": 0, "median_price": 19097.0, "median_price_per_sqm": null, "turnover_score": 3.6, "turnover_rank": 13, "first_year": 2024, "last_year": 2024, "years_active": 1}}, {"type": "Feature", "geometry": {"type": "Point", "coordinates": [2.807532, 48.273897]}, "properties": {"street_name": "LES MURES", "sales": 1, "sales_appt": 0, "sales_maison": 0, "median_price": 3000.0, "median_price_per_sqm": null, "turnover_score": 3.6, "turnover_rank": 13, "first_year": 2021, "last_year": 2021, "years_active": 1}}, {"type": "Feature", "geometry": {"type": "Point", "coordinates": [2.791848, 48.270688]}, "properties": {"street_name": "RUE DU MOULIN", "sales": 1, "sales_appt": 0, "sales_maison": 1, "median_price": 235000.0, "median_price_per_sqm": 2611.1111111111113, "turnover_score": 3.6, "turnover_rank": 13, "first_year": 2023, "last_year": 2023, "years_active": 1}}, {"type": "Feature", "geometry": {"type": "Point", "coordinates": [2.823064, 48.274989]}, "properties": {"street_name": "SOUS BONNIERS", "sales": 1, "sales_appt": 0, "sales_maison": 0, "median_price": 865910.0, "median_price_per_sqm": null, "turnover_score": 3.6, "turnover_rank": 13, "first_year": 2024, "last_year": 2024, "years_active": 1}}]}