{"type": "FeatureCollection", "features": [{"type": "Feature", "geometry": {"type": "Point", "coordinates": [2.868491, 48.897546]}, "properties": {"id_parcelle": "77382000AL0157", "address": "18 RUE DU GENERAL DE GAULLE", "sales": 26, "median_price": 181959.0, "median_price_per_sqm": 4328.571428571428, "median_rooms": 1.0, "first_sale": "2021-04-19", "last_sale": "2025-12-23"}}, {"type": "Feature", "geometry": {"type": "Point", "coordinates": [2.874642, 48.901945]}, "properties": {"id_parcelle": "77382000YC0048", "address": "191 AV FOCH", "sales": 24, "median_price": 140000.0, "median_price_per_sqm": 3823.529411764706, "median_rooms": 0.0, "first_sale": "2021-10-29", "last_sale": "2024-10-28"}}, {"type": "Feature", "geometry": {"type": "Point", "coordinates": [2.875412, 48.900359]}, "properties": {"id_parcelle": "77382000AK1546", "address": "33 RUE DE MEAUX", "sales": 23, "median_price": 159000.0, "median_price_per_sqm": 3544.1063174114024, "median_rooms": 0.0, "first_sale": "2021-06-16", "last_sale": "2022-11-28"}}, {"type": "Feature", "geometry": {"type": "Point", "coordinates": [2.880924, 48.887739]}, "properties": {"id_parcelle": "77382000YP0093", "address": "106 RUE DE MOULIGNON", "sales": 16, "median_price": 195000.0, "median_price_per_sqm": 3000.0, "median_rooms": 0.0, "first_sale": "2021-12-02", "last_sale": "2025-05-02"}}, {"type": "Feature", "geometry": {"type": "Point", "coordinates": [2.870836, 48.900704]}, "properties": {"id_parcelle": "77382000YB0246", "address": "9 RUE BRAUNSTON", "sales": 16, "median_price": 137500.0, "median_price_per_sqm": 3316.4376321353066, "median_rooms": 0.0, "first_sale": "2021-02-22", "last_sale": "2024-07-16"}}, {"type": "Feature", "geometry": {"type": "Point", "coordinates": [2.874116, 48.899534]}, "properties": {"id_parcelle": "77382000AK0559", "address": "9 RUE DE MEAUX", "sales": 15, "median_price": 208000.0, "median_price_per_sqm": 3466.6666666666665, "median_rooms": 0.0, "first_sale": "2021-06-29", "last_sale": "2024-05-28"}}, {"type": "Feature", "geometry": {"type": "Point", "coordinates": [2.872228, 48.898842]}, "properties": {"id_parcelle": "77382000AL0100", "address": "1 PL DE LA MAIRIE", "sales": 14, "median_price": 208000.0, "median_price_per_sqm": 2406.4327485380118, "median_rooms": 0.0, "first_sale": "2023-07-31", "last_sale": "2025-10-21"}}, {"type": "Feature", "geometry": {"type": "Point", "coordinates": [2.879775, 48.889182]}, "properties": {"id_parcelle": "77382000YP0024", "address": "1 RTE DE PONT AUX DAMES", "sales": 10, "median_price": 1133000.0, "median_price_per_sqm": 9179.398148148148, "median_rooms": 0.0, "first_sale": "2021-07-23", "last_sale": "2021-07-23"}}, {"type": "Feature", "geometry": {"type": "Point", "coordinates": [2.859943, 48.898895]}, "properties": {"id_parcelle": "77382000AX0432", "address": "26 RUE DE MAREUIL", "sales": 10, "median_price": 222210.0, "median_price_per_sqm": 2965.5172413793102, "median_rooms": 0.0, "first_sale": "2021-05-07", "last_sale": "2025-03-27"}}, {"type": "Feature", "geometry": {"type": "Point", "coordinates": [2.876212, 48.898135]}, "properties": {"id_parcelle": "77382000AK1240", "address": "29 RUE CARNOT", "sales": 10, "median_price": 150000.0, "median_price_per_sqm": 3720.9302325581393, "median_rooms": 0.0, "first_sale": "2021-11-19", "last_sale": "2025-09-03"}}, {"type": "Feature", "geometry": {"type": "Point", "coordinates": [2.877386, 48.902406]}, "properties": {"id_parcelle": "77382000AK1194", "address": "216 AV FOCH", "sales": 9, "median_price": 640000.0, "median_price_per_sqm": 22857.14285714286, "median_rooms": 2.0, "first_sale": "2024-08-01", "last_sale": "2024-08-01"}}, {"type": "Feature", "geometry": {"type": "Point", "coordinates": [2.873534, 48.900705]}, "properties": {"id_parcelle": "77382000AK1506", "address": "180 AV FOCH", "sales": 9, "median_price": 217500.0, "median_price_per_sqm": 3540.0, "median_rooms": 0.0, "first_sale": "2022-12-20", "last_sale": "2023-05-25"}}, {"type": "Feature", "geometry": {"type": "Point", "coordinates": [2.859084, 48.892416]}, "properties": {"id_parcelle": "77382000AV0199", "address": "21 AV FOCH", "sales": 8, "median_price": 409000.0, "median_price_per_sqm": 4544.444444444444, "median_rooms": 2.0, "first_sale": "2022-08-08", "last_sale": "2023-04-12"}}, {"type": "Feature", "geometry": {"type": "Point", "coordinates": [2.900465, 48.895077]}, "properties": {"id_parcelle": "77382000YL0057", "address": "9001 SEGY", "sales": 8, "median_price": 235000.0, "median_price_per_sqm": 2350.0, "median_rooms": 0.0, "first_sale": "2021-05-18", "last_sale": "2021-05-18"}}, {"type": "Feature", "geometry": {"type": "Point", "coordinates": [2.86072, 48.901351]}, "properties": {"id_parcelle": "77382000AX0683", "address": "16 RUE PASTEUR", "sales": 8, "median_price": 359580.0, "median_price_per_sqm": 3028.546315077755, "median_rooms": 0.0, "first_sale": "2022-01-18", "last_sale": "2024-10-16"}}, {"type": "Feature", "geometry": {"type": "Point", "coordinates": [2.876661, 48.899061]}, "properties": {"id_parcelle": "77382000AK1140", "address": "1 SEN DES JARDINS", "sales": 8, "median_price": 129500.0, "median_price_per_sqm": 3872.6190476190477, "median_rooms": 0.5, "first_sale": "2022-02-18", "last_sale": "2023-03-27"}}, {"type": "Feature", "geometry": {"type": "Point", "coordinates": [2.868273, 48.901094]}, "properties": {"id_parcelle": "77382000YB0428", "address": "6 RUE DE BUTEL", "sales": 8, "median_price": 180000.0, "median_price_per_sqm": 2208.6681974741678, "median_rooms": 2.0, "first_sale": "2021-03-25", "last_sale": "2021-03-25"}}, {"type": "Feature", "geometry": {"type": "Point", "coordinates": [2.876459, 48.901086]}, "properties": {"id_parcelle": "77382000AK1589", "address": "RUE DE MEAUX", "sales": 7, "median_price": 100000.0, "median_price_per_sqm": null, "median_rooms": null, "first_sale": "2022-01-14", "last_sale": "2024-09-19"}}, {"type": "Feature", "geometry": {"type": "Point", "coordinates": [2.881669, 48.887779]}, "properties": {"id_parcelle": "77382000YP0077", "address": "1 CHE DE CHARNY", "sales": 6, "median_price": 365600.0, "median_price_per_sqm": 3515.3846153846152, "median_rooms": 0.0, "first_sale": "2025-08-04", "last_sale": "2025-08-04"}}, {"type": "Feature", "geometry": {"type": "Point", "coordinates": [2.858416, 48.893214]}, "properties": {"id_parcelle": "77382000AV0210", "address": "10 RUE DE PLAILLY", "sales": 6, "median_price": 340000.0, "median_price_per_sqm": 2312.925170068027, "median_rooms": 0.0, "first_sale": "2025-06-10", "last_sale": "2025-06-10"}}, {"type": "Feature", "geometry": {"type": "Point", "coordinates": [2.876655, 48.901037]}, "properties": {"id_parcelle": "77382000AK1585", "address": "59 RUE DE MEAUX", "sales": 6, "median_price": 267500.0, "median_price_per_sqm": 1783.3333333333333, "median_rooms": 0.0, "first_sale": "2022-01-14", "last_sale": "2022-05-13"}}, {"type": "Feature", "geometry": {"type": "Point", "coordinates": [2.878081, 48.896134]}, "properties": {"id_parcelle": "77382000AK1168", "address": "16 RUE FELIX MASLE", "sales": 6, "median_price": 286000.0, "median_price_per_sqm": 3192.470760233918, "median_rooms": 4.5, "first_sale": "2023-08-22", "last_sale": "2025-10-17"}}, {"type": "Feature", "geometry": {"type": "Point", "coordinates": [2.874325, 48.898811]}, "properties": {"id_parcelle": "77382000AK1203", "address": "7 RUE CARNOT", "sales": 4, "median_price": 313000.0, "median_price_per_sqm": 6879.951690821256, "median_rooms": 2.0, "first_sale": "2024-05-21", "last_sale": "2024-05-21"}}, {"type": "Feature", "geometry": {"type": "Point", "coordinates": [2.85726, 48.892554]}, "properties": {"id_parcelle": "77382000AV0075", "address": "17 RUE DE PLAILLY", "sales": 4, "median_price": 459389.97, "median_price_per_sqm": 3103.9862837837836, "median_rooms": 2.5, "first_sale": "2023-11-23", "last_sale": "2023-11-23"}}, {"type": "Feature", "geometry": {"type": "Point", "coordinates": [2.876739, 48.900417]}, "properties": {"id_parcelle": "77382000AK1566", "address": "56 RUE DE MEAUX", "sales": 4, "median_price": 377500.0, "median_price_per_sqm": 4778.481012658228, "median_rooms": 2.5, "first_sale": "2021-11-09", "last_sale": "2022-03-04"}}, {"type": "Feature", "geometry": {"type": "Point", "coordinates": [2.875225, 48.900245]}, "properties": {"id_parcelle": "77382000AK0606", "address": "33 RUE DE MEAUX", "sales": 4, "median_price": 190000.0, "median_price_per_sqm": null, "median_rooms": null, "first_sale": "2021-06-16", "last_sale": "2022-11-28"}}, {"type": "Feature", "geometry": {"type": "Point", "coordinates": [2.874922, 48.900006]}, "properties": {"id_parcelle": "77382000AK1282", "address": "23 RUE DE MEAUX", "sales": 4, "median_price": 90000.0, "median_price_per_sqm": 1438.5674931129477, "median_rooms": 0.0, "first_sale": "2021-11-12", "last_sale": "2025-12-23"}}, {"type": "Feature", "geometry": {"type": "Point", "coordinates": [2.862598, 48.900212]}, "properties": {"id_parcelle": "77382000AX0294", "address": "67 RUE RENE BENOIST", "sales": 4, "median_price": 197500.0, "median_price_per_sqm": 3526.785714285714, "median_rooms": 1.5, "first_sale": "2022-04-26", "last_sale": "2023-09-01"}}, {"type": "Feature", "geometry": {"type": "Point", "coordinates": [2.853961, 48.898284]}, "properties": {"id_parcelle": "77382000AW0178", "address": "61 RUE DE HUIRY", "sales": 4, "median_price": 392000.0, "median_price_per_sqm": 3015.3846153846152, "median_rooms": 2.0, "first_sale": "2021-07-16", "last_sale": "2021-07-16"}}, {"type": "Feature", "geometry": {"type": "Point", "coordinates": [2.85648, 48.891473]}, "properties": {"id_parcelle": "77382000AV0183", "address": "16 CHE DE HUIRY", "sales": 4, "median_price": 596340.0, "median_price_per_sqm": 4352.846715328467, "median_rooms": 2.5, "first_sale": "2025-06-27", "last_sale": "2025-06-27"}}, {"type": "Feature", "geometry": {"type": "Point", "coordinates": [2.858905, 48.896153]}, "properties": {"id_parcelle": "77382000AV0191", "address": "11 RUE DE HUIRY", "sales": 4, "median_price": 934500.0, "median_price_per_sqm": 4286.697247706422, "median_rooms": 4.0, "first_sale": "2025-07-01", "last_sale": "2025-07-01"}}, {"type": "Feature", "geometry": {"type": "Point", "coordinates": [2.879863, 48.903566]}, "properties": {"id_parcelle": "77382000YH0105", "address": "110 RUE DE MEAUX", "sales": 4, "median_price": 117990.0, "median_price_per_sqm": 786.6, "median_rooms": 3.5, "first_sale": "2024-07-04", "last_sale": "2024-07-04"}}, {"type": "Feature", "geometry": {"type": "Point", "coordinates": [2.880415, 48.903244]}, "properties": {"id_parcelle": "77382000YH0003", "address": "5 RUE DE CRECY", "sales": 4, "median_price": 359900.0, "median_price_per_sqm": 3271.818181818182, "median_rooms": 3.0, "first_sale": "2024-10-09", "last_sale": "2024-10-09"}}, {"type": "Feature", "geometry": {"type": "Point", "coordinates": [2.86566, 48.901981]}, "properties": {"id_parcelle": "77382000YB0368", "address": "6 CHE DE BUTEL", "sales": 4, "median_price": 515000.0, "median_price_per_sqm": 7663.690476190476, "median_rooms": 3.5, "first_sale": "2025-10-31", "last_sale": "2025-10-31"}}, {"type": "Feature", "geometry": {"type": "Point", "coordinates": [2.880854, 48.900116]}, "properties": {"id_parcelle": "77382000YI0161", "address": "43 RUE DE CRECY", "sales": 4, "median_price": 450000.0, "median_price_per_sqm": 3982.3008849557523, "median_rooms": 3.0, "first_sale": "2021-06-02", "last_sale": "2021-06-02"}}, {"type": "Feature", "geometry": {"type": "Point", "coordinates": [2.880637, 48.888471]}, "properties": {"id_parcelle": "77382000YP0029", "address": "98 RUE DE MOULIGNON", "sales": 4, "median_price": 365000.0, "median_price_per_sqm": 3146.551724137931, "median_rooms": 2.5, "first_sale": "2023-05-02", "last_sale": "2023-05-02"}}, {"type": "Feature", "geometry": {"type": "Point", "coordinates": [2.882474, 48.888918]}, "properties": {"id_parcelle": "77382000YP0071", "address": "103 RUE DE MOULIGNON", "sales": 4, "median_price": 437000.0, "median_price_per_sqm": 2819.3548387096776, "median_rooms": 3.5, "first_sale": "2022-03-04", "last_sale": "2022-03-04"}}, {"type": "Feature", "geometry": {"type": "Point", "coordinates": [2.882021, 48.886187]}, "properties": {"id_parcelle": "77382000YO0041", "address": "122 RUE DE MOULIGNON", "sales": 4, "median_price": 291500.0, "median_price_per_sqm": 2776.190476190476, "median_rooms": 2.5, "first_sale": "2025-09-12", "last_sale": "2025-09-12"}}, {"type": "Feature", "geometry": {"type": "Point", "coordinates": [2.881393, 48.900454]}, "properties": {"id_parcelle": "77382000YI0114", "address": "2 CHE DE LA MARGUERITE", "sales": 4, "median_price": 230000.0, "median_price_per_sqm": 2527.4725274725274, "median_rooms": 2.0, "first_sale": "2021-10-15", "last_sale": "2021-10-15"}}, {"type": "Feature", "geometry": {"type": "Point", "coordinates": [2.857147, 48.893183]}, "properties": {"id_parcelle": "77382000AV0160", "address": "18 RUE DE PLAILLY", "sales": 4, "median_price": 564500.0, "median_price_per_sqm": 3595.541401273885, "median_rooms": 2.0, "first_sale": "2024-01-09", "last_sale": "2024-01-09"}}, {"type": "Feature", "geometry": {"type": "Point", "coordinates": [2.859912, 48.897682]}, "properties": {"id_parcelle": "77382000AW0329", "address": "13 RUE DE MAREUIL", "sales": 4, "median_price": 475000.0, "median_price_per_sqm": 2375.0, "median_rooms": 5.0, "first_sale": "2025-02-06", "last_sale": "2025-02-06"}}, {"type": "Feature", "geometry": {"type": "Point", "coordinates": [2.849627, 48.899447]}, "properties": {"id_parcelle": "77382000AW0549", "address": "65 RUE DE CONDE", "sales": 4, "median_price": 244200.0, "median_price_per_sqm": 1545.5696202531647, "median_rooms": 3.0, "first_sale": "2021-12-03", "last_sale": "2021-12-03"}}, {"type": "Feature", "geometry": {"type": "Point", "coordinates": [2.857672, 48.898927]}, "properties": {"id_parcelle": "77382000AW0372", "address": "10 RUE ERNEST LEGENRE", "sales": 4, "median_price": 399000.0, "median_price_per_sqm": 3990.0, "median_rooms": 2.5, "first_sale": "2022-11-02", "last_sale": "2022-11-02"}}, {"type": "Feature", "geometry": {"type": "Point", "coordinates": [2.877553, 48.897511]}, "properties": {"id_parcelle": "77382000AK1328", "address": "47 RUE CARNOT", "sales": 3, "median_price": 232500.0, "median_price_per_sqm": 3470.1492537313434, "median_rooms": 0.0, "first_sale": "2023-02-28", "last_sale": "2023-02-28"}}, {"type": "Feature", "geometry": {"type": "Point", "coordinates": [2.875589, 48.900393]}, "properties": {"id_parcelle": "77382000AK0609", "address": "39 RUE DE MEAUX", "sales": 3, "median_price": 190000.0, "median_price_per_sqm": 6551.724137931034, "median_rooms": 1.0, "first_sale": "2022-05-04", "last_sale": "2022-05-04"}}, {"type": "Feature", "geometry": {"type": "Point", "coordinates": [2.879635, 48.90313]}, "properties": {"id_parcelle": "77382000AK0767", "address": "4 RUE DE CRECY", "sales": 3, "median_price": 365000.0, "median_price_per_sqm": 1941.4893617021276, "median_rooms": 0.0, "first_sale": "2025-10-27", "last_sale": "2025-10-27"}}, {"type": "Feature", "geometry": {"type": "Point", "coordinates": [2.873528, 48.901104]}, "properties": {"id_parcelle": "77382000AK1095", "address": "AV FOCH", "sales": 3, "median_price": 217500.0, "median_price_per_sqm": null, "median_rooms": null, "first_sale": "2022-12-20", "last_sale": "2023-05-25"}}, {"type": "Feature", "geometry": {"type": "Point", "coordinates": [2.877393, 48.897194]}, "properties": {"id_parcelle": "77382000AK0437", "address": "68 RUE CARNOT", "sales": 3, "median_price": 133000.0, "median_price_per_sqm": null, "median_rooms": null, "first_sale": "2023-12-29", "last_sale": "2025-09-23"}}, {"type": "Feature", "geometry": {"type": "Point", "coordinates": [2.886637, 48.897918]}, "properties": {"id_parcelle": "77382000AI0102", "address": "75 RUE DE COULOMMES", "sales": 3, "median_price": 161000.0, "median_price_per_sqm": null, "median_rooms": null, "first_sale": "2022-02-11", "last_sale": "2022-02-11"}}, {"type": "Feature", "geometry": {"type": "Point", "coordinates": [2.887858, 48.897733]}, "properties": {"id_parcelle": "77382000AI0141", "address": "91 RUE DE COULOMMES", "sales": 3, "median_price": 242000.0, "median_price_per_sqm": 2420.0, "median_rooms": 0.0, "first_sale": "2023-04-28", "last_sale": "2023-04-28"}}, {"type": "Feature", "geometry": {"type": "Point", "coordinates": [2.88691, 48.897914]}, "properties": {"id_parcelle": "77382000AI0104", "address": "81 RUE DE COULOMMES", "sales": 3, "median_price": 396500.0, "median_price_per_sqm": 2852.517985611511, "median_rooms": 0.0, "first_sale": "2023-07-04", "last_sale": "2023-07-04"}}, {"type": "Feature", "geometry": {"type": "Point", "coordinates": [2.877429, 48.897333]}, "properties": {"id_parcelle": "77382000AK0438", "address": "68 RUE CARNOT", "sales": 3, "median_price": 119000.0, "median_price_per_sqm": 3606.060606060606, "median_rooms": 2.0, "first_sale": "2023-12-29", "last_sale": "2025-10-08"}}, {"type": "Feature", "geometry": {"type": "Point", "coordinates": [2.875822, 48.901465]}, "properties": {"id_parcelle": "77382000AK1578", "address": "RUE DE MEAUX", "sales": 3, "median_price": 160000.0, "median_price_per_sqm": null, "median_rooms": null, "first_sale": "2022-01-14", "last_sale": "2024-09-19"}}, {"type": "Feature", "geometry": {"type": "Point", "coordinates": [2.875815, 48.901391]}, "properties": {"id_parcelle": "77382000AK1579", "address": "RUE DE MEAUX", "sales": 3, "median_price": 90000.0, "median_price_per_sqm": null, "median_rooms": null, "first_sale": "2022-01-14", "last_sale": "2024-09-19"}}, {"type": "Feature", "geometry": {"type": "Point", "coordinates": [2.875887, 48.901498]}, "properties": {"id_parcelle": "77382000AK1577", "address": "RUE DE MEAUX", "sales": 3, "median_price": 100000.0, "median_price_per_sqm": null, "median_rooms": null, "first_sale": "2022-01-14", "last_sale": "2024-09-19"}}, {"type": "Feature", "geometry": {"type": "Point", "coordinates": [2.874746, 48.898123]}, "properties": {"id_parcelle": "77382000AK0515", "address": "12 RUE CARNOT", "sales": 3, "median_price": 890000.0, "median_price_per_sqm": 21506.008359456635, "median_rooms": 0.0, "first_sale": "2024-06-24", "last_sale": "2024-06-24"}}, {"type": "Feature", "geometry": {"type": "Point", "coordinates": [2.878164, 48.896467]}, "properties": {"id_parcelle": "77382000AK0415", "address": "14 RUE FELIX MASLE", "sales": 3, "median_price": 286000.0, "median_price_per_sqm": null, "median_rooms": null, "first_sale": "2023-08-22", "last_sale": "2025-10-17"}}, {"type": "Feature", "geometry": {"type": "Point", "coordinates": [2.883713, 48.897729]}, "properties": {"id_parcelle": "77382000AI0514", "address": "72 RUE DE COULOMMES", "sales": 3, "median_price": 287000.0, "median_price_per_sqm": 5979.166666666667, "median_rooms": 2.0, "first_sale": "2022-01-28", "last_sale": "2022-01-28"}}, {"type": "Feature", "geometry": {"type": "Point", "coordinates": [2.882898, 48.898531]}, "properties": {"id_parcelle": "77382000AI0518", "address": "47 RUE DE COULOMMES", "sales": 3, "median_price": 348000.0, "median_price_per_sqm": 7102.040816326531, "median_rooms": 0.0, "first_sale": "2021-11-19", "last_sale": "2021-11-19"}}, {"type": "Feature", "geometry": {"type": "Point", "coordinates": [2.877532, 48.901705]}, "properties": {"id_parcelle": "77382000AK1596", "address": "71 RUE DE MEAUX", "sales": 3, "median_price": 255000.0, "median_price_per_sqm": 1500.0, "median_rooms": 0.0, "first_sale": "2022-12-12", "last_sale": "2022-12-12"}}, {"type": "Feature", "geometry": {"type": "Point", "coordinates": [2.855968, 48.902157]}, "properties": {"id_parcelle": "77382000BD0193", "address": "24 RUE DU PAVE DE ROISES", "sales": 3, "median_price": 285000.0, "median_price_per_sqm": 4005.3104575163397, "median_rooms": 3.0, "first_sale": "2021-03-29", "last_sale": "2025-08-19"}}, {"type": "Feature", "geometry": {"type": "Point", "coordinates": [2.880661, 48.898698]}, "properties": {"id_parcelle": "77382000YI0134", "address": "1 CHE DES PLATRIERES", "sales": 3, "median_price": 315000.0, "median_price_per_sqm": 3214.285714285714, "median_rooms": 0.0, "first_sale": "2025-12-15", "last_sale": "2025-12-15"}}, {"type": "Feature", "geometry": {"type": "Point", "coordinates": [2.866528, 48.900564]}, "properties": {"id_parcelle": "77382000AX0650", "address": "21 RUE RENE BENOIST", "sales": 3, "median_price": 147150.0, "median_price_per_sqm": 3198.913043478261, "median_rooms": 0.0, "first_sale": "2022-08-19", "last_sale": "2022-08-19"}}, {"type": "Feature", "geometry": {"type": "Point", "coordinates": [2.859384, 48.900798]}, "properties": {"id_parcelle": "77382000AX0827", "address": "19 RUE PASTEUR", "sales": 3, "median_price": 300000.0, "median_price_per_sqm": 1744.1860465116279, "median_rooms": 0.0, "first_sale": "2025-07-28", "last_sale": "2025-07-28"}}, {"type": "Feature", "geometry": {"type": "Point", "coordinates": [2.850783, 48.90037]}, "properties": {"id_parcelle": "77382000BE0554", "address": "46 RUE DE CONDE", "sales": 3, "median_price": 399430.0, "median_price_per_sqm": 3072.5384615384614, "median_rooms": 0.0, "first_sale": "2021-11-23", "last_sale": "2021-11-23"}}, {"type": "Feature", "geometry": {"type": "Point", "coordinates": [2.861309, 48.900067]}, "properties": {"id_parcelle": "77382000AX0562", "address": "4 PL RENE BENOIST", "sales": 3, "median_price": 289000.0, "median_price_per_sqm": 3612.5, "median_rooms": 0.0, "first_sale": "2023-03-29", "last_sale": "2023-03-29"}}, {"type": "Feature", "geometry": {"type": "Point", "coordinates": [2.862392, 48.900831]}, "properties": {"id_parcelle": "77382000AX0102", "address": "RUE RENE BENOIST", "sales": 3, "median_price": 220000.0, "median_price_per_sqm": null, "median_rooms": null, "first_sale": "2021-02-11", "last_sale": "2025-10-06"}}, {"type": "Feature", "geometry": {"type": "Point", "coordinates": [2.862887, 48.900539]}, "properties": {"id_parcelle": "77382000AX0122", "address": "56 RUE RENE BENOIST", "sales": 3, "median_price": 300000.0, "median_price_per_sqm": 4285.714285714285, "median_rooms": 3.0, "first_sale": "2022-02-04", "last_sale": "2025-07-11"}}, {"type": "Feature", "geometry": {"type": "Point", "coordinates": [2.862643, 48.90093]}, "properties": {"id_parcelle": "77382000AX0111", "address": "VOISINS SUD EST", "sales": 3, "median_price": 300000.0, "median_price_per_sqm": null, "median_rooms": null, "first_sale": "2022-02-04", "last_sale": "2025-07-11"}}, {"type": "Feature", "geometry": {"type": "Point", "coordinates": [2.857353, 48.900199]}, "properties": {"id_parcelle": "77382000AW0579", "address": "45 RUE DE MAREUIL", "sales": 3, "median_price": 237000.0, "median_price_per_sqm": 3703.125, "median_rooms": 0.0, "first_sale": "2022-03-17", "last_sale": "2022-03-17"}}, {"type": "Feature", "geometry": {"type": "Point", "coordinates": [2.875227, 48.900908]}, "properties": {"id_parcelle": "77382000AK0619", "address": "10 RUE THIERS", "sales": 2, "median_price": 187000.0, "median_price_per_sqm": 3116.6666666666665, "median_rooms": 2.0, "first_sale": "2021-05-11", "last_sale": "2021-05-11"}}, {"type": "Feature", "geometry": {"type": "Point", "coordinates": [2.879847, 48.896095]}, "properties": {"id_parcelle": "77382000AK0405", "address": "13 RUE FELIX MASLE", "sales": 2, "median_price": 400160.0, "median_price_per_sqm": 4547.272727272727, "median_rooms": 2.0, "first_sale": "2021-06-30", "last_sale": "2021-06-30"}}, {"type": "Feature", "geometry": {"type": "Point", "coordinates": [2.876087, 48.898174]}, "properties": {"id_parcelle": "77382000AK0265", "address": "RUE CARNOT", "sales": 2, "median_price": 323375.0, "median_price_per_sqm": null, "median_rooms": null, "first_sale": "2023-06-30", "last_sale": "2025-06-04"}}, {"type": "Feature", "geometry": {"type": "Point", "coordinates": [2.877859, 48.897405]}, "properties": {"id_parcelle": "77382000AK0320", "address": "51 RUE CARNOT", "sales": 2, "median_price": 207500.0, "median_price_per_sqm": null, "median_rooms": null, "first_sale": "2023-08-11", "last_sale": "2024-11-26"}}, {"type": "Feature", "geometry": {"type": "Point", "coordinates": [2.880054, 48.897787]}, "properties": {"id_parcelle": "77382000AK0351", "address": "13 RUE DE COULOMMES", "sales": 2, "median_price": 375000.0, "median_price_per_sqm": 4261.363636363636, "median_rooms": 2.0, "first_sale": "2023-12-05", "last_sale": "2023-12-05"}}, {"type": "Feature", "geometry": {"type": "Point", "coordinates": [2.876323, 48.898385]}, "properties": {"id_parcelle": "77382000AK0263", "address": "27 RUE CARNOT", "sales": 2, "median_price": 506750.0, "median_price_per_sqm": 7137.3239436619715, "median_rooms": 3.0, "first_sale": "2023-06-30", "last_sale": "2023-06-30"}}, {"type": "Feature", "geometry": {"type": "Point", "coordinates": [2.875576, 48.899535]}, "properties": {"id_parcelle": "77382000AK0199", "address": "QUINCY", "sales": 2, "median_price": 400000.0, "median_price_per_sqm": null, "median_rooms": null, "first_sale": "2022-07-12", "last_sale": "2022-07-12"}}, {"type": "Feature", "geometry": {"type": "Point", "coordinates": [2.875045, 48.899346]}, "properties": {"id_parcelle": "77382000AK0207", "address": "QUINCY", "sales": 2, "median_price": 218900.0, "median_price_per_sqm": null, "median_rooms": null, "first_sale": "2021-09-13", "last_sale": "2023-01-27"}}, {"type": "Feature", "geometry": {"type": "Point", "coordinates": [2.873847, 48.898942]}, "properties": {"id_parcelle": "77382000AK0240", "address": "2 RUE DE MEAUX", "sales": 2, "median_price": 175400.0, "median_price_per_sqm": 1783.3362676056338, "median_rooms": 1.5, "first_sale": "2021-12-21", "last_sale": "2021-12-21"}}, {"type": "Feature", "geometry": {"type": "Point", "coordinates": [2.875337, 48.899608]}, "properties": {"id_parcelle": "77382000AK0197", "address": "28 RUE DE MEAUX", "sales": 2, "median_price": 400000.0, "median_price_per_sqm": 4347.826086956522, "median_rooms": 2.5, "first_sale": "2022-07-12", "last_sale": "2022-07-12"}}, {"type": "Feature", "geometry": {"type": "Point", "coordinates": [2.885216, 48.89661]}, "properties": {"id_parcelle": "77382000AI0582", "address": "39 CHE DES CHAMPCHEUX", "sales": 2, "median_price": 337500.0, "median_price_per_sqm": null, "median_rooms": null, "first_sale": "2023-11-08", "last_sale": "2024-04-26"}}, {"type": "Feature", "geometry": {"type": "Point", "coordinates": [2.885172, 48.896953]}, "properties": {"id_parcelle": "77382000AI0581", "address": "41 CHE DES CHAMPCHEUX", "sales": 2, "median_price": 362500.0, "median_price_per_sqm": null, "median_rooms": null, "first_sale": "2023-11-08", "last_sale": "2024-12-13"}}, {"type": "Feature", "geometry": {"type": "Point", "coordinates": [2.875562, 48.899708]}, "properties": {"id_parcelle": "77382000AK0198", "address": "28 RUE DE MEAUX", "sales": 2, "median_price": 400000.0, "median_price_per_sqm": null, "median_rooms": 0.0, "first_sale": "2022-07-12", "last_sale": "2022-07-12"}}, {"type": "Feature", "geometry": {"type": "Point", "coordinates": [2.885154, 48.896709]}, "properties": {"id_parcelle": "77382000AI0580", "address": "39 CHE DES CHAMPCHEUX", "sales": 2, "median_price": 337500.0, "median_price_per_sqm": null, "median_rooms": null, "first_sale": "2023-11-08", "last_sale": "2024-04-26"}}, {"type": "Feature", "geometry": {"type": "Point", "coordinates": [2.885297, 48.896799]}, "properties": {"id_parcelle": "77382000AI0577", "address": "41 CHE DES CHAMPCHEUX", "sales": 2, "median_price": 362500.0, "median_price_per_sqm": null, "median_rooms": null, "first_sale": "2023-11-08", "last_sale": "2024-12-13"}}, {"type": "Feature", "geometry": {"type": "Point", "coordinates": [2.885225, 48.896746]}, "properties": {"id_parcelle": "77382000AI0578", "address": "39 CHE DES CHAMPCHEUX", "sales": 2, "median_price": 337500.0, "median_price_per_sqm": null, "median_rooms": null, "first_sale": "2023-11-08", "last_sale": "2024-04-26"}}, {"type": "Feature", "geometry": {"type": "Point", "coordinates": [2.885237, 48.896823]}, "properties": {"id_parcelle": "77382000AI0579", "address": "41 CHE DES CHAMPCHEUX", "sales": 2, "median_price": 362500.0, "median_price_per_sqm": null, "median_rooms": null, "first_sale": "2023-11-08", "last_sale": "2024-12-13"}}, {"type": "Feature", "geometry": {"type": "Point", "coordinates": [2.88887, 48.897959]}, "properties": {"id_parcelle": "77382000AI0560", "address": "103 RUE DE COULOMMES", "sales": 2, "median_price": 478700.0, "median_price_per_sqm": 2118.141592920354, "median_rooms": 5.0, "first_sale": "2021-07-28", "last_sale": "2021-07-28"}}, {"type": "Feature", "geometry": {"type": "Point", "coordinates": [2.88379, 48.897684]}, "properties": {"id_parcelle": "77382000AI0517", "address": "72 RUE DE COULOMMES", "sales": 2, "median_price": 287000.0, "median_price_per_sqm": null, "median_rooms": 0.0, "first_sale": "2022-01-28", "last_sale": "2022-01-28"}}, {"type": "Feature", "geometry": {"type": "Point", "coordinates": [2.882541, 48.89767]}, "properties": {"id_parcelle": "77382000AI0269", "address": "60 RUE DE COULOMMES", "sales": 2, "median_price": 322000.0, "median_price_per_sqm": null, "median_rooms": null, "first_sale": "2023-03-08", "last_sale": "2023-09-21"}}, {"type": "Feature", "geometry": {"type": "Point", "coordinates": [2.876174, 48.900838]}, "properties": {"id_parcelle": "77382000AK0648", "address": "49 RUE DE MEAUX", "sales": 2, "median_price": 212000.0, "median_price_per_sqm": 2120.0, "median_rooms": 2.0, "first_sale": "2022-02-10", "last_sale": "2022-02-10"}}, {"type": "Feature", "geometry": {"type": "Point", "coordinates": [2.888006, 48.897532]}, "properties": {"id_parcelle": "77382000AI0198", "address": "110 RUE DE COULOMMES", "sales": 2, "median_price": 189500.0, "median_price_per_sqm": null, "median_rooms": null, "first_sale": "2021-06-02", "last_sale": "2021-06-11"}}, {"type": "Feature", "geometry": {"type": "Point", "coordinates": [2.886978, 48.898217]}, "properties": {"id_parcelle": "77382000AI0105", "address": "QUINCY", "sales": 2, "median_price": 396500.0, "median_price_per_sqm": null, "median_rooms": null, "first_sale": "2023-07-04", "last_sale": "2023-07-04"}}, {"type": "Feature", "geometry": {"type": "Point", "coordinates": [2.885779, 48.89824]}, "properties": {"id_parcelle": "77382000AI0086", "address": "67 RUE DE COULOMMES", "sales": 2, "median_price": 336750.0, "median_price_per_sqm": 3961.764705882353, "median_rooms": 5.0, "first_sale": "2021-12-22", "last_sale": "2021-12-22"}}, {"type": "Feature", "geometry": {"type": "Point", "coordinates": [2.886608, 48.897832]}, "properties": {"id_parcelle": "77382000AI0101", "address": "77 RUE DE COULOMMES", "sales": 2, "median_price": 143750.0, "median_price_per_sqm": 3442.0289855072465, "median_rooms": 1.5, "first_sale": "2021-01-22", "last_sale": "2022-04-06"}}, {"type": "Feature", "geometry": {"type": "Point", "coordinates": [2.882748, 48.896873]}, "properties": {"id_parcelle": "77382000AI0566", "address": "CHE DES CHAMPCHEUX", "sales": 2, "median_price": 68000.0, "median_price_per_sqm": null, "median_rooms": null, "first_sale": "2022-07-08", "last_sale": "2025-01-27"}}, {"type": "Feature", "geometry": {"type": "Point", "coordinates": [2.887525, 48.898314]}, "properties": {"id_parcelle": "77382000AI0573", "address": "87 RUE DE COULOMMES", "sales": 2, "median_price": 190000.0, "median_price_per_sqm": null, "median_rooms": null, "first_sale": "2022-11-24", "last_sale": "2022-11-24"}}, {"type": "Feature", "geometry": {"type": "Point", "coordinates": [2.885311, 48.896985]}, "properties": {"id_parcelle": "77382000AI0574", "address": "41 CHE DES CHAMPCHEUX", "sales": 2, "median_price": 362500.0, "median_price_per_sqm": null, "median_rooms": null, "first_sale": "2023-11-08", "last_sale": "2024-12-13"}}, {"type": "Feature", "geometry": {"type": "Point", "coordinates": [2.885644, 48.896787]}, "properties": {"id_parcelle": "77382000AI0575", "address": "10 RUE DES ACACIAS", "sales": 2, "median_price": 457500.0, "median_price_per_sqm": 4197.247706422018, "median_rooms": 6.0, "first_sale": "2023-11-08", "last_sale": "2024-04-23"}}, {"type": "Feature", "geometry": {"type": "Point", "coordinates": [2.885367, 48.896791]}, "properties": {"id_parcelle": "77382000AI0576", "address": "43 CHE DES CHAMPCHEUX", "sales": 2, "median_price": 332500.0, "median_price_per_sqm": null, "median_rooms": null, "first_sale": "2023-11-08", "last_sale": "2024-07-03"}}, {"type": "Feature", "geometry": {"type": "Point", "coordinates": [2.883133, 48.896664]}, "properties": {"id_parcelle": "77382000AI0472", "address": "19 CHE DES CHAMPCHEUX", "sales": 2, "median_price": 184000.0, "median_price_per_sqm": 5257.142857142857, "median_rooms": 1.0, "first_sale": "2025-05-06", "last_sale": "2025-05-06"}}, {"type": "Feature", "geometry": {"type": "Point", "coordinates": [2.885048, 48.897599]}, "properties": {"id_parcelle": "77382000AI0233", "address": "86 RUE DE COULOMMES", "sales": 2, "median_price": 289000.0, "median_price_per_sqm": 1587.9120879120878, "median_rooms": 5.0, "first_sale": "2025-04-25", "last_sale": "2025-04-25"}}, {"type": "Feature", "geometry": {"type": "Point", "coordinates": [2.883577, 48.897746]}, "properties": {"id_parcelle": "77382000AI0248", "address": "72 RUE DE COULOMMES", "sales": 2, "median_price": 258000.0, "median_price_per_sqm": null, "median_rooms": null, "first_sale": "2022-01-28", "last_sale": "2025-09-29"}}, {"type": "Feature", "geometry": {"type": "Point", "coordinates": [2.87622, 48.901421]}, "properties": {"id_parcelle": "77382000AK1582", "address": "59 RUE DE MEAUX", "sales": 2, "median_price": 297500.0, "median_price_per_sqm": null, "median_rooms": 0.0, "first_sale": "2022-01-14", "last_sale": "2023-12-26"}}, {"type": "Feature", "geometry": {"type": "Point", "coordinates": [2.876196, 48.901443]}, "properties": {"id_parcelle": "77382000AK1581", "address": "59 RUE DE MEAUX", "sales": 2, "median_price": 297500.0, "median_price_per_sqm": null, "median_rooms": 0.0, "first_sale": "2022-01-14", "last_sale": "2023-12-26"}}, {"type": "Feature", "geometry": {"type": "Point", "coordinates": [2.876171, 48.901464]}, "properties": {"id_parcelle": "77382000AK1580", "address": "RUE DE MEAUX", "sales": 2, "median_price": 262500.0, "median_price_per_sqm": null, "median_rooms": null, "first_sale": "2022-01-14", "last_sale": "2022-04-22"}}, {"type": "Feature", "geometry": {"type": "Point", "coordinates": [2.87647, 48.900381]}, "properties": {"id_parcelle": "77382000AK1573", "address": "RUE DE MEAUX", "sales": 2, "median_price": 325750.0, "median_price_per_sqm": null, "median_rooms": null, "first_sale": "2021-11-09", "last_sale": "2022-04-20"}}, {"type": "Feature", "geometry": {"type": "Point", "coordinates": [2.876276, 48.901342]}, "properties": {"id_parcelle": "77382000AK1576", "address": "59 RUE DE MEAUX", "sales": 2, "median_price": 267150.0, "median_price_per_sqm": null, "median_rooms": null, "first_sale": "2022-01-14", "last_sale": "2022-04-28"}}, {"type": "Feature", "geometry": {"type": "Point", "coordinates": [2.876822, 48.900208]}, "properties": {"id_parcelle": "77382000AK1570", "address": "44 CHE DES COUTURES", "sales": 2, "median_price": 325000.0, "median_price_per_sqm": null, "median_rooms": null, "first_sale": "2021-11-09", "last_sale": "2022-03-18"}}, {"type": "Feature", "geometry": {"type": "Point", "coordinates": [2.876669, 48.900316]}, "properties": {"id_parcelle": "77382000AK1571", "address": "RUE DE MEAUX", "sales": 2, "median_price": 377500.0, "median_price_per_sqm": null, "median_rooms": null, "first_sale": "2021-11-09", "last_sale": "2022-03-04"}}, {"type": "Feature", "geometry": {"type": "Point", "coordinates": [2.876598, 48.90037]}, "properties": {"id_parcelle": "77382000AK1572", "address": "RUE DE MEAUX", "sales": 2, "median_price": 342500.0, "median_price_per_sqm": null, "median_rooms": null, "first_sale": "2021-11-09", "last_sale": "2022-04-13"}}, {"type": "Feature", "geometry": {"type": "Point", "coordinates": [2.876658, 48.90045]}, "properties": {"id_parcelle": "77382000AK1567", "address": "RUE DE MEAUX", "sales": 2, "median_price": 342500.0, "median_price_per_sqm": null, "median_rooms": null, "first_sale": "2021-11-09", "last_sale": "2022-04-13"}}, {"type": "Feature", "geometry": {"type": "Point", "coordinates": [2.876382, 48.900404]}, "properties": {"id_parcelle": "77382000AK1565", "address": "RUE DE MEAUX", "sales": 2, "median_price": 275000.5, "median_price_per_sqm": null, "median_rooms": null, "first_sale": "2021-11-09", "last_sale": "2022-04-19"}}, {"type": "Feature", "geometry": {"type": "Point", "coordinates": [2.876461, 48.900453]}, "properties": {"id_parcelle": "77382000AK1564", "address": "RUE DE MEAUX", "sales": 2, "median_price": 325750.0, "median_price_per_sqm": null, "median_rooms": null, "first_sale": "2021-11-09", "last_sale": "2022-04-20"}}, {"type": "Feature", "geometry": {"type": "Point", "coordinates": [2.876599, 48.900478]}, "properties": {"id_parcelle": "77382000AK1568", "address": "RUE DE MEAUX", "sales": 2, "median_price": 325750.0, "median_price_per_sqm": null, "median_rooms": null, "first_sale": "2021-11-09", "last_sale": "2022-04-20"}}, {"type": "Feature", "geometry": {"type": "Point", "coordinates": [2.877008, 48.900321]}, "properties": {"id_parcelle": "77382000AK1558", "address": "44 CHE DES COUTURES", "sales": 2, "median_price": 325000.0, "median_price_per_sqm": null, "median_rooms": null, "first_sale": "2021-11-09", "last_sale": "2022-03-18"}}, {"type": "Feature", "geometry": {"type": "Point", "coordinates": [2.876849, 48.900352]}, "properties": {"id_parcelle": "77382000AK1559", "address": "RUE DE MEAUX", "sales": 2, "median_price": 377500.0, "median_price_per_sqm": null, "median_rooms": null, "first_sale": "2021-11-09", "last_sale": "2022-03-04"}}, {"type": "Feature", "geometry": {"type": "Point", "coordinates": [2.876981, 48.900376]}, "properties": {"id_parcelle": "77382000AK1562", "address": "RUE DE MEAUX", "sales": 2, "median_price": 342500.0, "median_price_per_sqm": null, "median_rooms": null, "first_sale": "2021-11-09", "last_sale": "2022-04-13"}}, {"type": "Feature", "geometry": {"type": "Point", "coordinates": [2.876844, 48.900479]}, "properties": {"id_parcelle": "77382000AK1563", "address": "RUE DE MEAUX", "sales": 2, "median_price": 325750.0, "median_price_per_sqm": null, "median_rooms": null, "first_sale": "2021-11-09", "last_sale": "2022-04-20"}}, {"type": "Feature", "geometry": {"type": "Point", "coordinates": [2.874412, 48.900576]}, "properties": {"id_parcelle": "77382000AK1206", "address": "18 RUE MADAME CHOLIN", "sales": 2, "median_price": 410000.0, "median_price_per_sqm": 3727.2727272727275, "median_rooms": 1.0, "first_sale": "2022-09-21", "last_sale": "2022-09-21"}}, {"type": "Feature", "geometry": {"type": "Point", "coordinates": [2.878607, 48.9007]}, "properties": {"id_parcelle": "77382000AK1296", "address": "1 SEN DES COUTURES", "sales": 2, "median_price": 287950.0, "median_price_per_sqm": 3839.3333333333335, "median_rooms": 1.5, "first_sale": "2021-06-08", "last_sale": "2021-06-08"}}, {"type": "Feature", "geometry": {"type": "Point", "coordinates": [2.880237, 48.900928]}, "properties": {"id_parcelle": "77382000AK1397", "address": "LES COUTURES", "sales": 2, "median_price": 375400.0, "median_price_per_sqm": null, "median_rooms": null, "first_sale": "2024-10-02", "last_sale": "2024-10-02"}}, {"type": "Feature", "geometry": {"type": "Point", "coordinates": [2.877121, 48.900661]}, "properties": {"id_parcelle": "77382000AK1494", "address": "RUE DE MEAUX", "sales": 2, "median_price": 200500.0, "median_price_per_sqm": null, "median_rooms": null, "first_sale": "2022-03-28", "last_sale": "2024-09-18"}}, {"type": "Feature", "geometry": {"type": "Point", "coordinates": [2.87542, 48.900804]}, "properties": {"id_parcelle": "77382000AK1552", "address": "12 RUE THIERS", "sales": 2, "median_price": 72500.5, "median_price_per_sqm": null, "median_rooms": null, "first_sale": "2021-01-20", "last_sale": "2021-04-16"}}, {"type": "Feature", "geometry": {"type": "Point", "coordinates": [2.873191, 48.900499]}, "properties": {"id_parcelle": "77382000AK1545", "address": "RUE MADAME CHOLIN", "sales": 2, "median_price": 155500.0, "median_price_per_sqm": null, "median_rooms": null, "first_sale": "2021-04-20", "last_sale": "2021-04-29"}}, {"type": "Feature", "geometry": {"type": "Point", "coordinates": [2.879325, 48.897377]}, "properties": {"id_parcelle": "77382000AK1439", "address": "10 RUE DE COULOMMES", "sales": 2, "median_price": 180000.0, "median_price_per_sqm": 2725.4901960784314, "median_rooms": 2.5, "first_sale": "2023-05-29", "last_sale": "2023-05-29"}}, {"type": "Feature", "geometry": {"type": "Point", "coordinates": [2.878264, 48.898663]}, "properties": {"id_parcelle": "77382000AK0746", "address": "64 CHE DES COUTURES", "sales": 2, "median_price": 343500.0, "median_price_per_sqm": 4189.024390243902, "median_rooms": 5.0, "first_sale": "2022-03-07", "last_sale": "2023-09-21"}}, {"type": "Feature", "geometry": {"type": "Point", "coordinates": [2.875666, 48.89765]}, "properties": {"id_parcelle": "77382000AK1090", "address": "QUINCY", "sales": 2, "median_price": 131000.0, "median_price_per_sqm": null, "median_rooms": null, "first_sale": "2021-07-28", "last_sale": "2022-09-29"}}, {"type": "Feature", "geometry": {"type": "Point", "coordinates": [2.880641, 48.895953]}, "properties": {"id_parcelle": "77382000AK0974", "address": "11 CHE DE LA HERSE", "sales": 2, "median_price": 312000.0, "median_price_per_sqm": 4160.0, "median_rooms": 4.0, "first_sale": "2021-02-11", "last_sale": "2021-02-11"}}, {"type": "Feature", "geometry": {"type": "Point", "coordinates": [2.880988, 48.896105]}, "properties": {"id_parcelle": "77382000AK0972", "address": "80 RUE DE CRECY", "sales": 2, "median_price": 439000.0, "median_price_per_sqm": 3850.877192982456, "median_rooms": 5.0, "first_sale": "2023-06-12", "last_sale": "2023-06-12"}}, {"type": "Feature", "geometry": {"type": "Point", "coordinates": [2.87991, 48.896532]}, "properties": {"id_parcelle": "77382000AK0968", "address": "5 RUE ABBE MULLER", "sales": 2, "median_price": 427000.0, "median_price_per_sqm": 2904.7619047619046, "median_rooms": 5.0, "first_sale": "2022-05-06", "last_sale": "2022-05-06"}}, {"type": "Feature", "geometry": {"type": "Point", "coordinates": [2.880271, 48.896636]}, "properties": {"id_parcelle": "77382000AK0967", "address": "3 RUE ABBE MULLER", "sales": 2, "median_price": 401000.0, "median_price_per_sqm": 3037.878787878788, "median_rooms": 5.0, "first_sale": "2023-09-07", "last_sale": "2023-09-07"}}, {"type": "Feature", "geometry": {"type": "Point", "coordinates": [2.878762, 48.900642]}, "properties": {"id_parcelle": "77382000AK1130", "address": "1 SEN DES COUTURES", "sales": 2, "median_price": 287950.0, "median_price_per_sqm": null, "median_rooms": null, "first_sale": "2021-06-08", "last_sale": "2021-06-08"}}, {"type": "Feature", "geometry": {"type": "Point", "coordinates": [2.874769, 48.901179]}, "properties": {"id_parcelle": "77382000AK1142", "address": "6 RUE THIERS", "sales": 2, "median_price": 173000.0, "median_price_per_sqm": 3844.4444444444443, "median_rooms": 1.0, "first_sale": "2025-07-23", "last_sale": "2025-07-23"}}, {"type": "Feature", "geometry": {"type": "Point", "coordinates": [2.877558, 48.901979]}, "properties": {"id_parcelle": "77382000AK1154", "address": "73 RUE DE MEAUX", "sales": 2, "median_price": 575000.0, "median_price_per_sqm": 3965.5172413793102, "median_rooms": 0.0, "first_sale": "2023-12-12", "last_sale": "2023-12-12"}}, {"type": "Feature", "geometry": {"type": "Point", "coordinates": [2.875239, 48.897511]}, "properties": {"id_parcelle": "77382000AK0486", "address": "QUINCY", "sales": 2, "median_price": 70000.0, "median_price_per_sqm": null, "median_rooms": null, "first_sale": "2022-09-29", "last_sale": "2023-02-06"}}, {"type": "Feature", "geometry": {"type": "Point", "coordinates": [2.875434, 48.897495]}, "properties": {"id_parcelle": "77382000AK0483", "address": "34 RUE CARNOT", "sales": 2, "median_price": 130000.0, "median_price_per_sqm": 1181.8181818181818, "median_rooms": 2.0, "first_sale": "2022-09-29", "last_sale": "2022-09-29"}}, {"type": "Feature", "geometry": {"type": "Point", "coordinates": [2.875094, 48.897948]}, "properties": {"id_parcelle": "77382000AK0504", "address": "22 RUE CARNOT", "sales": 2, "median_price": 254950.0, "median_price_per_sqm": null, "median_rooms": 0.0, "first_sale": "2024-06-19", "last_sale": "2024-06-19"}}, {"type": "Feature", "geometry": {"type": "Point", "coordinates": [2.875082, 48.897882]}, "properties": {"id_parcelle": "77382000AK0505", "address": "QUINCY", "sales": 2, "median_price": 265570.0, "median_price_per_sqm": null, "median_rooms": null, "first_sale": "2022-10-05", "last_sale": "2024-06-19"}}, {"type": "Feature", "geometry": {"type": "Point", "coordinates": [2.874642, 48.898357]}, "properties": {"id_parcelle": "77382000AK0520", "address": "8 RUE CARNOT", "sales": 2, "median_price": 231000.0, "median_price_per_sqm": 2406.25, "median_rooms": 2.5, "first_sale": "2021-11-05", "last_sale": "2021-11-05"}}, {"type": "Feature", "geometry": {"type": "Point", "coordinates": [2.874026, 48.900713]}, "properties": {"id_parcelle": "77382000AK0573", "address": "11 RUE MADAME CHOLIN", "sales": 2, "median_price": 136640.0, "median_price_per_sqm": 1952.0, "median_rooms": 1.5, "first_sale": "2025-12-05", "last_sale": "2025-12-05"}}, {"type": "Feature", "geometry": {"type": "Point", "coordinates": [2.875523, 48.901752]}, "properties": {"id_parcelle": "77382000AK0661", "address": "196 AV FOCH", "sales": 2, "median_price": 324000.0, "median_price_per_sqm": 7531.578947368422, "median_rooms": 2.0, "first_sale": "2021-05-11", "last_sale": "2021-05-11"}}, {"type": "Feature", "geometry": {"type": "Point", "coordinates": [2.876772, 48.901165]}, "properties": {"id_parcelle": "77382000AK0669", "address": "QUINCY", "sales": 2, "median_price": 343500.0, "median_price_per_sqm": null, "median_rooms": null, "first_sale": "2022-10-26", "last_sale": "2023-06-30"}}, {"type": "Feature", "geometry": {"type": "Point", "coordinates": [2.875978, 48.900896]}, "properties": {"id_parcelle": "77382000AK0642", "address": "49 RUE DE MEAUX", "sales": 2, "median_price": 151250.0, "median_price_per_sqm": null, "median_rooms": null, "first_sale": "2021-06-23", "last_sale": "2024-10-30"}}, {"type": "Feature", "geometry": {"type": "Point", "coordinates": [2.88059, 48.897292]}, "properties": {"id_parcelle": "77382000AK0907", "address": "70 RUE DE CRECY", "sales": 2, "median_price": 259784.645, "median_price_per_sqm": 1298.923225, "median_rooms": 5.0, "first_sale": "2022-09-05", "last_sale": "2024-08-21"}}, {"type": "Feature", "geometry": {"type": "Point", "coordinates": [2.875189, 48.900805]}, "properties": {"id_parcelle": "77382000AK0618", "address": "12 RUE THIERS", "sales": 2, "median_price": 137500.0, "median_price_per_sqm": 4296.875, "median_rooms": 3.0, "first_sale": "2021-01-20", "last_sale": "2021-04-16"}}, {"type": "Feature", "geometry": {"type": "Point", "coordinates": [2.850202, 48.897654]}, "properties": {"id_parcelle": "77382000AW0498", "address": "LES GREGNONS", "sales": 2, "median_price": 2000.0, "median_price_per_sqm": null, "median_rooms": null, "first_sale": "2022-11-07", "last_sale": "2022-12-05"}}, {"type": "Feature", "geometry": {"type": "Point", "coordinates": [2.859351, 48.893778]}, "properties": {"id_parcelle": "77382000AV0116", "address": "2 RUE DE PLAILLY", "sales": 2, "median_price": 641850.0, "median_price_per_sqm": 2827.533039647577, "median_rooms": 7.0, "first_sale": "2021-09-29", "last_sale": "2021-09-29"}}, {"type": "Feature", "geometry": {"type": "Point", "coordinates": [2.856265, 48.896413]}, "properties": {"id_parcelle": "77382000AV0167", "address": "33 RUE DE HUIRY", "sales": 2, "median_price": 517575.0, "median_price_per_sqm": 3339.1935483870966, "median_rooms": 4.0, "first_sale": "2023-02-07", "last_sale": "2023-02-07"}}, {"type": "Feature", "geometry": {"type": "Point", "coordinates": [2.856436, 48.891835]}, "properties": {"id_parcelle": "77382000AV0181", "address": "18 CHE DE HUIRY", "sales": 2, "median_price": 614000.0, "median_price_per_sqm": 4723.076923076923, "median_rooms": 6.0, "first_sale": "2022-11-18", "last_sale": "2022-11-18"}}, {"type": "Feature", "geometry": {"type": "Point", "coordinates": [2.856041, 48.89296]}, "properties": {"id_parcelle": "77382000AV0175", "address": "28 RUE DE PLAILLY", "sales": 2, "median_price": 475000.0, "median_price_per_sqm": 2500.0, "median_rooms": 5.0, "first_sale": "2022-09-20", "last_sale": "2022-09-20"}}, {"type": "Feature", "geometry": {"type": "Point", "coordinates": [2.849859, 48.89846]}, "properties": {"id_parcelle": "77382000AW0216", "address": "LES GREGNONS", "sales": 2, "median_price": 2000.0, "median_price_per_sqm": null, "median_rooms": null, "first_sale": "2022-11-07", "last_sale": "2022-12-05"}}, {"type": "Feature", "geometry": {"type": "Point", "coordinates": [2.855326, 48.899814]}, "properties": {"id_parcelle": "77382000AW0021", "address": "25 RUE DE CONDE", "sales": 2, "median_price": 339000.0, "median_price_per_sqm": 4842.857142857143, "median_rooms": 2.0, "first_sale": "2022-07-04", "last_sale": "2022-07-04"}}, {"type": "Feature", "geometry": {"type": "Point", "coordinates": [2.858872, 48.892558]}, "properties": {"id_parcelle": "77382000AV0197", "address": "21 AV FOCH", "sales": 2, "median_price": 409000.0, "median_price_per_sqm": null, "median_rooms": null, "first_sale": "2022-08-08", "last_sale": "2023-04-12"}}, {"type": "Feature", "geometry": {"type": "Point", "coordinates": [2.858942, 48.892656]}, "properties": {"id_parcelle": "77382000AV0198", "address": "23 AV FOCH", "sales": 2, "median_price": 276500.0, "median_price_per_sqm": null, "median_rooms": null, "first_sale": "2022-08-08", "last_sale": "2025-01-29"}}, {"type": "Feature", "geometry": {"type": "Point", "coordinates": [2.858356, 48.896524]}, "properties": {"id_parcelle": "77382000AV0193", "address": "19 RUE DE HUIRY", "sales": 2, "median_price": 320000.0, "median_price_per_sqm": 3764.705882352941, "median_rooms": 4.0, "first_sale": "2021-06-24", "last_sale": "2021-06-24"}}, {"type": "Feature", "geometry": {"type": "Point", "coordinates": [2.858404, 48.891883]}, "properties": {"id_parcelle": "77382000AV0152", "address": "17 AV FOCH", "sales": 2, "median_price": 600000.0, "median_price_per_sqm": 1840.4907975460123, "median_rooms": 13.0, "first_sale": "2025-12-22", "last_sale": "2025-12-22"}}, {"type": "Feature", "geometry": {"type": "Point", "coordinates": [2.877159, 48.901407]}, "properties": {"id_parcelle": "77382000AK1598", "address": "69 RUE DE MEAUX", "sales": 2, "median_price": 105000.0, "median_price_per_sqm": null, "median_rooms": 0.0, "first_sale": "2023-12-18", "last_sale": "2023-12-18"}}, {"type": "Feature", "geometry": {"type": "Point", "coordinates": [2.876574, 48.901088]}, "properties": {"id_parcelle": "77382000AK1586", "address": "59 RUE DE MEAUX", "sales": 2, "median_price": 297500.0, "median_price_per_sqm": 1032.258064516129, "median_rooms": 5.0, "first_sale": "2022-01-14", "last_sale": "2023-12-26"}}, {"type": "Feature", "geometry": {"type": "Point", "coordinates": [2.855313, 48.896249]}, "properties": {"id_parcelle": "77382000AV0093", "address": "37 RUE DE HUIRY", "sales": 2, "median_price": 494025.0, "median_price_per_sqm": 3430.7291666666665, "median_rooms": 5.0, "first_sale": "2022-02-25", "last_sale": "2022-02-25"}}, {"type": "Feature", "geometry": {"type": "Point", "coordinates": [2.871486, 48.899755]}, "properties": {"id_parcelle": "77382000AL0220", "address": "11 RUE DE BOIGNE", "sales": 2, "median_price": 263000.0, "median_price_per_sqm": 2858.695652173913, "median_rooms": 1.5, "first_sale": "2025-09-25", "last_sale": "2025-09-25"}}, {"type": "Feature", "geometry": {"type": "Point", "coordinates": [2.869984, 48.89954]}, "properties": {"id_parcelle": "77382000AL0035", "address": "23 RUE DE BOIGNE", "sales": 2, "median_price": 325000.0, "median_price_per_sqm": 2407.4074074074074, "median_rooms": 6.0, "first_sale": "2024-11-29", "last_sale": "2024-11-29"}}, {"type": "Feature", "geometry": {"type": "Point", "coordinates": [2.871092, 48.898568]}, "properties": {"id_parcelle": "77382000AL0046", "address": "37 RUE DE BOIGNE", "sales": 2, "median_price": 447662.0, "median_price_per_sqm": 4567.9795918367345, "median_rooms": 4.0, "first_sale": "2021-11-23", "last_sale": "2021-11-23"}}, {"type": "Feature", "geometry": {"type": "Point", "coordinates": [2.877428, 48.901907]}, "properties": {"id_parcelle": "77382000AK1595", "address": "QUINCY", "sales": 2, "median_price": 287750.0, "median_price_per_sqm": null, "median_rooms": null, "first_sale": "2022-06-08", "last_sale": "2023-12-12"}}, {"type": "Feature", "geometry": {"type": "Point", "coordinates": [2.87633, 48.901275]}, "properties": {"id_parcelle": "77382000AK1588", "address": "59 RUE DE MEAUX", "sales": 2, "median_price": 267150.0, "median_price_per_sqm": null, "median_rooms": null, "first_sale": "2022-01-14", "last_sale": "2022-04-28"}}, {"type": "Feature", "geometry": {"type": "Point", "coordinates": [2.876472, 48.901192]}, "properties": {"id_parcelle": "77382000AK1587", "address": "59 RUE DE MEAUX", "sales": 2, "median_price": 262500.0, "median_price_per_sqm": null, "median_rooms": null, "first_sale": "2022-01-14", "last_sale": "2022-04-22"}}, {"type": "Feature", "geometry": {"type": "Point", "coordinates": [2.876244, 48.9014]}, "properties": {"id_parcelle": "77382000AK1583", "address": "RUE DE MEAUX", "sales": 2, "median_price": 267500.0, "median_price_per_sqm": null, "median_rooms": null, "first_sale": "2022-01-14", "last_sale": "2022-05-13"}}, {"type": "Feature", "geometry": {"type": "Point", "coordinates": [2.862254, 48.900118]}, "properties": {"id_parcelle": "77382000AX0561", "address": "73 RUE RENE BENOIST", "sales": 2, "median_price": 279340.0, "median_price_per_sqm": 2539.4545454545455, "median_rooms": 2.5, "first_sale": "2024-02-09", "last_sale": "2024-02-09"}}, {"type": "Feature", "geometry": {"type": "Point", "coordinates": [2.861348, 48.897296]}, "properties": {"id_parcelle": "77382000AX0555", "address": "4 RUE DE MAREUIL", "sales": 2, "median_price": 400000.0, "median_price_per_sqm": 1980.1980198019803, "median_rooms": 8.0, "first_sale": "2021-03-18", "last_sale": "2021-03-18"}}, {"type": "Feature", "geometry": {"type": "Point", "coordinates": [2.864498, 48.900172]}, "properties": {"id_parcelle": "77382000AX0246", "address": "VOISINS SUD EST", "sales": 2, "median_price": 148000.0, "median_price_per_sqm": null, "median_rooms": null, "first_sale": "2021-04-22", "last_sale": "2025-07-08"}}, {"type": "Feature", "geometry": {"type": "Point", "coordinates": [2.864389, 48.900522]}, "properties": {"id_parcelle": "77382000AX0247", "address": "45 RUE RENE BENOIST", "sales": 2, "median_price": 148000.0, "median_price_per_sqm": 4774.193548387097, "median_rooms": 2.0, "first_sale": "2021-04-22", "last_sale": "2025-07-08"}}, {"type": "Feature", "geometry": {"type": "Point", "coordinates": [2.86614, 48.901394]}, "properties": {"id_parcelle": "77382000AX0178", "address": "19 RUE DE BUTEL", "sales": 2, "median_price": 230000.0, "median_price_per_sqm": 1811.023622047244, "median_rooms": 2.0, "first_sale": "2025-09-26", "last_sale": "2025-09-26"}}, {"type": "Feature", "geometry": {"type": "Point", "coordinates": [2.859362, 48.897061]}, "properties": {"id_parcelle": "77382000AW0596", "address": "RUE DE HUIRY", "sales": 2, "median_price": 262500.0, "median_price_per_sqm": null, "median_rooms": null, "first_sale": "2022-11-07", "last_sale": "2023-11-09"}}, {"type": "Feature", "geometry": {"type": "Point", "coordinates": [2.858777, 48.897125]}, "properties": {"id_parcelle": "77382000AW0592", "address": "20 RUE DE HUIRY", "sales": 2, "median_price": 390000.0, "median_price_per_sqm": 3421.0526315789475, "median_rooms": 7.0, "first_sale": "2021-07-05", "last_sale": "2021-07-05"}}, {"type": "Feature", "geometry": {"type": "Point", "coordinates": [2.857699, 48.900352]}, "properties": {"id_parcelle": "77382000AX0001", "address": "39 RUE PASTEUR", "sales": 2, "median_price": 257500.0, "median_price_per_sqm": 13492.739898989897, "median_rooms": 2.5, "first_sale": "2023-05-23", "last_sale": "2023-05-23"}}, {"type": "Feature", "geometry": {"type": "Point", "coordinates": [2.85355, 48.899855]}, "properties": {"id_parcelle": "77382000AW0586", "address": "37 RUE DE CONDE", "sales": 2, "median_price": 369000.0, "median_price_per_sqm": 3181.0344827586205, "median_rooms": 2.5, "first_sale": "2021-08-03", "last_sale": "2021-08-03"}}, {"type": "Feature", "geometry": {"type": "Point", "coordinates": [2.859377, 48.897112]}, "properties": {"id_parcelle": "77382000AW0601", "address": "RUE DE HUIRY", "sales": 2, "median_price": 262500.0, "median_price_per_sqm": null, "median_rooms": null, "first_sale": "2022-11-07", "last_sale": "2023-11-09"}}, {"type": "Feature", "geometry": {"type": "Point", "coordinates": [2.85403, 48.898475]}, "properties": {"id_parcelle": "77382000AW0509", "address": "63 RUE DE HUIRY", "sales": 2, "median_price": 302500.0, "median_price_per_sqm": 4087.837837837838, "median_rooms": 2.0, "first_sale": "2023-06-30", "last_sale": "2023-06-30"}}, {"type": "Feature", "geometry": {"type": "Point", "coordinates": [2.858521, 48.899241]}, "properties": {"id_parcelle": "77382000AW0517", "address": "32 SEN DES GROSEILLERS VERTS", "sales": 2, "median_price": 340150.0, "median_price_per_sqm": 2834.5833333333335, "median_rooms": 2.5, "first_sale": "2025-07-23", "last_sale": "2025-07-23"}}, {"type": "Feature", "geometry": {"type": "Point", "coordinates": [2.849859, 48.899557]}, "properties": {"id_parcelle": "77382000AW0548", "address": "65 RUE DE CONDE", "sales": 2, "median_price": 88000.0, "median_price_per_sqm": 1913.0434782608695, "median_rooms": 1.5, "first_sale": "2024-10-04", "last_sale": "2024-10-04"}}, {"type": "Feature", "geometry": {"type": "Point", "coordinates": [2.859083, 48.898548]}, "properties": {"id_parcelle": "77382000AW0522", "address": "25 RUE DE MAREUIL", "sales": 2, "median_price": 299000.0, "median_price_per_sqm": 2990.0, "median_rooms": 2.5, "first_sale": "2024-08-05", "last_sale": "2024-08-05"}}, {"type": "Feature", "geometry": {"type": "Point", "coordinates": [2.858832, 48.898423]}, "properties": {"id_parcelle": "77382000AW0570", "address": "2 AV DE LA DIMERESSE", "sales": 2, "median_price": 340000.0, "median_price_per_sqm": 3333.3333333333335, "median_rooms": 2.0, "first_sale": "2023-08-21", "last_sale": "2023-08-21"}}, {"type": "Feature", "geometry": {"type": "Point", "coordinates": [2.859846, 48.897052]}, "properties": {"id_parcelle": "77382000AW0580", "address": "10 RUE DE HUIRY", "sales": 2, "median_price": 390000.0, "median_price_per_sqm": 3482.1428571428573, "median_rooms": 4.0, "first_sale": "2021-05-10", "last_sale": "2021-05-10"}}, {"type": "Feature", "geometry": {"type": "Point", "coordinates": [2.848143, 48.898455]}, "properties": {"id_parcelle": "77382000AW0255", "address": "LES CAILLOUX", "sales": 2, "median_price": 2000.0, "median_price_per_sqm": null, "median_rooms": null, "first_sale": "2022-11-07", "last_sale": "2022-12-05"}}, {"type": "Feature", "geometry": {"type": "Point", "coordinates": [2.860218, 48.897635]}, "properties": {"id_parcelle": "77382000AW0335", "address": "11 RUE DE MAREUIL", "sales": 2, "median_price": 350000.0, "median_price_per_sqm": 3535.3535353535353, "median_rooms": 5.0, "first_sale": "2024-04-22", "last_sale": "2024-04-22"}}, {"type": "Feature", "geometry": {"type": "Point", "coordinates": [2.860243, 48.897086]}, "properties": {"id_parcelle": "77382000AW0339", "address": "6 RUE DE HUIRY", "sales": 2, "median_price": 450000.0, "median_price_per_sqm": 3260.8695652173915, "median_rooms": 5.0, "first_sale": "2024-10-30", "last_sale": "2024-10-30"}}, {"type": "Feature", "geometry": {"type": "Point", "coordinates": [2.860079, 48.8973]}, "properties": {"id_parcelle": "77382000AW0338", "address": "8 RUE DE HUIRY", "sales": 2, "median_price": 365000.0, "median_price_per_sqm": 3318.181818181818, "median_rooms": 5.0, "first_sale": "2023-08-04", "last_sale": "2023-08-04"}}, {"type": "Feature", "geometry": {"type": "Point", "coordinates": [2.855731, 48.897]}, "properties": {"id_parcelle": "77382000AW0424", "address": "3 PL ALEXANDRE DUMAS", "sales": 2, "median_price": 450000.0, "median_price_per_sqm": 3750.0, "median_rooms": 2.5, "first_sale": "2023-07-25", "last_sale": "2023-07-25"}}, {"type": "Feature", "geometry": {"type": "Point", "coordinates": [2.858655, 48.902466]}, "properties": {"id_parcelle": "77382000BD0279", "address": "24 SEN DES QUARTERONS", "sales": 2, "median_price": 400000.0, "median_price_per_sqm": 5882.35294117647, "median_rooms": 2.0, "first_sale": "2021-01-28", "last_sale": "2021-01-28"}}, {"type": "Feature", "geometry": {"type": "Point", "coordinates": [2.858888, 48.90217]}, "properties": {"id_parcelle": "77382000BD0280", "address": "9 RUE DE LA FONTAINE", "sales": 2, "median_price": 380000.0, "median_price_per_sqm": 2405.0632911392404, "median_rooms": 7.0, "first_sale": "2022-04-29", "last_sale": "2022-04-29"}}, {"type": "Feature", "geometry": {"type": "Point", "coordinates": [2.858389, 48.900641]}, "properties": {"id_parcelle": "77382000AX0663", "address": "31 RUE PASTEUR", "sales": 2, "median_price": 257925.0, "median_price_per_sqm": null, "median_rooms": null, "first_sale": "2021-04-15", "last_sale": "2025-09-26"}}, {"type": "Feature", "geometry": {"type": "Point", "coordinates": [2.861441, 48.898944]}, "properties": {"id_parcelle": "77382000AX0847", "address": "25 RUE VICTOR HUGO", "sales": 2, "median_price": 372500.0, "median_price_per_sqm": 2586.8055555555557, "median_rooms": 5.0, "first_sale": "2021-04-12", "last_sale": "2021-04-12"}}, {"type": "Feature", "geometry": {"type": "Point", "coordinates": [2.857208, 48.901075]}, "properties": {"id_parcelle": "77382000BD0182", "address": "4 RUE DU PAVE DE ROISES", "sales": 2, "median_price": 240000.0, "median_price_per_sqm": 3428.5714285714284, "median_rooms": 4.0, "first_sale": "2025-03-24", "last_sale": "2025-03-24"}}, {"type": "Feature", "geometry": {"type": "Point", "coordinates": [2.856859, 48.902618]}, "properties": {"id_parcelle": "77382000BD0210", "address": "15 SEN DES QUARTERONS", "sales": 2, "median_price": 534000.0, "median_price_per_sqm": 3583.8926174496646, "median_rooms": 5.0, "first_sale": "2025-02-20", "last_sale": "2025-02-20"}}, {"type": "Feature", "geometry": {"type": "Point", "coordinates": [2.850481, 48.906348]}, "properties": {"id_parcelle": "77382000BD0238", "address": "7 RUE DES GOUAIX", "sales": 2, "median_price": 294000.0, "median_price_per_sqm": 4741.935483870968, "median_rooms": 2.0, "first_sale": "2024-06-20", "last_sale": "2024-06-20"}}, {"type": "Feature", "geometry": {"type": "Point", "coordinates": [2.858123, 48.90084]}, "properties": {"id_parcelle": "77382000BD0271", "address": "34 RUE PASTEUR", "sales": 2, "median_price": 275000.0, "median_price_per_sqm": 3666.6666666666665, "median_rooms": 2.0, "first_sale": "2023-03-06", "last_sale": "2023-03-06"}}, {"type": "Feature", "geometry": {"type": "Point", "coordinates": [2.862593, 48.900588]}, "properties": {"id_parcelle": "77382000AX0708", "address": "66 RUE RENE BENOIST", "sales": 2, "median_price": 223525.0, "median_price_per_sqm": 2794.0625, "median_rooms": 4.0, "first_sale": "2022-02-25", "last_sale": "2025-10-06"}}, {"type": "Feature", "geometry": {"type": "Point", "coordinates": [2.861946, 48.900696]}, "properties": {"id_parcelle": "77382000AX0834", "address": "72 RUE RENE BENOIST", "sales": 2, "median_price": 55000.0, "median_price_per_sqm": 1309.5238095238096, "median_rooms": 1.0, "first_sale": "2022-08-29", "last_sale": "2022-08-29"}}, {"type": "Feature", "geometry": {"type": "Point", "coordinates": [2.86301, 48.900281]}, "properties": {"id_parcelle": "77382000AX0588", "address": "61 RUE RENE BENOIST", "sales": 2, "median_price": 210000.0, "median_price_per_sqm": null, "median_rooms": 0.0, "first_sale": "2023-12-22", "last_sale": "2023-12-22"}}, {"type": "Feature", "geometry": {"type": "Point", "coordinates": [2.866617, 48.90193]}, "properties": {"id_parcelle": "77382000YB0397", "address": "BUTEL", "sales": 2, "median_price": 317500.0, "median_price_per_sqm": null, "median_rooms": null, "first_sale": "2023-06-21", "last_sale": "2024-08-27"}}, {"type": "Feature", "geometry": {"type": "Point", "coordinates": [2.859788, 48.90157]}, "properties": {"id_parcelle": "77382000YB0322", "address": "RUE PASTEUR", "sales": 2, "median_price": 167500.0, "median_price_per_sqm": null, "median_rooms": null, "first_sale": "2021-03-30", "last_sale": "2025-02-27"}}, {"type": "Feature", "geometry": {"type": "Point", "coordinates": [2.870032, 48.900141]}, "properties": {"id_parcelle": "77382000YB0264", "address": "11 RUE GEORGES BRASSENS", "sales": 2, "median_price": 307500.0, "median_price_per_sqm": 3170.103092783505, "median_rooms": 6.0, "first_sale": "2021-03-16", "last_sale": "2025-11-28"}}, {"type": "Feature", "geometry": {"type": "Point", "coordinates": [2.867699, 48.901927]}, "properties": {"id_parcelle": "77382000YB0145", "address": "3 RUE DE BUTEL PROLONGEE", "sales": 2, "median_price": 160000.0, "median_price_per_sqm": 1290.3225806451612, "median_rooms": 2.0, "first_sale": "2025-09-17", "last_sale": "2025-09-17"}}, {"type": "Feature", "geometry": {"type": "Point", "coordinates": [2.866626, 48.902001]}, "properties": {"id_parcelle": "77382000YB0138", "address": "BUTEL", "sales": 2, "median_price": 317500.0, "median_price_per_sqm": null, "median_rooms": null, "first_sale": "2023-06-21", "last_sale": "2024-08-27"}}, {"type": "Feature", "geometry": {"type": "Point", "coordinates": [2.866679, 48.902002]}, "properties": {"id_parcelle": "77382000YB0139", "address": "BUTEL", "sales": 2, "median_price": 317500.0, "median_price_per_sqm": null, "median_rooms": null, "first_sale": "2023-06-21", "last_sale": "2024-08-27"}}, {"type": "Feature", "geometry": {"type": "Point", "coordinates": [2.851713, 48.901062]}, "properties": {"id_parcelle": "77382000BE0589", "address": "17 RUE DE JONCHEROY", "sales": 2, "median_price": 300000.0, "median_price_per_sqm": 2097.902097902098, "median_rooms": 6.0, "first_sale": "2021-08-17", "last_sale": "2021-08-17"}}, {"type": "Feature", "geometry": {"type": "Point", "coordinates": [2.859797, 48.901413]}, "properties": {"id_parcelle": "77382000YB0024", "address": "20 RUE PASTEUR", "sales": 2, "median_price": 167500.0, "median_price_per_sqm": 3350.0, "median_rooms": 2.0, "first_sale": "2021-03-30", "last_sale": "2025-02-27"}}, {"type": "Feature", "geometry": {"type": "Point", "coordinates": [2.850783, 48.902044]}, "properties": {"id_parcelle": "77382000BE0381", "address": "LES CLAIRES FONTAINES", "sales": 2, "median_price": 12500.0, "median_price_per_sqm": null, "median_rooms": null, "first_sale": "2023-03-14", "last_sale": "2023-03-14"}}, {"type": "Feature", "geometry": {"type": "Point", "coordinates": [2.854744, 48.902742]}, "properties": {"id_parcelle": "77382000BE0434", "address": "LES AULNOIS", "sales": 2, "median_price": 460300.0, "median_price_per_sqm": null, "median_rooms": null, "first_sale": "2023-05-25", "last_sale": "2023-05-25"}}, {"type": "Feature", "geometry": {"type": "Point", "coordinates": [2.854811, 48.900561]}, "properties": {"id_parcelle": "77382000BE0506", "address": "2 RLE DES CHATS", "sales": 2, "median_price": 460245.0, "median_price_per_sqm": 3152.3630136986303, "median_rooms": 5.0, "first_sale": "2024-12-19", "last_sale": "2024-12-19"}}, {"type": "Feature", "geometry": {"type": "Point", "coordinates": [2.854252, 48.901397]}, "properties": {"id_parcelle": "77382000BE0457", "address": "13 RLE DES CHATS", "sales": 2, "median_price": 373000.0, "median_price_per_sqm": 3243.478260869565, "median_rooms": 4.0, "first_sale": "2023-08-22", "last_sale": "2023-08-22"}}, {"type": "Feature", "geometry": {"type": "Point", "coordinates": [2.859178, 48.901219]}, "properties": {"id_parcelle": "77382000BD0300", "address": "26 RUE PASTEUR", "sales": 2, "median_price": 305000.0, "median_price_per_sqm": 3465.909090909091, "median_rooms": 2.0, "first_sale": "2025-12-19", "last_sale": "2025-12-19"}}, {"type": "Feature", "geometry": {"type": "Point", "coordinates": [2.857513, 48.902232]}, "properties": {"id_parcelle": "77382000BD0275", "address": "16 SEN DES QUARTERONS", "sales": 2, "median_price": 376753.22, "median_price_per_sqm": 3657.7982524271843, "median_rooms": 5.0, "first_sale": "2023-06-29", "last_sale": "2023-06-29"}}, {"type": "Feature", "geometry": {"type": "Point", "coordinates": [2.880018, 48.907381]}, "properties": {"id_parcelle": "77382000YD0010", "address": "253 AV FOCH", "sales": 2, "median_price": 150000.0, "median_price_per_sqm": null, "median_rooms": null, "first_sale": "2022-01-20", "last_sale": "2024-07-22"}}, {"type": "Feature", "geometry": {"type": "Point", "coordinates": [2.866596, 48.902762]}, "properties": {"id_parcelle": "77382000YB0410", "address": "18 RUE DE BUTEL", "sales": 2, "median_price": 440000.0, "median_price_per_sqm": null, "median_rooms": null, "first_sale": "2024-08-27", "last_sale": "2024-08-27"}}, {"type": "Feature", "geometry": {"type": "Point", "coordinates": [2.88436, 48.901277]}, "properties": {"id_parcelle": "77382000YI0006", "address": "LES BASSES", "sales": 2, "median_price": 104951.0, "median_price_per_sqm": null, "median_rooms": null, "first_sale": "2022-01-12", "last_sale": "2022-01-12"}}, {"type": "Feature", "geometry": {"type": "Point", "coordinates": [2.881323, 48.902792]}, "properties": {"id_parcelle": "77382000YH0091", "address": "11 RUE DE CRECY", "sales": 2, "median_price": 296000.0, "median_price_per_sqm": 3609.756097560976, "median_rooms": 5.0, "first_sale": "2024-07-22", "last_sale": "2024-07-22"}}, {"type": "Feature", "geometry": {"type": "Point", "coordinates": [2.880353, 48.903975]}, "properties": {"id_parcelle": "77382000YH0100", "address": "230 AV FOCH", "sales": 2, "median_price": 420808.0, "median_price_per_sqm": 4836.873563218391, "median_rooms": 5.0, "first_sale": "2023-02-28", "last_sale": "2023-02-28"}}, {"type": "Feature", "geometry": {"type": "Point", "coordinates": [2.881539, 48.902962]}, "properties": {"id_parcelle": "77382000YH0137", "address": "6 CHE DE L ORME AUX LOUPS", "sales": 2, "median_price": 440000.0, "median_price_per_sqm": 3333.3333333333335, "median_rooms": 6.0, "first_sale": "2024-07-30", "last_sale": "2024-07-30"}}, {"type": "Feature", "geometry": {"type": "Point", "coordinates": [2.86665, 48.90183]}, "properties": {"id_parcelle": "77382000YB0399", "address": "BUTEL", "sales": 2, "median_price": 317500.0, "median_price_per_sqm": null, "median_rooms": null, "first_sale": "2023-06-21", "last_sale": "2024-08-27"}}, {"type": "Feature", "geometry": {"type": "Point", "coordinates": [2.874402, 48.901801]}, "properties": {"id_parcelle": "77382000YC0087", "address": "59 RUE COLETTE", "sales": 2, "median_price": 340000.0, "median_price_per_sqm": 2931.0344827586205, "median_rooms": 2.5, "first_sale": "2021-10-29", "last_sale": "2021-10-29"}}, {"type": "Feature", "geometry": {"type": "Point", "coordinates": [2.87538, 48.90226]}, "properties": {"id_parcelle": "77382000YC0124", "address": "195 AV FOCH", "sales": 2, "median_price": 320000.0, "median_price_per_sqm": null, "median_rooms": null, "first_sale": "2022-03-21", "last_sale": "2022-03-21"}}, {"type": "Feature", "geometry": {"type": "Point", "coordinates": [2.897673, 48.896919]}, "properties": {"id_parcelle": "77382000YL0075", "address": "20 RUE DE SEGY", "sales": 2, "median_price": 330000.0, "median_price_per_sqm": 2640.0, "median_rooms": 5.0, "first_sale": "2025-06-16", "last_sale": "2025-06-16"}}, {"type": "Feature", "geometry": {"type": "Point", "coordinates": [2.891521, 48.896035]}, "properties": {"id_parcelle": "77382000YN0026", "address": "LE PRE GIBERT", "sales": 2, "median_price": 104951.0, "median_price_per_sqm": null, "median_rooms": null, "first_sale": "2022-01-12", "last_sale": "2022-01-12"}}, {"type": "Feature", "geometry": {"type": "Point", "coordinates": [2.882252, 48.887037]}, "properties": {"id_parcelle": "77382000YO0025", "address": "115 RUE DE MOULIGNON", "sales": 2, "median_price": 337200.0, "median_price_per_sqm": 3587.2340425531916, "median_rooms": 4.0, "first_sale": "2022-12-21", "last_sale": "2022-12-21"}}, {"type": "Feature", "geometry": {"type": "Point", "coordinates": [2.897198, 48.895675]}, "properties": {"id_parcelle": "77382000YL0100", "address": "34 RUE DE SEGY", "sales": 2, "median_price": 195000.0, "median_price_per_sqm": 1444.4444444444443, "median_rooms": 4.0, "first_sale": "2022-01-21", "last_sale": "2022-01-21"}}, {"type": "Feature", "geometry": {"type": "Point", "coordinates": [2.902716, 48.892578]}, "properties": {"id_parcelle": "77382000YM0010", "address": "LES TERRES BLANCHES", "sales": 2, "median_price": 10650.9, "median_price_per_sqm": null, "median_rooms": null, "first_sale": "2022-06-17", "last_sale": "2022-06-17"}}, {"type": "Feature", "geometry": {"type": "Point", "coordinates": [2.880732, 48.888166]}, "properties": {"id_parcelle": "77382000YP0086", "address": "102 RUE DE MOULIGNON", "sales": 2, "median_price": 361600.0, "median_price_per_sqm": 2698.507462686567, "median_rooms": 5.0, "first_sale": "2023-06-15", "last_sale": "2023-06-15"}}, {"type": "Feature", "geometry": {"type": "Point", "coordinates": [2.877139, 48.894613]}, "properties": {"id_parcelle": "77382000YR0141", "address": "28 RUE DE MOULIGNON", "sales": 2, "median_price": 310000.0, "median_price_per_sqm": 2767.8571428571427, "median_rooms": 4.0, "first_sale": "2023-02-23", "last_sale": "2023-02-23"}}, {"type": "Feature", "geometry": {"type": "Point", "coordinates": [2.878645, 48.894063]}, "properties": {"id_parcelle": "77382000YR0150", "address": "39 RUE DE MOULIGNON", "sales": 2, "median_price": 306200.0, "median_price_per_sqm": 2268.1481481481483, "median_rooms": 6.0, "first_sale": "2022-09-16", "last_sale": "2022-09-16"}}, {"type": "Feature", "geometry": {"type": "Point", "coordinates": [2.86417, 48.895163]}, "properties": {"id_parcelle": "77382000YT0060", "address": "LA BERTHE", "sales": 2, "median_price": 7355.84, "median_price_per_sqm": null, "median_rooms": null, "first_sale": "2022-10-05", "last_sale": "2022-11-28"}}]}