{"type": "FeatureCollection", "features": [{"type": "Feature", "geometry": {"type": "Polygon", "coordinates": [[[2.627089, 49.012073], [2.626582, 49.01166], [2.62559, 49.010714], [2.625468, 49.010532], [2.625339, 49.010256], [2.625028, 49.009747], [2.624627, 49.008974], [2.624383, 49.008409], [2.624286, 49.008122], [2.624232, 49.007611], [2.624217, 49.006996], [2.623868, 49.006909], [2.621875, 49.006375], [2.620489, 49.005994], [2.620121, 49.006587], [2.619686, 49.007051], [2.618158, 49.008645], [2.617863, 49.008965], [2.617547, 49.008814], [2.616298, 49.008251], [2.615778, 49.008725], [2.615613, 49.008805], [2.61548, 49.008738], [2.614465, 49.008303], [2.613413, 49.008039], [2.613318, 49.00815], [2.610821, 49.007661], [2.610957, 49.007198], [2.611038, 49.007017], [2.611301, 49.006717], [2.6085, 49.007315], [2.607766, 49.006742], [2.606634, 49.006967], [2.604161, 49.007105], [2.602708, 49.007189], [2.601948, 49.006484], [2.600948, 49.006269], [2.59707, 49.005423], [2.596919, 49.005656], [2.596431, 49.005397], [2.59592, 49.005186], [2.594529, 49.004762], [2.593952, 49.004613], [2.593576, 49.004432], [2.591904, 49.004131], [2.592396, 49.002728], [2.591054, 49.002535], [2.589267, 49.002176], [2.58852, 49.003089], [2.588121, 49.002928], [2.584255, 49.002201], [2.580198, 49.001374], [2.580516, 49.000924], [2.578021, 49.000471], [2.577014, 49.000381], [2.575961, 49.000279], [2.571517, 48.999872], [2.571393, 49.000761], [2.573488, 49.001014], [2.573107, 49.001642], [2.572574, 49.002496], [2.57129, 49.004239], [2.569068, 49.003766], [2.568837, 49.004819], [2.570652, 49.00509], [2.570068, 49.005887], [2.566977, 49.005576], [2.56695, 49.005745], [2.564702, 49.00563], [2.564642, 49.006168], [2.564495, 49.007316], [2.566632, 49.00743], [2.56675, 49.006964], [2.569101, 49.007186], [2.570726, 49.007712], [2.569524, 49.008761], [2.570594, 49.00906], [2.570272, 49.009258], [2.569137, 49.011283], [2.565889, 49.011024], [2.565584, 49.012332], [2.566758, 49.012623], [2.571413, 49.013814], [2.573101, 49.014381], [2.574103, 49.014709], [2.573704, 49.01551], [2.573432, 49.015452], [2.572966, 49.016461], [2.573497, 49.016564], [2.573033, 49.017895], [2.573842, 49.017968], [2.573662, 49.018478], [2.576356, 49.018677], [2.575565, 49.02109], [2.575454, 49.021447], [2.57729, 49.021365], [2.577248, 49.022773], [2.581123, 49.02249], [2.581091, 49.023037], [2.581876, 49.02315], [2.582734, 49.024908], [2.583099, 49.025487], [2.583731, 49.02646], [2.58392, 49.026637], [2.585275, 49.026289], [2.585593, 49.026168], [2.585836, 49.026401], [2.586862, 49.027516], [2.587463, 49.028234], [2.588425, 49.029417], [2.588472, 49.029454], [2.589294, 49.028995], [2.589914, 49.029603], [2.591486, 49.030154], [2.591565, 49.030037], [2.592176, 49.030252], [2.594966, 49.031259], [2.595171, 49.032391], [2.595388, 49.032394], [2.595174, 49.033023], [2.596009, 49.033981], [2.596639, 49.033953], [2.599386, 49.033843], [2.599445, 49.033984], [2.600611, 49.033928], [2.600806, 49.034349], [2.601229, 49.035166], [2.601284, 49.035151], [2.601969, 49.034608], [2.603421, 49.033475], [2.604104, 49.03314], [2.604529, 49.033358], [2.606341, 49.032817], [2.606742, 49.033221], [2.607459, 49.032945], [2.607733, 49.033208], [2.610139, 49.032213], [2.61017, 49.032193], [2.610795, 49.031378], [2.610375, 49.031294], [2.611011, 49.030724], [2.610724, 49.030505], [2.6138, 49.028572], [2.613473, 49.027255], [2.612845, 49.025022], [2.613452, 49.024806], [2.612761, 49.024321], [2.613341, 49.023884], [2.614195, 49.02338], [2.614845, 49.023553], [2.615774, 49.022854], [2.616269, 49.022492], [2.616612, 49.022682], [2.61723, 49.022979], [2.617744, 49.022542], [2.616818, 49.022092], [2.617605, 49.021379], [2.618782, 49.020301], [2.619394, 49.020604], [2.620909, 49.019098], [2.620434, 49.01892], [2.621452, 49.017894], [2.622242, 49.016905], [2.621611, 49.016742], [2.622487, 49.015575], [2.624351, 49.01628], [2.624539, 49.01601], [2.627608, 49.016526], [2.628009, 49.015339], [2.630212, 49.015794], [2.630027, 49.015393], [2.629778, 49.01492], [2.629408, 49.014545], [2.628707, 49.013899], [2.628434, 49.013601], [2.627781, 49.012668], [2.627516, 49.012399], [2.627089, 49.012073]]]}, "properties": {"code_iris": "772910000", "nom_iris": "Le Mesnil-Amelot (commune entière)", "type_iris": "Z", "lat": 49.0175, "lng": 2.5974, "dvf_sales_total": 398, "dvf_sales_appt": 0, "dvf_sales_maison": 0, "dvf_median_price": 3500000.0, "dvf_median_ppsqm": 78451.546875, "dvf_by_year": "[{\"year\": 2021, \"sales\": 21, \"median_price\": 281006.6}, {\"year\": 2022, \"sales\": 65, \"median_price\": 325000.0}, {\"year\": 2023, \"sales\": 64, \"median_price\": 221558.35}, {\"year\": 2024, \"sales\": 36, \"median_price\": 145000.0}, {\"year\": 2025, \"sales\": 212, \"median_price\": 5020899.0}]", "population": 992, "n_log": null, "n_rp": null, "pct_proprio": null, "pct_hlm": null, "pct_appart": null, "pct_cadres": null, "pct_bac5p": null, "pct_etrangers": null, "pct_0_14": null, "pct_65p": null, "bpe_total": null, "bpe_commerces": null, "bpe_enseignement": null, "bpe_sante": null, "dpe": null, "attractivity_score": null, "rank_attractivity_score": null, "rank_total_attractivity_score": 1, "commune_avg": null, "is_stub": true}}]}