{"type": "FeatureCollection", "features": [{"type": "Feature", "geometry": {"type": "Point", "coordinates": [2.936311, 48.676813]}, "properties": {"year": 2021, "valeur_fonciere": 223160.0, "type_local": "Maison", "surface_reelle_bati": 68.0, "nombre_pieces_principales": 3.0, "adresse_nom_voie": "LA RUE AUX ANES", "price_per_sqm": 3281.764705882353, "date_iso": "2021-01-22", "parcelle": "77031000AB0035", "addr_num": "2"}}, {"type": "Feature", "geometry": {"type": "Point", "coordinates": [2.927543, 48.683334]}, "properties": {"year": 2021, "valeur_fonciere": 545000.0, "type_local": "Maison", "surface_reelle_bati": 170.0, "nombre_pieces_principales": 3.0, "adresse_nom_voie": "LE CHEM DE QUETOTRAIN", "price_per_sqm": 3205.8823529411766, "date_iso": "2021-03-03", "parcelle": "77031000ZL0066", "addr_num": "3"}}, {"type": "Feature", "geometry": {"type": "Point", "coordinates": [2.927543, 48.683334]}, "properties": {"year": 2021, "valeur_fonciere": 545000.0, "type_local": "Maison", "surface_reelle_bati": 170.0, "nombre_pieces_principales": 3.0, "adresse_nom_voie": "LE CHEM DE QUETOTRAIN", "price_per_sqm": 3205.8823529411766, "date_iso": "2021-03-03", "parcelle": "77031000ZL0066", "addr_num": "3"}}, {"type": "Feature", "geometry": {"type": "Point", "coordinates": [2.924112, 48.683766]}, "properties": {"year": 2021, "valeur_fonciere": 95000.0, "type_local": null, "surface_reelle_bati": null, "nombre_pieces_principales": null, "adresse_nom_voie": "RUE MARYSE BASTIE", "price_per_sqm": null, "date_iso": "2021-02-24", "parcelle": "77031000AC0200", "addr_num": "6"}}, {"type": "Feature", "geometry": {"type": "Point", "coordinates": [2.923593, 48.656887]}, "properties": {"year": 2021, "valeur_fonciere": 550000.0, "type_local": null, "surface_reelle_bati": null, "nombre_pieces_principales": null, "adresse_nom_voie": "RUE PRINCIPALE A POMPIERRE", "price_per_sqm": null, "date_iso": "2021-03-26", "parcelle": "77031000AD0052", "addr_num": "2"}}, {"type": "Feature", "geometry": {"type": "Point", "coordinates": [2.92247, 48.656849]}, "properties": {"year": 2021, "valeur_fonciere": 550000.0, "type_local": null, "surface_reelle_bati": null, "nombre_pieces_principales": null, "adresse_nom_voie": "RUE PRINCIPALE A POMPIERRE", "price_per_sqm": null, "date_iso": "2021-03-26", "parcelle": "77031000AD0053", "addr_num": "2"}}, {"type": "Feature", "geometry": {"type": "Point", "coordinates": [2.922198, 48.656894]}, "properties": {"year": 2021, "valeur_fonciere": 550000.0, "type_local": "Maison", "surface_reelle_bati": 156.0, "nombre_pieces_principales": 5.0, "adresse_nom_voie": "POMPIERRE", "price_per_sqm": 3525.641025641026, "date_iso": "2021-03-26", "parcelle": "77031000AD0054", "addr_num": "2"}}, {"type": "Feature", "geometry": {"type": "Point", "coordinates": [2.922198, 48.656894]}, "properties": {"year": 2021, "valeur_fonciere": 550000.0, "type_local": "Maison", "surface_reelle_bati": 156.0, "nombre_pieces_principales": 5.0, "adresse_nom_voie": "POMPIERRE", "price_per_sqm": 3525.641025641026, "date_iso": "2021-03-26", "parcelle": "77031000AD0054", "addr_num": "2"}}, {"type": "Feature", "geometry": {"type": "Point", "coordinates": [2.922043, 48.656589]}, "properties": {"year": 2021, "valeur_fonciere": 550000.0, "type_local": null, "surface_reelle_bati": null, "nombre_pieces_principales": null, "adresse_nom_voie": "RUE PRINCIPALE A POMPIERRE", "price_per_sqm": null, "date_iso": "2021-03-26", "parcelle": "77031000AD0055", "addr_num": "2"}}, {"type": "Feature", "geometry": {"type": "Point", "coordinates": [2.922674, 48.656319]}, "properties": {"year": 2021, "valeur_fonciere": 550000.0, "type_local": null, "surface_reelle_bati": null, "nombre_pieces_principales": null, "adresse_nom_voie": "RUE PRINCIPALE A POMPIERRE", "price_per_sqm": null, "date_iso": "2021-03-26", "parcelle": "77031000AD0056", "addr_num": "2"}}, {"type": "Feature", "geometry": {"type": "Point", "coordinates": [2.921891, 48.656193]}, "properties": {"year": 2021, "valeur_fonciere": 550000.0, "type_local": null, "surface_reelle_bati": null, "nombre_pieces_principales": null, "adresse_nom_voie": "RUE PRINCIPALE A POMPIERRE", "price_per_sqm": null, "date_iso": "2021-03-26", "parcelle": "77031000AD0057", "addr_num": "2"}}, {"type": "Feature", "geometry": {"type": "Point", "coordinates": [2.923804, 48.65657]}, "properties": {"year": 2021, "valeur_fonciere": 550000.0, "type_local": null, "surface_reelle_bati": null, "nombre_pieces_principales": null, "adresse_nom_voie": "LES PRES PHILIPPOTS", "price_per_sqm": null, "date_iso": "2021-03-26", "parcelle": "77031000WB0053", "addr_num": ""}}, {"type": "Feature", "geometry": {"type": "Point", "coordinates": [2.922283, 48.655926]}, "properties": {"year": 2021, "valeur_fonciere": 550000.0, "type_local": null, "surface_reelle_bati": null, "nombre_pieces_principales": null, "adresse_nom_voie": "LES PRES PHILIPPOTS", "price_per_sqm": null, "date_iso": "2021-03-26", "parcelle": "77031000WB0054", "addr_num": ""}}, {"type": "Feature", "geometry": {"type": "Point", "coordinates": [2.950043, 48.683172]}, "properties": {"year": 2021, "valeur_fonciere": 248000.0, "type_local": null, "surface_reelle_bati": null, "nombre_pieces_principales": null, "adresse_nom_voie": "VILLENEVOTTE", "price_per_sqm": null, "date_iso": "2021-04-01", "parcelle": "770310000A0385", "addr_num": "9"}}, {"type": "Feature", "geometry": {"type": "Point", "coordinates": [2.950106, 48.683291]}, "properties": {"year": 2021, "valeur_fonciere": 248000.0, "type_local": "Maison", "surface_reelle_bati": 110.0, "nombre_pieces_principales": 6.0, "adresse_nom_voie": "VILLENEVOTTE", "price_per_sqm": 2254.5454545454545, "date_iso": "2021-04-01", "parcelle": "770310000A0386", "addr_num": "3"}}, {"type": "Feature", "geometry": {"type": "Point", "coordinates": [2.950106, 48.683291]}, "properties": {"year": 2021, "valeur_fonciere": 248000.0, "type_local": "Maison", "surface_reelle_bati": 110.0, "nombre_pieces_principales": 6.0, "adresse_nom_voie": "VILLENEVOTTE", "price_per_sqm": 2254.5454545454545, "date_iso": "2021-04-01", "parcelle": "770310000A0386", "addr_num": "3"}}, {"type": "Feature", "geometry": {"type": "Point", "coordinates": [2.94154, 48.671884]}, "properties": {"year": 2021, "valeur_fonciere": 126000.0, "type_local": null, "surface_reelle_bati": null, "nombre_pieces_principales": null, "adresse_nom_voie": "CHE DIT DE DERRIERE", "price_per_sqm": null, "date_iso": "2021-04-26", "parcelle": "77031000ZB0088", "addr_num": "5"}}, {"type": "Feature", "geometry": {"type": "Point", "coordinates": [2.925308, 48.6846]}, "properties": {"year": 2021, "valeur_fonciere": 322000.0, "type_local": "Dépendance", "surface_reelle_bati": null, "nombre_pieces_principales": 0.0, "adresse_nom_voie": "RTE DE ROZAY", "price_per_sqm": null, "date_iso": "2021-05-05", "parcelle": "77031000AC0028", "addr_num": "5"}}, {"type": "Feature", "geometry": {"type": "Point", "coordinates": [2.925308, 48.6846]}, "properties": {"year": 2021, "valeur_fonciere": 322000.0, "type_local": "Dépendance", "surface_reelle_bati": null, "nombre_pieces_principales": 0.0, "adresse_nom_voie": "RTE DE ROZAY", "price_per_sqm": null, "date_iso": "2021-05-05", "parcelle": "77031000AC0028", "addr_num": "5"}}, {"type": "Feature", "geometry": {"type": "Point", "coordinates": [2.925308, 48.6846]}, "properties": {"year": 2021, "valeur_fonciere": 322000.0, "type_local": "Maison", "surface_reelle_bati": 110.0, "nombre_pieces_principales": 5.0, "adresse_nom_voie": "RTE DE ROZAY", "price_per_sqm": 2927.2727272727275, "date_iso": "2021-05-05", "parcelle": "77031000AC0028", "addr_num": "5"}}, {"type": "Feature", "geometry": {"type": "Point", "coordinates": [2.938244, 48.676247]}, "properties": {"year": 2021, "valeur_fonciere": 220000.0, "type_local": "Maison", "surface_reelle_bati": 107.0, "nombre_pieces_principales": 4.0, "adresse_nom_voie": "AV DU GEN LECLERC", "price_per_sqm": 2056.07476635514, "date_iso": "2021-05-31", "parcelle": "77031000AB0094", "addr_num": "9"}}, {"type": "Feature", "geometry": {"type": "Point", "coordinates": [2.924771, 48.685869]}, "properties": {"year": 2021, "valeur_fonciere": 37000.0, "type_local": null, "surface_reelle_bati": null, "nombre_pieces_principales": null, "adresse_nom_voie": "RUE DE LA GARE", "price_per_sqm": null, "date_iso": "2021-06-08", "parcelle": "77031000AC0011", "addr_num": ""}}, {"type": "Feature", "geometry": {"type": "Point", "coordinates": [2.917339, 48.677802]}, "properties": {"year": 2021, "valeur_fonciere": 10000.0, "type_local": null, "surface_reelle_bati": null, "nombre_pieces_principales": null, "adresse_nom_voie": "LA PTE FORTELLE", "price_per_sqm": null, "date_iso": "2021-06-04", "parcelle": "770310000B0378", "addr_num": ""}}, {"type": "Feature", "geometry": {"type": "Point", "coordinates": [2.941569, 48.671695]}, "properties": {"year": 2021, "valeur_fonciere": 133000.0, "type_local": null, "surface_reelle_bati": null, "nombre_pieces_principales": null, "adresse_nom_voie": "CHE DIT DE DERRIERE", "price_per_sqm": null, "date_iso": "2021-06-28", "parcelle": "77031000ZB0089", "addr_num": "7"}}, {"type": "Feature", "geometry": {"type": "Point", "coordinates": [2.921647, 48.657951]}, "properties": {"year": 2021, "valeur_fonciere": 190000.0, "type_local": null, "surface_reelle_bati": null, "nombre_pieces_principales": null, "adresse_nom_voie": "RUE PRINCIPALE A POMPIERRE", "price_per_sqm": null, "date_iso": "2021-07-08", "parcelle": "77031000AD0032", "addr_num": "5"}}, {"type": "Feature", "geometry": {"type": "Point", "coordinates": [2.921785, 48.657826]}, "properties": {"year": 2021, "valeur_fonciere": 190000.0, "type_local": "Maison", "surface_reelle_bati": 139.0, "nombre_pieces_principales": 4.0, "adresse_nom_voie": "RUE PRINCIPALE A POMPIERRE", "price_per_sqm": 1366.9064748201438, "date_iso": "2021-07-08", "parcelle": "77031000AD0035", "addr_num": "5"}}, {"type": "Feature", "geometry": {"type": "Point", "coordinates": [2.921698, 48.657777]}, "properties": {"year": 2021, "valeur_fonciere": 190000.0, "type_local": null, "surface_reelle_bati": null, "nombre_pieces_principales": null, "adresse_nom_voie": "RUE PRINCIPALE A POMPIERRE", "price_per_sqm": null, "date_iso": "2021-07-08", "parcelle": "77031000AD0036", "addr_num": "3"}}, {"type": "Feature", "geometry": {"type": "Point", "coordinates": [2.923038, 48.68503]}, "properties": {"year": 2021, "valeur_fonciere": 229500.0, "type_local": "Dépendance", "surface_reelle_bati": null, "nombre_pieces_principales": 0.0, "adresse_nom_voie": "RUE ROBERT GOUBY", "price_per_sqm": null, "date_iso": "2021-07-12", "parcelle": "77031000AC0099", "addr_num": "25"}}, {"type": "Feature", "geometry": {"type": "Point", "coordinates": [2.923038, 48.68503]}, "properties": {"year": 2021, "valeur_fonciere": 229500.0, "type_local": "Maison", "surface_reelle_bati": 100.0, "nombre_pieces_principales": 4.0, "adresse_nom_voie": "RUE ROBERT GOUBY", "price_per_sqm": 2295.0, "date_iso": "2021-07-12", "parcelle": "77031000AC0099", "addr_num": "25"}}, {"type": "Feature", "geometry": {"type": "Point", "coordinates": [2.926327, 48.68414]}, "properties": {"year": 2021, "valeur_fonciere": 109000.0, "type_local": null, "surface_reelle_bati": null, "nombre_pieces_principales": null, "adresse_nom_voie": "RTE DE ROZAY", "price_per_sqm": null, "date_iso": "2021-07-28", "parcelle": "77031000AC0196", "addr_num": "11"}}, {"type": "Feature", "geometry": {"type": "Point", "coordinates": [2.906173, 48.692654]}, "properties": {"year": 2021, "valeur_fonciere": 1800000.0, "type_local": null, "surface_reelle_bati": null, "nombre_pieces_principales": null, "adresse_nom_voie": "LE BOIS DE VILBERT", "price_per_sqm": null, "date_iso": "2021-06-29", "parcelle": "770310000E0106", "addr_num": ""}}, {"type": "Feature", "geometry": {"type": "Point", "coordinates": [2.906173, 48.692654]}, "properties": {"year": 2021, "valeur_fonciere": 1800000.0, "type_local": null, "surface_reelle_bati": null, "nombre_pieces_principales": null, "adresse_nom_voie": "LE BOIS DE VILBERT", "price_per_sqm": null, "date_iso": "2021-06-29", "parcelle": "770310000E0106", "addr_num": ""}}, {"type": "Feature", "geometry": {"type": "Point", "coordinates": [2.925535, 48.684695]}, "properties": {"year": 2021, "valeur_fonciere": 382000.0, "type_local": "Maison", "surface_reelle_bati": 101.0, "nombre_pieces_principales": 5.0, "adresse_nom_voie": "RTE DE ROZAY", "price_per_sqm": 3782.1782178217823, "date_iso": "2021-08-02", "parcelle": "77031000AC0029", "addr_num": "7"}}, {"type": "Feature", "geometry": {"type": "Point", "coordinates": [2.925535, 48.684695]}, "properties": {"year": 2021, "valeur_fonciere": 382000.0, "type_local": "Dépendance", "surface_reelle_bati": null, "nombre_pieces_principales": 0.0, "adresse_nom_voie": "RTE DE ROZAY", "price_per_sqm": null, "date_iso": "2021-08-02", "parcelle": "77031000AC0029", "addr_num": "7"}}, {"type": "Feature", "geometry": {"type": "Point", "coordinates": [2.925535, 48.684695]}, "properties": {"year": 2021, "valeur_fonciere": 382000.0, "type_local": "Dépendance", "surface_reelle_bati": null, "nombre_pieces_principales": 0.0, "adresse_nom_voie": "RTE DE ROZAY", "price_per_sqm": null, "date_iso": "2021-08-02", "parcelle": "77031000AC0029", "addr_num": "7"}}, {"type": "Feature", "geometry": {"type": "Point", "coordinates": [2.922375, 48.683363]}, "properties": {"year": 2021, "valeur_fonciere": 299000.0, "type_local": "Maison", "surface_reelle_bati": 122.0, "nombre_pieces_principales": 5.0, "adresse_nom_voie": "RTE DE CHAUMES", "price_per_sqm": 2450.8196721311474, "date_iso": "2021-08-11", "parcelle": "77031000AC0118", "addr_num": "2"}}, {"type": "Feature", "geometry": {"type": "Point", "coordinates": [2.922292, 48.658223]}, "properties": {"year": 2021, "valeur_fonciere": 305000.0, "type_local": "Dépendance", "surface_reelle_bati": null, "nombre_pieces_principales": 0.0, "adresse_nom_voie": "POMPIERRE", "price_per_sqm": null, "date_iso": "2021-09-03", "parcelle": "77031000AD0022", "addr_num": "14"}}, {"type": "Feature", "geometry": {"type": "Point", "coordinates": [2.922292, 48.658223]}, "properties": {"year": 2021, "valeur_fonciere": 305000.0, "type_local": "Maison", "surface_reelle_bati": 301.0, "nombre_pieces_principales": 9.0, "adresse_nom_voie": "POMPIERRE", "price_per_sqm": 1013.2890365448505, "date_iso": "2021-09-03", "parcelle": "77031000AD0022", "addr_num": "14"}}, {"type": "Feature", "geometry": {"type": "Point", "coordinates": [2.941671, 48.671578]}, "properties": {"year": 2021, "valeur_fonciere": 135000.0, "type_local": null, "surface_reelle_bati": null, "nombre_pieces_principales": null, "adresse_nom_voie": "CHE DIT DE DERRIERE", "price_per_sqm": null, "date_iso": "2021-09-16", "parcelle": "77031000ZB0090", "addr_num": "9"}}, {"type": "Feature", "geometry": {"type": "Point", "coordinates": [2.93278, 48.678341]}, "properties": {"year": 2021, "valeur_fonciere": 137000.0, "type_local": null, "surface_reelle_bati": null, "nombre_pieces_principales": null, "adresse_nom_voie": "RTE DE VILBERT", "price_per_sqm": null, "date_iso": "2021-09-15", "parcelle": "77031000AB0062", "addr_num": ""}}, {"type": "Feature", "geometry": {"type": "Point", "coordinates": [2.923803, 48.683867]}, "properties": {"year": 2021, "valeur_fonciere": 145000.0, "type_local": "Dépendance", "surface_reelle_bati": null, "nombre_pieces_principales": 0.0, "adresse_nom_voie": "RUE MARYSE BASTIE", "price_per_sqm": null, "date_iso": "2021-10-07", "parcelle": "77031000AC0067", "addr_num": "6"}}, {"type": "Feature", "geometry": {"type": "Point", "coordinates": [2.923931, 48.684216]}, "properties": {"year": 2021, "valeur_fonciere": 145000.0, "type_local": "Maison", "surface_reelle_bati": 54.0, "nombre_pieces_principales": 3.0, "adresse_nom_voie": "RUE MARYSE BASTIE", "price_per_sqm": 2685.185185185185, "date_iso": "2021-10-07", "parcelle": "77031000AC0080", "addr_num": "5"}}, {"type": "Feature", "geometry": {"type": "Point", "coordinates": [2.938043, 48.673465]}, "properties": {"year": 2021, "valeur_fonciere": 240000.0, "type_local": "Maison", "surface_reelle_bati": 77.0, "nombre_pieces_principales": 3.0, "adresse_nom_voie": "RTE DE VAUX", "price_per_sqm": 3116.883116883117, "date_iso": "2021-10-20", "parcelle": "77031000AA0039", "addr_num": "8"}}, {"type": "Feature", "geometry": {"type": "Point", "coordinates": [2.936049, 48.680044]}, "properties": {"year": 2021, "valeur_fonciere": 1200000.0, "type_local": "Dépendance", "surface_reelle_bati": null, "nombre_pieces_principales": 0.0, "adresse_nom_voie": "RUE DU PARC", "price_per_sqm": null, "date_iso": "2021-10-05", "parcelle": "77031000AB0113", "addr_num": "10"}}, {"type": "Feature", "geometry": {"type": "Point", "coordinates": [2.936049, 48.680044]}, "properties": {"year": 2021, "valeur_fonciere": 1200000.0, "type_local": "Dépendance", "surface_reelle_bati": null, "nombre_pieces_principales": 0.0, "adresse_nom_voie": "RUE DU PARC", "price_per_sqm": null, "date_iso": "2021-10-05", "parcelle": "77031000AB0113", "addr_num": "10"}}, {"type": "Feature", "geometry": {"type": "Point", "coordinates": [2.936049, 48.680044]}, "properties": {"year": 2021, "valeur_fonciere": 1200000.0, "type_local": "Maison", "surface_reelle_bati": 300.0, "nombre_pieces_principales": 10.0, "adresse_nom_voie": "RUE DU PARC", "price_per_sqm": 4000.0, "date_iso": "2021-10-05", "parcelle": "77031000AB0113", "addr_num": "10"}}, {"type": "Feature", "geometry": {"type": "Point", "coordinates": [2.936049, 48.680044]}, "properties": {"year": 2021, "valeur_fonciere": 1200000.0, "type_local": "Maison", "surface_reelle_bati": 300.0, "nombre_pieces_principales": 10.0, "adresse_nom_voie": "RUE DU PARC", "price_per_sqm": 4000.0, "date_iso": "2021-10-05", "parcelle": "77031000AB0113", "addr_num": "10"}}, {"type": "Feature", "geometry": {"type": "Point", "coordinates": [2.936049, 48.680044]}, "properties": {"year": 2021, "valeur_fonciere": 1200000.0, "type_local": "Dépendance", "surface_reelle_bati": null, "nombre_pieces_principales": 0.0, "adresse_nom_voie": "RUE DU PARC", "price_per_sqm": null, "date_iso": "2021-10-05", "parcelle": "77031000AB0113", "addr_num": "10"}}, {"type": "Feature", "geometry": {"type": "Point", "coordinates": [2.936049, 48.680044]}, "properties": {"year": 2021, "valeur_fonciere": 1200000.0, "type_local": "Dépendance", "surface_reelle_bati": null, "nombre_pieces_principales": 0.0, "adresse_nom_voie": "RUE DU PARC", "price_per_sqm": null, "date_iso": "2021-10-05", "parcelle": "77031000AB0113", "addr_num": "10"}}, {"type": "Feature", "geometry": {"type": "Point", "coordinates": [2.936049, 48.680044]}, "properties": {"year": 2021, "valeur_fonciere": 1200000.0, "type_local": "Dépendance", "surface_reelle_bati": null, "nombre_pieces_principales": 0.0, "adresse_nom_voie": "RUE DU PARC", "price_per_sqm": null, "date_iso": "2021-10-05", "parcelle": "77031000AB0113", "addr_num": "10"}}, {"type": "Feature", "geometry": {"type": "Point", "coordinates": [2.936049, 48.680044]}, "properties": {"year": 2021, "valeur_fonciere": 1200000.0, "type_local": "Dépendance", "surface_reelle_bati": null, "nombre_pieces_principales": 0.0, "adresse_nom_voie": "RUE DU PARC", "price_per_sqm": null, "date_iso": "2021-10-05", "parcelle": "77031000AB0113", "addr_num": "10"}}, {"type": "Feature", "geometry": {"type": "Point", "coordinates": [2.925042, 48.68281]}, "properties": {"year": 2021, "valeur_fonciere": 242000.0, "type_local": null, "surface_reelle_bati": null, "nombre_pieces_principales": null, "adresse_nom_voie": "RTE DE BERNAY", "price_per_sqm": null, "date_iso": "2021-11-05", "parcelle": "77031000AC0205", "addr_num": ""}}, {"type": "Feature", "geometry": {"type": "Point", "coordinates": [2.924832, 48.68277]}, "properties": {"year": 2021, "valeur_fonciere": 242000.0, "type_local": null, "surface_reelle_bati": null, "nombre_pieces_principales": null, "adresse_nom_voie": "RTE DE BERNAY", "price_per_sqm": null, "date_iso": "2021-11-05", "parcelle": "77031000AC0207", "addr_num": "19"}}, {"type": "Feature", "geometry": {"type": "Point", "coordinates": [2.94178, 48.671373]}, "properties": {"year": 2021, "valeur_fonciere": 168000.0, "type_local": null, "surface_reelle_bati": null, "nombre_pieces_principales": null, "adresse_nom_voie": "CHE DIT DE DERRIERE", "price_per_sqm": null, "date_iso": "2021-12-06", "parcelle": "77031000ZB0091", "addr_num": "11"}}, {"type": "Feature", "geometry": {"type": "Point", "coordinates": [2.924691, 48.683198]}, "properties": {"year": 2021, "valeur_fonciere": 273350.0, "type_local": "Maison", "surface_reelle_bati": 91.0, "nombre_pieces_principales": 4.0, "adresse_nom_voie": "CHE DES GENDARMES", "price_per_sqm": 3003.846153846154, "date_iso": "2021-12-20", "parcelle": "77031000AC0058", "addr_num": "7"}}, {"type": "Feature", "geometry": {"type": "Point", "coordinates": [2.940556, 48.672851]}, "properties": {"year": 2021, "valeur_fonciere": 428000.0, "type_local": "Dépendance", "surface_reelle_bati": null, "nombre_pieces_principales": 0.0, "adresse_nom_voie": "CHEM DU BOUCHET", "price_per_sqm": null, "date_iso": "2021-12-21", "parcelle": "77031000AA0114", "addr_num": "1"}}, {"type": "Feature", "geometry": {"type": "Point", "coordinates": [2.940556, 48.672851]}, "properties": {"year": 2021, "valeur_fonciere": 428000.0, "type_local": "Dépendance", "surface_reelle_bati": null, "nombre_pieces_principales": 0.0, "adresse_nom_voie": "CHEM DU BOUCHET", "price_per_sqm": null, "date_iso": "2021-12-21", "parcelle": "77031000AA0114", "addr_num": "1"}}, {"type": "Feature", "geometry": {"type": "Point", "coordinates": [2.940556, 48.672851]}, "properties": {"year": 2021, "valeur_fonciere": 428000.0, "type_local": "Maison", "surface_reelle_bati": 135.0, "nombre_pieces_principales": 4.0, "adresse_nom_voie": "CHEM DU BOUCHET", "price_per_sqm": 3170.3703703703704, "date_iso": "2021-12-21", "parcelle": "77031000AA0114", "addr_num": "1"}}, {"type": "Feature", "geometry": {"type": "Point", "coordinates": [2.945645, 48.686659]}, "properties": {"year": 2021, "valeur_fonciere": 800000.0, "type_local": null, "surface_reelle_bati": null, "nombre_pieces_principales": null, "adresse_nom_voie": "FLEUREUSE", "price_per_sqm": null, "date_iso": "2021-12-29", "parcelle": "77031000ZL0044", "addr_num": ""}}, {"type": "Feature", "geometry": {"type": "Point", "coordinates": [2.941672, 48.672107]}, "properties": {"year": 2022, "valeur_fonciere": 306000.0, "type_local": "Maison", "surface_reelle_bati": 95.0, "nombre_pieces_principales": 5.0, "adresse_nom_voie": "CHE DIT DE DERRIERE", "price_per_sqm": 3221.0526315789475, "date_iso": "2022-01-28", "parcelle": "77031000AA0132", "addr_num": "3"}}, {"type": "Feature", "geometry": {"type": "Point", "coordinates": [2.941672, 48.672107]}, "properties": {"year": 2022, "valeur_fonciere": 306000.0, "type_local": "Maison", "surface_reelle_bati": 95.0, "nombre_pieces_principales": 5.0, "adresse_nom_voie": "CHE DIT DE DERRIERE", "price_per_sqm": 3221.0526315789475, "date_iso": "2022-01-28", "parcelle": "77031000AA0132", "addr_num": "3"}}, {"type": "Feature", "geometry": {"type": "Point", "coordinates": [2.922279, 48.657733]}, "properties": {"year": 2022, "valeur_fonciere": 200000.0, "type_local": "Maison", "surface_reelle_bati": 62.0, "nombre_pieces_principales": 3.0, "adresse_nom_voie": "LES MARNES", "price_per_sqm": 3225.8064516129034, "date_iso": "2022-04-14", "parcelle": "77031000AD0045", "addr_num": "5010"}}, {"type": "Feature", "geometry": {"type": "Point", "coordinates": [2.92459, 48.68493]}, "properties": {"year": 2022, "valeur_fonciere": 200000.0, "type_local": "Maison", "surface_reelle_bati": 109.0, "nombre_pieces_principales": 5.0, "adresse_nom_voie": "RTE DE ROZAY", "price_per_sqm": 1834.8623853211009, "date_iso": "2022-05-30", "parcelle": "77031000AC0023", "addr_num": "3"}}, {"type": "Feature", "geometry": {"type": "Point", "coordinates": [2.92459, 48.68493]}, "properties": {"year": 2022, "valeur_fonciere": 200000.0, "type_local": "Dépendance", "surface_reelle_bati": null, "nombre_pieces_principales": 0.0, "adresse_nom_voie": "RTE DE ROZAY", "price_per_sqm": null, "date_iso": "2022-05-30", "parcelle": "77031000AC0023", "addr_num": "3"}}, {"type": "Feature", "geometry": {"type": "Point", "coordinates": [2.922053, 48.657854]}, "properties": {"year": 2022, "valeur_fonciere": 20000.0, "type_local": "Dépendance", "surface_reelle_bati": null, "nombre_pieces_principales": 0.0, "adresse_nom_voie": "GR GRANDE RUE", "price_per_sqm": null, "date_iso": "2022-06-14", "parcelle": "77031000AD0042", "addr_num": "5009"}}, {"type": "Feature", "geometry": {"type": "Point", "coordinates": [2.935747, 48.67668]}, "properties": {"year": 2022, "valeur_fonciere": 360000.0, "type_local": "Dépendance", "surface_reelle_bati": null, "nombre_pieces_principales": 0.0, "adresse_nom_voie": "RUE AUX ANES", "price_per_sqm": null, "date_iso": "2022-07-12", "parcelle": "77031000AB0030", "addr_num": "5"}}, {"type": "Feature", "geometry": {"type": "Point", "coordinates": [2.935747, 48.67668]}, "properties": {"year": 2022, "valeur_fonciere": 360000.0, "type_local": "Maison", "surface_reelle_bati": 80.0, "nombre_pieces_principales": 5.0, "adresse_nom_voie": "RUE AUX ANES", "price_per_sqm": 4500.0, "date_iso": "2022-07-12", "parcelle": "77031000AB0030", "addr_num": "5"}}, {"type": "Feature", "geometry": {"type": "Point", "coordinates": [2.923181, 48.685472]}, "properties": {"year": 2022, "valeur_fonciere": 375000.0, "type_local": "Maison", "surface_reelle_bati": 71.0, "nombre_pieces_principales": 3.0, "adresse_nom_voie": "RUE DE LA GARE", "price_per_sqm": 5281.69014084507, "date_iso": "2022-08-12", "parcelle": "77031000AC0095", "addr_num": "1"}}, {"type": "Feature", "geometry": {"type": "Point", "coordinates": [2.923181, 48.685472]}, "properties": {"year": 2022, "valeur_fonciere": 375000.0, "type_local": "Maison", "surface_reelle_bati": 71.0, "nombre_pieces_principales": 3.0, "adresse_nom_voie": "RUE DE LA GARE", "price_per_sqm": 5281.69014084507, "date_iso": "2022-08-12", "parcelle": "77031000AC0095", "addr_num": "1"}}, {"type": "Feature", "geometry": {"type": "Point", "coordinates": [2.923181, 48.685472]}, "properties": {"year": 2022, "valeur_fonciere": 375000.0, "type_local": "Dépendance", "surface_reelle_bati": null, "nombre_pieces_principales": 0.0, "adresse_nom_voie": "RUE DE LA GARE", "price_per_sqm": null, "date_iso": "2022-08-12", "parcelle": "77031000AC0095", "addr_num": "1"}}, {"type": "Feature", "geometry": {"type": "Point", "coordinates": [2.923181, 48.685472]}, "properties": {"year": 2022, "valeur_fonciere": 375000.0, "type_local": "Dépendance", "surface_reelle_bati": null, "nombre_pieces_principales": 0.0, "adresse_nom_voie": "RUE DE LA GARE", "price_per_sqm": null, "date_iso": "2022-08-12", "parcelle": "77031000AC0095", "addr_num": "1"}}, {"type": "Feature", "geometry": {"type": "Point", "coordinates": [2.92126, 48.6591]}, "properties": {"year": 2022, "valeur_fonciere": 259000.0, "type_local": "Maison", "surface_reelle_bati": 65.0, "nombre_pieces_principales": 3.0, "adresse_nom_voie": "POMPIERRE", "price_per_sqm": 3984.6153846153848, "date_iso": "2022-08-26", "parcelle": "77031000AD0004", "addr_num": "17"}}, {"type": "Feature", "geometry": {"type": "Point", "coordinates": [2.922496, 48.689192]}, "properties": {"year": 2022, "valeur_fonciere": 290000.0, "type_local": null, "surface_reelle_bati": null, "nombre_pieces_principales": null, "adresse_nom_voie": "LES NOUES", "price_per_sqm": null, "date_iso": "2022-09-08", "parcelle": "770310000E0124", "addr_num": ""}}, {"type": "Feature", "geometry": {"type": "Point", "coordinates": [2.922379, 48.689025]}, "properties": {"year": 2022, "valeur_fonciere": 290000.0, "type_local": "Local industriel. commercial ou assimilé", "surface_reelle_bati": 600.0, "nombre_pieces_principales": 0.0, "adresse_nom_voie": "LES NOUES", "price_per_sqm": 483.3333333333333, "date_iso": "2022-09-08", "parcelle": "770310000E0125", "addr_num": "5294"}}, {"type": "Feature", "geometry": {"type": "Point", "coordinates": [2.922379, 48.689025]}, "properties": {"year": 2022, "valeur_fonciere": 290000.0, "type_local": "Local industriel. commercial ou assimilé", "surface_reelle_bati": 600.0, "nombre_pieces_principales": 0.0, "adresse_nom_voie": "LES NOUES", "price_per_sqm": 483.3333333333333, "date_iso": "2022-09-08", "parcelle": "770310000E0125", "addr_num": "5294"}}, {"type": "Feature", "geometry": {"type": "Point", "coordinates": [2.922967, 48.689164]}, "properties": {"year": 2022, "valeur_fonciere": 290000.0, "type_local": null, "surface_reelle_bati": null, "nombre_pieces_principales": null, "adresse_nom_voie": "LES NOUES", "price_per_sqm": null, "date_iso": "2022-09-08", "parcelle": "77031000ZM0011", "addr_num": ""}}, {"type": "Feature", "geometry": {"type": "Point", "coordinates": [2.922991, 48.688927]}, "properties": {"year": 2022, "valeur_fonciere": 290000.0, "type_local": null, "surface_reelle_bati": null, "nombre_pieces_principales": null, "adresse_nom_voie": "LES NOUES", "price_per_sqm": null, "date_iso": "2022-09-08", "parcelle": "77031000ZM0014", "addr_num": ""}}, {"type": "Feature", "geometry": {"type": "Point", "coordinates": [2.922987, 48.688781]}, "properties": {"year": 2022, "valeur_fonciere": 290000.0, "type_local": null, "surface_reelle_bati": null, "nombre_pieces_principales": null, "adresse_nom_voie": "LES NOUES", "price_per_sqm": null, "date_iso": "2022-09-08", "parcelle": "77031000ZM0015", "addr_num": ""}}, {"type": "Feature", "geometry": {"type": "Point", "coordinates": [2.948333, 48.683903]}, "properties": {"year": 2022, "valeur_fonciere": 279000.0, "type_local": null, "surface_reelle_bati": null, "nombre_pieces_principales": null, "adresse_nom_voie": "VILLENEVOTTE", "price_per_sqm": null, "date_iso": "2022-11-04", "parcelle": "770310000A0033", "addr_num": ""}}, {"type": "Feature", "geometry": {"type": "Point", "coordinates": [2.94847, 48.683879]}, "properties": {"year": 2022, "valeur_fonciere": 279000.0, "type_local": "Dépendance", "surface_reelle_bati": null, "nombre_pieces_principales": 0.0, "adresse_nom_voie": "VILLENEVOTTE", "price_per_sqm": null, "date_iso": "2022-11-04", "parcelle": "770310000A0034", "addr_num": "10"}}, {"type": "Feature", "geometry": {"type": "Point", "coordinates": [2.94847, 48.683879]}, "properties": {"year": 2022, "valeur_fonciere": 279000.0, "type_local": "Maison", "surface_reelle_bati": 123.0, "nombre_pieces_principales": 4.0, "adresse_nom_voie": "VILLENEVOTTE", "price_per_sqm": 2268.2926829268295, "date_iso": "2022-11-04", "parcelle": "770310000A0034", "addr_num": "10"}}, {"type": "Feature", "geometry": {"type": "Point", "coordinates": [2.934684, 48.678863]}, "properties": {"year": 2022, "valeur_fonciere": 395000.0, "type_local": "Maison", "surface_reelle_bati": 93.0, "nombre_pieces_principales": 3.0, "adresse_nom_voie": "RTE DE VILBERT", "price_per_sqm": 4247.311827956989, "date_iso": "2022-11-22", "parcelle": "77031000AB0073", "addr_num": "14"}}, {"type": "Feature", "geometry": {"type": "Point", "coordinates": [2.934684, 48.678863]}, "properties": {"year": 2022, "valeur_fonciere": 395000.0, "type_local": "Maison", "surface_reelle_bati": 93.0, "nombre_pieces_principales": 3.0, "adresse_nom_voie": "RTE DE VILBERT", "price_per_sqm": 4247.311827956989, "date_iso": "2022-11-22", "parcelle": "77031000AB0073", "addr_num": "14"}}, {"type": "Feature", "geometry": {"type": "Point", "coordinates": [2.920438, 48.659133]}, "properties": {"year": 2022, "valeur_fonciere": 630000.0, "type_local": null, "surface_reelle_bati": null, "nombre_pieces_principales": null, "adresse_nom_voie": "LES JONCS", "price_per_sqm": null, "date_iso": "2022-12-05", "parcelle": "77031000AD0001", "addr_num": ""}}, {"type": "Feature", "geometry": {"type": "Point", "coordinates": [2.920809, 48.659269]}, "properties": {"year": 2022, "valeur_fonciere": 630000.0, "type_local": null, "surface_reelle_bati": null, "nombre_pieces_principales": null, "adresse_nom_voie": "RUE PRINCIPALE A POMPIERRE", "price_per_sqm": null, "date_iso": "2022-12-05", "parcelle": "77031000AD0002", "addr_num": "19"}}, {"type": "Feature", "geometry": {"type": "Point", "coordinates": [2.920809, 48.659269]}, "properties": {"year": 2022, "valeur_fonciere": 630000.0, "type_local": null, "surface_reelle_bati": null, "nombre_pieces_principales": null, "adresse_nom_voie": "RUE PRINCIPALE A POMPIERRE", "price_per_sqm": null, "date_iso": "2022-12-05", "parcelle": "77031000AD0002", "addr_num": "19"}}, {"type": "Feature", "geometry": {"type": "Point", "coordinates": [2.920911, 48.659536]}, "properties": {"year": 2022, "valeur_fonciere": 630000.0, "type_local": "Maison", "surface_reelle_bati": 116.0, "nombre_pieces_principales": 9.0, "adresse_nom_voie": "POMPIERRE", "price_per_sqm": 5431.0344827586205, "date_iso": "2022-12-05", "parcelle": "77031000AD0003", "addr_num": "19"}}, {"type": "Feature", "geometry": {"type": "Point", "coordinates": [2.920911, 48.659536]}, "properties": {"year": 2022, "valeur_fonciere": 630000.0, "type_local": "Maison", "surface_reelle_bati": 69.0, "nombre_pieces_principales": 2.0, "adresse_nom_voie": "POMPIERRE", "price_per_sqm": 9130.434782608696, "date_iso": "2022-12-05", "parcelle": "77031000AD0003", "addr_num": "19"}}, {"type": "Feature", "geometry": {"type": "Point", "coordinates": [2.920911, 48.659536]}, "properties": {"year": 2022, "valeur_fonciere": 630000.0, "type_local": "Dépendance", "surface_reelle_bati": null, "nombre_pieces_principales": 0.0, "adresse_nom_voie": "POMPIERRE", "price_per_sqm": null, "date_iso": "2022-12-05", "parcelle": "77031000AD0003", "addr_num": "19"}}, {"type": "Feature", "geometry": {"type": "Point", "coordinates": [2.920911, 48.659536]}, "properties": {"year": 2022, "valeur_fonciere": 630000.0, "type_local": "Dépendance", "surface_reelle_bati": null, "nombre_pieces_principales": 0.0, "adresse_nom_voie": "POMPIERRE", "price_per_sqm": null, "date_iso": "2022-12-05", "parcelle": "77031000AD0003", "addr_num": "19"}}, {"type": "Feature", "geometry": {"type": "Point", "coordinates": [2.920911, 48.659536]}, "properties": {"year": 2022, "valeur_fonciere": 630000.0, "type_local": "Dépendance", "surface_reelle_bati": null, "nombre_pieces_principales": 0.0, "adresse_nom_voie": "POMPIERRE", "price_per_sqm": null, "date_iso": "2022-12-05", "parcelle": "77031000AD0003", "addr_num": "19"}}, {"type": "Feature", "geometry": {"type": "Point", "coordinates": [2.935123, 48.678597]}, "properties": {"year": 2022, "valeur_fonciere": 139100.0, "type_local": null, "surface_reelle_bati": null, "nombre_pieces_principales": null, "adresse_nom_voie": "RTE DE VILBERT", "price_per_sqm": null, "date_iso": "2022-12-15", "parcelle": "77031000AB0070", "addr_num": ""}}, {"type": "Feature", "geometry": {"type": "Point", "coordinates": [2.922733, 48.658815]}, "properties": {"year": 2022, "valeur_fonciere": 45000.0, "type_local": "Maison", "surface_reelle_bati": 30.0, "nombre_pieces_principales": 1.0, "adresse_nom_voie": "POMPIERRE", "price_per_sqm": 1500.0, "date_iso": "2022-12-21", "parcelle": "77031000AD0020", "addr_num": "16"}}, {"type": "Feature", "geometry": {"type": "Point", "coordinates": [2.922733, 48.658815]}, "properties": {"year": 2022, "valeur_fonciere": 45000.0, "type_local": "Dépendance", "surface_reelle_bati": null, "nombre_pieces_principales": 0.0, "adresse_nom_voie": "POMPIERRE", "price_per_sqm": null, "date_iso": "2022-12-21", "parcelle": "77031000AD0020", "addr_num": "16"}}, {"type": "Feature", "geometry": {"type": "Point", "coordinates": [2.922733, 48.658815]}, "properties": {"year": 2022, "valeur_fonciere": 45000.0, "type_local": "Dépendance", "surface_reelle_bati": null, "nombre_pieces_principales": 0.0, "adresse_nom_voie": "POMPIERRE", "price_per_sqm": null, "date_iso": "2022-12-21", "parcelle": "77031000AD0020", "addr_num": "16"}}, {"type": "Feature", "geometry": {"type": "Point", "coordinates": [2.922733, 48.658815]}, "properties": {"year": 2022, "valeur_fonciere": 45000.0, "type_local": "Maison", "surface_reelle_bati": 30.0, "nombre_pieces_principales": 1.0, "adresse_nom_voie": "POMPIERRE", "price_per_sqm": 1500.0, "date_iso": "2022-12-21", "parcelle": "77031000AD0020", "addr_num": "16"}}, {"type": "Feature", "geometry": {"type": "Point", "coordinates": [2.93706, 48.673271]}, "properties": {"year": 2022, "valeur_fonciere": 348358.0, "type_local": "Maison", "surface_reelle_bati": 123.0, "nombre_pieces_principales": 5.0, "adresse_nom_voie": "RTE DE VAUX", "price_per_sqm": 2832.1788617886177, "date_iso": "2022-12-23", "parcelle": "77031000AA0035", "addr_num": "14"}}, {"type": "Feature", "geometry": {"type": "Point", "coordinates": [2.93706, 48.673271]}, "properties": {"year": 2022, "valeur_fonciere": 348358.0, "type_local": "Maison", "surface_reelle_bati": 123.0, "nombre_pieces_principales": 5.0, "adresse_nom_voie": "RTE DE VAUX", "price_per_sqm": 2832.1788617886177, "date_iso": "2022-12-23", "parcelle": "77031000AA0035", "addr_num": "14"}}, {"type": "Feature", "geometry": {"type": "Point", "coordinates": [2.922763, 48.683211]}, "properties": {"year": 2023, "valeur_fonciere": 388000.0, "type_local": null, "surface_reelle_bati": null, "nombre_pieces_principales": null, "adresse_nom_voie": "PL DE LA MAIRIE", "price_per_sqm": null, "date_iso": "2023-02-07", "parcelle": "77031000AC0116", "addr_num": ""}}, {"type": "Feature", "geometry": {"type": "Point", "coordinates": [2.922516, 48.683307]}, "properties": {"year": 2023, "valeur_fonciere": 388000.0, "type_local": "Dépendance", "surface_reelle_bati": null, "nombre_pieces_principales": 0.0, "adresse_nom_voie": "PL DE LA MAIRIE", "price_per_sqm": null, "date_iso": "2023-02-07", "parcelle": "77031000AC0117", "addr_num": "5219"}}, {"type": "Feature", "geometry": {"type": "Point", "coordinates": [2.922516, 48.683307]}, "properties": {"year": 2023, "valeur_fonciere": 388000.0, "type_local": "Dépendance", "surface_reelle_bati": null, "nombre_pieces_principales": 0.0, "adresse_nom_voie": "PL DE LA MAIRIE", "price_per_sqm": null, "date_iso": "2023-02-07", "parcelle": "77031000AC0117", "addr_num": "5219"}}, {"type": "Feature", "geometry": {"type": "Point", "coordinates": [2.922516, 48.683307]}, "properties": {"year": 2023, "valeur_fonciere": 388000.0, "type_local": "Maison", "surface_reelle_bati": 233.0, "nombre_pieces_principales": 7.0, "adresse_nom_voie": "PL DE LA MAIRIE", "price_per_sqm": 1665.236051502146, "date_iso": "2023-02-07", "parcelle": "77031000AC0117", "addr_num": "5219"}}, {"type": "Feature", "geometry": {"type": "Point", "coordinates": [2.92195, 48.683313]}, "properties": {"year": 2023, "valeur_fonciere": 274000.0, "type_local": "Maison", "surface_reelle_bati": 99.0, "nombre_pieces_principales": 5.0, "adresse_nom_voie": "RTE DE CHAUMES", "price_per_sqm": 2767.6767676767677, "date_iso": "2023-02-17", "parcelle": "77031000AC0123", "addr_num": "8"}}, {"type": "Feature", "geometry": {"type": "Point", "coordinates": [2.940211, 48.671921]}, "properties": {"year": 2023, "valeur_fonciere": 226300.0, "type_local": "Maison", "surface_reelle_bati": 85.0, "nombre_pieces_principales": 4.0, "adresse_nom_voie": "AV DU GEN LECLERC", "price_per_sqm": 2662.3529411764707, "date_iso": "2023-03-29", "parcelle": "77031000AA0078", "addr_num": "66"}}, {"type": "Feature", "geometry": {"type": "Point", "coordinates": [2.924585, 48.682899]}, "properties": {"year": 2023, "valeur_fonciere": 105000.0, "type_local": null, "surface_reelle_bati": null, "nombre_pieces_principales": null, "adresse_nom_voie": "CHE DES GENDARMES", "price_per_sqm": null, "date_iso": "2023-04-03", "parcelle": "77031000AC0202", "addr_num": "2"}}, {"type": "Feature", "geometry": {"type": "Point", "coordinates": [2.921544, 48.658347]}, "properties": {"year": 2023, "valeur_fonciere": 90000.0, "type_local": "Dépendance", "surface_reelle_bati": null, "nombre_pieces_principales": 0.0, "adresse_nom_voie": "POMPIERRE", "price_per_sqm": null, "date_iso": "2023-05-11", "parcelle": "77031000AD0015", "addr_num": "5017"}}, {"type": "Feature", "geometry": {"type": "Point", "coordinates": [2.921544, 48.658347]}, "properties": {"year": 2023, "valeur_fonciere": 90000.0, "type_local": "Dépendance", "surface_reelle_bati": null, "nombre_pieces_principales": 0.0, "adresse_nom_voie": "POMPIERRE", "price_per_sqm": null, "date_iso": "2023-05-11", "parcelle": "77031000AD0015", "addr_num": "5017"}}, {"type": "Feature", "geometry": {"type": "Point", "coordinates": [2.923616, 48.68334]}, "properties": {"year": 2023, "valeur_fonciere": 285000.0, "type_local": "Maison", "surface_reelle_bati": 110.0, "nombre_pieces_principales": 5.0, "adresse_nom_voie": "RUE MARYSE BASTIE", "price_per_sqm": 2590.909090909091, "date_iso": "2023-05-12", "parcelle": "77031000AC0204", "addr_num": "2"}}, {"type": "Feature", "geometry": {"type": "Point", "coordinates": [2.923616, 48.68334]}, "properties": {"year": 2023, "valeur_fonciere": 285000.0, "type_local": "Maison", "surface_reelle_bati": 110.0, "nombre_pieces_principales": 5.0, "adresse_nom_voie": "RUE MARYSE BASTIE", "price_per_sqm": 2590.909090909091, "date_iso": "2023-05-12", "parcelle": "77031000AC0204", "addr_num": "2"}}, {"type": "Feature", "geometry": {"type": "Point", "coordinates": [2.93667, 48.67723]}, "properties": {"year": 2023, "valeur_fonciere": 200000.0, "type_local": "Maison", "surface_reelle_bati": 180.0, "nombre_pieces_principales": 3.0, "adresse_nom_voie": "AV DU GEN LECLERC", "price_per_sqm": 1111.111111111111, "date_iso": "2023-05-25", "parcelle": "77031000AB0049", "addr_num": "2"}}, {"type": "Feature", "geometry": {"type": "Point", "coordinates": [2.93667, 48.67723]}, "properties": {"year": 2023, "valeur_fonciere": 200000.0, "type_local": "Dépendance", "surface_reelle_bati": null, "nombre_pieces_principales": 0.0, "adresse_nom_voie": "AV DU GEN LECLERC", "price_per_sqm": null, "date_iso": "2023-05-25", "parcelle": "77031000AB0049", "addr_num": "2"}}, {"type": "Feature", "geometry": {"type": "Point", "coordinates": [2.901477, 48.681787]}, "properties": {"year": 2023, "valeur_fonciere": 55000.0, "type_local": "Maison", "surface_reelle_bati": 80.0, "nombre_pieces_principales": 4.0, "adresse_nom_voie": "LE BOIS DE VILBERT", "price_per_sqm": 687.5, "date_iso": "2023-06-08", "parcelle": "770310000E0127", "addr_num": "5201"}}, {"type": "Feature", "geometry": {"type": "Point", "coordinates": [2.901477, 48.681787]}, "properties": {"year": 2023, "valeur_fonciere": 55000.0, "type_local": "Dépendance", "surface_reelle_bati": null, "nombre_pieces_principales": 0.0, "adresse_nom_voie": "LE BOIS DE VILBERT", "price_per_sqm": null, "date_iso": "2023-06-08", "parcelle": "770310000E0127", "addr_num": "5201"}}, {"type": "Feature", "geometry": {"type": "Point", "coordinates": [2.901612, 48.681856]}, "properties": {"year": 2023, "valeur_fonciere": 55000.0, "type_local": null, "surface_reelle_bati": null, "nombre_pieces_principales": null, "adresse_nom_voie": "LE BOIS DE VILBERT", "price_per_sqm": null, "date_iso": "2023-06-08", "parcelle": "770310000E0129", "addr_num": ""}}, {"type": "Feature", "geometry": {"type": "Point", "coordinates": [2.928892, 48.667821]}, "properties": {"year": 2023, "valeur_fonciere": 260000.0, "type_local": "Maison", "surface_reelle_bati": 86.0, "nombre_pieces_principales": 4.0, "adresse_nom_voie": "CLOS DE SEGRES", "price_per_sqm": 3023.2558139534885, "date_iso": "2023-06-23", "parcelle": "77031000XA0213", "addr_num": "5725"}}, {"type": "Feature", "geometry": {"type": "Point", "coordinates": [2.928892, 48.667821]}, "properties": {"year": 2023, "valeur_fonciere": 260000.0, "type_local": "Dépendance", "surface_reelle_bati": null, "nombre_pieces_principales": 0.0, "adresse_nom_voie": "CLOS DE SEGRES", "price_per_sqm": null, "date_iso": "2023-06-23", "parcelle": "77031000XA0213", "addr_num": "5725"}}, {"type": "Feature", "geometry": {"type": "Point", "coordinates": [2.928892, 48.667821]}, "properties": {"year": 2023, "valeur_fonciere": 260000.0, "type_local": "Dépendance", "surface_reelle_bati": null, "nombre_pieces_principales": 0.0, "adresse_nom_voie": "CLOS DE SEGRES", "price_per_sqm": null, "date_iso": "2023-06-23", "parcelle": "77031000XA0213", "addr_num": "5725"}}, {"type": "Feature", "geometry": {"type": "Point", "coordinates": [2.928896, 48.667888]}, "properties": {"year": 2023, "valeur_fonciere": 260000.0, "type_local": null, "surface_reelle_bati": null, "nombre_pieces_principales": null, "adresse_nom_voie": "CLOS DE SEGRES", "price_per_sqm": null, "date_iso": "2023-06-23", "parcelle": "77031000XA0217", "addr_num": ""}}, {"type": "Feature", "geometry": {"type": "Point", "coordinates": [2.935573, 48.678168]}, "properties": {"year": 2023, "valeur_fonciere": 285000.0, "type_local": "Maison", "surface_reelle_bati": 98.0, "nombre_pieces_principales": 4.0, "adresse_nom_voie": "RTE DE VILBERT", "price_per_sqm": 2908.1632653061224, "date_iso": "2023-07-04", "parcelle": "77031000AB0067", "addr_num": "8"}}, {"type": "Feature", "geometry": {"type": "Point", "coordinates": [2.926102, 48.678445]}, "properties": {"year": 2023, "valeur_fonciere": 330000.0, "type_local": null, "surface_reelle_bati": null, "nombre_pieces_principales": null, "adresse_nom_voie": "LA COURTE QUEUE", "price_per_sqm": null, "date_iso": "2023-07-26", "parcelle": "77031000XA0044", "addr_num": ""}}, {"type": "Feature", "geometry": {"type": "Point", "coordinates": [2.926515, 48.678429]}, "properties": {"year": 2023, "valeur_fonciere": 330000.0, "type_local": null, "surface_reelle_bati": null, "nombre_pieces_principales": null, "adresse_nom_voie": "LA COURTE QUEUE", "price_per_sqm": null, "date_iso": "2023-07-26", "parcelle": "77031000XA0045", "addr_num": ""}}, {"type": "Feature", "geometry": {"type": "Point", "coordinates": [2.927337, 48.678274]}, "properties": {"year": 2023, "valeur_fonciere": 330000.0, "type_local": "Dépendance", "surface_reelle_bati": null, "nombre_pieces_principales": 0.0, "adresse_nom_voie": "LA COURTE QUEUE", "price_per_sqm": null, "date_iso": "2023-07-26", "parcelle": "77031000XA0046", "addr_num": "5306"}}, {"type": "Feature", "geometry": {"type": "Point", "coordinates": [2.927337, 48.678274]}, "properties": {"year": 2023, "valeur_fonciere": 330000.0, "type_local": "Maison", "surface_reelle_bati": 115.0, "nombre_pieces_principales": 5.0, "adresse_nom_voie": "LA COURTE QUEUE", "price_per_sqm": 2869.5652173913045, "date_iso": "2023-07-26", "parcelle": "77031000XA0046", "addr_num": "5306"}}, {"type": "Feature", "geometry": {"type": "Point", "coordinates": [2.927337, 48.678274]}, "properties": {"year": 2023, "valeur_fonciere": 330000.0, "type_local": "Dépendance", "surface_reelle_bati": null, "nombre_pieces_principales": 0.0, "adresse_nom_voie": "LA COURTE QUEUE", "price_per_sqm": null, "date_iso": "2023-07-26", "parcelle": "77031000XA0046", "addr_num": "5306"}}, {"type": "Feature", "geometry": {"type": "Point", "coordinates": [2.927337, 48.678274]}, "properties": {"year": 2023, "valeur_fonciere": 330000.0, "type_local": "Maison", "surface_reelle_bati": 115.0, "nombre_pieces_principales": 5.0, "adresse_nom_voie": "LA COURTE QUEUE", "price_per_sqm": 2869.5652173913045, "date_iso": "2023-07-26", "parcelle": "77031000XA0046", "addr_num": "5306"}}, {"type": "Feature", "geometry": {"type": "Point", "coordinates": [2.928416, 48.678101]}, "properties": {"year": 2023, "valeur_fonciere": 330000.0, "type_local": null, "surface_reelle_bati": null, "nombre_pieces_principales": null, "adresse_nom_voie": "LA COURTE QUEUE", "price_per_sqm": null, "date_iso": "2023-07-26", "parcelle": "77031000XA0048", "addr_num": ""}}, {"type": "Feature", "geometry": {"type": "Point", "coordinates": [2.928416, 48.678101]}, "properties": {"year": 2023, "valeur_fonciere": 330000.0, "type_local": null, "surface_reelle_bati": null, "nombre_pieces_principales": null, "adresse_nom_voie": "LA COURTE QUEUE", "price_per_sqm": null, "date_iso": "2023-07-26", "parcelle": "77031000XA0048", "addr_num": ""}}, {"type": "Feature", "geometry": {"type": "Point", "coordinates": [2.928416, 48.678101]}, "properties": {"year": 2023, "valeur_fonciere": 330000.0, "type_local": null, "surface_reelle_bati": null, "nombre_pieces_principales": null, "adresse_nom_voie": "LA COURTE QUEUE", "price_per_sqm": null, "date_iso": "2023-07-26", "parcelle": "77031000XA0048", "addr_num": ""}}, {"type": "Feature", "geometry": {"type": "Point", "coordinates": [2.926763, 48.677767]}, "properties": {"year": 2023, "valeur_fonciere": 330000.0, "type_local": null, "surface_reelle_bati": null, "nombre_pieces_principales": null, "adresse_nom_voie": "LA COURTE QUEUE", "price_per_sqm": null, "date_iso": "2023-07-26", "parcelle": "77031000XA0129", "addr_num": ""}}, {"type": "Feature", "geometry": {"type": "Point", "coordinates": [2.928416, 48.6777]}, "properties": {"year": 2023, "valeur_fonciere": 330000.0, "type_local": null, "surface_reelle_bati": null, "nombre_pieces_principales": null, "adresse_nom_voie": "LA COURTE QUEUE", "price_per_sqm": null, "date_iso": "2023-07-26", "parcelle": "77031000XA0130", "addr_num": ""}}, {"type": "Feature", "geometry": {"type": "Point", "coordinates": [2.922234, 48.683218]}, "properties": {"year": 2023, "valeur_fonciere": 249000.0, "type_local": null, "surface_reelle_bati": null, "nombre_pieces_principales": null, "adresse_nom_voie": "RTE DE CHAUMES", "price_per_sqm": null, "date_iso": "2023-07-26", "parcelle": "77031000AC0119", "addr_num": "2"}}, {"type": "Feature", "geometry": {"type": "Point", "coordinates": [2.92225, 48.683423]}, "properties": {"year": 2023, "valeur_fonciere": 249000.0, "type_local": "Dépendance", "surface_reelle_bati": null, "nombre_pieces_principales": 0.0, "adresse_nom_voie": "RTE DE CHAUMES", "price_per_sqm": null, "date_iso": "2023-07-26", "parcelle": "77031000AC0120", "addr_num": "4"}}, {"type": "Feature", "geometry": {"type": "Point", "coordinates": [2.92225, 48.683423]}, "properties": {"year": 2023, "valeur_fonciere": 249000.0, "type_local": "Dépendance", "surface_reelle_bati": null, "nombre_pieces_principales": 0.0, "adresse_nom_voie": "RTE DE CHAUMES", "price_per_sqm": null, "date_iso": "2023-07-26", "parcelle": "77031000AC0120", "addr_num": "4"}}, {"type": "Feature", "geometry": {"type": "Point", "coordinates": [2.922126, 48.683168]}, "properties": {"year": 2023, "valeur_fonciere": 249000.0, "type_local": "Maison", "surface_reelle_bati": 67.0, "nombre_pieces_principales": 3.0, "adresse_nom_voie": "RTE DE CHAUMES", "price_per_sqm": 3716.417910447761, "date_iso": "2023-07-26", "parcelle": "77031000AC0122", "addr_num": "4"}}, {"type": "Feature", "geometry": {"type": "Point", "coordinates": [2.936071, 48.67749]}, "properties": {"year": 2023, "valeur_fonciere": 287000.0, "type_local": "Maison", "surface_reelle_bati": 110.0, "nombre_pieces_principales": 5.0, "adresse_nom_voie": "RTE DE VILBERT", "price_per_sqm": 2609.090909090909, "date_iso": "2023-08-03", "parcelle": "77031000AB0048", "addr_num": "1"}}, {"type": "Feature", "geometry": {"type": "Point", "coordinates": [2.936071, 48.67749]}, "properties": {"year": 2023, "valeur_fonciere": 287000.0, "type_local": "Dépendance", "surface_reelle_bati": null, "nombre_pieces_principales": 0.0, "adresse_nom_voie": "RTE DE VILBERT", "price_per_sqm": null, "date_iso": "2023-08-03", "parcelle": "77031000AB0048", "addr_num": "1"}}, {"type": "Feature", "geometry": {"type": "Point", "coordinates": [2.938299, 48.675617]}, "properties": {"year": 2023, "valeur_fonciere": 363870.0, "type_local": "Dépendance", "surface_reelle_bati": null, "nombre_pieces_principales": 0.0, "adresse_nom_voie": "AV DU GEN LECLERC", "price_per_sqm": null, "date_iso": "2023-08-28", "parcelle": "77031000AB0090", "addr_num": "17"}}, {"type": "Feature", "geometry": {"type": "Point", "coordinates": [2.938299, 48.675617]}, "properties": {"year": 2023, "valeur_fonciere": 363870.0, "type_local": "Maison", "surface_reelle_bati": 140.0, "nombre_pieces_principales": 5.0, "adresse_nom_voie": "AV DU GEN LECLERC", "price_per_sqm": 2599.0714285714284, "date_iso": "2023-08-28", "parcelle": "77031000AB0090", "addr_num": "17"}}, {"type": "Feature", "geometry": {"type": "Point", "coordinates": [2.92351, 48.68258]}, "properties": {"year": 2023, "valeur_fonciere": 214000.0, "type_local": "Dépendance", "surface_reelle_bati": null, "nombre_pieces_principales": 0.0, "adresse_nom_voie": "RTE DE BERNAY", "price_per_sqm": null, "date_iso": "2023-09-15", "parcelle": "77031000AC0198", "addr_num": "5"}}, {"type": "Feature", "geometry": {"type": "Point", "coordinates": [2.92351, 48.68258]}, "properties": {"year": 2023, "valeur_fonciere": 214000.0, "type_local": "Appartement", "surface_reelle_bati": 104.0, "nombre_pieces_principales": 5.0, "adresse_nom_voie": "RTE DE BERNAY", "price_per_sqm": 2057.6923076923076, "date_iso": "2023-09-15", "parcelle": "77031000AC0198", "addr_num": "5"}}, {"type": "Feature", "geometry": {"type": "Point", "coordinates": [2.92351, 48.68258]}, "properties": {"year": 2023, "valeur_fonciere": 214000.0, "type_local": "Dépendance", "surface_reelle_bati": null, "nombre_pieces_principales": 0.0, "adresse_nom_voie": "RTE DE BERNAY", "price_per_sqm": null, "date_iso": "2023-09-15", "parcelle": "77031000AC0198", "addr_num": "5"}}, {"type": "Feature", "geometry": {"type": "Point", "coordinates": [2.940261, 48.673224]}, "properties": {"year": 2023, "valeur_fonciere": 394000.0, "type_local": "Maison", "surface_reelle_bati": 120.0, "nombre_pieces_principales": 5.0, "adresse_nom_voie": "LE MOURON", "price_per_sqm": 3283.3333333333335, "date_iso": "2023-11-07", "parcelle": "77031000AA0098", "addr_num": "5095"}}, {"type": "Feature", "geometry": {"type": "Point", "coordinates": [2.940261, 48.673224]}, "properties": {"year": 2023, "valeur_fonciere": 394000.0, "type_local": "Dépendance", "surface_reelle_bati": null, "nombre_pieces_principales": 0.0, "adresse_nom_voie": "LE MOURON", "price_per_sqm": null, "date_iso": "2023-11-07", "parcelle": "77031000AA0098", "addr_num": "5095"}}, {"type": "Feature", "geometry": {"type": "Point", "coordinates": [2.940261, 48.673224]}, "properties": {"year": 2023, "valeur_fonciere": 394000.0, "type_local": "Dépendance", "surface_reelle_bati": null, "nombre_pieces_principales": 0.0, "adresse_nom_voie": "LE MOURON", "price_per_sqm": null, "date_iso": "2023-11-07", "parcelle": "77031000AA0098", "addr_num": "5095"}}, {"type": "Feature", "geometry": {"type": "Point", "coordinates": [2.940261, 48.673224]}, "properties": {"year": 2023, "valeur_fonciere": 394000.0, "type_local": "Dépendance", "surface_reelle_bati": null, "nombre_pieces_principales": 0.0, "adresse_nom_voie": "LE MOURON", "price_per_sqm": null, "date_iso": "2023-11-07", "parcelle": "77031000AA0098", "addr_num": "5095"}}, {"type": "Feature", "geometry": {"type": "Point", "coordinates": [2.940261, 48.673224]}, "properties": {"year": 2023, "valeur_fonciere": 394000.0, "type_local": "Dépendance", "surface_reelle_bati": null, "nombre_pieces_principales": 0.0, "adresse_nom_voie": "LE MOURON", "price_per_sqm": null, "date_iso": "2023-11-07", "parcelle": "77031000AA0098", "addr_num": "5095"}}, {"type": "Feature", "geometry": {"type": "Point", "coordinates": [2.94047, 48.673329]}, "properties": {"year": 2023, "valeur_fonciere": 394000.0, "type_local": null, "surface_reelle_bati": null, "nombre_pieces_principales": null, "adresse_nom_voie": "SEN DES PRES", "price_per_sqm": null, "date_iso": "2023-11-07", "parcelle": "77031000AA0099", "addr_num": ""}}, {"type": "Feature", "geometry": {"type": "Point", "coordinates": [2.911885, 48.65691]}, "properties": {"year": 2023, "valeur_fonciere": 795.0, "type_local": null, "surface_reelle_bati": null, "nombre_pieces_principales": null, "adresse_nom_voie": "LES JONCS", "price_per_sqm": null, "date_iso": "2023-11-10", "parcelle": "77031000WB0006", "addr_num": ""}}, {"type": "Feature", "geometry": {"type": "Point", "coordinates": [2.922375, 48.683363]}, "properties": {"year": 2023, "valeur_fonciere": 275000.0, "type_local": "Maison", "surface_reelle_bati": 122.0, "nombre_pieces_principales": 5.0, "adresse_nom_voie": "RTE DE CHAUMES", "price_per_sqm": 2254.098360655738, "date_iso": "2023-11-03", "parcelle": "77031000AC0118", "addr_num": "2"}}, {"type": "Feature", "geometry": {"type": "Point", "coordinates": [2.922234, 48.683218]}, "properties": {"year": 2023, "valeur_fonciere": 275000.0, "type_local": null, "surface_reelle_bati": null, "nombre_pieces_principales": null, "adresse_nom_voie": "RTE DE CHAUMES", "price_per_sqm": null, "date_iso": "2023-11-03", "parcelle": "77031000AC0119", "addr_num": "2"}}, {"type": "Feature", "geometry": {"type": "Point", "coordinates": [2.931888, 48.660991]}, "properties": {"year": 2024, "valeur_fonciere": 220000.0, "type_local": null, "surface_reelle_bati": null, "nombre_pieces_principales": null, "adresse_nom_voie": "PARC DE SEGRES", "price_per_sqm": null, "date_iso": "2024-03-06", "parcelle": "77031000WB0083", "addr_num": ""}}, {"type": "Feature", "geometry": {"type": "Point", "coordinates": [2.931888, 48.660991]}, "properties": {"year": 2024, "valeur_fonciere": 220000.0, "type_local": null, "surface_reelle_bati": null, "nombre_pieces_principales": null, "adresse_nom_voie": "PARC DE SEGRES", "price_per_sqm": null, "date_iso": "2024-03-06", "parcelle": "77031000WB0083", "addr_num": ""}}, {"type": "Feature", "geometry": {"type": "Point", "coordinates": [2.931888, 48.660991]}, "properties": {"year": 2024, "valeur_fonciere": 220000.0, "type_local": null, "surface_reelle_bati": null, "nombre_pieces_principales": null, "adresse_nom_voie": "PARC DE SEGRES", "price_per_sqm": null, "date_iso": "2024-03-06", "parcelle": "77031000WB0083", "addr_num": ""}}, {"type": "Feature", "geometry": {"type": "Point", "coordinates": [2.931888, 48.660991]}, "properties": {"year": 2024, "valeur_fonciere": 220000.0, "type_local": null, "surface_reelle_bati": null, "nombre_pieces_principales": null, "adresse_nom_voie": "PARC DE SEGRES", "price_per_sqm": null, "date_iso": "2024-03-06", "parcelle": "77031000WB0083", "addr_num": ""}}, {"type": "Feature", "geometry": {"type": "Point", "coordinates": [2.931888, 48.660991]}, "properties": {"year": 2024, "valeur_fonciere": 220000.0, "type_local": null, "surface_reelle_bati": null, "nombre_pieces_principales": null, "adresse_nom_voie": "PARC DE SEGRES", "price_per_sqm": null, "date_iso": "2024-03-06", "parcelle": "77031000WB0083", "addr_num": ""}}, {"type": "Feature", "geometry": {"type": "Point", "coordinates": [2.931888, 48.660991]}, "properties": {"year": 2024, "valeur_fonciere": 220000.0, "type_local": null, "surface_reelle_bati": null, "nombre_pieces_principales": null, "adresse_nom_voie": "PARC DE SEGRES", "price_per_sqm": null, "date_iso": "2024-03-06", "parcelle": "77031000WB0083", "addr_num": ""}}, {"type": "Feature", "geometry": {"type": "Point", "coordinates": [2.936619, 48.676557]}, "properties": {"year": 2024, "valeur_fonciere": 130000.0, "type_local": "Maison", "surface_reelle_bati": 62.0, "nombre_pieces_principales": 3.0, "adresse_nom_voie": "LA RUE AUX ANES", "price_per_sqm": 2096.7741935483873, "date_iso": "2024-03-01", "parcelle": "77031000AB0006", "addr_num": "1"}}, {"type": "Feature", "geometry": {"type": "Point", "coordinates": [2.936619, 48.676557]}, "properties": {"year": 2024, "valeur_fonciere": 130000.0, "type_local": "Maison", "surface_reelle_bati": 62.0, "nombre_pieces_principales": 3.0, "adresse_nom_voie": "LA RUE AUX ANES", "price_per_sqm": 2096.7741935483873, "date_iso": "2024-03-01", "parcelle": "77031000AB0006", "addr_num": "1"}}, {"type": "Feature", "geometry": {"type": "Point", "coordinates": [2.936565, 48.676356]}, "properties": {"year": 2024, "valeur_fonciere": 130000.0, "type_local": null, "surface_reelle_bati": null, "nombre_pieces_principales": null, "adresse_nom_voie": "RUE AUX ANES", "price_per_sqm": null, "date_iso": "2024-03-01", "parcelle": "77031000AB0124", "addr_num": "1"}}, {"type": "Feature", "geometry": {"type": "Point", "coordinates": [2.922303, 48.683701]}, "properties": {"year": 2024, "valeur_fonciere": 247000.0, "type_local": "Maison", "surface_reelle_bati": 98.0, "nombre_pieces_principales": 4.0, "adresse_nom_voie": "RUE ROBERT GOUBY", "price_per_sqm": 2520.408163265306, "date_iso": "2024-03-21", "parcelle": "77031000AC0112", "addr_num": "5"}}, {"type": "Feature", "geometry": {"type": "Point", "coordinates": [2.929681, 48.665562]}, "properties": {"year": 2024, "valeur_fonciere": 861701.0, "type_local": null, "surface_reelle_bati": null, "nombre_pieces_principales": null, "adresse_nom_voie": "SEGRES", "price_per_sqm": null, "date_iso": "2024-03-18", "parcelle": "770310000C0692", "addr_num": ""}}, {"type": "Feature", "geometry": {"type": "Point", "coordinates": [2.917323, 48.666483]}, "properties": {"year": 2024, "valeur_fonciere": 861701.0, "type_local": null, "surface_reelle_bati": null, "nombre_pieces_principales": null, "adresse_nom_voie": "LA FIN DU MONDE", "price_per_sqm": null, "date_iso": "2024-03-18", "parcelle": "77031000WA0031", "addr_num": ""}}, {"type": "Feature", "geometry": {"type": "Point", "coordinates": [2.914288, 48.668001]}, "properties": {"year": 2024, "valeur_fonciere": 861701.0, "type_local": null, "surface_reelle_bati": null, "nombre_pieces_principales": null, "adresse_nom_voie": "LA FIN DU MONDE", "price_per_sqm": null, "date_iso": "2024-03-18", "parcelle": "77031000WA0032", "addr_num": ""}}, {"type": "Feature", "geometry": {"type": "Point", "coordinates": [2.914288, 48.668001]}, "properties": {"year": 2024, "valeur_fonciere": 861701.0, "type_local": null, "surface_reelle_bati": null, "nombre_pieces_principales": null, "adresse_nom_voie": "LA FIN DU MONDE", "price_per_sqm": null, "date_iso": "2024-03-18", "parcelle": "77031000WA0032", "addr_num": ""}}, {"type": "Feature", "geometry": {"type": "Point", "coordinates": [2.920888, 48.666498]}, "properties": {"year": 2024, "valeur_fonciere": 861701.0, "type_local": null, "surface_reelle_bati": null, "nombre_pieces_principales": null, "adresse_nom_voie": "LA FIN DU MONDE", "price_per_sqm": null, "date_iso": "2024-03-18", "parcelle": "77031000WA0033", "addr_num": ""}}, {"type": "Feature", "geometry": {"type": "Point", "coordinates": [2.92195, 48.665818]}, "properties": {"year": 2024, "valeur_fonciere": 861701.0, "type_local": null, "surface_reelle_bati": null, "nombre_pieces_principales": null, "adresse_nom_voie": "LA FIN DU MONDE", "price_per_sqm": null, "date_iso": "2024-03-18", "parcelle": "77031000WA0034", "addr_num": ""}}, {"type": "Feature", "geometry": {"type": "Point", "coordinates": [2.925323, 48.66397]}, "properties": {"year": 2024, "valeur_fonciere": 861701.0, "type_local": null, "surface_reelle_bati": null, "nombre_pieces_principales": null, "adresse_nom_voie": "LES TROUS GUILLOT", "price_per_sqm": null, "date_iso": "2024-03-18", "parcelle": "77031000WA0035", "addr_num": ""}}, {"type": "Feature", "geometry": {"type": "Point", "coordinates": [2.922081, 48.661382]}, "properties": {"year": 2024, "valeur_fonciere": 861701.0, "type_local": null, "surface_reelle_bati": null, "nombre_pieces_principales": null, "adresse_nom_voie": "LES TROUS GUILLOT", "price_per_sqm": null, "date_iso": "2024-03-18", "parcelle": "77031000WA0040", "addr_num": ""}}, {"type": "Feature", "geometry": {"type": "Point", "coordinates": [2.927656, 48.665414]}, "properties": {"year": 2024, "valeur_fonciere": 861701.0, "type_local": null, "surface_reelle_bati": null, "nombre_pieces_principales": null, "adresse_nom_voie": "LES REGAINS", "price_per_sqm": null, "date_iso": "2024-03-18", "parcelle": "77031000XA0221", "addr_num": ""}}, {"type": "Feature", "geometry": {"type": "Point", "coordinates": [2.929265, 48.66528]}, "properties": {"year": 2024, "valeur_fonciere": 861701.0, "type_local": null, "surface_reelle_bati": null, "nombre_pieces_principales": null, "adresse_nom_voie": "LES REGAINS", "price_per_sqm": null, "date_iso": "2024-03-18", "parcelle": "77031000XA0238", "addr_num": ""}}, {"type": "Feature", "geometry": {"type": "Point", "coordinates": [2.929375, 48.665178]}, "properties": {"year": 2024, "valeur_fonciere": 861701.0, "type_local": null, "surface_reelle_bati": null, "nombre_pieces_principales": null, "adresse_nom_voie": "LES REGAINS", "price_per_sqm": null, "date_iso": "2024-03-18", "parcelle": "77031000XA0244", "addr_num": ""}}, {"type": "Feature", "geometry": {"type": "Point", "coordinates": [2.929558, 48.665238]}, "properties": {"year": 2024, "valeur_fonciere": 861701.0, "type_local": null, "surface_reelle_bati": null, "nombre_pieces_principales": null, "adresse_nom_voie": "LES REGAINS", "price_per_sqm": null, "date_iso": "2024-03-18", "parcelle": "77031000XA0246", "addr_num": ""}}, {"type": "Feature", "geometry": {"type": "Point", "coordinates": [2.919663, 48.667391]}, "properties": {"year": 2024, "valeur_fonciere": 861701.0, "type_local": null, "surface_reelle_bati": null, "nombre_pieces_principales": null, "adresse_nom_voie": "LES SAUVAGEONS", "price_per_sqm": null, "date_iso": "2024-03-18", "parcelle": "77031000ZH0007", "addr_num": ""}}, {"type": "Feature", "geometry": {"type": "Point", "coordinates": [2.920901, 48.666782]}, "properties": {"year": 2024, "valeur_fonciere": 861701.0, "type_local": null, "surface_reelle_bati": null, "nombre_pieces_principales": null, "adresse_nom_voie": "LES SAUVAGEONS", "price_per_sqm": null, "date_iso": "2024-03-18", "parcelle": "77031000ZH0008", "addr_num": ""}}, {"type": "Feature", "geometry": {"type": "Point", "coordinates": [2.925042, 48.68281]}, "properties": {"year": 2024, "valeur_fonciere": 245000.0, "type_local": null, "surface_reelle_bati": null, "nombre_pieces_principales": null, "adresse_nom_voie": "CHE DES GENDARMES", "price_per_sqm": null, "date_iso": "2024-06-12", "parcelle": "77031000AC0205", "addr_num": "4"}}, {"type": "Feature", "geometry": {"type": "Point", "coordinates": [2.924832, 48.68277]}, "properties": {"year": 2024, "valeur_fonciere": 245000.0, "type_local": "Maison", "surface_reelle_bati": 80.0, "nombre_pieces_principales": 4.0, "adresse_nom_voie": "CHE DES GENDARMES", "price_per_sqm": 3062.5, "date_iso": "2024-06-12", "parcelle": "77031000AC0207", "addr_num": "4"}}, {"type": "Feature", "geometry": {"type": "Point", "coordinates": [2.933702, 48.673146]}, "properties": {"year": 2024, "valeur_fonciere": 437900.0, "type_local": "Maison", "surface_reelle_bati": 183.0, "nombre_pieces_principales": 7.0, "adresse_nom_voie": "RTE DE VAUX", "price_per_sqm": 2392.896174863388, "date_iso": "2024-07-05", "parcelle": "77031000AA0048", "addr_num": "15"}}, {"type": "Feature", "geometry": {"type": "Point", "coordinates": [2.933702, 48.673146]}, "properties": {"year": 2024, "valeur_fonciere": 437900.0, "type_local": "Maison", "surface_reelle_bati": 183.0, "nombre_pieces_principales": 7.0, "adresse_nom_voie": "RTE DE VAUX", "price_per_sqm": 2392.896174863388, "date_iso": "2024-07-05", "parcelle": "77031000AA0048", "addr_num": "15"}}, {"type": "Feature", "geometry": {"type": "Point", "coordinates": [2.923797, 48.682902]}, "properties": {"year": 2024, "valeur_fonciere": 465000.0, "type_local": "Maison", "surface_reelle_bati": 190.0, "nombre_pieces_principales": 4.0, "adresse_nom_voie": "CHE DES GENDARMES", "price_per_sqm": 2447.3684210526317, "date_iso": "2024-07-05", "parcelle": "77031000AC0145", "addr_num": "2"}}, {"type": "Feature", "geometry": {"type": "Point", "coordinates": [2.923797, 48.682902]}, "properties": {"year": 2024, "valeur_fonciere": 465000.0, "type_local": "Dépendance", "surface_reelle_bati": null, "nombre_pieces_principales": 0.0, "adresse_nom_voie": "CHE DES GENDARMES", "price_per_sqm": null, "date_iso": "2024-07-05", "parcelle": "77031000AC0145", "addr_num": "2"}}, {"type": "Feature", "geometry": {"type": "Point", "coordinates": [2.923797, 48.682902]}, "properties": {"year": 2024, "valeur_fonciere": 465000.0, "type_local": "Maison", "surface_reelle_bati": 190.0, "nombre_pieces_principales": 4.0, "adresse_nom_voie": "CHE DES GENDARMES", "price_per_sqm": 2447.3684210526317, "date_iso": "2024-07-05", "parcelle": "77031000AC0145", "addr_num": "2"}}, {"type": "Feature", "geometry": {"type": "Point", "coordinates": [2.923797, 48.682902]}, "properties": {"year": 2024, "valeur_fonciere": 465000.0, "type_local": "Dépendance", "surface_reelle_bati": null, "nombre_pieces_principales": 0.0, "adresse_nom_voie": "CHE DES GENDARMES", "price_per_sqm": null, "date_iso": "2024-07-05", "parcelle": "77031000AC0145", "addr_num": "2"}}, {"type": "Feature", "geometry": {"type": "Point", "coordinates": [2.923797, 48.682902]}, "properties": {"year": 2024, "valeur_fonciere": 465000.0, "type_local": "Dépendance", "surface_reelle_bati": null, "nombre_pieces_principales": 0.0, "adresse_nom_voie": "CHE DES GENDARMES", "price_per_sqm": null, "date_iso": "2024-07-05", "parcelle": "77031000AC0145", "addr_num": "2"}}, {"type": "Feature", "geometry": {"type": "Point", "coordinates": [2.923797, 48.682902]}, "properties": {"year": 2024, "valeur_fonciere": 465000.0, "type_local": "Dépendance", "surface_reelle_bati": null, "nombre_pieces_principales": 0.0, "adresse_nom_voie": "CHE DES GENDARMES", "price_per_sqm": null, "date_iso": "2024-07-05", "parcelle": "77031000AC0145", "addr_num": "2"}}, {"type": "Feature", "geometry": {"type": "Point", "coordinates": [2.925234, 48.682162]}, "properties": {"year": 2024, "valeur_fonciere": 735000.0, "type_local": "Maison", "surface_reelle_bati": 290.0, "nombre_pieces_principales": 6.0, "adresse_nom_voie": "RTE DE BERNAY", "price_per_sqm": 2534.4827586206898, "date_iso": "2024-07-22", "parcelle": "77031000AC0179", "addr_num": "19"}}, {"type": "Feature", "geometry": {"type": "Point", "coordinates": [2.925234, 48.682162]}, "properties": {"year": 2024, "valeur_fonciere": 735000.0, "type_local": "Dépendance", "surface_reelle_bati": null, "nombre_pieces_principales": 0.0, "adresse_nom_voie": "RTE DE BERNAY", "price_per_sqm": null, "date_iso": "2024-07-22", "parcelle": "77031000AC0179", "addr_num": "19"}}, {"type": "Feature", "geometry": {"type": "Point", "coordinates": [2.925234, 48.682162]}, "properties": {"year": 2024, "valeur_fonciere": 735000.0, "type_local": "Dépendance", "surface_reelle_bati": null, "nombre_pieces_principales": 0.0, "adresse_nom_voie": "RTE DE BERNAY", "price_per_sqm": null, "date_iso": "2024-07-22", "parcelle": "77031000AC0179", "addr_num": "19"}}, {"type": "Feature", "geometry": {"type": "Point", "coordinates": [2.925234, 48.682162]}, "properties": {"year": 2024, "valeur_fonciere": 735000.0, "type_local": "Maison", "surface_reelle_bati": 290.0, "nombre_pieces_principales": 6.0, "adresse_nom_voie": "RTE DE BERNAY", "price_per_sqm": 2534.4827586206898, "date_iso": "2024-07-22", "parcelle": "77031000AC0179", "addr_num": "19"}}, {"type": "Feature", "geometry": {"type": "Point", "coordinates": [2.912538, 48.65716]}, "properties": {"year": 2024, "valeur_fonciere": 2510.0, "type_local": null, "surface_reelle_bati": null, "nombre_pieces_principales": null, "adresse_nom_voie": "LES JONCS", "price_per_sqm": null, "date_iso": "2024-09-30", "parcelle": "77031000WB0011", "addr_num": ""}}, {"type": "Feature", "geometry": {"type": "Point", "coordinates": [2.924771, 48.685869]}, "properties": {"year": 2025, "valeur_fonciere": 69000.0, "type_local": null, "surface_reelle_bati": null, "nombre_pieces_principales": null, "adresse_nom_voie": "RUE DE LA GARE", "price_per_sqm": null, "date_iso": "2025-01-07", "parcelle": "77031000AC0011", "addr_num": ""}}, {"type": "Feature", "geometry": {"type": "Point", "coordinates": [2.928499, 48.673397]}, "properties": {"year": 2025, "valeur_fonciere": 240000.0, "type_local": null, "surface_reelle_bati": null, "nombre_pieces_principales": null, "adresse_nom_voie": "VAUX", "price_per_sqm": null, "date_iso": "2025-02-06", "parcelle": "770310000C0340", "addr_num": ""}}, {"type": "Feature", "geometry": {"type": "Point", "coordinates": [2.928296, 48.673362]}, "properties": {"year": 2025, "valeur_fonciere": 240000.0, "type_local": null, "surface_reelle_bati": null, "nombre_pieces_principales": null, "adresse_nom_voie": "VAUX", "price_per_sqm": null, "date_iso": "2025-02-06", "parcelle": "770310000C0349", "addr_num": ""}}, {"type": "Feature", "geometry": {"type": "Point", "coordinates": [2.928626, 48.673229]}, "properties": {"year": 2025, "valeur_fonciere": 240000.0, "type_local": "Maison", "surface_reelle_bati": 150.0, "nombre_pieces_principales": 6.0, "adresse_nom_voie": "VAUX", "price_per_sqm": 1600.0, "date_iso": "2025-02-06", "parcelle": "770310000C0909", "addr_num": "5044"}}, {"type": "Feature", "geometry": {"type": "Point", "coordinates": [2.928626, 48.673229]}, "properties": {"year": 2025, "valeur_fonciere": 240000.0, "type_local": "Dépendance", "surface_reelle_bati": null, "nombre_pieces_principales": 0.0, "adresse_nom_voie": "VAUX", "price_per_sqm": null, "date_iso": "2025-02-06", "parcelle": "770310000C0909", "addr_num": "5044"}}, {"type": "Feature", "geometry": {"type": "Point", "coordinates": [2.928626, 48.673229]}, "properties": {"year": 2025, "valeur_fonciere": 240000.0, "type_local": "Maison", "surface_reelle_bati": 150.0, "nombre_pieces_principales": 6.0, "adresse_nom_voie": "VAUX", "price_per_sqm": 1600.0, "date_iso": "2025-02-06", "parcelle": "770310000C0909", "addr_num": "5044"}}, {"type": "Feature", "geometry": {"type": "Point", "coordinates": [2.928626, 48.673229]}, "properties": {"year": 2025, "valeur_fonciere": 240000.0, "type_local": "Dépendance", "surface_reelle_bati": null, "nombre_pieces_principales": 0.0, "adresse_nom_voie": "VAUX", "price_per_sqm": null, "date_iso": "2025-02-06", "parcelle": "770310000C0909", "addr_num": "5044"}}, {"type": "Feature", "geometry": {"type": "Point", "coordinates": [2.928848, 48.672986]}, "properties": {"year": 2025, "valeur_fonciere": 240000.0, "type_local": null, "surface_reelle_bati": null, "nombre_pieces_principales": null, "adresse_nom_voie": "VAUX", "price_per_sqm": null, "date_iso": "2025-02-06", "parcelle": "77031000XA0107", "addr_num": ""}}, {"type": "Feature", "geometry": {"type": "Point", "coordinates": [2.93192, 48.673987]}, "properties": {"year": 2025, "valeur_fonciere": 250000.0, "type_local": "Maison", "surface_reelle_bati": 156.0, "nombre_pieces_principales": 4.0, "adresse_nom_voie": "CHE DU ROSSIGNOL", "price_per_sqm": 1602.5641025641025, "date_iso": "2025-02-25", "parcelle": "77031000AA0008", "addr_num": "4"}}, {"type": "Feature", "geometry": {"type": "Point", "coordinates": [2.935064, 48.677704]}, "properties": {"year": 2025, "valeur_fonciere": 275000.0, "type_local": "Dépendance", "surface_reelle_bati": null, "nombre_pieces_principales": 0.0, "adresse_nom_voie": "RTE DE VILBERT", "price_per_sqm": null, "date_iso": "2025-03-19", "parcelle": "77031000AB0053", "addr_num": "9"}}, {"type": "Feature", "geometry": {"type": "Point", "coordinates": [2.935064, 48.677704]}, "properties": {"year": 2025, "valeur_fonciere": 275000.0, "type_local": "Dépendance", "surface_reelle_bati": null, "nombre_pieces_principales": 0.0, "adresse_nom_voie": "RTE DE VILBERT", "price_per_sqm": null, "date_iso": "2025-03-19", "parcelle": "77031000AB0053", "addr_num": "9"}}, {"type": "Feature", "geometry": {"type": "Point", "coordinates": [2.935064, 48.677704]}, "properties": {"year": 2025, "valeur_fonciere": 275000.0, "type_local": "Maison", "surface_reelle_bati": 161.0, "nombre_pieces_principales": 6.0, "adresse_nom_voie": "RTE DE VILBERT", "price_per_sqm": 1708.0745341614906, "date_iso": "2025-03-19", "parcelle": "77031000AB0053", "addr_num": "9"}}, {"type": "Feature", "geometry": {"type": "Point", "coordinates": [2.935064, 48.677704]}, "properties": {"year": 2025, "valeur_fonciere": 275000.0, "type_local": "Maison", "surface_reelle_bati": 161.0, "nombre_pieces_principales": 6.0, "adresse_nom_voie": "RTE DE VILBERT", "price_per_sqm": 1708.0745341614906, "date_iso": "2025-03-19", "parcelle": "77031000AB0053", "addr_num": "9"}}, {"type": "Feature", "geometry": {"type": "Point", "coordinates": [2.910135, 48.661039]}, "properties": {"year": 2025, "valeur_fonciere": 12336.18, "type_local": null, "surface_reelle_bati": null, "nombre_pieces_principales": null, "adresse_nom_voie": "LE GROS CHENE", "price_per_sqm": null, "date_iso": "2025-04-14", "parcelle": "77031000WA0056", "addr_num": ""}}, {"type": "Feature", "geometry": {"type": "Point", "coordinates": [2.912857, 48.657364]}, "properties": {"year": 2025, "valeur_fonciere": 12336.18, "type_local": null, "surface_reelle_bati": null, "nombre_pieces_principales": null, "adresse_nom_voie": "LES JONCS", "price_per_sqm": null, "date_iso": "2025-04-14", "parcelle": "77031000WB0012", "addr_num": ""}}, {"type": "Feature", "geometry": {"type": "Point", "coordinates": [2.913441, 48.655684]}, "properties": {"year": 2025, "valeur_fonciere": 12336.18, "type_local": null, "surface_reelle_bati": null, "nombre_pieces_principales": null, "adresse_nom_voie": "LES JONCS", "price_per_sqm": null, "date_iso": "2025-04-14", "parcelle": "77031000WB0013", "addr_num": ""}}, {"type": "Feature", "geometry": {"type": "Point", "coordinates": [2.912983, 48.655631]}, "properties": {"year": 2025, "valeur_fonciere": 12336.18, "type_local": null, "surface_reelle_bati": null, "nombre_pieces_principales": null, "adresse_nom_voie": "LES JONCS", "price_per_sqm": null, "date_iso": "2025-04-14", "parcelle": "77031000WB0014", "addr_num": ""}}, {"type": "Feature", "geometry": {"type": "Point", "coordinates": [2.916719, 48.657122]}, "properties": {"year": 2025, "valeur_fonciere": 12336.18, "type_local": null, "surface_reelle_bati": null, "nombre_pieces_principales": null, "adresse_nom_voie": "LES JONCS", "price_per_sqm": null, "date_iso": "2025-04-14", "parcelle": "77031000WB0024", "addr_num": ""}}, {"type": "Feature", "geometry": {"type": "Point", "coordinates": [2.916719, 48.657122]}, "properties": {"year": 2025, "valeur_fonciere": 12336.18, "type_local": null, "surface_reelle_bati": null, "nombre_pieces_principales": null, "adresse_nom_voie": "LES JONCS", "price_per_sqm": null, "date_iso": "2025-04-14", "parcelle": "77031000WB0024", "addr_num": ""}}, {"type": "Feature", "geometry": {"type": "Point", "coordinates": [2.916719, 48.657122]}, "properties": {"year": 2025, "valeur_fonciere": 12336.18, "type_local": null, "surface_reelle_bati": null, "nombre_pieces_principales": null, "adresse_nom_voie": "LES JONCS", "price_per_sqm": null, "date_iso": "2025-04-14", "parcelle": "77031000WB0024", "addr_num": ""}}, {"type": "Feature", "geometry": {"type": "Point", "coordinates": [2.921407, 48.658919]}, "properties": {"year": 2025, "valeur_fonciere": 185000.0, "type_local": "Maison", "surface_reelle_bati": 107.0, "nombre_pieces_principales": 4.0, "adresse_nom_voie": "POMPIERRE", "price_per_sqm": 1728.9719626168223, "date_iso": "2025-06-02", "parcelle": "77031000AD0005", "addr_num": "17"}}, {"type": "Feature", "geometry": {"type": "Point", "coordinates": [2.921581, 48.658156]}, "properties": {"year": 2025, "valeur_fonciere": 602100.0, "type_local": "Maison", "surface_reelle_bati": 252.0, "nombre_pieces_principales": 10.0, "adresse_nom_voie": "POMPIERRE", "price_per_sqm": 2389.285714285714, "date_iso": "2025-06-20", "parcelle": "77031000AD0029", "addr_num": "11"}}, {"type": "Feature", "geometry": {"type": "Point", "coordinates": [2.921581, 48.658156]}, "properties": {"year": 2025, "valeur_fonciere": 602100.0, "type_local": "Dépendance", "surface_reelle_bati": null, "nombre_pieces_principales": 0.0, "adresse_nom_voie": "POMPIERRE", "price_per_sqm": null, "date_iso": "2025-06-20", "parcelle": "77031000AD0029", "addr_num": "11"}}, {"type": "Feature", "geometry": {"type": "Point", "coordinates": [2.921581, 48.658156]}, "properties": {"year": 2025, "valeur_fonciere": 602100.0, "type_local": "Dépendance", "surface_reelle_bati": null, "nombre_pieces_principales": 0.0, "adresse_nom_voie": "POMPIERRE", "price_per_sqm": null, "date_iso": "2025-06-20", "parcelle": "77031000AD0029", "addr_num": "11"}}, {"type": "Feature", "geometry": {"type": "Point", "coordinates": [2.921581, 48.658156]}, "properties": {"year": 2025, "valeur_fonciere": 602100.0, "type_local": "Maison", "surface_reelle_bati": 252.0, "nombre_pieces_principales": 10.0, "adresse_nom_voie": "POMPIERRE", "price_per_sqm": 2389.285714285714, "date_iso": "2025-06-20", "parcelle": "77031000AD0029", "addr_num": "11"}}, {"type": "Feature", "geometry": {"type": "Point", "coordinates": [2.921581, 48.658156]}, "properties": {"year": 2025, "valeur_fonciere": 602100.0, "type_local": "Dépendance", "surface_reelle_bati": null, "nombre_pieces_principales": 0.0, "adresse_nom_voie": "POMPIERRE", "price_per_sqm": null, "date_iso": "2025-06-20", "parcelle": "77031000AD0029", "addr_num": "11"}}, {"type": "Feature", "geometry": {"type": "Point", "coordinates": [2.921581, 48.658156]}, "properties": {"year": 2025, "valeur_fonciere": 602100.0, "type_local": "Dépendance", "surface_reelle_bati": null, "nombre_pieces_principales": 0.0, "adresse_nom_voie": "POMPIERRE", "price_per_sqm": null, "date_iso": "2025-06-20", "parcelle": "77031000AD0029", "addr_num": "11"}}, {"type": "Feature", "geometry": {"type": "Point", "coordinates": [2.937525, 48.676325]}, "properties": {"year": 2025, "valeur_fonciere": 89000.0, "type_local": "Maison", "surface_reelle_bati": 35.0, "nombre_pieces_principales": 1.0, "adresse_nom_voie": "AV DU GEN LECLERC", "price_per_sqm": 2542.8571428571427, "date_iso": "2025-06-19", "parcelle": "77031000AB0159", "addr_num": "20"}}, {"type": "Feature", "geometry": {"type": "Point", "coordinates": [2.922755, 48.682703]}, "properties": {"year": 2025, "valeur_fonciere": 195000.0, "type_local": null, "surface_reelle_bati": null, "nombre_pieces_principales": null, "adresse_nom_voie": "RTE DE CHAUMES", "price_per_sqm": null, "date_iso": "2025-06-25", "parcelle": "77031000AC0138", "addr_num": "1"}}, {"type": "Feature", "geometry": {"type": "Point", "coordinates": [2.922723, 48.682948]}, "properties": {"year": 2025, "valeur_fonciere": 195000.0, "type_local": "Maison", "surface_reelle_bati": 94.0, "nombre_pieces_principales": 4.0, "adresse_nom_voie": "RTE DE CHAUMES", "price_per_sqm": 2074.468085106383, "date_iso": "2025-06-25", "parcelle": "77031000AC0139", "addr_num": "1"}}, {"type": "Feature", "geometry": {"type": "Point", "coordinates": [2.922723, 48.682948]}, "properties": {"year": 2025, "valeur_fonciere": 195000.0, "type_local": "Dépendance", "surface_reelle_bati": null, "nombre_pieces_principales": 0.0, "adresse_nom_voie": "RTE DE CHAUMES", "price_per_sqm": null, "date_iso": "2025-06-25", "parcelle": "77031000AC0139", "addr_num": "1"}}, {"type": "Feature", "geometry": {"type": "Point", "coordinates": [2.947315, 48.685393]}, "properties": {"year": 2025, "valeur_fonciere": 800.0, "type_local": null, "surface_reelle_bati": null, "nombre_pieces_principales": null, "adresse_nom_voie": "FLEUREUSE", "price_per_sqm": null, "date_iso": "2025-06-30", "parcelle": "77031000ZL0047", "addr_num": ""}}, {"type": "Feature", "geometry": {"type": "Point", "coordinates": [2.925535, 48.684695]}, "properties": {"year": 2025, "valeur_fonciere": 192500.0, "type_local": "Maison", "surface_reelle_bati": 101.0, "nombre_pieces_principales": 5.0, "adresse_nom_voie": "RTE DE ROZAY", "price_per_sqm": 1905.9405940594058, "date_iso": "2025-06-17", "parcelle": "77031000AC0029", "addr_num": "7"}}, {"type": "Feature", "geometry": {"type": "Point", "coordinates": [2.925535, 48.684695]}, "properties": {"year": 2025, "valeur_fonciere": 192500.0, "type_local": "Dépendance", "surface_reelle_bati": null, "nombre_pieces_principales": 0.0, "adresse_nom_voie": "RTE DE ROZAY", "price_per_sqm": null, "date_iso": "2025-06-17", "parcelle": "77031000AC0029", "addr_num": "7"}}, {"type": "Feature", "geometry": {"type": "Point", "coordinates": [2.925535, 48.684695]}, "properties": {"year": 2025, "valeur_fonciere": 192500.0, "type_local": "Dépendance", "surface_reelle_bati": null, "nombre_pieces_principales": 0.0, "adresse_nom_voie": "RTE DE ROZAY", "price_per_sqm": null, "date_iso": "2025-06-17", "parcelle": "77031000AC0029", "addr_num": "7"}}, {"type": "Feature", "geometry": {"type": "Point", "coordinates": [2.925305, 48.683248]}, "properties": {"year": 2025, "valeur_fonciere": 132000.0, "type_local": null, "surface_reelle_bati": null, "nombre_pieces_principales": null, "adresse_nom_voie": "CHE DES GENDARMES", "price_per_sqm": null, "date_iso": "2025-08-06", "parcelle": "77031000AC0211", "addr_num": "11"}}, {"type": "Feature", "geometry": {"type": "Point", "coordinates": [2.925237, 48.683267]}, "properties": {"year": 2025, "valeur_fonciere": 132000.0, "type_local": null, "surface_reelle_bati": null, "nombre_pieces_principales": null, "adresse_nom_voie": "CHE DES GENDARMES", "price_per_sqm": null, "date_iso": "2025-08-06", "parcelle": "77031000AC0214", "addr_num": "11"}}, {"type": "Feature", "geometry": {"type": "Point", "coordinates": [2.957129, 48.670422]}, "properties": {"year": 2025, "valeur_fonciere": 120000.0, "type_local": null, "surface_reelle_bati": null, "nombre_pieces_principales": null, "adresse_nom_voie": "LA GARENNE DU HT DE ROME", "price_per_sqm": null, "date_iso": "2025-08-29", "parcelle": "77031000ZI0008", "addr_num": ""}}, {"type": "Feature", "geometry": {"type": "Point", "coordinates": [2.923509, 48.684809]}, "properties": {"year": 2025, "valeur_fonciere": 147000.0, "type_local": "Maison", "surface_reelle_bati": 50.0, "nombre_pieces_principales": 3.0, "adresse_nom_voie": "RTE DE ROZAY", "price_per_sqm": 2940.0, "date_iso": "2025-10-08", "parcelle": "77031000AC0087", "addr_num": "2"}}, {"type": "Feature", "geometry": {"type": "Point", "coordinates": [2.921366, 48.657864]}, "properties": {"year": 2025, "valeur_fonciere": 240000.0, "type_local": null, "surface_reelle_bati": null, "nombre_pieces_principales": null, "adresse_nom_voie": "RUE PRINCIPALE A POMPIERRE", "price_per_sqm": null, "date_iso": "2025-09-18", "parcelle": "77031000AD0031", "addr_num": "7"}}, {"type": "Feature", "geometry": {"type": "Point", "coordinates": [2.921728, 48.65789]}, "properties": {"year": 2025, "valeur_fonciere": 240000.0, "type_local": "Maison", "surface_reelle_bati": 83.0, "nombre_pieces_principales": 5.0, "adresse_nom_voie": "POMPIERRE", "price_per_sqm": 2891.5662650602408, "date_iso": "2025-09-18", "parcelle": "77031000AD0034", "addr_num": "7"}}, {"type": "Feature", "geometry": {"type": "Point", "coordinates": [2.922053, 48.657854]}, "properties": {"year": 2025, "valeur_fonciere": 240000.0, "type_local": "Dépendance", "surface_reelle_bati": null, "nombre_pieces_principales": 0.0, "adresse_nom_voie": "GRANDE RUE", "price_per_sqm": null, "date_iso": "2025-09-18", "parcelle": "77031000AD0042", "addr_num": "5009"}}, {"type": "Feature", "geometry": {"type": "Point", "coordinates": [2.922133, 48.657839]}, "properties": {"year": 2025, "valeur_fonciere": 240000.0, "type_local": "Dépendance", "surface_reelle_bati": null, "nombre_pieces_principales": 0.0, "adresse_nom_voie": "POMPIERRE", "price_per_sqm": null, "date_iso": "2025-09-18", "parcelle": "77031000AD0044", "addr_num": "5295"}}, {"type": "Feature", "geometry": {"type": "Point", "coordinates": [2.922133, 48.657839]}, "properties": {"year": 2025, "valeur_fonciere": 240000.0, "type_local": "Dépendance", "surface_reelle_bati": null, "nombre_pieces_principales": 0.0, "adresse_nom_voie": "POMPIERRE", "price_per_sqm": null, "date_iso": "2025-09-18", "parcelle": "77031000AD0044", "addr_num": "5295"}}, {"type": "Feature", "geometry": {"type": "Point", "coordinates": [2.922133, 48.657839]}, "properties": {"year": 2025, "valeur_fonciere": 240000.0, "type_local": "Dépendance", "surface_reelle_bati": null, "nombre_pieces_principales": 0.0, "adresse_nom_voie": "POMPIERRE", "price_per_sqm": null, "date_iso": "2025-09-18", "parcelle": "77031000AD0044", "addr_num": "5295"}}, {"type": "Feature", "geometry": {"type": "Point", "coordinates": [2.915338, 48.655127]}, "properties": {"year": 2025, "valeur_fonciere": 300000.0, "type_local": null, "surface_reelle_bati": null, "nombre_pieces_principales": null, "adresse_nom_voie": "LES JONCS", "price_per_sqm": null, "date_iso": "2025-10-21", "parcelle": "77031000WB0018", "addr_num": ""}}, {"type": "Feature", "geometry": {"type": "Point", "coordinates": [2.915338, 48.655127]}, "properties": {"year": 2025, "valeur_fonciere": 300000.0, "type_local": null, "surface_reelle_bati": null, "nombre_pieces_principales": null, "adresse_nom_voie": "LES JONCS", "price_per_sqm": null, "date_iso": "2025-10-21", "parcelle": "77031000WB0018", "addr_num": ""}}, {"type": "Feature", "geometry": {"type": "Point", "coordinates": [2.91441, 48.656783]}, "properties": {"year": 2025, "valeur_fonciere": 300000.0, "type_local": null, "surface_reelle_bati": null, "nombre_pieces_principales": null, "adresse_nom_voie": "LES JONCS", "price_per_sqm": null, "date_iso": "2025-10-21", "parcelle": "77031000WB0022", "addr_num": ""}}, {"type": "Feature", "geometry": {"type": "Point", "coordinates": [2.91441, 48.656783]}, "properties": {"year": 2025, "valeur_fonciere": 300000.0, "type_local": null, "surface_reelle_bati": null, "nombre_pieces_principales": null, "adresse_nom_voie": "LES JONCS", "price_per_sqm": null, "date_iso": "2025-10-21", "parcelle": "77031000WB0022", "addr_num": ""}}, {"type": "Feature", "geometry": {"type": "Point", "coordinates": [2.91441, 48.656783]}, "properties": {"year": 2025, "valeur_fonciere": 300000.0, "type_local": null, "surface_reelle_bati": null, "nombre_pieces_principales": null, "adresse_nom_voie": "LES JONCS", "price_per_sqm": null, "date_iso": "2025-10-21", "parcelle": "77031000WB0022", "addr_num": ""}}, {"type": "Feature", "geometry": {"type": "Point", "coordinates": [2.923576, 48.680294]}, "properties": {"year": 2025, "valeur_fonciere": 300000.0, "type_local": null, "surface_reelle_bati": null, "nombre_pieces_principales": null, "adresse_nom_voie": "PENTE DE BERNAY", "price_per_sqm": null, "date_iso": "2025-10-21", "parcelle": "77031000ZE0073", "addr_num": ""}}, {"type": "Feature", "geometry": {"type": "Point", "coordinates": [2.951321, 48.671785]}, "properties": {"year": 2025, "valeur_fonciere": 300000.0, "type_local": null, "surface_reelle_bati": null, "nombre_pieces_principales": null, "adresse_nom_voie": "LE DSO DE LA GARENNE", "price_per_sqm": null, "date_iso": "2025-10-21", "parcelle": "77031000ZK0029", "addr_num": ""}}, {"type": "Feature", "geometry": {"type": "Point", "coordinates": [2.951321, 48.671785]}, "properties": {"year": 2025, "valeur_fonciere": 300000.0, "type_local": null, "surface_reelle_bati": null, "nombre_pieces_principales": null, "adresse_nom_voie": "LE DSO DE LA GARENNE", "price_per_sqm": null, "date_iso": "2025-10-21", "parcelle": "77031000ZK0029", "addr_num": ""}}, {"type": "Feature", "geometry": {"type": "Point", "coordinates": [2.932427, 48.687481]}, "properties": {"year": 2025, "valeur_fonciere": 300000.0, "type_local": null, "surface_reelle_bati": null, "nombre_pieces_principales": null, "adresse_nom_voie": "LA COUTURE", "price_per_sqm": null, "date_iso": "2025-10-21", "parcelle": "77031000ZL0001", "addr_num": ""}}, {"type": "Feature", "geometry": {"type": "Point", "coordinates": [2.942973, 48.685369]}, "properties": {"year": 2025, "valeur_fonciere": 300000.0, "type_local": null, "surface_reelle_bati": null, "nombre_pieces_principales": null, "adresse_nom_voie": "FLEUREUSE", "price_per_sqm": null, "date_iso": "2025-10-21", "parcelle": "77031000ZL0002", "addr_num": ""}}, {"type": "Feature", "geometry": {"type": "Point", "coordinates": [2.942973, 48.685369]}, "properties": {"year": 2025, "valeur_fonciere": 300000.0, "type_local": null, "surface_reelle_bati": null, "nombre_pieces_principales": null, "adresse_nom_voie": "FLEUREUSE", "price_per_sqm": null, "date_iso": "2025-10-21", "parcelle": "77031000ZL0002", "addr_num": ""}}, {"type": "Feature", "geometry": {"type": "Point", "coordinates": [2.931466, 48.684607]}, "properties": {"year": 2025, "valeur_fonciere": 300000.0, "type_local": null, "surface_reelle_bati": null, "nombre_pieces_principales": null, "adresse_nom_voie": "LA SABLIERE", "price_per_sqm": null, "date_iso": "2025-10-21", "parcelle": "77031000ZL0006", "addr_num": ""}}, {"type": "Feature", "geometry": {"type": "Point", "coordinates": [2.923798, 48.69087]}, "properties": {"year": 2025, "valeur_fonciere": 300000.0, "type_local": null, "surface_reelle_bati": null, "nombre_pieces_principales": null, "adresse_nom_voie": "LES BASSES COMMUNES", "price_per_sqm": null, "date_iso": "2025-10-21", "parcelle": "77031000ZM0004", "addr_num": ""}}, {"type": "Feature", "geometry": {"type": "Point", "coordinates": [2.911681, 48.659271]}, "properties": {"year": 2025, "valeur_fonciere": 6174.0, "type_local": null, "surface_reelle_bati": null, "nombre_pieces_principales": null, "adresse_nom_voie": "LES MARNIERES", "price_per_sqm": null, "date_iso": "2025-10-29", "parcelle": "77031000WA0016", "addr_num": ""}}, {"type": "Feature", "geometry": {"type": "Point", "coordinates": [2.911434, 48.65684]}, "properties": {"year": 2025, "valeur_fonciere": 6174.0, "type_local": null, "surface_reelle_bati": null, "nombre_pieces_principales": null, "adresse_nom_voie": "LES JONCS", "price_per_sqm": null, "date_iso": "2025-10-29", "parcelle": "77031000WB0002", "addr_num": ""}}, {"type": "Feature", "geometry": {"type": "Point", "coordinates": [2.911558, 48.656859]}, "properties": {"year": 2025, "valeur_fonciere": 6174.0, "type_local": null, "surface_reelle_bati": null, "nombre_pieces_principales": null, "adresse_nom_voie": "LES JONCS", "price_per_sqm": null, "date_iso": "2025-10-29", "parcelle": "77031000WB0003", "addr_num": ""}}, {"type": "Feature", "geometry": {"type": "Point", "coordinates": [2.912028, 48.658177]}, "properties": {"year": 2025, "valeur_fonciere": 11400.0, "type_local": null, "surface_reelle_bati": null, "nombre_pieces_principales": null, "adresse_nom_voie": "LES TROUS GUILLOT", "price_per_sqm": null, "date_iso": "2025-11-04", "parcelle": "77031000WA0047", "addr_num": ""}}, {"type": "Feature", "geometry": {"type": "Point", "coordinates": [2.949542, 48.671813]}, "properties": {"year": 2025, "valeur_fonciere": 4800.0, "type_local": null, "surface_reelle_bati": null, "nombre_pieces_principales": null, "adresse_nom_voie": "LE DSO DE LA GARENNE", "price_per_sqm": null, "date_iso": "2025-11-10", "parcelle": "77031000ZK0030", "addr_num": ""}}, {"type": "Feature", "geometry": {"type": "Point", "coordinates": [2.922649, 48.683557]}, "properties": {"year": 2025, "valeur_fonciere": 235000.0, "type_local": null, "surface_reelle_bati": null, "nombre_pieces_principales": null, "adresse_nom_voie": "RUE ROBERT GOUBY", "price_per_sqm": null, "date_iso": "2025-11-12", "parcelle": "77031000AC0114", "addr_num": "1"}}, {"type": "Feature", "geometry": {"type": "Point", "coordinates": [2.922775, 48.683427]}, "properties": {"year": 2025, "valeur_fonciere": 235000.0, "type_local": "Maison", "surface_reelle_bati": 102.0, "nombre_pieces_principales": 4.0, "adresse_nom_voie": "RUE ROBERT GOUBY", "price_per_sqm": 2303.921568627451, "date_iso": "2025-11-12", "parcelle": "77031000AC0115", "addr_num": "1"}}, {"type": "Feature", "geometry": {"type": "Point", "coordinates": [2.929189, 48.677939]}, "properties": {"year": 2025, "valeur_fonciere": 3000.0, "type_local": null, "surface_reelle_bati": null, "nombre_pieces_principales": null, "adresse_nom_voie": "LA COURTE QUEUE", "price_per_sqm": null, "date_iso": "2025-11-26", "parcelle": "77031000XA0051", "addr_num": ""}}, {"type": "Feature", "geometry": {"type": "Point", "coordinates": [2.931769, 48.663471]}, "properties": {"year": 2025, "valeur_fonciere": 10000.0, "type_local": "Maison", "surface_reelle_bati": 50.0, "nombre_pieces_principales": 3.0, "adresse_nom_voie": "SEGRES", "price_per_sqm": 200.0, "date_iso": "2025-11-25", "parcelle": "77031000WB0069", "addr_num": "5033"}}, {"type": "Feature", "geometry": {"type": "Point", "coordinates": [2.931769, 48.663471]}, "properties": {"year": 2025, "valeur_fonciere": 10000.0, "type_local": "Maison", "surface_reelle_bati": 50.0, "nombre_pieces_principales": 3.0, "adresse_nom_voie": "SEGRES", "price_per_sqm": 200.0, "date_iso": "2025-11-25", "parcelle": "77031000WB0069", "addr_num": "5033"}}, {"type": "Feature", "geometry": {"type": "Point", "coordinates": [2.931769, 48.663471]}, "properties": {"year": 2025, "valeur_fonciere": 10000.0, "type_local": "Local industriel. commercial ou assimilé", "surface_reelle_bati": null, "nombre_pieces_principales": 0.0, "adresse_nom_voie": "SEGRES", "price_per_sqm": null, "date_iso": "2025-11-25", "parcelle": "77031000WB0069", "addr_num": "5033"}}, {"type": "Feature", "geometry": {"type": "Point", "coordinates": [2.931769, 48.663471]}, "properties": {"year": 2025, "valeur_fonciere": 10000.0, "type_local": "Local industriel. commercial ou assimilé", "surface_reelle_bati": null, "nombre_pieces_principales": 0.0, "adresse_nom_voie": "SEGRES", "price_per_sqm": null, "date_iso": "2025-11-25", "parcelle": "77031000WB0069", "addr_num": "5033"}}, {"type": "Feature", "geometry": {"type": "Point", "coordinates": [2.931769, 48.663471]}, "properties": {"year": 2025, "valeur_fonciere": 10000.0, "type_local": "Local industriel. commercial ou assimilé", "surface_reelle_bati": null, "nombre_pieces_principales": 0.0, "adresse_nom_voie": "SEGRES", "price_per_sqm": null, "date_iso": "2025-11-25", "parcelle": "77031000WB0069", "addr_num": "5033"}}, {"type": "Feature", "geometry": {"type": "Point", "coordinates": [2.931769, 48.663471]}, "properties": {"year": 2025, "valeur_fonciere": 10000.0, "type_local": "Local industriel. commercial ou assimilé", "surface_reelle_bati": null, "nombre_pieces_principales": 0.0, "adresse_nom_voie": "SEGRES", "price_per_sqm": null, "date_iso": "2025-11-25", "parcelle": "77031000WB0069", "addr_num": "5033"}}, {"type": "Feature", "geometry": {"type": "Point", "coordinates": [2.931769, 48.663471]}, "properties": {"year": 2025, "valeur_fonciere": 10000.0, "type_local": "Maison", "surface_reelle_bati": 50.0, "nombre_pieces_principales": 3.0, "adresse_nom_voie": "SEGRES", "price_per_sqm": 200.0, "date_iso": "2025-11-25", "parcelle": "77031000WB0069", "addr_num": "5033"}}, {"type": "Feature", "geometry": {"type": "Point", "coordinates": [2.931769, 48.663471]}, "properties": {"year": 2025, "valeur_fonciere": 10000.0, "type_local": "Maison", "surface_reelle_bati": 50.0, "nombre_pieces_principales": 3.0, "adresse_nom_voie": "SEGRES", "price_per_sqm": 200.0, "date_iso": "2025-11-25", "parcelle": "77031000WB0069", "addr_num": "5033"}}, {"type": "Feature", "geometry": {"type": "Point", "coordinates": [2.931769, 48.663471]}, "properties": {"year": 2025, "valeur_fonciere": 10000.0, "type_local": "Local industriel. commercial ou assimilé", "surface_reelle_bati": null, "nombre_pieces_principales": 0.0, "adresse_nom_voie": "SEGRES", "price_per_sqm": null, "date_iso": "2025-11-25", "parcelle": "77031000WB0069", "addr_num": "5033"}}, {"type": "Feature", "geometry": {"type": "Point", "coordinates": [2.931769, 48.663471]}, "properties": {"year": 2025, "valeur_fonciere": 10000.0, "type_local": "Maison", "surface_reelle_bati": 50.0, "nombre_pieces_principales": 3.0, "adresse_nom_voie": "SEGRES", "price_per_sqm": 200.0, "date_iso": "2025-11-25", "parcelle": "77031000WB0069", "addr_num": "5033"}}, {"type": "Feature", "geometry": {"type": "Point", "coordinates": [2.928686, 48.662179]}, "properties": {"year": 2025, "valeur_fonciere": 10000.0, "type_local": null, "surface_reelle_bati": null, "nombre_pieces_principales": null, "adresse_nom_voie": "LES CLOS", "price_per_sqm": null, "date_iso": "2025-11-25", "parcelle": "77031000WB0073", "addr_num": ""}}]}