{"type": "FeatureCollection", "features": [{"type": "Feature", "geometry": {"type": "Point", "coordinates": [2.767948, 48.860018]}, "properties": {"id_parcelle": "77111000AL0253", "address": "4 RUE DU PRE VERSON", "sales": 101, "median_price": 223000.0, "median_price_per_sqm": 3483.5087719298244, "median_rooms": 0.0, "first_sale": "2022-03-31", "last_sale": "2025-07-31"}}, {"type": "Feature", "geometry": {"type": "Point", "coordinates": [2.774422, 48.858954]}, "properties": {"id_parcelle": "77111000AL0222", "address": "24 AV HERGE", "sales": 86, "median_price": 720000.0, "median_price_per_sqm": 58500.0, "median_rooms": 0.0, "first_sale": "2021-01-21", "last_sale": "2024-12-18"}}, {"type": "Feature", "geometry": {"type": "Point", "coordinates": [2.775749, 48.85803]}, "properties": {"id_parcelle": "77111000AL0139", "address": "20 RUE DES GRANDS PRES", "sales": 69, "median_price": 300000.0, "median_price_per_sqm": 4912.141393442623, "median_rooms": 0.0, "first_sale": "2021-01-18", "last_sale": "2025-10-06"}}, {"type": "Feature", "geometry": {"type": "Point", "coordinates": [2.774472, 48.857521]}, "properties": {"id_parcelle": "77111000AL0153", "address": "9001 RUE DES GRANDS PRES", "sales": 67, "median_price": 312300.0, "median_price_per_sqm": 5008.025568181818, "median_rooms": 0.0, "first_sale": "2021-01-07", "last_sale": "2025-10-17"}}, {"type": "Feature", "geometry": {"type": "Point", "coordinates": [2.772305, 48.856415]}, "properties": {"id_parcelle": "77111000AL0064", "address": "9001 RUE DE LA GALMY", "sales": 62, "median_price": 265400.0, "median_price_per_sqm": 4810.126582278481, "median_rooms": 0.0, "first_sale": "2021-01-05", "last_sale": "2025-12-23"}}, {"type": "Feature", "geometry": {"type": "Point", "coordinates": [2.767438, 48.878941]}, "properties": {"id_parcelle": "77111000AE0754", "address": "3 RUE D ORSONVILLE", "sales": 60, "median_price": 194037.1, "median_price_per_sqm": 3534.9196666666667, "median_rooms": 0.0, "first_sale": "2021-08-06", "last_sale": "2025-05-26"}}, {"type": "Feature", "geometry": {"type": "Point", "coordinates": [2.7733, 48.855832]}, "properties": {"id_parcelle": "77111000AL0076", "address": "2 RUE DE LA FONTAINE ROUGE", "sales": 56, "median_price": 278000.0, "median_price_per_sqm": 4724.137931034483, "median_rooms": 0.0, "first_sale": "2021-03-08", "last_sale": "2025-09-12"}}, {"type": "Feature", "geometry": {"type": "Point", "coordinates": [2.77281, 48.87914]}, "properties": {"id_parcelle": "77111000YA0196", "address": "16 RUE DU CLOS GIRARD", "sales": 44, "median_price": 258000.0, "median_price_per_sqm": 4551.724137931034, "median_rooms": 0.0, "first_sale": "2021-03-17", "last_sale": "2025-07-28"}}, {"type": "Feature", "geometry": {"type": "Point", "coordinates": [2.772502, 48.860487]}, "properties": {"id_parcelle": "77111000AL0234", "address": "18 RUE HADDOCK", "sales": 43, "median_price": 252384.0, "median_price_per_sqm": 3931.5982384823847, "median_rooms": 0.0, "first_sale": "2021-06-21", "last_sale": "2025-12-30"}}, {"type": "Feature", "geometry": {"type": "Point", "coordinates": [2.768198, 48.878581]}, "properties": {"id_parcelle": "77111000AE0755", "address": "4 RUE D ORSONVILLE", "sales": 36, "median_price": 313400.0, "median_price_per_sqm": 4671.875, "median_rooms": 0.0, "first_sale": "2021-04-09", "last_sale": "2025-07-01"}}, {"type": "Feature", "geometry": {"type": "Point", "coordinates": [2.768703, 48.85911]}, "properties": {"id_parcelle": "77111000AL0221", "address": "5 RUE DU PRE VERSON", "sales": 36, "median_price": 215108.0, "median_price_per_sqm": 3378.6651288056205, "median_rooms": 0.0, "first_sale": "2022-12-15", "last_sale": "2024-06-27"}}, {"type": "Feature", "geometry": {"type": "Point", "coordinates": [2.772702, 48.858029]}, "properties": {"id_parcelle": "77111000AL0183", "address": "12 AV HERGE", "sales": 32, "median_price": 353250.0, "median_price_per_sqm": 5287.227272727273, "median_rooms": 0.0, "first_sale": "2021-03-01", "last_sale": "2025-02-21"}}, {"type": "Feature", "geometry": {"type": "Point", "coordinates": [2.766921, 48.877186]}, "properties": {"id_parcelle": "77111000AH0128", "address": "9001 RUE DES FERMES", "sales": 29, "median_price": 271300.0, "median_price_per_sqm": 4098.214285714285, "median_rooms": 0.0, "first_sale": "2021-02-02", "last_sale": "2025-12-22"}}, {"type": "Feature", "geometry": {"type": "Point", "coordinates": [2.772515, 48.858889]}, "properties": {"id_parcelle": "77111000AL0217", "address": "30 RUE DU FOSSE MIGNARD", "sales": 28, "median_price": 409000.0, "median_price_per_sqm": 5193.545866541646, "median_rooms": 0.0, "first_sale": "2022-07-11", "last_sale": "2025-12-10"}}, {"type": "Feature", "geometry": {"type": "Point", "coordinates": [2.769698, 48.858038]}, "properties": {"id_parcelle": "77111000AL0197", "address": "3 PL NELSON MANDELA", "sales": 27, "median_price": 328000.0, "median_price_per_sqm": 5777.777777777777, "median_rooms": 0.0, "first_sale": "2021-01-13", "last_sale": "2025-12-30"}}, {"type": "Feature", "geometry": {"type": "Point", "coordinates": [2.771606, 48.858638]}, "properties": {"id_parcelle": "77111000AL0189", "address": "2 RUE DU FOSSE MIGNARD", "sales": 26, "median_price": 462375.0, "median_price_per_sqm": 5928.571428571428, "median_rooms": 0.0, "first_sale": "2022-03-09", "last_sale": "2025-08-05"}}, {"type": "Feature", "geometry": {"type": "Point", "coordinates": [2.772672, 48.855586]}, "properties": {"id_parcelle": "77111000AL0116", "address": "9001 RUE DE LA FONTAINE ROUGE", "sales": 26, "median_price": 290000.0, "median_price_per_sqm": 4959.677419354839, "median_rooms": 0.0, "first_sale": "2021-06-18", "last_sale": "2025-08-25"}}, {"type": "Feature", "geometry": {"type": "Point", "coordinates": [2.761528, 48.877188]}, "properties": {"id_parcelle": "77111000AH0301", "address": "2 PAS DU VIEUX CHENE", "sales": 25, "median_price": 286500.0, "median_price_per_sqm": 4761.9047619047615, "median_rooms": 0.0, "first_sale": "2021-01-08", "last_sale": "2025-12-11"}}, {"type": "Feature", "geometry": {"type": "Point", "coordinates": [2.772191, 48.878762]}, "properties": {"id_parcelle": "77111000YA0466", "address": "10 RUE DU CLOS GIRARD", "sales": 24, "median_price": 285000.0, "median_price_per_sqm": 4014.4927536231885, "median_rooms": 0.0, "first_sale": "2021-07-21", "last_sale": "2024-05-30"}}, {"type": "Feature", "geometry": {"type": "Point", "coordinates": [2.76897, 48.878093]}, "properties": {"id_parcelle": "77111000AE0631", "address": "4 PAS DU FOUR", "sales": 23, "median_price": 239000.0, "median_price_per_sqm": 4231.175326479578, "median_rooms": 0.0, "first_sale": "2021-04-19", "last_sale": "2025-09-09"}}, {"type": "Feature", "geometry": {"type": "Point", "coordinates": [2.765976, 48.878959]}, "properties": {"id_parcelle": "77111000AE0676", "address": "1 PL CECILE SABOURAUD", "sales": 23, "median_price": 244000.0, "median_price_per_sqm": 4166.666666666667, "median_rooms": 0.0, "first_sale": "2021-07-05", "last_sale": "2025-12-23"}}, {"type": "Feature", "geometry": {"type": "Point", "coordinates": [2.773244, 48.856718]}, "properties": {"id_parcelle": "77111000AL0180", "address": "1 RUE D ARIANE", "sales": 21, "median_price": 315000.0, "median_price_per_sqm": 4693.840579710145, "median_rooms": 0.0, "first_sale": "2022-01-06", "last_sale": "2025-11-13"}}, {"type": "Feature", "geometry": {"type": "Point", "coordinates": [2.770865, 48.879489]}, "properties": {"id_parcelle": "77111000YA0461", "address": "26 ALL DES MARAICHERS", "sales": 21, "median_price": 226500.0, "median_price_per_sqm": 4929.6875, "median_rooms": 0.0, "first_sale": "2021-06-09", "last_sale": "2025-12-23"}}, {"type": "Feature", "geometry": {"type": "Point", "coordinates": [2.772361, 48.859374]}, "properties": {"id_parcelle": "77111000AL0233", "address": "49 RUE DU PRE VERSON", "sales": 21, "median_price": 355000.0, "median_price_per_sqm": 5304.878048780488, "median_rooms": 0.0, "first_sale": "2021-12-13", "last_sale": "2025-06-24"}}, {"type": "Feature", "geometry": {"type": "Point", "coordinates": [2.770124, 48.858291]}, "properties": {"id_parcelle": "77111000AL0209", "address": "20 RUE D ARIANE", "sales": 18, "median_price": 479500.0, "median_price_per_sqm": 5519.069767441861, "median_rooms": 0.0, "first_sale": "2021-04-14", "last_sale": "2025-12-18"}}, {"type": "Feature", "geometry": {"type": "Point", "coordinates": [2.786446, 48.866815]}, "properties": {"id_parcelle": "77111000AK0145", "address": "9001 AV PAUL SERAMY", "sales": 18, "median_price": 16726540.0, "median_price_per_sqm": 14050.852106673698, "median_rooms": 0.0, "first_sale": "2025-03-28", "last_sale": "2025-03-28"}}, {"type": "Feature", "geometry": {"type": "Point", "coordinates": [2.769346, 48.859126]}, "properties": {"id_parcelle": "77111000AL0245", "address": "10 PL NELSON MANDELA", "sales": 17, "median_price": 558000.0, "median_price_per_sqm": 46500.0, "median_rooms": 0.0, "first_sale": "2023-10-16", "last_sale": "2025-08-01"}}, {"type": "Feature", "geometry": {"type": "Point", "coordinates": [2.773493, 48.878863]}, "properties": {"id_parcelle": "77111000YA0398", "address": "5 ALL DES MARAICHERS", "sales": 16, "median_price": 302250.0, "median_price_per_sqm": 4661.016949152542, "median_rooms": 0.0, "first_sale": "2021-05-31", "last_sale": "2024-05-17"}}, {"type": "Feature", "geometry": {"type": "Point", "coordinates": [2.768861, 48.860074]}, "properties": {"id_parcelle": "77111000AL0248", "address": "36 RUE D ARIANE", "sales": 16, "median_price": 282636.0, "median_price_per_sqm": 5508.375420875421, "median_rooms": 0.0, "first_sale": "2021-11-30", "last_sale": "2025-08-28"}}, {"type": "Feature", "geometry": {"type": "Point", "coordinates": [2.772123, 48.855772]}, "properties": {"id_parcelle": "77111000AL0118", "address": "9002 RUE DE LA GALMY", "sales": 16, "median_price": 299000.0, "median_price_per_sqm": 4875.0, "median_rooms": 0.0, "first_sale": "2021-09-03", "last_sale": "2025-01-10"}}, {"type": "Feature", "geometry": {"type": "Point", "coordinates": [2.763145, 48.880743]}, "properties": {"id_parcelle": "77111000AE0718", "address": "4 RLE DES PETITS PRES", "sales": 14, "median_price": 760000.0, "median_price_per_sqm": 7600.0, "median_rooms": 0.0, "first_sale": "2023-08-11", "last_sale": "2023-08-11"}}, {"type": "Feature", "geometry": {"type": "Point", "coordinates": [2.771748, 48.855642]}, "properties": {"id_parcelle": "77111000AL0067", "address": "7 RUE DE LA GALMY", "sales": 14, "median_price": 772200.0, "median_price_per_sqm": 51200.0, "median_rooms": 0.0, "first_sale": "2021-11-09", "last_sale": "2025-09-30"}}, {"type": "Feature", "geometry": {"type": "Point", "coordinates": [2.765847, 48.876879]}, "properties": {"id_parcelle": "77111000AH0120", "address": "9001 CHE DES VERGERS", "sales": 13, "median_price": 280500.0, "median_price_per_sqm": 4700.54945054945, "median_rooms": 0.0, "first_sale": "2022-02-28", "last_sale": "2025-01-13"}}, {"type": "Feature", "geometry": {"type": "Point", "coordinates": [2.765437, 48.877961]}, "properties": {"id_parcelle": "77111000AH0152", "address": "9001 PARC DE CHESSY", "sales": 13, "median_price": 227200.0, "median_price_per_sqm": 4532.272727272727, "median_rooms": 0.0, "first_sale": "2022-03-02", "last_sale": "2025-01-24"}}, {"type": "Feature", "geometry": {"type": "Point", "coordinates": [2.764964, 48.878902]}, "properties": {"id_parcelle": "77111000AE0665", "address": "37 AV THIBAUD DE CHAMPAGNE", "sales": 12, "median_price": 293000.0, "median_price_per_sqm": 4346.2962962962965, "median_rooms": 0.0, "first_sale": "2021-11-22", "last_sale": "2025-02-05"}}, {"type": "Feature", "geometry": {"type": "Point", "coordinates": [2.764148, 48.880373]}, "properties": {"id_parcelle": "77111000AE0588", "address": "9001 RUE DE LA MARNE", "sales": 11, "median_price": 259000.0, "median_price_per_sqm": 4106.382978723404, "median_rooms": 0.0, "first_sale": "2021-06-03", "last_sale": "2022-07-20"}}, {"type": "Feature", "geometry": {"type": "Point", "coordinates": [2.772935, 48.858183]}, "properties": {"id_parcelle": "77111000AL0228", "address": "16 AV HERGE", "sales": 10, "median_price": 341650.0, "median_price_per_sqm": 5151.515151515152, "median_rooms": 1.0, "first_sale": "2022-04-14", "last_sale": "2025-11-28"}}, {"type": "Feature", "geometry": {"type": "Point", "coordinates": [2.753153, 48.876965]}, "properties": {"id_parcelle": "77111000AH0164", "address": "17 CHE DE L ORANGERIE", "sales": 10, "median_price": 759300.0, "median_price_per_sqm": 12942.613636363636, "median_rooms": 0.0, "first_sale": "2022-07-22", "last_sale": "2022-07-22"}}, {"type": "Feature", "geometry": {"type": "Point", "coordinates": [2.773035, 48.857375]}, "properties": {"id_parcelle": "77111000AL0163", "address": "1 RUE DES GRANDS PRES", "sales": 9, "median_price": 115000.0, "median_price_per_sqm": 3953.4883720930234, "median_rooms": 0.0, "first_sale": "2022-09-13", "last_sale": "2025-10-14"}}, {"type": "Feature", "geometry": {"type": "Point", "coordinates": [2.770887, 48.859039]}, "properties": {"id_parcelle": "77111000AL0239", "address": "2 PAS DE LA CHENELETTE", "sales": 9, "median_price": 390000.0, "median_price_per_sqm": null, "median_rooms": 0.0, "first_sale": "2021-05-26", "last_sale": "2025-08-05"}}, {"type": "Feature", "geometry": {"type": "Point", "coordinates": [2.769405, 48.886873]}, "properties": {"id_parcelle": "77111000AD0787", "address": "53 RUE DES COULOMMIERES", "sales": 8, "median_price": 560000.0, "median_price_per_sqm": 6222.222222222223, "median_rooms": 2.0, "first_sale": "2022-02-24", "last_sale": "2024-06-12"}}, {"type": "Feature", "geometry": {"type": "Point", "coordinates": [2.768014, 48.882312]}, "properties": {"id_parcelle": "77111000AE0764", "address": "10 CHE DES RENEUVES", "sales": 8, "median_price": 439000.0, "median_price_per_sqm": 2310.5263157894738, "median_rooms": 0.0, "first_sale": "2023-07-17", "last_sale": "2023-07-17"}}, {"type": "Feature", "geometry": {"type": "Point", "coordinates": [2.77038, 48.857543]}, "properties": {"id_parcelle": "77111000AL0192", "address": "2 RUE ADELE BLANC SEC", "sales": 8, "median_price": 216324.065, "median_price_per_sqm": 3568.3657069597066, "median_rooms": 1.0, "first_sale": "2021-07-09", "last_sale": "2025-07-23"}}, {"type": "Feature", "geometry": {"type": "Point", "coordinates": [2.765274, 48.884542]}, "properties": {"id_parcelle": "77111000AD0917", "address": "13 RUE DES COULOMMIERES", "sales": 8, "median_price": 555000.0, "median_price_per_sqm": 4625.0, "median_rooms": 0.0, "first_sale": "2025-06-06", "last_sale": "2025-06-06"}}, {"type": "Feature", "geometry": {"type": "Point", "coordinates": [2.769661, 48.878816]}, "properties": {"id_parcelle": "77111000YA0217", "address": "1 RUE DU COIN BLOT", "sales": 7, "median_price": 275900.0, "median_price_per_sqm": 4092.682926829268, "median_rooms": 0.0, "first_sale": "2022-06-22", "last_sale": "2023-09-05"}}, {"type": "Feature", "geometry": {"type": "Point", "coordinates": [2.756238, 48.881217]}, "properties": {"id_parcelle": "77111000AC0588", "address": "19 CHE DES MEUNIERS", "sales": 6, "median_price": 740000.0, "median_price_per_sqm": 3737.373737373737, "median_rooms": 0.0, "first_sale": "2025-11-07", "last_sale": "2025-11-07"}}, {"type": "Feature", "geometry": {"type": "Point", "coordinates": [2.757467, 48.880079]}, "properties": {"id_parcelle": "77111000AC0211", "address": "75 CHE DES FOSSES ROUGES", "sales": 6, "median_price": 570000.0, "median_price_per_sqm": 11176.470588235294, "median_rooms": 0.0, "first_sale": "2025-09-26", "last_sale": "2025-09-26"}}, {"type": "Feature", "geometry": {"type": "Point", "coordinates": [2.766119, 48.88206]}, "properties": {"id_parcelle": "77111000AE0395", "address": "13 RUE PASTEUR", "sales": 6, "median_price": 532000.0, "median_price_per_sqm": 4666.666666666667, "median_rooms": 0.0, "first_sale": "2025-09-30", "last_sale": "2025-09-30"}}, {"type": "Feature", "geometry": {"type": "Point", "coordinates": [2.772076, 48.878711]}, "properties": {"id_parcelle": "77111000YA0467", "address": "10 RUE DU CLOS GIRARD", "sales": 5, "median_price": 276550.0, "median_price_per_sqm": 4011.3384484228473, "median_rooms": 0.0, "first_sale": "2025-07-28", "last_sale": "2025-08-04"}}, {"type": "Feature", "geometry": {"type": "Point", "coordinates": [2.750575, 48.878325]}, "properties": {"id_parcelle": "77111000AB0437", "address": "1 AV THIBAUD DE CHAMPAGNE", "sales": 4, "median_price": 216000.0, "median_price_per_sqm": null, "median_rooms": 0.0, "first_sale": "2025-09-04", "last_sale": "2025-09-04"}}, {"type": "Feature", "geometry": {"type": "Point", "coordinates": [2.749303, 48.881235]}, "properties": {"id_parcelle": "77111000AB0324", "address": "51 CHE DES MEUNIERS", "sales": 4, "median_price": 174840.0, "median_price_per_sqm": 2866.2295081967213, "median_rooms": 1.5, "first_sale": "2024-04-03", "last_sale": "2024-04-03"}}, {"type": "Feature", "geometry": {"type": "Point", "coordinates": [2.750284, 48.881086]}, "properties": {"id_parcelle": "77111000AB0091", "address": "30 CHE DES BAS CHAMPS", "sales": 4, "median_price": 282000.0, "median_price_per_sqm": 4028.5714285714284, "median_rooms": 0.0, "first_sale": "2025-05-23", "last_sale": "2025-05-23"}}, {"type": "Feature", "geometry": {"type": "Point", "coordinates": [2.7554, 48.879685]}, "properties": {"id_parcelle": "77111000AB0720", "address": "51 CHE DES FOSSES ROUGES", "sales": 4, "median_price": 200000.0, "median_price_per_sqm": 5714.285714285715, "median_rooms": 1.0, "first_sale": "2022-09-27", "last_sale": "2022-09-27"}}, {"type": "Feature", "geometry": {"type": "Point", "coordinates": [2.750338, 48.879021]}, "properties": {"id_parcelle": "77111000AB0599", "address": "3 CHE DES FOSSES ROUGES", "sales": 4, "median_price": 550000.0, "median_price_per_sqm": 3055.5555555555557, "median_rooms": 2.5, "first_sale": "2022-08-26", "last_sale": "2022-08-26"}}, {"type": "Feature", "geometry": {"type": "Point", "coordinates": [2.757682, 48.879539]}, "properties": {"id_parcelle": "77111000AC0189", "address": "42 CHE DES FOSSES ROUGES", "sales": 4, "median_price": 612800.0, "median_price_per_sqm": 4539.259259259259, "median_rooms": 3.0, "first_sale": "2023-02-07", "last_sale": "2023-02-07"}}, {"type": "Feature", "geometry": {"type": "Point", "coordinates": [2.759189, 48.882195]}, "properties": {"id_parcelle": "77111000AC0301", "address": "9007 CHE DES LANTERNES", "sales": 4, "median_price": 230000.0, "median_price_per_sqm": 8846.153846153846, "median_rooms": 1.0, "first_sale": "2022-01-11", "last_sale": "2022-01-11"}}, {"type": "Feature", "geometry": {"type": "Point", "coordinates": [2.759538, 48.88008]}, "properties": {"id_parcelle": "77111000AC0421", "address": "9 CHE DES MEUNIERS", "sales": 4, "median_price": 555000.0, "median_price_per_sqm": 3854.1666666666665, "median_rooms": 3.0, "first_sale": "2022-04-25", "last_sale": "2022-04-25"}}, {"type": "Feature", "geometry": {"type": "Point", "coordinates": [2.766241, 48.884284]}, "properties": {"id_parcelle": "77111000AD0927", "address": "22 RUE DES COULOMMIERES", "sales": 4, "median_price": 549900.0, "median_price_per_sqm": 21642.650602409638, "median_rooms": 0.5, "first_sale": "2021-11-24", "last_sale": "2021-11-24"}}, {"type": "Feature", "geometry": {"type": "Point", "coordinates": [2.764775, 48.88088]}, "properties": {"id_parcelle": "77111000AE0727", "address": "11 RUE DE LA DHUIS", "sales": 4, "median_price": 266000.0, "median_price_per_sqm": 4925.925925925926, "median_rooms": 0.0, "first_sale": "2023-09-26", "last_sale": "2023-09-26"}}, {"type": "Feature", "geometry": {"type": "Point", "coordinates": [2.754574, 48.876911]}, "properties": {"id_parcelle": "77111000AH0178", "address": "12 CHE DU FIEF DE L EMPEREUR", "sales": 4, "median_price": 720500.0, "median_price_per_sqm": 4868.243243243243, "median_rooms": 2.5, "first_sale": "2021-08-05", "last_sale": "2021-08-05"}}, {"type": "Feature", "geometry": {"type": "Point", "coordinates": [2.755428, 48.876532]}, "properties": {"id_parcelle": "77111000AH0187", "address": "7 CHE DU FIEF DE L EMPEREUR", "sales": 4, "median_price": 745000.0, "median_price_per_sqm": 5000.0, "median_rooms": 2.5, "first_sale": "2023-02-07", "last_sale": "2023-02-07"}}, {"type": "Feature", "geometry": {"type": "Point", "coordinates": [2.759551, 48.875969]}, "properties": {"id_parcelle": "77111000AH0224", "address": "25 CHE DE LA GLACIERE", "sales": 4, "median_price": 754000.0, "median_price_per_sqm": 5060.402684563758, "median_rooms": 3.0, "first_sale": "2022-09-16", "last_sale": "2022-09-16"}}, {"type": "Feature", "geometry": {"type": "Point", "coordinates": [2.770597, 48.884254]}, "properties": {"id_parcelle": "77111000AE0485", "address": "18 RUE SAINT ELOI", "sales": 4, "median_price": 508000.0, "median_price_per_sqm": 3968.75, "median_rooms": 3.0, "first_sale": "2021-07-09", "last_sale": "2021-07-09"}}, {"type": "Feature", "geometry": {"type": "Point", "coordinates": [2.776357, 48.880858]}, "properties": {"id_parcelle": "77111000YA0414", "address": "25 RUE JEAN DE FOURCY", "sales": 4, "median_price": 645500.0, "median_price_per_sqm": 4451.724137931034, "median_rooms": 3.0, "first_sale": "2021-07-06", "last_sale": "2025-06-13"}}, {"type": "Feature", "geometry": {"type": "Point", "coordinates": [2.775322, 48.880966]}, "properties": {"id_parcelle": "77111000YA0418", "address": "17 RUE JEAN DE FOURCY", "sales": 4, "median_price": 932000.0, "median_price_per_sqm": 5825.0, "median_rooms": 3.0, "first_sale": "2022-03-11", "last_sale": "2022-03-11"}}, {"type": "Feature", "geometry": {"type": "Point", "coordinates": [2.769845, 48.858508]}, "properties": {"id_parcelle": "77111000AL0238", "address": "5 PL NELSON MANDELA", "sales": 4, "median_price": 528750.0, "median_price_per_sqm": null, "median_rooms": 0.0, "first_sale": "2022-10-20", "last_sale": "2023-08-24"}}, {"type": "Feature", "geometry": {"type": "Point", "coordinates": [2.77579, 48.879883]}, "properties": {"id_parcelle": "77111000YA0441", "address": "38 RUE DU CLOS GIRARD", "sales": 4, "median_price": 779000.0, "median_price_per_sqm": 4376.404494382023, "median_rooms": 3.0, "first_sale": "2021-08-19", "last_sale": "2021-08-19"}}, {"type": "Feature", "geometry": {"type": "Point", "coordinates": [2.77165, 48.877731]}, "properties": {"id_parcelle": "77111000YA0480", "address": "28 RUE DES TOURNELLES", "sales": 4, "median_price": 567000.0, "median_price_per_sqm": 4647.540983606557, "median_rooms": 3.5, "first_sale": "2021-07-29", "last_sale": "2021-07-29"}}, {"type": "Feature", "geometry": {"type": "Point", "coordinates": [2.770167, 48.878277]}, "properties": {"id_parcelle": "77111000YA0143", "address": "9 RUE DU COIN BLOT", "sales": 4, "median_price": 292000.0, "median_price_per_sqm": 4866.666666666666, "median_rooms": 1.5, "first_sale": "2022-01-21", "last_sale": "2025-10-27"}}, {"type": "Feature", "geometry": {"type": "Point", "coordinates": [2.761412, 48.880154]}, "properties": {"id_parcelle": "77111000AC0523", "address": "3 RUE PIERRE CURIE", "sales": 4, "median_price": 335000.0, "median_price_per_sqm": 9571.42857142857, "median_rooms": 2.0, "first_sale": "2023-02-17", "last_sale": "2023-02-17"}}, {"type": "Feature", "geometry": {"type": "Point", "coordinates": [2.760816, 48.882817]}, "properties": {"id_parcelle": "77111000AC0598", "address": "16 CHE DE LA GRANDE RUELLE", "sales": 4, "median_price": 770225.0, "median_price_per_sqm": 3890.0252525252527, "median_rooms": 7.0, "first_sale": "2021-05-20", "last_sale": "2023-01-19"}}, {"type": "Feature", "geometry": {"type": "Point", "coordinates": [2.754793, 48.879119]}, "properties": {"id_parcelle": "77111000AB0610", "address": "24 CHE DES FOSSES ROUGES", "sales": 4, "median_price": 1201118.5, "median_price_per_sqm": 52528.253960055095, "median_rooms": 0.5, "first_sale": "2025-06-25", "last_sale": "2025-06-25"}}, {"type": "Feature", "geometry": {"type": "Point", "coordinates": [2.757343, 48.881769]}, "properties": {"id_parcelle": "77111000AC0636", "address": "CHE DES LANTERNES", "sales": 3, "median_price": 794000.0, "median_price_per_sqm": 3625.5707762557076, "median_rooms": 0.0, "first_sale": "2025-11-06", "last_sale": "2025-11-06"}}, {"type": "Feature", "geometry": {"type": "Point", "coordinates": [2.757305, 48.876201]}, "properties": {"id_parcelle": "77111000AH0214", "address": "CHE DE LA GLACIERE", "sales": 3, "median_price": 635000.0, "median_price_per_sqm": null, "median_rooms": null, "first_sale": "2022-03-10", "last_sale": "2023-06-05"}}, {"type": "Feature", "geometry": {"type": "Point", "coordinates": [2.758484, 48.875985]}, "properties": {"id_parcelle": "77111000AH0221", "address": "CHE DE LA GLACIERE", "sales": 3, "median_price": 635000.0, "median_price_per_sqm": null, "median_rooms": null, "first_sale": "2022-03-10", "last_sale": "2023-06-05"}}, {"type": "Feature", "geometry": {"type": "Point", "coordinates": [2.759825, 48.875884]}, "properties": {"id_parcelle": "77111000AH0226", "address": "CHE DE LA GLACIERE", "sales": 3, "median_price": 635000.0, "median_price_per_sqm": null, "median_rooms": null, "first_sale": "2022-03-10", "last_sale": "2023-06-05"}}, {"type": "Feature", "geometry": {"type": "Point", "coordinates": [2.763826, 48.879235]}, "properties": {"id_parcelle": "77111000AE0698", "address": "1 PL DE L EGLISE", "sales": 3, "median_price": 150000.0, "median_price_per_sqm": 1071.4285714285713, "median_rooms": 0.0, "first_sale": "2024-06-10", "last_sale": "2024-06-10"}}, {"type": "Feature", "geometry": {"type": "Point", "coordinates": [2.765129, 48.879202]}, "properties": {"id_parcelle": "77111000AE0556", "address": "1 RUE PAUL LAGUESSE", "sales": 3, "median_price": 785000.0, "median_price_per_sqm": 8655.128205128205, "median_rooms": 0.0, "first_sale": "2025-04-03", "last_sale": "2025-04-03"}}, {"type": "Feature", "geometry": {"type": "Point", "coordinates": [2.756363, 48.875551]}, "properties": {"id_parcelle": "77111000AH0202", "address": "CHE DE LA GLACIERE", "sales": 3, "median_price": 635000.0, "median_price_per_sqm": null, "median_rooms": null, "first_sale": "2022-03-10", "last_sale": "2023-06-05"}}, {"type": "Feature", "geometry": {"type": "Point", "coordinates": [2.757871, 48.876072]}, "properties": {"id_parcelle": "77111000AH0218", "address": "CHE DE LA GLACIERE", "sales": 3, "median_price": 635000.0, "median_price_per_sqm": null, "median_rooms": null, "first_sale": "2022-03-10", "last_sale": "2023-06-05"}}, {"type": "Feature", "geometry": {"type": "Point", "coordinates": [2.758443, 48.875565]}, "properties": {"id_parcelle": "77111000AH0235", "address": "CHE DE LA GLACIERE", "sales": 3, "median_price": 635000.0, "median_price_per_sqm": null, "median_rooms": null, "first_sale": "2022-03-10", "last_sale": "2023-06-05"}}, {"type": "Feature", "geometry": {"type": "Point", "coordinates": [2.759162, 48.875996]}, "properties": {"id_parcelle": "77111000AH0253", "address": "CHE DE LA GLACIERE", "sales": 3, "median_price": 635000.0, "median_price_per_sqm": null, "median_rooms": null, "first_sale": "2022-03-10", "last_sale": "2023-06-05"}}, {"type": "Feature", "geometry": {"type": "Point", "coordinates": [2.765598, 48.87342]}, "properties": {"id_parcelle": "77111000AH0329", "address": "5 CHE DU BICHERET", "sales": 3, "median_price": 335000.0, "median_price_per_sqm": 5317.460317460317, "median_rooms": 0.0, "first_sale": "2025-07-31", "last_sale": "2025-07-31"}}, {"type": "Feature", "geometry": {"type": "Point", "coordinates": [2.756729, 48.877031]}, "properties": {"id_parcelle": "77111000AH0250", "address": "CHE DE LA GLACIERE", "sales": 3, "median_price": 635000.0, "median_price_per_sqm": null, "median_rooms": null, "first_sale": "2022-03-10", "last_sale": "2023-06-05"}}, {"type": "Feature", "geometry": {"type": "Point", "coordinates": [2.77027, 48.859445]}, "properties": {"id_parcelle": "77111000AL0244", "address": "51 RUE D ARIANE", "sales": 3, "median_price": 430000.0, "median_price_per_sqm": 5243.90243902439, "median_rooms": 0.0, "first_sale": "2023-06-01", "last_sale": "2023-06-01"}}, {"type": "Feature", "geometry": {"type": "Point", "coordinates": [2.757871, 48.875603]}, "properties": {"id_parcelle": "77111000AH0238", "address": "CHE DE LA GLACIERE", "sales": 3, "median_price": 635000.0, "median_price_per_sqm": null, "median_rooms": null, "first_sale": "2022-03-10", "last_sale": "2023-06-05"}}, {"type": "Feature", "geometry": {"type": "Point", "coordinates": [2.757088, 48.875781]}, "properties": {"id_parcelle": "77111000AH0216", "address": "CHE DE LA GLACIERE", "sales": 3, "median_price": 635000.0, "median_price_per_sqm": null, "median_rooms": null, "first_sale": "2022-03-10", "last_sale": "2023-06-05"}}, {"type": "Feature", "geometry": {"type": "Point", "coordinates": [2.759782, 48.875525]}, "properties": {"id_parcelle": "77111000AH0229", "address": "CHE DE LA GLACIERE", "sales": 3, "median_price": 635000.0, "median_price_per_sqm": null, "median_rooms": null, "first_sale": "2022-03-10", "last_sale": "2023-06-05"}}, {"type": "Feature", "geometry": {"type": "Point", "coordinates": [2.763946, 48.880252]}, "properties": {"id_parcelle": "77111000AE0037", "address": "5 RUE GEDALGE", "sales": 3, "median_price": 440000.0, "median_price_per_sqm": 3492.063492063492, "median_rooms": 0.0, "first_sale": "2023-09-18", "last_sale": "2023-09-18"}}, {"type": "Feature", "geometry": {"type": "Point", "coordinates": [2.759135, 48.875519]}, "properties": {"id_parcelle": "77111000AH0232", "address": "CHE DE LA GLACIERE", "sales": 3, "median_price": 635000.0, "median_price_per_sqm": null, "median_rooms": null, "first_sale": "2022-03-10", "last_sale": "2023-06-05"}}, {"type": "Feature", "geometry": {"type": "Point", "coordinates": [2.75519, 48.875888]}, "properties": {"id_parcelle": "77111000AH0197", "address": "CHE DU PRE ROUVIER", "sales": 3, "median_price": 635000.0, "median_price_per_sqm": null, "median_rooms": null, "first_sale": "2022-03-10", "last_sale": "2023-06-05"}}, {"type": "Feature", "geometry": {"type": "Point", "coordinates": [2.767357, 48.88075]}, "properties": {"id_parcelle": "77111000AE0163", "address": "71 RUE CHARLES DE GAULLE", "sales": 3, "median_price": 372000.0, "median_price_per_sqm": 3915.7894736842104, "median_rooms": 0.0, "first_sale": "2024-10-02", "last_sale": "2024-10-02"}}, {"type": "Feature", "geometry": {"type": "Point", "coordinates": [2.752699, 48.879735]}, "properties": {"id_parcelle": "77111000AB0759", "address": "15 CHE DES FOSSES ROUGES", "sales": 2, "median_price": 213100.0, "median_price_per_sqm": null, "median_rooms": null, "first_sale": "2021-11-25", "last_sale": "2024-04-02"}}, {"type": "Feature", "geometry": {"type": "Point", "coordinates": [2.763604, 48.882822]}, "properties": {"id_parcelle": "77111000AC0081", "address": "39 RUE DE LA MARNE", "sales": 2, "median_price": 337000.0, "median_price_per_sqm": null, "median_rooms": null, "first_sale": "2021-01-14", "last_sale": "2021-01-14"}}, {"type": "Feature", "geometry": {"type": "Point", "coordinates": [2.751855, 48.879038]}, "properties": {"id_parcelle": "77111000AB0603", "address": "10 CHE DES FOSSES ROUGES", "sales": 2, "median_price": 1261000.0, "median_price_per_sqm": 4653.136531365313, "median_rooms": 2.5, "first_sale": "2021-06-29", "last_sale": "2021-06-29"}}, {"type": "Feature", "geometry": {"type": "Point", "coordinates": [2.752738, 48.879675]}, "properties": {"id_parcelle": "77111000AB0757", "address": "15 CHE DES FOSSES ROUGES", "sales": 2, "median_price": 213100.0, "median_price_per_sqm": null, "median_rooms": null, "first_sale": "2021-11-25", "last_sale": "2024-04-02"}}, {"type": "Feature", "geometry": {"type": "Point", "coordinates": [2.75048, 48.880613]}, "properties": {"id_parcelle": "77111000AB0541", "address": "25 CHE DES BAS CHAMPS", "sales": 2, "median_price": 790000.0, "median_price_per_sqm": 3853.6585365853657, "median_rooms": 3.0, "first_sale": "2025-12-17", "last_sale": "2025-12-17"}}, {"type": "Feature", "geometry": {"type": "Point", "coordinates": [2.752868, 48.878646]}, "properties": {"id_parcelle": "77111000AB0593", "address": "11 AV THIBAUD DE CHAMPAGNE", "sales": 2, "median_price": 1230000.0, "median_price_per_sqm": 5418.502202643172, "median_rooms": 7.0, "first_sale": "2022-11-30", "last_sale": "2022-11-30"}}, {"type": "Feature", "geometry": {"type": "Point", "coordinates": [2.750075, 48.880469]}, "properties": {"id_parcelle": "77111000AB0487", "address": "CHE DES BAS CHAMPS", "sales": 2, "median_price": 860000.0, "median_price_per_sqm": null, "median_rooms": null, "first_sale": "2022-06-07", "last_sale": "2022-06-07"}}, {"type": "Feature", "geometry": {"type": "Point", "coordinates": [2.75013, 48.880441]}, "properties": {"id_parcelle": "77111000AB0209", "address": "27 CHE DES BAS CHAMPS", "sales": 2, "median_price": 860000.0, "median_price_per_sqm": 13650.79365079365, "median_rooms": 1.5, "first_sale": "2022-06-07", "last_sale": "2022-06-07"}}, {"type": "Feature", "geometry": {"type": "Point", "coordinates": [2.754874, 48.879663]}, "properties": {"id_parcelle": "77111000AB0387", "address": "47 CHE DES FOSSES ROUGES", "sales": 2, "median_price": 775826.0, "median_price_per_sqm": 3898.6231155778896, "median_rooms": 6.0, "first_sale": "2025-10-15", "last_sale": "2025-10-15"}}, {"type": "Feature", "geometry": {"type": "Point", "coordinates": [2.754376, 48.879592]}, "properties": {"id_parcelle": "77111000AB0433", "address": "43 CHE DES FOSSES ROUGES", "sales": 2, "median_price": 715000.0, "median_price_per_sqm": 4386.503067484663, "median_rooms": 6.0, "first_sale": "2024-09-30", "last_sale": "2024-09-30"}}, {"type": "Feature", "geometry": {"type": "Point", "coordinates": [2.75286, 48.87959]}, "properties": {"id_parcelle": "77111000AB0758", "address": "CHE DES FOSSES ROUGES", "sales": 2, "median_price": 213100.0, "median_price_per_sqm": null, "median_rooms": null, "first_sale": "2021-11-25", "last_sale": "2024-04-02"}}, {"type": "Feature", "geometry": {"type": "Point", "coordinates": [2.753232, 48.880926]}, "properties": {"id_parcelle": "77111000AB0491", "address": "9 CHE DES BAS CHAMPS", "sales": 2, "median_price": 526900.0, "median_price_per_sqm": 4970.754716981132, "median_rooms": 7.0, "first_sale": "2021-06-09", "last_sale": "2021-06-09"}}, {"type": "Feature", "geometry": {"type": "Point", "coordinates": [2.759278, 48.882286]}, "properties": {"id_parcelle": "77111000AC0300", "address": "9003 CHE DES LANTERNES", "sales": 2, "median_price": 215000.0, "median_price_per_sqm": 7166.666666666667, "median_rooms": 1.0, "first_sale": "2023-04-01", "last_sale": "2023-04-01"}}, {"type": "Feature", "geometry": {"type": "Point", "coordinates": [2.75794, 48.879696]}, "properties": {"id_parcelle": "77111000AC0406", "address": "44 CHE DES FOSSES ROUGES", "sales": 2, "median_price": 446450.0, "median_price_per_sqm": 2996.308724832215, "median_rooms": 10.0, "first_sale": "2024-06-26", "last_sale": "2024-06-26"}}, {"type": "Feature", "geometry": {"type": "Point", "coordinates": [2.76836, 48.88614]}, "properties": {"id_parcelle": "77111000AD0279", "address": "41 RUE DES COULOMMIERES", "sales": 2, "median_price": 530000.0, "median_price_per_sqm": 5888.888888888889, "median_rooms": 2.0, "first_sale": "2022-01-25", "last_sale": "2022-01-25"}}, {"type": "Feature", "geometry": {"type": "Point", "coordinates": [2.759458, 48.880515]}, "properties": {"id_parcelle": "77111000AC0790", "address": "8 CHE DES MEUNIERS", "sales": 2, "median_price": 349000.0, "median_price_per_sqm": 3752.6881720430106, "median_rooms": 5.0, "first_sale": "2022-07-13", "last_sale": "2022-07-13"}}, {"type": "Feature", "geometry": {"type": "Point", "coordinates": [2.758169, 48.879652]}, "properties": {"id_parcelle": "77111000AC0783", "address": "LES FOSSES ROUGES", "sales": 2, "median_price": 310000.0, "median_price_per_sqm": null, "median_rooms": null, "first_sale": "2021-04-01", "last_sale": "2022-01-27"}}, {"type": "Feature", "geometry": {"type": "Point", "coordinates": [2.758054, 48.879896]}, "properties": {"id_parcelle": "77111000AC0782", "address": "LES FOSSES ROUGES", "sales": 2, "median_price": 310000.0, "median_price_per_sqm": null, "median_rooms": null, "first_sale": "2021-04-01", "last_sale": "2022-01-27"}}, {"type": "Feature", "geometry": {"type": "Point", "coordinates": [2.758322, 48.879674]}, "properties": {"id_parcelle": "77111000AC0780", "address": "RUE DE LAGNY", "sales": 2, "median_price": 310000.0, "median_price_per_sqm": null, "median_rooms": null, "first_sale": "2021-04-01", "last_sale": "2022-01-27"}}, {"type": "Feature", "geometry": {"type": "Point", "coordinates": [2.758179, 48.879923]}, "properties": {"id_parcelle": "77111000AC0779", "address": "RUE DE LAGNY", "sales": 2, "median_price": 310000.0, "median_price_per_sqm": null, "median_rooms": null, "first_sale": "2021-04-01", "last_sale": "2022-01-27"}}, {"type": "Feature", "geometry": {"type": "Point", "coordinates": [2.761191, 48.880651]}, "properties": {"id_parcelle": "77111000AC0741", "address": "9 RUE PIERRE CURIE", "sales": 2, "median_price": 460000.0, "median_price_per_sqm": 4893.617021276596, "median_rooms": 4.0, "first_sale": "2022-09-26", "last_sale": "2022-09-26"}}, {"type": "Feature", "geometry": {"type": "Point", "coordinates": [2.75813, 48.880976]}, "properties": {"id_parcelle": "77111000AC0667", "address": "14 CHE DES MEUNIERS", "sales": 2, "median_price": 465000.0, "median_price_per_sqm": 3576.923076923077, "median_rooms": 6.0, "first_sale": "2021-05-19", "last_sale": "2021-05-19"}}, {"type": "Feature", "geometry": {"type": "Point", "coordinates": [2.760758, 48.883]}, "properties": {"id_parcelle": "77111000AC0599", "address": "CHE DE LA GRANDE RUELLE", "sales": 2, "median_price": 770225.0, "median_price_per_sqm": null, "median_rooms": null, "first_sale": "2021-05-20", "last_sale": "2023-01-19"}}, {"type": "Feature", "geometry": {"type": "Point", "coordinates": [2.762819, 48.883201]}, "properties": {"id_parcelle": "77111000AC0579", "address": "45 RUE DE LA MARNE", "sales": 2, "median_price": 410000.0, "median_price_per_sqm": 9761.904761904761, "median_rooms": 1.0, "first_sale": "2023-01-26", "last_sale": "2023-01-26"}}, {"type": "Feature", "geometry": {"type": "Point", "coordinates": [2.758042, 48.879354]}, "properties": {"id_parcelle": "77111000AC0407", "address": "32 RUE DE LAGNY", "sales": 2, "median_price": 520000.0, "median_price_per_sqm": 3586.206896551724, "median_rooms": 7.0, "first_sale": "2023-02-20", "last_sale": "2023-02-20"}}, {"type": "Feature", "geometry": {"type": "Point", "coordinates": [2.757998, 48.880235]}, "properties": {"id_parcelle": "77111000AC0215", "address": "83 CHE DES FOSSES ROUGES", "sales": 2, "median_price": 465000.0, "median_price_per_sqm": 3940.677966101695, "median_rooms": 6.0, "first_sale": "2024-04-30", "last_sale": "2024-04-30"}}, {"type": "Feature", "geometry": {"type": "Point", "coordinates": [2.755681, 48.881193]}, "properties": {"id_parcelle": "77111000AC0263", "address": "21 CHE DES MEUNIERS", "sales": 2, "median_price": 563300.0, "median_price_per_sqm": 4203.731343283582, "median_rooms": 5.0, "first_sale": "2021-06-28", "last_sale": "2021-06-28"}}, {"type": "Feature", "geometry": {"type": "Point", "coordinates": [2.75847, 48.881486]}, "properties": {"id_parcelle": "77111000AC0288", "address": "9 CHE DES FLOBERTS", "sales": 2, "median_price": 470000.0, "median_price_per_sqm": 4895.833333333333, "median_rooms": 2.5, "first_sale": "2024-02-05", "last_sale": "2024-02-05"}}, {"type": "Feature", "geometry": {"type": "Point", "coordinates": [2.764272, 48.882258]}, "properties": {"id_parcelle": "77111000AD0588", "address": "32 RUE DE LA MARNE", "sales": 2, "median_price": 392000.0, "median_price_per_sqm": 4454.545454545455, "median_rooms": 2.5, "first_sale": "2025-04-30", "last_sale": "2025-04-30"}}, {"type": "Feature", "geometry": {"type": "Point", "coordinates": [2.764, 48.883641]}, "properties": {"id_parcelle": "77111000AD0370", "address": "5 RUE DES COULOMMIERES", "sales": 2, "median_price": 134000.0, "median_price_per_sqm": 13400.0, "median_rooms": 0.5, "first_sale": "2025-12-05", "last_sale": "2025-12-05"}}, {"type": "Feature", "geometry": {"type": "Point", "coordinates": [2.769093, 48.88493]}, "properties": {"id_parcelle": "77111000AD0986", "address": "52 CHE DES BOUILLANTS", "sales": 2, "median_price": 520000.0, "median_price_per_sqm": 5909.090909090909, "median_rooms": 4.0, "first_sale": "2023-04-25", "last_sale": "2023-04-25"}}, {"type": "Feature", "geometry": {"type": "Point", "coordinates": [2.769389, 48.885111]}, "properties": {"id_parcelle": "77111000AD0980", "address": "5 CHE DU PRE DE LA FONTAINE", "sales": 2, "median_price": 348000.0, "median_price_per_sqm": 4350.0, "median_rooms": 2.0, "first_sale": "2023-01-04", "last_sale": "2023-01-04"}}, {"type": "Feature", "geometry": {"type": "Point", "coordinates": [2.766937, 48.883967]}, "properties": {"id_parcelle": "77111000AD0929", "address": "22 RUE DES COULOMMIERES", "sales": 2, "median_price": 287450.0, "median_price_per_sqm": null, "median_rooms": null, "first_sale": "2021-11-24", "last_sale": "2024-07-25"}}, {"type": "Feature", "geometry": {"type": "Point", "coordinates": [2.764389, 48.884158]}, "properties": {"id_parcelle": "77111000AD0800", "address": "SEN DES CHAPETTES", "sales": 2, "median_price": 655000.0, "median_price_per_sqm": null, "median_rooms": null, "first_sale": "2021-08-31", "last_sale": "2021-08-31"}}, {"type": "Feature", "geometry": {"type": "Point", "coordinates": [2.765479, 48.882678]}, "properties": {"id_parcelle": "77111000AE0140", "address": "17 RUE PASTEUR", "sales": 2, "median_price": 199900.0, "median_price_per_sqm": 4079.591836734694, "median_rooms": 1.0, "first_sale": "2024-12-18", "last_sale": "2024-12-18"}}, {"type": "Feature", "geometry": {"type": "Point", "coordinates": [2.768796, 48.880904]}, "properties": {"id_parcelle": "77111000AE0543", "address": "60 RUE CHARLES DE GAULLE", "sales": 2, "median_price": 350000.0, "median_price_per_sqm": 3846.153846153846, "median_rooms": 2.5, "first_sale": "2025-04-10", "last_sale": "2025-04-10"}}, {"type": "Feature", "geometry": {"type": "Point", "coordinates": [2.768649, 48.880858]}, "properties": {"id_parcelle": "77111000AE0545", "address": "56 RUE CHARLES DE GAULLE", "sales": 2, "median_price": 296500.0, "median_price_per_sqm": 3953.333333333333, "median_rooms": 0.0, "first_sale": "2021-12-13", "last_sale": "2025-12-18"}}, {"type": "Feature", "geometry": {"type": "Point", "coordinates": [2.761803, 48.881151]}, "properties": {"id_parcelle": "77111000AE0010", "address": "11 CHE DU BOUZET", "sales": 2, "median_price": 445000.0, "median_price_per_sqm": 5426.829268292683, "median_rooms": 1.5, "first_sale": "2025-03-26", "last_sale": "2025-03-26"}}, {"type": "Feature", "geometry": {"type": "Point", "coordinates": [2.766684, 48.88007]}, "properties": {"id_parcelle": "77111000AE0210", "address": "38 RUE CHARLES DE GAULLE", "sales": 2, "median_price": 1087350.0, "median_price_per_sqm": 9061.25, "median_rooms": 2.5, "first_sale": "2024-10-18", "last_sale": "2024-10-18"}}, {"type": "Feature", "geometry": {"type": "Point", "coordinates": [2.765393, 48.881251]}, "properties": {"id_parcelle": "77111000AE0408", "address": "1 PAS DU VILLAGE", "sales": 2, "median_price": 483000.0, "median_price_per_sqm": 4556.603773584906, "median_rooms": 5.0, "first_sale": "2022-03-11", "last_sale": "2022-03-11"}}, {"type": "Feature", "geometry": {"type": "Point", "coordinates": [2.766672, 48.881234]}, "properties": {"id_parcelle": "77111000AE0419", "address": "3 RUE PASTEUR", "sales": 2, "median_price": 480000.0, "median_price_per_sqm": 4800.0, "median_rooms": 5.0, "first_sale": "2023-08-03", "last_sale": "2023-08-03"}}, {"type": "Feature", "geometry": {"type": "Point", "coordinates": [2.77154, 48.883421]}, "properties": {"id_parcelle": "77111000AE0478", "address": "4 RUE SAINT ELOI", "sales": 2, "median_price": 645270.0, "median_price_per_sqm": 3309.076923076923, "median_rooms": 7.0, "first_sale": "2021-03-15", "last_sale": "2021-03-15"}}, {"type": "Feature", "geometry": {"type": "Point", "coordinates": [2.769188, 48.880998]}, "properties": {"id_parcelle": "77111000AE0538", "address": "4 RUE DES MARAICHERS", "sales": 2, "median_price": 421000.0, "median_price_per_sqm": 3660.8695652173915, "median_rooms": 2.5, "first_sale": "2021-08-27", "last_sale": "2021-08-27"}}, {"type": "Feature", "geometry": {"type": "Point", "coordinates": [2.768519, 48.880795]}, "properties": {"id_parcelle": "77111000AE0547", "address": "52 RUE CHARLES DE GAULLE", "sales": 2, "median_price": 310000.0, "median_price_per_sqm": 4133.333333333333, "median_rooms": 2.0, "first_sale": "2025-02-05", "last_sale": "2025-02-05"}}, {"type": "Feature", "geometry": {"type": "Point", "coordinates": [2.765997, 48.884292]}, "properties": {"id_parcelle": "77111000AD0442", "address": "20 RUE DES COULOMMIERES", "sales": 2, "median_price": 180000.0, "median_price_per_sqm": 3750.0, "median_rooms": 1.0, "first_sale": "2022-06-01", "last_sale": "2022-06-01"}}, {"type": "Feature", "geometry": {"type": "Point", "coordinates": [2.768563, 48.884341]}, "properties": {"id_parcelle": "77111000AD0521", "address": "36 CHE DES BOUILLANTS", "sales": 2, "median_price": 520000.0, "median_price_per_sqm": 3611.1111111111113, "median_rooms": 2.0, "first_sale": "2025-12-19", "last_sale": "2025-12-19"}}, {"type": "Feature", "geometry": {"type": "Point", "coordinates": [2.754487, 48.876858]}, "properties": {"id_parcelle": "77111000AH0182", "address": "CHE DE L ORANGERIE", "sales": 2, "median_price": 317500.5, "median_price_per_sqm": null, "median_rooms": null, "first_sale": "2022-03-10", "last_sale": "2023-06-05"}}, {"type": "Feature", "geometry": {"type": "Point", "coordinates": [2.753433, 48.877646]}, "properties": {"id_parcelle": "77111000AH0159", "address": "12 CHE DE L ORANGERIE", "sales": 2, "median_price": 635000.0, "median_price_per_sqm": 4810.606060606061, "median_rooms": 5.0, "first_sale": "2022-03-10", "last_sale": "2022-03-10"}}, {"type": "Feature", "geometry": {"type": "Point", "coordinates": [2.756408, 48.875291]}, "properties": {"id_parcelle": "77111000AH0204", "address": "4 CHE DE LA GLACIERE", "sales": 2, "median_price": 780320.0, "median_price_per_sqm": 4335.111111111111, "median_rooms": 7.0, "first_sale": "2025-05-23", "last_sale": "2025-05-23"}}, {"type": "Feature", "geometry": {"type": "Point", "coordinates": [2.761967, 48.879045]}, "properties": {"id_parcelle": "77111000AH0076", "address": "8 RUE DU PETIT CHAMP", "sales": 2, "median_price": 420000.0, "median_price_per_sqm": 5675.675675675676, "median_rooms": 2.0, "first_sale": "2022-08-09", "last_sale": "2022-08-09"}}, {"type": "Feature", "geometry": {"type": "Point", "coordinates": [2.762808, 48.880812]}, "properties": {"id_parcelle": "77111000AE0681", "address": "6 RLE DES PETITS PRES", "sales": 2, "median_price": 540000.0, "median_price_per_sqm": 5806.451612903225, "median_rooms": 4.0, "first_sale": "2022-06-08", "last_sale": "2022-06-08"}}, {"type": "Feature", "geometry": {"type": "Point", "coordinates": [2.76749, 48.880868]}, "properties": {"id_parcelle": "77111000AE0170", "address": "RUE PASTEUR", "sales": 2, "median_price": 214000.0, "median_price_per_sqm": null, "median_rooms": null, "first_sale": "2022-11-08", "last_sale": "2024-10-02"}}, {"type": "Feature", "geometry": {"type": "Point", "coordinates": [2.768082, 48.88244]}, "properties": {"id_parcelle": "77111000AE0184", "address": "12 CHE DES RENEUVES", "sales": 2, "median_price": 64000.0, "median_price_per_sqm": null, "median_rooms": null, "first_sale": "2022-11-08", "last_sale": "2024-06-27"}}, {"type": "Feature", "geometry": {"type": "Point", "coordinates": [2.764393, 48.884242]}, "properties": {"id_parcelle": "77111000AD0364", "address": "9 RUE DES COULOMMIERES", "sales": 2, "median_price": 655000.0, "median_price_per_sqm": 5077.519379844961, "median_rooms": 2.5, "first_sale": "2021-08-31", "last_sale": "2021-08-31"}}, {"type": "Feature", "geometry": {"type": "Point", "coordinates": [2.765367, 48.883078]}, "properties": {"id_parcelle": "77111000AD0630", "address": "16 RUE PASTEUR", "sales": 2, "median_price": 835000.0, "median_price_per_sqm": 4744.318181818182, "median_rooms": 5.0, "first_sale": "2021-05-05", "last_sale": "2021-05-05"}}, {"type": "Feature", "geometry": {"type": "Point", "coordinates": [2.766481, 48.882259]}, "properties": {"id_parcelle": "77111000AD0602", "address": "8 RUE PASTEUR", "sales": 2, "median_price": 425000.0, "median_price_per_sqm": 2125.0, "median_rooms": 3.0, "first_sale": "2025-03-04", "last_sale": "2025-03-04"}}, {"type": "Feature", "geometry": {"type": "Point", "coordinates": [2.767054, 48.884559]}, "properties": {"id_parcelle": "77111000AD0595", "address": "28 RUE DES COULOMMIERES", "sales": 2, "median_price": 410000.0, "median_price_per_sqm": 7592.592592592592, "median_rooms": 1.5, "first_sale": "2021-07-13", "last_sale": "2021-07-13"}}, {"type": "Feature", "geometry": {"type": "Point", "coordinates": [2.768836, 48.884603]}, "properties": {"id_parcelle": "77111000AD0652", "address": "40 CHE DES BOUILLANTS", "sales": 2, "median_price": 580000.0, "median_price_per_sqm": 4957.264957264957, "median_rooms": 5.0, "first_sale": "2022-12-28", "last_sale": "2022-12-28"}}, {"type": "Feature", "geometry": {"type": "Point", "coordinates": [2.765479, 48.874913]}, "properties": {"id_parcelle": "77111000AH0311", "address": "PARC DE CHESSY", "sales": 2, "median_price": 4542770.0, "median_price_per_sqm": null, "median_rooms": null, "first_sale": "2021-11-18", "last_sale": "2021-12-15"}}, {"type": "Feature", "geometry": {"type": "Point", "coordinates": [2.76635, 48.873631]}, "properties": {"id_parcelle": "77111000AH0326", "address": "11 CHE DU BICHERET", "sales": 2, "median_price": 1424720.0, "median_price_per_sqm": null, "median_rooms": null, "first_sale": "2021-12-16", "last_sale": "2023-12-14"}}, {"type": "Feature", "geometry": {"type": "Point", "coordinates": [2.765759, 48.873723]}, "properties": {"id_parcelle": "77111000AH0319", "address": "PARC DE CHESSY", "sales": 2, "median_price": 1424720.0, "median_price_per_sqm": null, "median_rooms": null, "first_sale": "2021-12-16", "last_sale": "2023-12-14"}}, {"type": "Feature", "geometry": {"type": "Point", "coordinates": [2.769184, 48.857301]}, "properties": {"id_parcelle": "77111000AL0252", "address": "RUE DU PRE VERSON", "sales": 2, "median_price": 1618006.1, "median_price_per_sqm": null, "median_rooms": null, "first_sale": "2021-11-16", "last_sale": "2021-11-16"}}, {"type": "Feature", "geometry": {"type": "Point", "coordinates": [2.775116, 48.878055]}, "properties": {"id_parcelle": "77111000YA0296", "address": "16 RUE DES QUILLES", "sales": 2, "median_price": 527500.0, "median_price_per_sqm": 1282.416192283365, "median_rooms": 0.0, "first_sale": "2022-10-18", "last_sale": "2025-11-28"}}, {"type": "Feature", "geometry": {"type": "Point", "coordinates": [2.774299, 48.877682]}, "properties": {"id_parcelle": "77111000YA0295", "address": "14 RUE DES QUILLES", "sales": 2, "median_price": 1536000.0, "median_price_per_sqm": 1582.506156716705, "median_rooms": 0.0, "first_sale": "2022-05-30", "last_sale": "2023-11-24"}}, {"type": "Feature", "geometry": {"type": "Point", "coordinates": [2.770449, 48.877913]}, "properties": {"id_parcelle": "77111000YA0155", "address": "23 RUE DU COIN BLOT", "sales": 2, "median_price": 408500.0, "median_price_per_sqm": 4168.367346938776, "median_rooms": 5.0, "first_sale": "2022-03-29", "last_sale": "2024-07-26"}}, {"type": "Feature", "geometry": {"type": "Point", "coordinates": [2.773243, 48.877025]}, "properties": {"id_parcelle": "77111000YA0190", "address": "8 RUE DES QUILLES", "sales": 2, "median_price": 370000.0, "median_price_per_sqm": 2465.021044249801, "median_rooms": 0.0, "first_sale": "2024-01-08", "last_sale": "2025-06-23"}}, {"type": "Feature", "geometry": {"type": "Point", "coordinates": [2.767861, 48.858698]}, "properties": {"id_parcelle": "77111000AL0272", "address": "11 BD DU GRAND FOSSE", "sales": 2, "median_price": 2615486.0650000004, "median_price_per_sqm": null, "median_rooms": null, "first_sale": "2025-11-24", "last_sale": "2025-11-24"}}, {"type": "Feature", "geometry": {"type": "Point", "coordinates": [2.770143, 48.856858]}, "properties": {"id_parcelle": "77111000AL0257", "address": "RUE DU PRE VERSON", "sales": 2, "median_price": 5430312.0, "median_price_per_sqm": null, "median_rooms": null, "first_sale": "2024-09-27", "last_sale": "2024-09-27"}}, {"type": "Feature", "geometry": {"type": "Point", "coordinates": [2.777118, 48.859667]}, "properties": {"id_parcelle": "77111000AL0261", "address": "LE BOIS DE PARIS", "sales": 2, "median_price": 3782797.255, "median_price_per_sqm": null, "median_rooms": null, "first_sale": "2025-09-30", "last_sale": "2025-09-30"}}, {"type": "Feature", "geometry": {"type": "Point", "coordinates": [2.776097, 48.859122]}, "properties": {"id_parcelle": "77111000AL0262", "address": "LE BOIS DE PARIS", "sales": 2, "median_price": 1859374.79, "median_price_per_sqm": null, "median_rooms": null, "first_sale": "2025-09-30", "last_sale": "2025-09-30"}}, {"type": "Feature", "geometry": {"type": "Point", "coordinates": [2.774415, 48.878889]}, "properties": {"id_parcelle": "77111000YA0390", "address": "7 RUE DES PERREUX", "sales": 2, "median_price": 395000.0, "median_price_per_sqm": 4702.380952380952, "median_rooms": 2.0, "first_sale": "2021-09-15", "last_sale": "2021-09-15"}}, {"type": "Feature", "geometry": {"type": "Point", "coordinates": [2.774002, 48.879977]}, "properties": {"id_parcelle": "77111000YA0375", "address": "2 RUE SAUSSAYE", "sales": 2, "median_price": 562000.0, "median_price_per_sqm": 5017.857142857143, "median_rooms": 2.5, "first_sale": "2023-03-30", "last_sale": "2023-03-30"}}, {"type": "Feature", "geometry": {"type": "Point", "coordinates": [2.773682, 48.879576]}, "properties": {"id_parcelle": "77111000YA0376", "address": "7 RUE DU PRE AU PRETRE", "sales": 2, "median_price": 515300.0, "median_price_per_sqm": 4560.1769911504425, "median_rooms": 2.0, "first_sale": "2024-07-31", "last_sale": "2024-07-31"}}, {"type": "Feature", "geometry": {"type": "Point", "coordinates": [2.774678, 48.879012]}, "properties": {"id_parcelle": "77111000YA0388", "address": "3 RUE DES PERREUX", "sales": 2, "median_price": 369514.0, "median_price_per_sqm": 4398.976190476191, "median_rooms": 2.0, "first_sale": "2021-05-26", "last_sale": "2021-05-26"}}, {"type": "Feature", "geometry": {"type": "Point", "coordinates": [2.772777, 48.880806]}, "properties": {"id_parcelle": "77111000YA0360", "address": "5 RUE DES ECOUFFES", "sales": 2, "median_price": 465000.0, "median_price_per_sqm": 4650.0, "median_rooms": 2.5, "first_sale": "2022-01-21", "last_sale": "2022-01-21"}}, {"type": "Feature", "geometry": {"type": "Point", "coordinates": [2.776205, 48.879868]}, "properties": {"id_parcelle": "77111000YA0442", "address": "2 CHE DE LA CROIX BLANCHE", "sales": 2, "median_price": 835000.0, "median_price_per_sqm": 4371.7277486911, "median_rooms": 5.0, "first_sale": "2022-03-10", "last_sale": "2022-03-10"}}, {"type": "Feature", "geometry": {"type": "Point", "coordinates": [2.772768, 48.878104]}, "properties": {"id_parcelle": "77111000YA0470", "address": "44 RUE DES TOURNELLES", "sales": 2, "median_price": 696200.0, "median_price_per_sqm": 4580.263157894737, "median_rooms": 7.0, "first_sale": "2021-11-16", "last_sale": "2021-11-16"}}, {"type": "Feature", "geometry": {"type": "Point", "coordinates": [2.771942, 48.877887]}, "properties": {"id_parcelle": "77111000YA0476", "address": "34 RUE DES TOURNELLES", "sales": 2, "median_price": 535150.0, "median_price_per_sqm": 4386.475409836065, "median_rooms": 3.0, "first_sale": "2025-06-02", "last_sale": "2025-06-02"}}]}