{"type": "FeatureCollection", "features": [{"type": "Feature", "geometry": {"type": "Point", "coordinates": [2.639841, 48.543051]}, "properties": {"street_name": "AV DE LA LIBERATION", "sales": 543, "sales_appt": 90, "sales_maison": 6, "median_price": 119000.0, "median_price_per_sqm": 1657.142857142857, "turnover_score": 100.0, "turnover_rank": 1, "first_year": 2021, "last_year": 2025, "years_active": 5}}, {"type": "Feature", "geometry": {"type": "Point", "coordinates": [2.645213, 48.543045]}, "properties": {"street_name": "AV DE BIR HAKEIM", "sales": 193, "sales_appt": 41, "sales_maison": 12, "median_price": 123000.0, "median_price_per_sqm": 1689.0589569160998, "turnover_score": 35.5, "turnover_rank": 2, "first_year": 2021, "last_year": 2025, "years_active": 5}}, {"type": "Feature", "geometry": {"type": "Point", "coordinates": [2.639306, 48.544481]}, "properties": {"street_name": "AV MAURICE DAUVERGNE", "sales": 136, "sales_appt": 46, "sales_maison": 0, "median_price": 122000.0, "median_price_per_sqm": 1725.860961585515, "turnover_score": 25.0, "turnover_rank": 3, "first_year": 2021, "last_year": 2025, "years_active": 5}}, {"type": "Feature", "geometry": {"type": "Point", "coordinates": [2.626655, 48.541591]}, "properties": {"street_name": "SQ ANATOLE FRANCE", "sales": 136, "sales_appt": 28, "sales_maison": 0, "median_price": 600.0, "median_price_per_sqm": 8.571428571428571, "turnover_score": 25.0, "turnover_rank": 3, "first_year": 2025, "last_year": 2025, "years_active": 1}}, {"type": "Feature", "geometry": {"type": "Point", "coordinates": [2.645339, 48.546118]}, "properties": {"street_name": "RUE DU PARC", "sales": 85, "sales_appt": 21, "sales_maison": 4, "median_price": 158000.0, "median_price_per_sqm": 2689.189189189189, "turnover_score": 15.7, "turnover_rank": 4, "first_year": 2021, "last_year": 2025, "years_active": 5}}, {"type": "Feature", "geometry": {"type": "Point", "coordinates": [2.635203, 48.54681]}, "properties": {"street_name": "ALL DU BOIS DE L ETRIER", "sales": 64, "sales_appt": 23, "sales_maison": 0, "median_price": 146000.0, "median_price_per_sqm": 2017.857142857143, "turnover_score": 11.8, "turnover_rank": 5, "first_year": 2021, "last_year": 2025, "years_active": 5}}, {"type": "Feature", "geometry": {"type": "Point", "coordinates": [2.625264, 48.542284]}, "properties": {"street_name": "RUE L DE BROGLIE", "sales": 52, "sales_appt": 1, "sales_maison": 51, "median_price": 6000000.0, "median_price_per_sqm": 66666.66666666667, "turnover_score": 9.6, "turnover_rank": 6, "first_year": 2022, "last_year": 2022, "years_active": 1}}, {"type": "Feature", "geometry": {"type": "Point", "coordinates": [2.63943, 48.5399]}, "properties": {"street_name": "RTE DE BOISSISE", "sales": 51, "sales_appt": 15, "sales_maison": 4, "median_price": 134181.0, "median_price_per_sqm": 2656.25, "turnover_score": 9.4, "turnover_rank": 7, "first_year": 2021, "last_year": 2025, "years_active": 5}}, {"type": "Feature", "geometry": {"type": "Point", "coordinates": [2.6459925, 48.5375255]}, "properties": {"street_name": "QUAI ETIENNE LALLIA", "sales": 50, "sales_appt": 22, "sales_maison": 2, "median_price": 240000.0, "median_price_per_sqm": 3900.0, "turnover_score": 9.2, "turnover_rank": 8, "first_year": 2021, "last_year": 2025, "years_active": 5}}, {"type": "Feature", "geometry": {"type": "Point", "coordinates": [2.641894, 48.534718]}, "properties": {"street_name": "QUAI DES TILLEULS", "sales": 45, "sales_appt": 16, "sales_maison": 7, "median_price": 350000.0, "median_price_per_sqm": 5747.863247863248, "turnover_score": 8.3, "turnover_rank": 9, "first_year": 2021, "last_year": 2025, "years_active": 4}}, {"type": "Feature", "geometry": {"type": "Point", "coordinates": [2.624072, 48.540652]}, "properties": {"street_name": "ALL DE LA GARE", "sales": 45, "sales_appt": 35, "sales_maison": 0, "median_price": 114000.0, "median_price_per_sqm": 2321.4285714285716, "turnover_score": 8.3, "turnover_rank": 9, "first_year": 2021, "last_year": 2025, "years_active": 5}}, {"type": "Feature", "geometry": {"type": "Point", "coordinates": [2.641035, 48.544868]}, "properties": {"street_name": "RUE DE STRASBOURG", "sales": 41, "sales_appt": 15, "sales_maison": 0, "median_price": 140900.0, "median_price_per_sqm": 1904.7619047619048, "turnover_score": 7.6, "turnover_rank": 10, "first_year": 2021, "last_year": 2025, "years_active": 5}}, {"type": "Feature", "geometry": {"type": "Point", "coordinates": [2.629408, 48.552342]}, "properties": {"street_name": "RUE J B COLBERT", "sales": 40, "sales_appt": 0, "sales_maison": 0, "median_price": 712800.0, "median_price_per_sqm": 59400.0, "turnover_score": 7.4, "turnover_rank": 11, "first_year": 2022, "last_year": 2023, "years_active": 2}}, {"type": "Feature", "geometry": {"type": "Point", "coordinates": [2.641545, 48.542978]}, "properties": {"street_name": "PL DE LA 2EME DB", "sales": 39, "sales_appt": 19, "sales_maison": 0, "median_price": 93000.0, "median_price_per_sqm": 1554.7794117647059, "turnover_score": 7.2, "turnover_rank": 12, "first_year": 2021, "last_year": 2025, "years_active": 5}}, {"type": "Feature", "geometry": {"type": "Point", "coordinates": [2.647647, 48.538199]}, "properties": {"street_name": "RUE PIPE SOURIS", "sales": 38, "sales_appt": 2, "sales_maison": 16, "median_price": 310000.0, "median_price_per_sqm": 3142.8571428571427, "turnover_score": 7.0, "turnover_rank": 13, "first_year": 2021, "last_year": 2025, "years_active": 5}}, {"type": "Feature", "geometry": {"type": "Point", "coordinates": [2.625337, 48.540229]}, "properties": {"street_name": "AV DE LA RESISTANCE", "sales": 37, "sales_appt": 15, "sales_maison": 0, "median_price": 165500.0, "median_price_per_sqm": 2758.3333333333335, "turnover_score": 6.8, "turnover_rank": 14, "first_year": 2021, "last_year": 2025, "years_active": 5}}, {"type": "Feature", "geometry": {"type": "Point", "coordinates": [2.628369, 48.543587]}, "properties": {"street_name": "RUE GUSTAVE COURBET", "sales": 36, "sales_appt": 12, "sales_maison": 0, "median_price": 117250.0, "median_price_per_sqm": 1864.7171121138495, "turnover_score": 6.6, "turnover_rank": 15, "first_year": 2021, "last_year": 2024, "years_active": 4}}, {"type": "Feature", "geometry": {"type": "Point", "coordinates": [2.645257, 48.543197]}, "properties": {"street_name": "AV DU CDT L HERMINIER", "sales": 35, "sales_appt": 0, "sales_maison": 2, "median_price": 95000.0, "median_price_per_sqm": 2784.139194139194, "turnover_score": 6.4, "turnover_rank": 16, "first_year": 2021, "last_year": 2025, "years_active": 4}}, {"type": "Feature", "geometry": {"type": "Point", "coordinates": [2.625063, 48.543725]}, "properties": {"street_name": "RUE DU PRE RIGOT", "sales": 35, "sales_appt": 0, "sales_maison": 0, "median_price": 145000.0, "median_price_per_sqm": null, "turnover_score": 6.4, "turnover_rank": 16, "first_year": 2021, "last_year": 2025, "years_active": 5}}, {"type": "Feature", "geometry": {"type": "Point", "coordinates": [2.641923, 48.542499]}, "properties": {"street_name": "SQ NORMANDIE NIEMEN", "sales": 33, "sales_appt": 17, "sales_maison": 0, "median_price": 129000.0, "median_price_per_sqm": 1369.047619047619, "turnover_score": 6.1, "turnover_rank": 17, "first_year": 2021, "last_year": 2025, "years_active": 5}}, {"type": "Feature", "geometry": {"type": "Point", "coordinates": [2.643814, 48.535756]}, "properties": {"street_name": "RUE ARISTIDE BRIAND", "sales": 33, "sales_appt": 8, "sales_maison": 5, "median_price": 200000.0, "median_price_per_sqm": 3006.6354410616705, "turnover_score": 6.1, "turnover_rank": 17, "first_year": 2021, "last_year": 2025, "years_active": 4}}, {"type": "Feature", "geometry": {"type": "Point", "coordinates": [2.628418, 48.534323]}, "properties": {"street_name": "RUE DE LA LYVE", "sales": 30, "sales_appt": 0, "sales_maison": 17, "median_price": 310060.0, "median_price_per_sqm": 2785.714285714286, "turnover_score": 5.5, "turnover_rank": 18, "first_year": 2021, "last_year": 2025, "years_active": 5}}, {"type": "Feature", "geometry": {"type": "Point", "coordinates": [2.626742, 48.542833]}, "properties": {"street_name": "SQ ALEXIS CARREL", "sales": 29, "sales_appt": 15, "sales_maison": 0, "median_price": 105000.0, "median_price_per_sqm": 1619.047619047619, "turnover_score": 5.3, "turnover_rank": 19, "first_year": 2021, "last_year": 2025, "years_active": 5}}, {"type": "Feature", "geometry": {"type": "Point", "coordinates": [2.643602, 48.547487]}, "properties": {"street_name": "ALL DE PLEIN CIEL", "sales": 28, "sales_appt": 12, "sales_maison": 1, "median_price": 102500.0, "median_price_per_sqm": 1326.530612244898, "turnover_score": 5.2, "turnover_rank": 20, "first_year": 2021, "last_year": 2025, "years_active": 3}}, {"type": "Feature", "geometry": {"type": "Point", "coordinates": [2.624037, 48.538333]}, "properties": {"street_name": "RUE DU BOIS GUYOT", "sales": 28, "sales_appt": 11, "sales_maison": 0, "median_price": 145205.0, "median_price_per_sqm": 2358.490566037736, "turnover_score": 5.2, "turnover_rank": 20, "first_year": 2021, "last_year": 2024, "years_active": 4}}, {"type": "Feature", "geometry": {"type": "Point", "coordinates": [2.641423, 48.537812]}, "properties": {"street_name": "RUE CHAPU", "sales": 26, "sales_appt": 8, "sales_maison": 4, "median_price": 115000.0, "median_price_per_sqm": 2500.0, "turnover_score": 4.8, "turnover_rank": 21, "first_year": 2021, "last_year": 2025, "years_active": 5}}, {"type": "Feature", "geometry": {"type": "Point", "coordinates": [2.625368, 48.543179]}, "properties": {"street_name": "SQ FREDERIC PASSY", "sales": 26, "sales_appt": 13, "sales_maison": 0, "median_price": 114100.0, "median_price_per_sqm": 1444.3037974683543, "turnover_score": 4.8, "turnover_rank": 21, "first_year": 2021, "last_year": 2025, "years_active": 5}}, {"type": "Feature", "geometry": {"type": "Point", "coordinates": [2.627701, 48.540435]}, "properties": {"street_name": "RUE FRANCOIS GIRARDON", "sales": 24, "sales_appt": 10, "sales_maison": 3, "median_price": 147000.0, "median_price_per_sqm": 1630.4347826086957, "turnover_score": 4.4, "turnover_rank": 22, "first_year": 2021, "last_year": 2025, "years_active": 4}}, {"type": "Feature", "geometry": {"type": "Point", "coordinates": [2.643931, 48.541448]}, "properties": {"street_name": "AV DES CHARMETTES", "sales": 23, "sales_appt": 4, "sales_maison": 5, "median_price": 320000.0, "median_price_per_sqm": 4035.1647619047617, "turnover_score": 4.2, "turnover_rank": 23, "first_year": 2021, "last_year": 2025, "years_active": 4}}, {"type": "Feature", "geometry": {"type": "Point", "coordinates": [2.645748, 48.542317]}, "properties": {"street_name": "LA HAUTE BORNE", "sales": 23, "sales_appt": 0, "sales_maison": 0, "median_price": 86000.0, "median_price_per_sqm": null, "turnover_score": 4.2, "turnover_rank": 23, "first_year": 2021, "last_year": 2025, "years_active": 4}}, {"type": "Feature", "geometry": {"type": "Point", "coordinates": [2.621877, 48.538154]}, "properties": {"street_name": "PIECE DES COURTILLERAIES", "sales": 23, "sales_appt": 0, "sales_maison": 0, "median_price": 232900.0, "median_price_per_sqm": null, "turnover_score": 4.2, "turnover_rank": 23, "first_year": 2021, "last_year": 2025, "years_active": 5}}, {"type": "Feature", "geometry": {"type": "Point", "coordinates": [2.625063, 48.543725]}, "properties": {"street_name": "SQ RONSARD", "sales": 23, "sales_appt": 21, "sales_maison": 0, "median_price": 130000.0, "median_price_per_sqm": 1722.2222222222222, "turnover_score": 4.2, "turnover_rank": 23, "first_year": 2021, "last_year": 2025, "years_active": 5}}, {"type": "Feature", "geometry": {"type": "Point", "coordinates": [2.624927, 48.538242]}, "properties": {"street_name": "RUE DE LA NOUE", "sales": 22, "sales_appt": 0, "sales_maison": 5, "median_price": 220000.0, "median_price_per_sqm": 2867.4698795180725, "turnover_score": 4.1, "turnover_rank": 24, "first_year": 2021, "last_year": 2025, "years_active": 5}}, {"type": "Feature", "geometry": {"type": "Point", "coordinates": [2.6277305, 48.533697000000004]}, "properties": {"street_name": "LE MEE", "sales": 22, "sales_appt": 0, "sales_maison": 0, "median_price": 950000.0, "median_price_per_sqm": null, "turnover_score": 4.1, "turnover_rank": 24, "first_year": 2021, "last_year": 2025, "years_active": 5}}, {"type": "Feature", "geometry": {"type": "Point", "coordinates": [2.633057, 48.531184]}, "properties": {"street_name": "CHE DES PRAILLONS", "sales": 21, "sales_appt": 0, "sales_maison": 15, "median_price": 250000.0, "median_price_per_sqm": 1612.9032258064517, "turnover_score": 3.9, "turnover_rank": 25, "first_year": 2021, "last_year": 2025, "years_active": 4}}, {"type": "Feature", "geometry": {"type": "Point", "coordinates": [2.64227, 48.541621]}, "properties": {"street_name": "ALL ALBERT CAMUS", "sales": 19, "sales_appt": 0, "sales_maison": 0, "median_price": 9500.0, "median_price_per_sqm": null, "turnover_score": 3.5, "turnover_rank": 26, "first_year": 2021, "last_year": 2025, "years_active": 5}}, {"type": "Feature", "geometry": {"type": "Point", "coordinates": [2.629885, 48.542138]}, "properties": {"street_name": "SQ AUGUSTE RODIN", "sales": 19, "sales_appt": 10, "sales_maison": 0, "median_price": 134500.0, "median_price_per_sqm": 1602.5641025641025, "turnover_score": 3.5, "turnover_rank": 26, "first_year": 2023, "last_year": 2025, "years_active": 3}}, {"type": "Feature", "geometry": {"type": "Point", "coordinates": [2.622721, 48.538885]}, "properties": {"street_name": "LES MARES", "sales": 17, "sales_appt": 0, "sales_maison": 0, "median_price": 204000.0, "median_price_per_sqm": null, "turnover_score": 3.1, "turnover_rank": 27, "first_year": 2021, "last_year": 2025, "years_active": 4}}, {"type": "Feature", "geometry": {"type": "Point", "coordinates": [2.637883, 48.544327]}, "properties": {"street_name": "ALL DE LA BERGERIE", "sales": 17, "sales_appt": 0, "sales_maison": 17, "median_price": 210000.0, "median_price_per_sqm": 2408.0459770114944, "turnover_score": 3.1, "turnover_rank": 27, "first_year": 2021, "last_year": 2025, "years_active": 5}}, {"type": "Feature", "geometry": {"type": "Point", "coordinates": [2.620079, 48.5362375]}, "properties": {"street_name": "RUE DE BEAUMONT DU GATINAIS", "sales": 16, "sales_appt": 0, "sales_maison": 14, "median_price": 227500.0, "median_price_per_sqm": 2886.6666666666665, "turnover_score": 2.9, "turnover_rank": 28, "first_year": 2021, "last_year": 2025, "years_active": 5}}, {"type": "Feature", "geometry": {"type": "Point", "coordinates": [2.628178, 48.544044]}, "properties": {"street_name": "RUE JACQUES LOUIS DAVID", "sales": 14, "sales_appt": 5, "sales_maison": 0, "median_price": 117660.0, "median_price_per_sqm": 1716.4179104477612, "turnover_score": 2.6, "turnover_rank": 29, "first_year": 2022, "last_year": 2025, "years_active": 4}}, {"type": "Feature", "geometry": {"type": "Point", "coordinates": [2.641507, 48.545891]}, "properties": {"street_name": "PLAINE DU MARCHE MARAIS", "sales": 14, "sales_appt": 0, "sales_maison": 0, "median_price": 252000.0, "median_price_per_sqm": null, "turnover_score": 2.6, "turnover_rank": 29, "first_year": 2021, "last_year": 2025, "years_active": 5}}, {"type": "Feature", "geometry": {"type": "Point", "coordinates": [2.645325, 48.545415]}, "properties": {"street_name": "ALL FREDERIC MISTRAL", "sales": 13, "sales_appt": 7, "sales_maison": 0, "median_price": 139000.0, "median_price_per_sqm": 2080.6451612903224, "turnover_score": 2.4, "turnover_rank": 30, "first_year": 2021, "last_year": 2024, "years_active": 4}}, {"type": "Feature", "geometry": {"type": "Point", "coordinates": [2.629885, 48.542138]}, "properties": {"street_name": "RUE JEAN GOUJON", "sales": 13, "sales_appt": 4, "sales_maison": 0, "median_price": 127000.0, "median_price_per_sqm": 1755.1383665716999, "turnover_score": 2.4, "turnover_rank": 30, "first_year": 2023, "last_year": 2025, "years_active": 3}}, {"type": "Feature", "geometry": {"type": "Point", "coordinates": [2.621991, 48.535627000000005]}, "properties": {"street_name": "RUE DE BARBIZON", "sales": 12, "sales_appt": 0, "sales_maison": 9, "median_price": 232500.0, "median_price_per_sqm": 2405.7894736842104, "turnover_score": 2.2, "turnover_rank": 31, "first_year": 2021, "last_year": 2025, "years_active": 5}}, {"type": "Feature", "geometry": {"type": "Point", "coordinates": [2.6411305, 48.545643]}, "properties": {"street_name": "ALL DE KOUFRA", "sales": 12, "sales_appt": 0, "sales_maison": 5, "median_price": 215000.0, "median_price_per_sqm": 2529.4117647058824, "turnover_score": 2.2, "turnover_rank": 31, "first_year": 2021, "last_year": 2025, "years_active": 5}}, {"type": "Feature", "geometry": {"type": "Point", "coordinates": [2.633995, 48.534885]}, "properties": {"street_name": "RUE DE CHANTELOUP", "sales": 11, "sales_appt": 1, "sales_maison": 3, "median_price": 165000.0, "median_price_per_sqm": 1178.5714285714287, "turnover_score": 2.0, "turnover_rank": 32, "first_year": 2021, "last_year": 2024, "years_active": 2}}, {"type": "Feature", "geometry": {"type": "Point", "coordinates": [2.643374, 48.539879]}, "properties": {"street_name": "AV DES COURTILLERAIES", "sales": 11, "sales_appt": 0, "sales_maison": 7, "median_price": 340000.0, "median_price_per_sqm": 3333.3333333333335, "turnover_score": 2.0, "turnover_rank": 32, "first_year": 2021, "last_year": 2023, "years_active": 3}}, {"type": "Feature", "geometry": {"type": "Point", "coordinates": [2.63474, 48.536619]}, "properties": {"street_name": "RUE DU PRESSOIR", "sales": 11, "sales_appt": 0, "sales_maison": 6, "median_price": 280000.0, "median_price_per_sqm": 2970.08547008547, "turnover_score": 2.0, "turnover_rank": 32, "first_year": 2021, "last_year": 2024, "years_active": 4}}, {"type": "Feature", "geometry": {"type": "Point", "coordinates": [2.635128, 48.532824]}, "properties": {"street_name": "RUE CREUSE", "sales": 10, "sales_appt": 0, "sales_maison": 4, "median_price": 382500.0, "median_price_per_sqm": 3489.5581844519556, "turnover_score": 1.8, "turnover_rank": 33, "first_year": 2025, "last_year": 2025, "years_active": 1}}, {"type": "Feature", "geometry": {"type": "Point", "coordinates": [2.6249314999999998, 48.547056]}, "properties": {"street_name": "LES REGALS", "sales": 10, "sales_appt": 0, "sales_maison": 0, "median_price": 198545.0, "median_price_per_sqm": null, "turnover_score": 1.8, "turnover_rank": 33, "first_year": 2021, "last_year": 2025, "years_active": 5}}, {"type": "Feature", "geometry": {"type": "Point", "coordinates": [2.626424, 48.53336]}, "properties": {"street_name": "RUE DE LA FERME", "sales": 10, "sales_appt": 0, "sales_maison": 4, "median_price": 405000.0, "median_price_per_sqm": 3432.2033898305085, "turnover_score": 1.8, "turnover_rank": 33, "first_year": 2023, "last_year": 2025, "years_active": 2}}, {"type": "Feature", "geometry": {"type": "Point", "coordinates": [2.632171, 48.534162]}, "properties": {"street_name": "RUE DU LAVOIR", "sales": 10, "sales_appt": 5, "sales_maison": 0, "median_price": 145000.0, "median_price_per_sqm": 2984.285714285714, "turnover_score": 1.8, "turnover_rank": 33, "first_year": 2022, "last_year": 2024, "years_active": 3}}, {"type": "Feature", "geometry": {"type": "Point", "coordinates": [2.631897, 48.54189]}, "properties": {"street_name": "RUE PIERRE DE COUBERTIN", "sales": 10, "sales_appt": 4, "sales_maison": 0, "median_price": 142000.0, "median_price_per_sqm": 2629.5025728987994, "turnover_score": 1.8, "turnover_rank": 33, "first_year": 2021, "last_year": 2025, "years_active": 3}}, {"type": "Feature", "geometry": {"type": "Point", "coordinates": [2.627701, 48.540435]}, "properties": {"street_name": "RUE JEAN ANTOINE HOUDON", "sales": 10, "sales_appt": 2, "sales_maison": 5, "median_price": 156000.0, "median_price_per_sqm": 2506.024096385542, "turnover_score": 1.8, "turnover_rank": 33, "first_year": 2021, "last_year": 2024, "years_active": 4}}, {"type": "Feature", "geometry": {"type": "Point", "coordinates": [2.616736, 48.531668]}, "properties": {"street_name": "RUE ROBERT SCHUMAN", "sales": 9, "sales_appt": 2, "sales_maison": 0, "median_price": 150000.0, "median_price_per_sqm": 431.0344827586207, "turnover_score": 1.7, "turnover_rank": 34, "first_year": 2022, "last_year": 2024, "years_active": 3}}, {"type": "Feature", "geometry": {"type": "Point", "coordinates": [2.629885, 48.542138]}, "properties": {"street_name": "ALL JEAN BAPTISTE CARPEAUX", "sales": 9, "sales_appt": 0, "sales_maison": 0, "median_price": 134500.0, "median_price_per_sqm": null, "turnover_score": 1.7, "turnover_rank": 34, "first_year": 2023, "last_year": 2025, "years_active": 3}}, {"type": "Feature", "geometry": {"type": "Point", "coordinates": [2.625171, 48.529807]}, "properties": {"street_name": "AV DU GENERAL DE GAULLE", "sales": 9, "sales_appt": 0, "sales_maison": 3, "median_price": 742820.0, "median_price_per_sqm": 2924.488188976378, "turnover_score": 1.7, "turnover_rank": 34, "first_year": 2021, "last_year": 2025, "years_active": 2}}, {"type": "Feature", "geometry": {"type": "Point", "coordinates": [2.627808, 48.545208]}, "properties": {"street_name": "RUE JEAN BAPTISTE POQUELIN", "sales": 9, "sales_appt": 0, "sales_maison": 6, "median_price": 230000.0, "median_price_per_sqm": 2637.330316742082, "turnover_score": 1.7, "turnover_rank": 34, "first_year": 2021, "last_year": 2025, "years_active": 3}}, {"type": "Feature", "geometry": {"type": "Point", "coordinates": [2.638384, 48.538495]}, "properties": {"street_name": "RUE LUCIEN VERNET", "sales": 9, "sales_appt": 4, "sales_maison": 4, "median_price": 238000.0, "median_price_per_sqm": 2586.8055555555557, "turnover_score": 1.7, "turnover_rank": 34, "first_year": 2021, "last_year": 2024, "years_active": 3}}, {"type": "Feature", "geometry": {"type": "Point", "coordinates": [2.628956, 48.541237]}, "properties": {"street_name": "RUE PIERRE PUGET", "sales": 9, "sales_appt": 1, "sales_maison": 5, "median_price": 190000.0, "median_price_per_sqm": 2018.2896930469747, "turnover_score": 1.7, "turnover_rank": 34, "first_year": 2021, "last_year": 2024, "years_active": 3}}, {"type": "Feature", "geometry": {"type": "Point", "coordinates": [2.619001, 48.545239]}, "properties": {"street_name": "RUE DENIS PAPIN", "sales": 9, "sales_appt": 0, "sales_maison": 9, "median_price": 255000.0, "median_price_per_sqm": 2858.6136363636365, "turnover_score": 1.7, "turnover_rank": 34, "first_year": 2021, "last_year": 2025, "years_active": 4}}, {"type": "Feature", "geometry": {"type": "Point", "coordinates": [2.619118, 48.535225499999996]}, "properties": {"street_name": "RUE DE LA HAIE DE CHASSE", "sales": 8, "sales_appt": 0, "sales_maison": 8, "median_price": 272250.0, "median_price_per_sqm": 2646.488828089375, "turnover_score": 1.5, "turnover_rank": 35, "first_year": 2021, "last_year": 2023, "years_active": 3}}, {"type": "Feature", "geometry": {"type": "Point", "coordinates": [2.637456, 48.531903]}, "properties": {"street_name": "RUE DU 8 MAI 1945", "sales": 8, "sales_appt": 0, "sales_maison": 3, "median_price": 290000.0, "median_price_per_sqm": 2900.0, "turnover_score": 1.5, "turnover_rank": 35, "first_year": 2022, "last_year": 2022, "years_active": 1}}, {"type": "Feature", "geometry": {"type": "Point", "coordinates": [2.629174, 48.531741499999995]}, "properties": {"street_name": "RUE DE L EGLISE", "sales": 8, "sales_appt": 0, "sales_maison": 0, "median_price": 3955000.0, "median_price_per_sqm": null, "turnover_score": 1.5, "turnover_rank": 35, "first_year": 2023, "last_year": 2024, "years_active": 2}}, {"type": "Feature", "geometry": {"type": "Point", "coordinates": [2.627967, 48.532695]}, "properties": {"street_name": "RUE JEAN MECHET", "sales": 7, "sales_appt": 0, "sales_maison": 4, "median_price": 285000.0, "median_price_per_sqm": 2561.838096619759, "turnover_score": 1.3, "turnover_rank": 36, "first_year": 2021, "last_year": 2023, "years_active": 2}}, {"type": "Feature", "geometry": {"type": "Point", "coordinates": [2.637139, 48.546049]}, "properties": {"street_name": "ALL HELENE BOUCHER", "sales": 6, "sales_appt": 0, "sales_maison": 4, "median_price": 259500.0, "median_price_per_sqm": 2503.968253968254, "turnover_score": 1.1, "turnover_rank": 37, "first_year": 2024, "last_year": 2025, "years_active": 2}}, {"type": "Feature", "geometry": {"type": "Point", "coordinates": [2.641841, 48.541523]}, "properties": {"street_name": "PL DU TCHAD", "sales": 6, "sales_appt": 3, "sales_maison": 0, "median_price": 135000.0, "median_price_per_sqm": 1467.391304347826, "turnover_score": 1.1, "turnover_rank": 37, "first_year": 2022, "last_year": 2024, "years_active": 2}}, {"type": "Feature", "geometry": {"type": "Point", "coordinates": [2.641179, 48.543579]}, "properties": {"street_name": "PL DE LA CROIX BLANCHE", "sales": 6, "sales_appt": 0, "sales_maison": 0, "median_price": 14000.0, "median_price_per_sqm": 210.41666666666669, "turnover_score": 1.1, "turnover_rank": 37, "first_year": 2021, "last_year": 2025, "years_active": 4}}, {"type": "Feature", "geometry": {"type": "Point", "coordinates": [2.6200475, 48.536857999999995]}, "properties": {"street_name": "BOIS DES COURTILLERAIES", "sales": 6, "sales_appt": 0, "sales_maison": 0, "median_price": 227450.0, "median_price_per_sqm": null, "turnover_score": 1.1, "turnover_rank": 37, "first_year": 2021, "last_year": 2023, "years_active": 3}}, {"type": "Feature", "geometry": {"type": "Point", "coordinates": [2.630261, 48.552362]}, "properties": {"street_name": "AV DE CORBEIL", "sales": 5, "sales_appt": 0, "sales_maison": 0, "median_price": 2142460.8, "median_price_per_sqm": 8569.8432, "turnover_score": 0.9, "turnover_rank": 38, "first_year": 2025, "last_year": 2025, "years_active": 1}}, {"type": "Feature", "geometry": {"type": "Point", "coordinates": [2.622151, 48.536109]}, "properties": {"street_name": "RUE DE LORREZ BOCAGE", "sales": 5, "sales_appt": 0, "sales_maison": 1, "median_price": 204430.0, "median_price_per_sqm": 3145.076923076923, "turnover_score": 0.9, "turnover_rank": 38, "first_year": 2022, "last_year": 2025, "years_active": 4}}, {"type": "Feature", "geometry": {"type": "Point", "coordinates": [2.631084, 48.537361]}, "properties": {"street_name": "RUE LEON GERMAIN", "sales": 5, "sales_appt": 0, "sales_maison": 5, "median_price": 320000.0, "median_price_per_sqm": 3142.8571428571427, "turnover_score": 0.9, "turnover_rank": 38, "first_year": 2021, "last_year": 2025, "years_active": 4}}, {"type": "Feature", "geometry": {"type": "Point", "coordinates": [2.636378, 48.546049]}, "properties": {"street_name": "AV DE MARCHE MARAIS", "sales": 5, "sales_appt": 0, "sales_maison": 4, "median_price": 301000.0, "median_price_per_sqm": 2412.393162393162, "turnover_score": 0.9, "turnover_rank": 38, "first_year": 2021, "last_year": 2024, "years_active": 4}}, {"type": "Feature", "geometry": {"type": "Point", "coordinates": [2.646662, 48.544521]}, "properties": {"street_name": "CHE DE LA CHASSE", "sales": 5, "sales_appt": 0, "sales_maison": 3, "median_price": 215000.0, "median_price_per_sqm": 1898.7663280116112, "turnover_score": 0.9, "turnover_rank": 38, "first_year": 2022, "last_year": 2025, "years_active": 2}}, {"type": "Feature", "geometry": {"type": "Point", "coordinates": [2.634008, 48.534679]}, "properties": {"street_name": "LE VILLAGE", "sales": 5, "sales_appt": 0, "sales_maison": 0, "median_price": 165000.0, "median_price_per_sqm": null, "turnover_score": 0.9, "turnover_rank": 38, "first_year": 2023, "last_year": 2024, "years_active": 2}}, {"type": "Feature", "geometry": {"type": "Point", "coordinates": [2.624584, 48.546958]}, "properties": {"street_name": "ALL DE LA BRUYERE", "sales": 5, "sales_appt": 0, "sales_maison": 5, "median_price": 200000.0, "median_price_per_sqm": 2833.3333333333335, "turnover_score": 0.9, "turnover_rank": 38, "first_year": 2021, "last_year": 2023, "years_active": 2}}, {"type": "Feature", "geometry": {"type": "Point", "coordinates": [2.643354, 48.537597]}, "properties": {"street_name": "LES CARRIERES", "sales": 5, "sales_appt": 0, "sales_maison": 0, "median_price": 283000.0, "median_price_per_sqm": null, "turnover_score": 0.9, "turnover_rank": 38, "first_year": 2021, "last_year": 2025, "years_active": 4}}, {"type": "Feature", "geometry": {"type": "Point", "coordinates": [2.6334445000000004, 48.5296545]}, "properties": {"street_name": "PRAIRIE DU MEE", "sales": 4, "sales_appt": 0, "sales_maison": 0, "median_price": 68250.0, "median_price_per_sqm": null, "turnover_score": 0.7, "turnover_rank": 39, "first_year": 2022, "last_year": 2025, "years_active": 4}}, {"type": "Feature", "geometry": {"type": "Point", "coordinates": [2.637544, 48.541444]}, "properties": {"street_name": "ALL DE BOURGOGNE", "sales": 4, "sales_appt": 0, "sales_maison": 4, "median_price": 226500.0, "median_price_per_sqm": 2962.32057416268, "turnover_score": 0.7, "turnover_rank": 39, "first_year": 2023, "last_year": 2025, "years_active": 2}}, {"type": "Feature", "geometry": {"type": "Point", "coordinates": [2.6415925, 48.5469235]}, "properties": {"street_name": "ALL DE LA VOULZIE", "sales": 4, "sales_appt": 0, "sales_maison": 4, "median_price": 212500.0, "median_price_per_sqm": 2363.339275103981, "turnover_score": 0.7, "turnover_rank": 39, "first_year": 2021, "last_year": 2022, "years_active": 2}}, {"type": "Feature", "geometry": {"type": "Point", "coordinates": [2.6224480000000003, 48.537942]}, "properties": {"street_name": "RUE DU BOIS DES JOIES", "sales": 4, "sales_appt": 0, "sales_maison": 3, "median_price": 243000.0, "median_price_per_sqm": 2435.897435897436, "turnover_score": 0.7, "turnover_rank": 39, "first_year": 2021, "last_year": 2024, "years_active": 2}}, {"type": "Feature", "geometry": {"type": "Point", "coordinates": [2.628211, 48.536032]}, "properties": {"street_name": "RUE DU CIMETIERE", "sales": 4, "sales_appt": 0, "sales_maison": 2, "median_price": 255000.0, "median_price_per_sqm": 2590.7512626262624, "turnover_score": 0.7, "turnover_rank": 39, "first_year": 2023, "last_year": 2025, "years_active": 2}}, {"type": "Feature", "geometry": {"type": "Point", "coordinates": [2.623565, 48.542685000000006]}, "properties": {"street_name": "RUE DES BELOTINS", "sales": 4, "sales_appt": 0, "sales_maison": 4, "median_price": 271350.0, "median_price_per_sqm": 2898.3045977011498, "turnover_score": 0.7, "turnover_rank": 39, "first_year": 2021, "last_year": 2025, "years_active": 2}}, {"type": "Feature", "geometry": {"type": "Point", "coordinates": [2.6218605000000004, 48.537316000000004]}, "properties": {"street_name": "RUE DE LA POMPONNETTE", "sales": 4, "sales_appt": 0, "sales_maison": 4, "median_price": 235500.0, "median_price_per_sqm": 2812.1084797555386, "turnover_score": 0.7, "turnover_rank": 39, "first_year": 2022, "last_year": 2023, "years_active": 2}}, {"type": "Feature", "geometry": {"type": "Point", "coordinates": [2.636378, 48.545363]}, "properties": {"street_name": "RUE MARYSE BASTIE", "sales": 4, "sales_appt": 0, "sales_maison": 4, "median_price": 280500.0, "median_price_per_sqm": 2699.8705780845557, "turnover_score": 0.7, "turnover_rank": 39, "first_year": 2021, "last_year": 2024, "years_active": 3}}, {"type": "Feature", "geometry": {"type": "Point", "coordinates": [2.633865, 48.5355325]}, "properties": {"street_name": "SEN DES COULEUVRES", "sales": 4, "sales_appt": 0, "sales_maison": 0, "median_price": 95000.0, "median_price_per_sqm": null, "turnover_score": 0.7, "turnover_rank": 39, "first_year": 2024, "last_year": 2024, "years_active": 1}}, {"type": "Feature", "geometry": {"type": "Point", "coordinates": [2.617867, 48.546231]}, "properties": {"street_name": "RUE EVARISTE GALOIS", "sales": 4, "sales_appt": 0, "sales_maison": 4, "median_price": 286500.0, "median_price_per_sqm": 3195.0757575757575, "turnover_score": 0.7, "turnover_rank": 39, "first_year": 2021, "last_year": 2023, "years_active": 2}}, {"type": "Feature", "geometry": {"type": "Point", "coordinates": [2.633287, 48.532156]}, "properties": {"street_name": "RUE DU MURGER PAPILLON", "sales": 4, "sales_appt": 0, "sales_maison": 4, "median_price": 283750.0, "median_price_per_sqm": 4012.0499419279904, "turnover_score": 0.7, "turnover_rank": 39, "first_year": 2021, "last_year": 2025, "years_active": 3}}, {"type": "Feature", "geometry": {"type": "Point", "coordinates": [2.623934, 48.535086]}, "properties": {"street_name": "ALL THIBAUD DE MASS", "sales": 4, "sales_appt": 0, "sales_maison": 3, "median_price": 283475.0, "median_price_per_sqm": 2668.8976377952754, "turnover_score": 0.7, "turnover_rank": 39, "first_year": 2022, "last_year": 2025, "years_active": 3}}, {"type": "Feature", "geometry": {"type": "Point", "coordinates": [2.6306475000000002, 48.552375]}, "properties": {"street_name": "LE MARCHAIS MARAIS", "sales": 4, "sales_appt": 0, "sales_maison": 0, "median_price": 1074230.4, "median_price_per_sqm": null, "turnover_score": 0.7, "turnover_rank": 39, "first_year": 2023, "last_year": 2025, "years_active": 2}}, {"type": "Feature", "geometry": {"type": "Point", "coordinates": [2.6340950000000003, 48.539716999999996]}, "properties": {"street_name": "RES HAIM", "sales": 4, "sales_appt": 0, "sales_maison": 3, "median_price": 530000.0, "median_price_per_sqm": 1235.4312354312353, "turnover_score": 0.7, "turnover_rank": 39, "first_year": 2023, "last_year": 2024, "years_active": 2}}, {"type": "Feature", "geometry": {"type": "Point", "coordinates": [2.635612, 48.536212]}, "properties": {"street_name": "RLE LIEVIN", "sales": 4, "sales_appt": 0, "sales_maison": 2, "median_price": 350000.0, "median_price_per_sqm": 2464.788732394366, "turnover_score": 0.7, "turnover_rank": 39, "first_year": 2021, "last_year": 2021, "years_active": 1}}, {"type": "Feature", "geometry": {"type": "Point", "coordinates": [2.6223644999999998, 48.538838999999996]}, "properties": {"street_name": "RUE DE BOUVILLE", "sales": 4, "sales_appt": 0, "sales_maison": 4, "median_price": 203500.0, "median_price_per_sqm": 2389.3540669856457, "turnover_score": 0.7, "turnover_rank": 39, "first_year": 2021, "last_year": 2023, "years_active": 2}}, {"type": "Feature", "geometry": {"type": "Point", "coordinates": [2.6214440000000003, 48.5371215]}, "properties": {"street_name": "MAIL DE HAUTEFEUILLE", "sales": 4, "sales_appt": 0, "sales_maison": 4, "median_price": 224750.0, "median_price_per_sqm": 2918.8311688311687, "turnover_score": 0.7, "turnover_rank": 39, "first_year": 2022, "last_year": 2025, "years_active": 3}}, {"type": "Feature", "geometry": {"type": "Point", "coordinates": [2.624928, 48.546626]}, "properties": {"street_name": "RUE MONTESQUIEU", "sales": 3, "sales_appt": 0, "sales_maison": 3, "median_price": 242500.0, "median_price_per_sqm": 2474.4897959183672, "turnover_score": 0.6, "turnover_rank": 40, "first_year": 2024, "last_year": 2025, "years_active": 2}}, {"type": "Feature", "geometry": {"type": "Point", "coordinates": [2.640961, 48.547439]}, "properties": {"street_name": "ALL DU FUSAIN", "sales": 3, "sales_appt": 0, "sales_maison": 2, "median_price": 237660.0, "median_price_per_sqm": 2210.40404040404, "turnover_score": 0.6, "turnover_rank": 40, "first_year": 2022, "last_year": 2024, "years_active": 2}}, {"type": "Feature", "geometry": {"type": "Point", "coordinates": [2.637544, 48.541444]}, "properties": {"street_name": "AV DU 18 JUIN", "sales": 3, "sales_appt": 0, "sales_maison": 2, "median_price": 260000.0, "median_price_per_sqm": 2798.6006996501746, "turnover_score": 0.6, "turnover_rank": 40, "first_year": 2021, "last_year": 2024, "years_active": 2}}, {"type": "Feature", "geometry": {"type": "Point", "coordinates": [2.639171, 48.546386]}, "properties": {"street_name": "AV DES GLIERES", "sales": 3, "sales_appt": 0, "sales_maison": 3, "median_price": 230000.0, "median_price_per_sqm": 2366.0714285714284, "turnover_score": 0.6, "turnover_rank": 40, "first_year": 2024, "last_year": 2025, "years_active": 2}}, {"type": "Feature", "geometry": {"type": "Point", "coordinates": [2.627769, 48.538651]}, "properties": {"street_name": "IMP DE LA MOTTE", "sales": 3, "sales_appt": 0, "sales_maison": 2, "median_price": 338000.0, "median_price_per_sqm": 2599.784250269687, "turnover_score": 0.6, "turnover_rank": 40, "first_year": 2021, "last_year": 2025, "years_active": 2}}, {"type": "Feature", "geometry": {"type": "Point", "coordinates": [2.635735, 48.540038]}, "properties": {"street_name": "ALL DU SQUARE DU BUISSON", "sales": 3, "sales_appt": 0, "sales_maison": 3, "median_price": 273500.0, "median_price_per_sqm": 2580.769230769231, "turnover_score": 0.6, "turnover_rank": 40, "first_year": 2022, "last_year": 2025, "years_active": 2}}, {"type": "Feature", "geometry": {"type": "Point", "coordinates": [2.62178, 48.537142]}, "properties": {"street_name": "RUE DES SABLONS", "sales": 3, "sales_appt": 0, "sales_maison": 3, "median_price": 229000.0, "median_price_per_sqm": 2573.0337078651687, "turnover_score": 0.6, "turnover_rank": 40, "first_year": 2023, "last_year": 2025, "years_active": 2}}, {"type": "Feature", "geometry": {"type": "Point", "coordinates": [2.640874, 48.54611]}, "properties": {"street_name": "ALL DE DIEPPE", "sales": 3, "sales_appt": 0, "sales_maison": 1, "median_price": 255000.0, "median_price_per_sqm": 3000.0, "turnover_score": 0.6, "turnover_rank": 40, "first_year": 2023, "last_year": 2023, "years_active": 1}}, {"type": "Feature", "geometry": {"type": "Point", "coordinates": [2.62599, 48.545179]}, "properties": {"street_name": "ALL BUFFON", "sales": 3, "sales_appt": 0, "sales_maison": 2, "median_price": 283000.0, "median_price_per_sqm": 2576.9768457841856, "turnover_score": 0.6, "turnover_rank": 40, "first_year": 2021, "last_year": 2022, "years_active": 2}}, {"type": "Feature", "geometry": {"type": "Point", "coordinates": [2.625794, 48.544756]}, "properties": {"street_name": "ALL ANDRE CHENIER", "sales": 3, "sales_appt": 0, "sales_maison": 1, "median_price": 266800.0, "median_price_per_sqm": 2500.0, "turnover_score": 0.6, "turnover_rank": 40, "first_year": 2022, "last_year": 2024, "years_active": 2}}, {"type": "Feature", "geometry": {"type": "Point", "coordinates": [2.625, 48.544732]}, "properties": {"street_name": "ALL ALFRED DE VIGNY", "sales": 3, "sales_appt": 0, "sales_maison": 2, "median_price": 266800.0, "median_price_per_sqm": 2819.1011235955057, "turnover_score": 0.6, "turnover_rank": 40, "first_year": 2021, "last_year": 2024, "years_active": 2}}, {"type": "Feature", "geometry": {"type": "Point", "coordinates": [2.628345, 48.538484]}, "properties": {"street_name": "RUE JACQUES PREVERT", "sales": 3, "sales_appt": 0, "sales_maison": 2, "median_price": 295000.0, "median_price_per_sqm": 3368.2041952054797, "turnover_score": 0.6, "turnover_rank": 40, "first_year": 2021, "last_year": 2025, "years_active": 2}}, {"type": "Feature", "geometry": {"type": "Point", "coordinates": [2.631216, 48.532512]}, "properties": {"street_name": "RUE DES TERRES DOUCES", "sales": 3, "sales_appt": 0, "sales_maison": 2, "median_price": 370000.0, "median_price_per_sqm": 8633.333333333332, "turnover_score": 0.6, "turnover_rank": 40, "first_year": 2024, "last_year": 2025, "years_active": 2}}, {"type": "Feature", "geometry": {"type": "Point", "coordinates": [2.633664, 48.53637]}, "properties": {"street_name": "RUE DES COULEUVRES", "sales": 3, "sales_appt": 0, "sales_maison": 1, "median_price": 375000.0, "median_price_per_sqm": 2343.75, "turnover_score": 0.6, "turnover_rank": 40, "first_year": 2022, "last_year": 2022, "years_active": 1}}, {"type": "Feature", "geometry": {"type": "Point", "coordinates": [2.622695, 48.535024]}, "properties": {"street_name": "PARC DU MEE", "sales": 3, "sales_appt": 0, "sales_maison": 0, "median_price": 1975000.0, "median_price_per_sqm": null, "turnover_score": 0.6, "turnover_rank": 40, "first_year": 2021, "last_year": 2021, "years_active": 1}}, {"type": "Feature", "geometry": {"type": "Point", "coordinates": [2.630175, 48.534725]}, "properties": {"street_name": "RUE DE LA PLAINE", "sales": 3, "sales_appt": 0, "sales_maison": 2, "median_price": 226400.0, "median_price_per_sqm": 3013.3064516129034, "turnover_score": 0.6, "turnover_rank": 40, "first_year": 2023, "last_year": 2024, "years_active": 2}}, {"type": "Feature", "geometry": {"type": "Point", "coordinates": [2.631079, 48.531003]}, "properties": {"street_name": "LES MONTGARNIES", "sales": 3, "sales_appt": 0, "sales_maison": 0, "median_price": 170000.0, "median_price_per_sqm": null, "turnover_score": 0.6, "turnover_rank": 40, "first_year": 2021, "last_year": 2025, "years_active": 2}}, {"type": "Feature", "geometry": {"type": "Point", "coordinates": [2.62977, 48.532149]}, "properties": {"street_name": "RUE DE LA MARE AU DIABLE", "sales": 2, "sales_appt": 0, "sales_maison": 0, "median_price": 2157500.0, "median_price_per_sqm": null, "turnover_score": 0.4, "turnover_rank": 41, "first_year": 2023, "last_year": 2023, "years_active": 1}}, {"type": "Feature", "geometry": {"type": "Point", "coordinates": [2.634401, 48.5438875]}, "properties": {"street_name": "SQ DES SORBIERS", "sales": 2, "sales_appt": 0, "sales_maison": 0, "median_price": 1.0, "median_price_per_sqm": null, "turnover_score": 0.4, "turnover_rank": 41, "first_year": 2025, "last_year": 2025, "years_active": 1}}, {"type": "Feature", "geometry": {"type": "Point", "coordinates": [2.6180705, 48.545641]}, "properties": {"street_name": "RUE LAVOISIER", "sales": 2, "sales_appt": 0, "sales_maison": 2, "median_price": 278500.0, "median_price_per_sqm": 3164.772727272727, "turnover_score": 0.4, "turnover_rank": 41, "first_year": 2021, "last_year": 2021, "years_active": 1}}, {"type": "Feature", "geometry": {"type": "Point", "coordinates": [2.637544, 48.541444]}, "properties": {"street_name": "ALL DE BRETAGNE", "sales": 2, "sales_appt": 0, "sales_maison": 2, "median_price": 236300.0, "median_price_per_sqm": 2339.60396039604, "turnover_score": 0.4, "turnover_rank": 41, "first_year": 2023, "last_year": 2024, "years_active": 2}}, {"type": "Feature", "geometry": {"type": "Point", "coordinates": [2.637544, 48.541444]}, "properties": {"street_name": "ALL DE CHAMPAGNE", "sales": 2, "sales_appt": 0, "sales_maison": 2, "median_price": 246000.0, "median_price_per_sqm": 2827.5862068965516, "turnover_score": 0.4, "turnover_rank": 41, "first_year": 2021, "last_year": 2023, "years_active": 2}}, {"type": "Feature", "geometry": {"type": "Point", "coordinates": [2.6250955, 48.544491]}, "properties": {"street_name": "ALL AUGUSTE COMTE", "sales": 2, "sales_appt": 0, "sales_maison": 2, "median_price": 240000.0, "median_price_per_sqm": 2471.380114479542, "turnover_score": 0.4, "turnover_rank": 41, "first_year": 2021, "last_year": 2022, "years_active": 2}}, {"type": "Feature", "geometry": {"type": "Point", "coordinates": [2.624751, 48.540332]}, "properties": {"street_name": "RUE DES LACS", "sales": 2, "sales_appt": 0, "sales_maison": 0, "median_price": 205000.0, "median_price_per_sqm": 1149.1389243561398, "turnover_score": 0.4, "turnover_rank": 41, "first_year": 2023, "last_year": 2023, "years_active": 1}}, {"type": "Feature", "geometry": {"type": "Point", "coordinates": [2.618637, 48.546236500000006]}, "properties": {"street_name": "SQ CHASLES", "sales": 2, "sales_appt": 0, "sales_maison": 2, "median_price": 243050.0, "median_price_per_sqm": 2435.1015687851973, "turnover_score": 0.4, "turnover_rank": 41, "first_year": 2021, "last_year": 2025, "years_active": 2}}, {"type": "Feature", "geometry": {"type": "Point", "coordinates": [2.627701, 48.540435]}, "properties": {"street_name": "RUE EMILE ANTOINE BOURDELLE", "sales": 2, "sales_appt": 1, "sales_maison": 0, "median_price": 155000.0, "median_price_per_sqm": 1684.7826086956522, "turnover_score": 0.4, "turnover_rank": 41, "first_year": 2023, "last_year": 2023, "years_active": 1}}, {"type": "Feature", "geometry": {"type": "Point", "coordinates": [2.636378, 48.545363]}, "properties": {"street_name": "ALL LOUIS BREGUET", "sales": 2, "sales_appt": 0, "sales_maison": 2, "median_price": 320450.0, "median_price_per_sqm": 3341.1083667798703, "turnover_score": 0.4, "turnover_rank": 41, "first_year": 2022, "last_year": 2024, "years_active": 2}}, {"type": "Feature", "geometry": {"type": "Point", "coordinates": [2.6377745, 48.5458745]}, "properties": {"street_name": "AV JEAN MOULIN", "sales": 2, "sales_appt": 0, "sales_maison": 2, "median_price": 264000.0, "median_price_per_sqm": 2669.590643274854, "turnover_score": 0.4, "turnover_rank": 41, "first_year": 2021, "last_year": 2025, "years_active": 2}}, {"type": "Feature", "geometry": {"type": "Point", "coordinates": [2.6320024999999996, 48.536627499999994]}, "properties": {"street_name": "RUE DES VIGNERONS", "sales": 2, "sales_appt": 0, "sales_maison": 2, "median_price": 195500.0, "median_price_per_sqm": 2690.240182996569, "turnover_score": 0.4, "turnover_rank": 41, "first_year": 2021, "last_year": 2024, "years_active": 2}}, {"type": "Feature", "geometry": {"type": "Point", "coordinates": [2.6267845000000003, 48.5338115]}, "properties": {"street_name": "RUE DES VERGERS", "sales": 2, "sales_appt": 0, "sales_maison": 0, "median_price": 158250.0, "median_price_per_sqm": null, "turnover_score": 0.4, "turnover_rank": 41, "first_year": 2025, "last_year": 2025, "years_active": 1}}, {"type": "Feature", "geometry": {"type": "Point", "coordinates": [2.63162, 48.53713]}, "properties": {"street_name": "ALL DES VENDANGES", "sales": 1, "sales_appt": 0, "sales_maison": 1, "median_price": 299000.0, "median_price_per_sqm": 3082.4742268041236, "turnover_score": 0.2, "turnover_rank": 42, "first_year": 2023, "last_year": 2023, "years_active": 1}}, {"type": "Feature", "geometry": {"type": "Point", "coordinates": [2.631605, 48.536773]}, "properties": {"street_name": "ALL DES RAISINS", "sales": 1, "sales_appt": 0, "sales_maison": 1, "median_price": 330000.0, "median_price_per_sqm": 3084.11214953271, "turnover_score": 0.2, "turnover_rank": 42, "first_year": 2023, "last_year": 2023, "years_active": 1}}, {"type": "Feature", "geometry": {"type": "Point", "coordinates": [2.637544, 48.541444]}, "properties": {"street_name": "ALL DE GASCOGNE", "sales": 1, "sales_appt": 0, "sales_maison": 1, "median_price": 240000.0, "median_price_per_sqm": 1578.9473684210527, "turnover_score": 0.2, "turnover_rank": 42, "first_year": 2023, "last_year": 2023, "years_active": 1}}, {"type": "Feature", "geometry": {"type": "Point", "coordinates": [2.637544, 48.541444]}, "properties": {"street_name": "ALL D ANJOU", "sales": 1, "sales_appt": 0, "sales_maison": 1, "median_price": 227000.0, "median_price_per_sqm": 2522.222222222222, "turnover_score": 0.2, "turnover_rank": 42, "first_year": 2024, "last_year": 2024, "years_active": 1}}, {"type": "Feature", "geometry": {"type": "Point", "coordinates": [2.637544, 48.541444]}, "properties": {"street_name": "ALL D ALSACE", "sales": 1, "sales_appt": 0, "sales_maison": 1, "median_price": 350260.0, "median_price_per_sqm": 4025.977011494253, "turnover_score": 0.2, "turnover_rank": 42, "first_year": 2022, "last_year": 2022, "years_active": 1}}, {"type": "Feature", "geometry": {"type": "Point", "coordinates": [2.624943, 48.545326]}, "properties": {"street_name": "ALL BEAUMARCHAIS", "sales": 1, "sales_appt": 0, "sales_maison": 1, "median_price": 220000.0, "median_price_per_sqm": 2471.9101123595506, "turnover_score": 0.2, "turnover_rank": 42, "first_year": 2025, "last_year": 2025, "years_active": 1}}, {"type": "Feature", "geometry": {"type": "Point", "coordinates": [2.637544, 48.541444]}, "properties": {"street_name": "ALL DE PROVENCE", "sales": 1, "sales_appt": 0, "sales_maison": 1, "median_price": 350000.0, "median_price_per_sqm": 3465.3465346534654, "turnover_score": 0.2, "turnover_rank": 42, "first_year": 2022, "last_year": 2022, "years_active": 1}}, {"type": "Feature", "geometry": {"type": "Point", "coordinates": [2.636555, 48.547391]}, "properties": {"street_name": "ALL DE PIERRE PERCEE", "sales": 1, "sales_appt": 0, "sales_maison": 0, "median_price": 285000.0, "median_price_per_sqm": null, "turnover_score": 0.2, "turnover_rank": 42, "first_year": 2021, "last_year": 2021, "years_active": 1}}, {"type": "Feature", "geometry": {"type": "Point", "coordinates": [2.640644, 48.547465]}, "properties": {"street_name": "ALL DE LA ROCADE", "sales": 1, "sales_appt": 0, "sales_maison": 1, "median_price": 190000.0, "median_price_per_sqm": 2794.1176470588234, "turnover_score": 0.2, "turnover_rank": 42, "first_year": 2021, "last_year": 2021, "years_active": 1}}, {"type": "Feature", "geometry": {"type": "Point", "coordinates": [2.63167, 48.537687]}, "properties": {"street_name": "ALL DE LA TREILLE", "sales": 1, "sales_appt": 0, "sales_maison": 1, "median_price": 244950.0, "median_price_per_sqm": 2815.5172413793102, "turnover_score": 0.2, "turnover_rank": 42, "first_year": 2021, "last_year": 2021, "years_active": 1}}, {"type": "Feature", "geometry": {"type": "Point", "coordinates": [2.637139, 48.546049]}, "properties": {"street_name": "ALL HENRI GUILLAUMET", "sales": 1, "sales_appt": 0, "sales_maison": 1, "median_price": 235000.0, "median_price_per_sqm": 1865.079365079365, "turnover_score": 0.2, "turnover_rank": 42, "first_year": 2021, "last_year": 2021, "years_active": 1}}, {"type": "Feature", "geometry": {"type": "Point", "coordinates": [2.617445, 48.545076]}, "properties": {"street_name": "ALL LAMBERT", "sales": 1, "sales_appt": 0, "sales_maison": 1, "median_price": 289000.0, "median_price_per_sqm": 2557.522123893805, "turnover_score": 0.2, "turnover_rank": 42, "first_year": 2022, "last_year": 2022, "years_active": 1}}, {"type": "Feature", "geometry": {"type": "Point", "coordinates": [2.625529, 48.54183]}, "properties": {"street_name": "PRE RIGOT", "sales": 1, "sales_appt": 0, "sales_maison": 0, "median_price": 1.0, "median_price_per_sqm": null, "turnover_score": 0.2, "turnover_rank": 42, "first_year": 2024, "last_year": 2024, "years_active": 1}}, {"type": "Feature", "geometry": {"type": "Point", "coordinates": [2.629869, 48.534933]}, "properties": {"street_name": "LES COULEUVRES", "sales": 1, "sales_appt": 0, "sales_maison": 0, "median_price": 226400.0, "median_price_per_sqm": null, "turnover_score": 0.2, "turnover_rank": 42, "first_year": 2023, "last_year": 2023, "years_active": 1}}, {"type": "Feature", "geometry": {"type": "Point", "coordinates": [2.615435, 48.532485]}, "properties": {"street_name": "LES USELLES", "sales": 1, "sales_appt": 0, "sales_maison": 0, "median_price": 15000.0, "median_price_per_sqm": null, "turnover_score": 0.2, "turnover_rank": 42, "first_year": 2022, "last_year": 2022, "years_active": 1}}, {"type": "Feature", "geometry": {"type": "Point", "coordinates": [2.633028, 48.54213]}, "properties": {"street_name": "LE BUISSON POUILLEUX", "sales": 1, "sales_appt": 0, "sales_maison": 0, "median_price": 1.0, "median_price_per_sqm": null, "turnover_score": 0.2, "turnover_rank": 42, "first_year": 2025, "last_year": 2025, "years_active": 1}}, {"type": "Feature", "geometry": {"type": "Point", "coordinates": [2.632251, 48.53732]}, "properties": {"street_name": "LES GATINES", "sales": 1, "sales_appt": 0, "sales_maison": 0, "median_price": 216000.0, "median_price_per_sqm": null, "turnover_score": 0.2, "turnover_rank": 42, "first_year": 2024, "last_year": 2024, "years_active": 1}}, {"type": "Feature", "geometry": {"type": "Point", "coordinates": [2.625891, 48.535538]}, "properties": {"street_name": "LES OSIERES", "sales": 1, "sales_appt": 0, "sales_maison": 1, "median_price": 250000.0, "median_price_per_sqm": 2840.909090909091, "turnover_score": 0.2, "turnover_rank": 42, "first_year": 2023, "last_year": 2023, "years_active": 1}}, {"type": "Feature", "geometry": {"type": "Point", "coordinates": [2.643602, 48.547487]}, "properties": {"street_name": "ALL DU SOLEIL", "sales": 1, "sales_appt": 0, "sales_maison": 0, "median_price": 124000.0, "median_price_per_sqm": null, "turnover_score": 0.2, "turnover_rank": 42, "first_year": 2025, "last_year": 2025, "years_active": 1}}, {"type": "Feature", "geometry": {"type": "Point", "coordinates": [2.637544, 48.541444]}, "properties": {"street_name": "ALL DU MAINE", "sales": 1, "sales_appt": 0, "sales_maison": 1, "median_price": 265000.0, "median_price_per_sqm": 1456.043956043956, "turnover_score": 0.2, "turnover_rank": 42, "first_year": 2024, "last_year": 2024, "years_active": 1}}, {"type": "Feature", "geometry": {"type": "Point", "coordinates": [2.637544, 48.541444]}, "properties": {"street_name": "ALL DU DAUPHINE", "sales": 1, "sales_appt": 0, "sales_maison": 1, "median_price": 266000.0, "median_price_per_sqm": 2582.5242718446602, "turnover_score": 0.2, "turnover_rank": 42, "first_year": 2023, "last_year": 2023, "years_active": 1}}, {"type": "Feature", "geometry": {"type": "Point", "coordinates": [2.637544, 48.541444]}, "properties": {"street_name": "ALL DU BERRY", "sales": 1, "sales_appt": 0, "sales_maison": 1, "median_price": 259000.0, "median_price_per_sqm": 1377.659574468085, "turnover_score": 0.2, "turnover_rank": 42, "first_year": 2024, "last_year": 2024, "years_active": 1}}, {"type": "Feature", "geometry": {"type": "Point", "coordinates": [2.619289, 48.544474]}, "properties": {"street_name": "RUE GALILEE", "sales": 1, "sales_appt": 0, "sales_maison": 1, "median_price": 250000.0, "median_price_per_sqm": 2232.1428571428573, "turnover_score": 0.2, "turnover_rank": 42, "first_year": 2024, "last_year": 2024, "years_active": 1}}, {"type": "Feature", "geometry": {"type": "Point", "coordinates": [2.625159, 48.541362]}, "properties": {"street_name": "RUE NELSON MANDELA", "sales": 1, "sales_appt": 0, "sales_maison": 0, "median_price": 550000.0, "median_price_per_sqm": 2657.004830917874, "turnover_score": 0.2, "turnover_rank": 42, "first_year": 2024, "last_year": 2024, "years_active": 1}}, {"type": "Feature", "geometry": {"type": "Point", "coordinates": [2.621546, 48.536595]}, "properties": {"street_name": "RUE SAINT LOUP DE NAUD", "sales": 1, "sales_appt": 0, "sales_maison": 1, "median_price": 240000.0, "median_price_per_sqm": 3200.0, "turnover_score": 0.2, "turnover_rank": 42, "first_year": 2022, "last_year": 2022, "years_active": 1}}, {"type": "Feature", "geometry": {"type": "Point", "coordinates": [2.627701, 48.540435]}, "properties": {"street_name": "RUE ROBERT LE LORRAIN", "sales": 1, "sales_appt": 0, "sales_maison": 1, "median_price": 247150.0, "median_price_per_sqm": 1946.0629921259842, "turnover_score": 0.2, "turnover_rank": 42, "first_year": 2022, "last_year": 2022, "years_active": 1}}, {"type": "Feature", "geometry": {"type": "Point", "coordinates": [2.618226, 48.546803]}, "properties": {"street_name": "SQ C HERMITE", "sales": 1, "sales_appt": 0, "sales_maison": 1, "median_price": 300000.0, "median_price_per_sqm": 2970.29702970297, "turnover_score": 0.2, "turnover_rank": 42, "first_year": 2022, "last_year": 2022, "years_active": 1}}, {"type": "Feature", "geometry": {"type": "Point", "coordinates": [2.620369, 48.546429]}, "properties": {"street_name": "SQ JOSEPH FOURIER", "sales": 1, "sales_appt": 0, "sales_maison": 1, "median_price": 210000.0, "median_price_per_sqm": 2386.3636363636365, "turnover_score": 0.2, "turnover_rank": 42, "first_year": 2024, "last_year": 2024, "years_active": 1}}]}