{"type": "FeatureCollection", "features": [{"type": "Feature", "geometry": {"type": "Point", "coordinates": [3.095094, 49.1096225]}, "properties": {"street_name": "LA CHAUSSEE", "sales": 24, "sales_appt": 0, "sales_maison": 0, "median_price": 14500.0, "median_price_per_sqm": null, "turnover_score": 100.0, "turnover_rank": 1, "first_year": 2021, "last_year": 2025, "years_active": 2}}, {"type": "Feature", "geometry": {"type": "Point", "coordinates": [3.077808, 49.090705]}, "properties": {"street_name": "RUE MONTANGLOS", "sales": 23, "sales_appt": 0, "sales_maison": 10, "median_price": 159800.0, "median_price_per_sqm": 2399.820788530466, "turnover_score": 95.8, "turnover_rank": 2, "first_year": 2021, "last_year": 2025, "years_active": 5}}, {"type": "Feature", "geometry": {"type": "Point", "coordinates": [3.077718, 49.087711]}, "properties": {"street_name": "AV DE COULOMBS", "sales": 22, "sales_appt": 2, "sales_maison": 4, "median_price": 170000.0, "median_price_per_sqm": 2707.8629032258063, "turnover_score": 91.7, "turnover_rank": 3, "first_year": 2021, "last_year": 2025, "years_active": 4}}, {"type": "Feature", "geometry": {"type": "Point", "coordinates": [3.0706670000000003, 49.092751]}, "properties": {"street_name": "AV DE MONTIGNY", "sales": 20, "sales_appt": 0, "sales_maison": 6, "median_price": 310000.0, "median_price_per_sqm": 2954.5454545454545, "turnover_score": 83.3, "turnover_rank": 4, "first_year": 2021, "last_year": 2025, "years_active": 4}}, {"type": "Feature", "geometry": {"type": "Point", "coordinates": [3.069773, 49.0837595]}, "properties": {"street_name": "LA GRANDE PRAIRIE", "sales": 20, "sales_appt": 0, "sales_maison": 0, "median_price": 20000.0, "median_price_per_sqm": null, "turnover_score": 83.3, "turnover_rank": 4, "first_year": 2025, "last_year": 2025, "years_active": 1}}, {"type": "Feature", "geometry": {"type": "Point", "coordinates": [3.072734, 49.090758]}, "properties": {"street_name": "RUE DU GEN DE GAULLE", "sales": 19, "sales_appt": 1, "sales_maison": 6, "median_price": 265000.0, "median_price_per_sqm": 1791.044776119403, "turnover_score": 79.2, "turnover_rank": 5, "first_year": 2021, "last_year": 2024, "years_active": 4}}, {"type": "Feature", "geometry": {"type": "Point", "coordinates": [3.0774225, 49.0893485]}, "properties": {"street_name": "RUE HUGON", "sales": 18, "sales_appt": 0, "sales_maison": 6, "median_price": 261000.0, "median_price_per_sqm": 1840.1709401709402, "turnover_score": 75.0, "turnover_rank": 6, "first_year": 2021, "last_year": 2023, "years_active": 3}}, {"type": "Feature", "geometry": {"type": "Point", "coordinates": [3.104744, 49.106502]}, "properties": {"street_name": "LES PRES HOCHE", "sales": 15, "sales_appt": 0, "sales_maison": 0, "median_price": 5655.0, "median_price_per_sqm": null, "turnover_score": 62.5, "turnover_rank": 7, "first_year": 2025, "last_year": 2025, "years_active": 1}}, {"type": "Feature", "geometry": {"type": "Point", "coordinates": [3.077133, 49.085967]}, "properties": {"street_name": "RUE DE LA COMMANDERIE", "sales": 14, "sales_appt": 0, "sales_maison": 11, "median_price": 217080.0, "median_price_per_sqm": 2095.2380952380954, "turnover_score": 58.3, "turnover_rank": 8, "first_year": 2022, "last_year": 2025, "years_active": 4}}, {"type": "Feature", "geometry": {"type": "Point", "coordinates": [3.074373, 49.089279]}, "properties": {"street_name": "RUE DU CHEVAL BLANC", "sales": 13, "sales_appt": 0, "sales_maison": 8, "median_price": 238050.0, "median_price_per_sqm": 2151.454033771107, "turnover_score": 54.2, "turnover_rank": 9, "first_year": 2021, "last_year": 2024, "years_active": 3}}, {"type": "Feature", "geometry": {"type": "Point", "coordinates": [3.072064, 49.08983]}, "properties": {"street_name": "RUE DU CYGNE", "sales": 13, "sales_appt": 0, "sales_maison": 3, "median_price": 319000.0, "median_price_per_sqm": 2531.746031746032, "turnover_score": 54.2, "turnover_rank": 9, "first_year": 2023, "last_year": 2025, "years_active": 2}}, {"type": "Feature", "geometry": {"type": "Point", "coordinates": [3.075734, 49.091636]}, "properties": {"street_name": "RUE TREVEZ BRIGOT", "sales": 12, "sales_appt": 6, "sales_maison": 0, "median_price": 113500.0, "median_price_per_sqm": 2000.0, "turnover_score": 50.0, "turnover_rank": 10, "first_year": 2021, "last_year": 2024, "years_active": 2}}, {"type": "Feature", "geometry": {"type": "Point", "coordinates": [3.074081, 49.091259]}, "properties": {"street_name": "RUE DE GEOFFROY", "sales": 12, "sales_appt": 2, "sales_maison": 4, "median_price": 115000.0, "median_price_per_sqm": 1295.5591348366315, "turnover_score": 50.0, "turnover_rank": 10, "first_year": 2021, "last_year": 2024, "years_active": 3}}, {"type": "Feature", "geometry": {"type": "Point", "coordinates": [3.075457, 49.079668]}, "properties": {"street_name": "RUE DE LA LIBERATION", "sales": 12, "sales_appt": 0, "sales_maison": 7, "median_price": 255400.0, "median_price_per_sqm": 2076.4227642276423, "turnover_score": 50.0, "turnover_rank": 10, "first_year": 2022, "last_year": 2024, "years_active": 3}}, {"type": "Feature", "geometry": {"type": "Point", "coordinates": [3.0719374999999998, 49.088799]}, "properties": {"street_name": "RUE DES MEUNIERS", "sales": 12, "sales_appt": 4, "sales_maison": 3, "median_price": 308840.0, "median_price_per_sqm": 6896.551724137931, "turnover_score": 50.0, "turnover_rank": 10, "first_year": 2021, "last_year": 2025, "years_active": 3}}, {"type": "Feature", "geometry": {"type": "Point", "coordinates": [3.072228, 49.114045]}, "properties": {"street_name": "GRANDS PRES", "sales": 11, "sales_appt": 0, "sales_maison": 0, "median_price": 2952.28, "median_price_per_sqm": null, "turnover_score": 45.8, "turnover_rank": 11, "first_year": 2021, "last_year": 2025, "years_active": 3}}, {"type": "Feature", "geometry": {"type": "Point", "coordinates": [3.074055, 49.091731]}, "properties": {"street_name": "COUR DU MARRONNIER", "sales": 11, "sales_appt": 0, "sales_maison": 3, "median_price": 174000.0, "median_price_per_sqm": 2222.222222222222, "turnover_score": 45.8, "turnover_rank": 11, "first_year": 2021, "last_year": 2023, "years_active": 3}}, {"type": "Feature", "geometry": {"type": "Point", "coordinates": [3.075294, 49.090792]}, "properties": {"street_name": "PL DU MARCHE", "sales": 11, "sales_appt": 6, "sales_maison": 2, "median_price": 150000.0, "median_price_per_sqm": 2034.9253731343283, "turnover_score": 45.8, "turnover_rank": 11, "first_year": 2021, "last_year": 2023, "years_active": 3}}, {"type": "Feature", "geometry": {"type": "Point", "coordinates": [3.072741, 49.090887]}, "properties": {"street_name": "COUR DE LA CROIX BLANCHE", "sales": 10, "sales_appt": 6, "sales_maison": 1, "median_price": 249000.0, "median_price_per_sqm": 4220.338983050848, "turnover_score": 41.7, "turnover_rank": 12, "first_year": 2021, "last_year": 2023, "years_active": 2}}, {"type": "Feature", "geometry": {"type": "Point", "coordinates": [3.077075, 49.0901585]}, "properties": {"street_name": "LE VILLAGE SUD", "sales": 10, "sales_appt": 0, "sales_maison": 0, "median_price": 173200.0, "median_price_per_sqm": null, "turnover_score": 41.7, "turnover_rank": 12, "first_year": 2022, "last_year": 2023, "years_active": 2}}, {"type": "Feature", "geometry": {"type": "Point", "coordinates": [3.078235, 49.091779]}, "properties": {"street_name": "RUE RAPHAEL", "sales": 10, "sales_appt": 0, "sales_maison": 3, "median_price": 243280.0, "median_price_per_sqm": 1520.5, "turnover_score": 41.7, "turnover_rank": 12, "first_year": 2022, "last_year": 2025, "years_active": 3}}, {"type": "Feature", "geometry": {"type": "Point", "coordinates": [3.080233, 49.08845]}, "properties": {"street_name": "RUE DU BOIS BELLEAU", "sales": 10, "sales_appt": 0, "sales_maison": 6, "median_price": 243700.0, "median_price_per_sqm": 2580.6451612903224, "turnover_score": 41.7, "turnover_rank": 12, "first_year": 2022, "last_year": 2025, "years_active": 3}}, {"type": "Feature", "geometry": {"type": "Point", "coordinates": [3.0729695, 49.089620499999995]}, "properties": {"street_name": "RUE BELLET", "sales": 10, "sales_appt": 0, "sales_maison": 5, "median_price": 189500.0, "median_price_per_sqm": 2320.3883495145633, "turnover_score": 41.7, "turnover_rank": 12, "first_year": 2021, "last_year": 2024, "years_active": 3}}, {"type": "Feature", "geometry": {"type": "Point", "coordinates": [3.076903, 49.090168]}, "properties": {"street_name": "RUE DAGUIN DE BEAUVAL", "sales": 9, "sales_appt": 0, "sales_maison": 3, "median_price": 224000.0, "median_price_per_sqm": 2600.0, "turnover_score": 37.5, "turnover_rank": 13, "first_year": 2022, "last_year": 2023, "years_active": 2}}, {"type": "Feature", "geometry": {"type": "Point", "coordinates": [3.073362, 49.084682]}, "properties": {"street_name": "LE BORDET", "sales": 9, "sales_appt": 0, "sales_maison": 0, "median_price": 20000.0, "median_price_per_sqm": null, "turnover_score": 37.5, "turnover_rank": 13, "first_year": 2023, "last_year": 2025, "years_active": 2}}, {"type": "Feature", "geometry": {"type": "Point", "coordinates": [3.080016, 49.092625]}, "properties": {"street_name": "ALL DU BUISSON DE CERFROID", "sales": 8, "sales_appt": 0, "sales_maison": 7, "median_price": 252000.0, "median_price_per_sqm": 2800.0, "turnover_score": 33.3, "turnover_rank": 14, "first_year": 2021, "last_year": 2024, "years_active": 3}}, {"type": "Feature", "geometry": {"type": "Point", "coordinates": [3.071327, 49.092107]}, "properties": {"street_name": "RUE DES ETUVES", "sales": 8, "sales_appt": 0, "sales_maison": 2, "median_price": 228000.0, "median_price_per_sqm": 3040.0, "turnover_score": 33.3, "turnover_rank": 14, "first_year": 2025, "last_year": 2025, "years_active": 1}}, {"type": "Feature", "geometry": {"type": "Point", "coordinates": [3.1020665000000003, 49.107558999999995]}, "properties": {"street_name": "LES PRES RIDES", "sales": 8, "sales_appt": 0, "sales_maison": 0, "median_price": 10077.5, "median_price_per_sqm": null, "turnover_score": 33.3, "turnover_rank": 14, "first_year": 2025, "last_year": 2025, "years_active": 1}}, {"type": "Feature", "geometry": {"type": "Point", "coordinates": [3.096858, 49.107462]}, "properties": {"street_name": "LES GRANDS PETEREAUX", "sales": 7, "sales_appt": 0, "sales_maison": 0, "median_price": 14500.0, "median_price_per_sqm": null, "turnover_score": 29.2, "turnover_rank": 15, "first_year": 2022, "last_year": 2025, "years_active": 3}}, {"type": "Feature", "geometry": {"type": "Point", "coordinates": [3.074927, 49.090884]}, "properties": {"street_name": "LE VILLAGE CENTRE", "sales": 7, "sales_appt": 0, "sales_maison": 0, "median_price": 150000.0, "median_price_per_sqm": null, "turnover_score": 29.2, "turnover_rank": 15, "first_year": 2021, "last_year": 2025, "years_active": 3}}, {"type": "Feature", "geometry": {"type": "Point", "coordinates": [3.075909, 49.08556]}, "properties": {"street_name": "AV DE FUSSY", "sales": 7, "sales_appt": 0, "sales_maison": 4, "median_price": 185000.0, "median_price_per_sqm": 2583.2866741321386, "turnover_score": 29.2, "turnover_rank": 15, "first_year": 2021, "last_year": 2025, "years_active": 4}}, {"type": "Feature", "geometry": {"type": "Point", "coordinates": [3.075592, 49.090197]}, "properties": {"street_name": "RUE RENE DESJARDIN", "sales": 7, "sales_appt": 3, "sales_maison": 1, "median_price": 425000.0, "median_price_per_sqm": 5519.480519480519, "turnover_score": 29.2, "turnover_rank": 15, "first_year": 2021, "last_year": 2024, "years_active": 2}}, {"type": "Feature", "geometry": {"type": "Point", "coordinates": [3.094219, 49.108957]}, "properties": {"street_name": "RUE DES TEMPLIERS", "sales": 7, "sales_appt": 0, "sales_maison": 2, "median_price": 180000.0, "median_price_per_sqm": 2475.714285714286, "turnover_score": 29.2, "turnover_rank": 15, "first_year": 2022, "last_year": 2023, "years_active": 2}}, {"type": "Feature", "geometry": {"type": "Point", "coordinates": [3.068065, 49.090211]}, "properties": {"street_name": "PL DU CHAMPIVERT", "sales": 7, "sales_appt": 0, "sales_maison": 4, "median_price": 185000.0, "median_price_per_sqm": 1444.5454545454545, "turnover_score": 29.2, "turnover_rank": 15, "first_year": 2022, "last_year": 2025, "years_active": 3}}, {"type": "Feature", "geometry": {"type": "Point", "coordinates": [3.07235, 49.091101]}, "properties": {"street_name": "COUR DUFRENE", "sales": 6, "sales_appt": 0, "sales_maison": 1, "median_price": 110000.0, "median_price_per_sqm": 833.3333333333334, "turnover_score": 25.0, "turnover_rank": 16, "first_year": 2022, "last_year": 2024, "years_active": 3}}, {"type": "Feature", "geometry": {"type": "Point", "coordinates": [3.0731685, 49.080420000000004]}, "properties": {"street_name": "LES MARAIS", "sales": 6, "sales_appt": 0, "sales_maison": 0, "median_price": 1517.95, "median_price_per_sqm": null, "turnover_score": 25.0, "turnover_rank": 16, "first_year": 2021, "last_year": 2025, "years_active": 2}}, {"type": "Feature", "geometry": {"type": "Point", "coordinates": [3.073404, 49.088618]}, "properties": {"street_name": "RUE DES ARCHERS", "sales": 6, "sales_appt": 0, "sales_maison": 0, "median_price": 85000.0, "median_price_per_sqm": null, "turnover_score": 25.0, "turnover_rank": 16, "first_year": 2021, "last_year": 2024, "years_active": 2}}, {"type": "Feature", "geometry": {"type": "Point", "coordinates": [3.0748439999999997, 49.090078]}, "properties": {"street_name": "COUR SAINT PIERRE", "sales": 6, "sales_appt": 0, "sales_maison": 1, "median_price": 320000.0, "median_price_per_sqm": 3200.0, "turnover_score": 25.0, "turnover_rank": 16, "first_year": 2023, "last_year": 2023, "years_active": 1}}, {"type": "Feature", "geometry": {"type": "Point", "coordinates": [3.09665, 49.110389999999995]}, "properties": {"street_name": "LA PLANCHE", "sales": 6, "sales_appt": 0, "sales_maison": 0, "median_price": 1000.0, "median_price_per_sqm": null, "turnover_score": 25.0, "turnover_rank": 16, "first_year": 2021, "last_year": 2025, "years_active": 3}}, {"type": "Feature", "geometry": {"type": "Point", "coordinates": [3.075907, 49.079286]}, "properties": {"street_name": "RUE DE LA CAVEE", "sales": 5, "sales_appt": 0, "sales_maison": 4, "median_price": 203600.0, "median_price_per_sqm": 2023.8095238095239, "turnover_score": 20.8, "turnover_rank": 17, "first_year": 2021, "last_year": 2022, "years_active": 2}}, {"type": "Feature", "geometry": {"type": "Point", "coordinates": [3.079982, 49.090745]}, "properties": {"street_name": "RUE DU DOCTEUR SCHWEITZER", "sales": 5, "sales_appt": 0, "sales_maison": 3, "median_price": 259000.0, "median_price_per_sqm": 3407.8947368421054, "turnover_score": 20.8, "turnover_rank": 17, "first_year": 2021, "last_year": 2025, "years_active": 2}}, {"type": "Feature", "geometry": {"type": "Point", "coordinates": [3.06988, 49.094611]}, "properties": {"street_name": "LA SCIERIE", "sales": 5, "sales_appt": 0, "sales_maison": 0, "median_price": 50000.0, "median_price_per_sqm": null, "turnover_score": 20.8, "turnover_rank": 17, "first_year": 2022, "last_year": 2025, "years_active": 2}}, {"type": "Feature", "geometry": {"type": "Point", "coordinates": [3.066016, 49.092863]}, "properties": {"street_name": "LA CHAPELLE", "sales": 5, "sales_appt": 0, "sales_maison": 4, "median_price": 650000.0, "median_price_per_sqm": 7238.636363636364, "turnover_score": 20.8, "turnover_rank": 17, "first_year": 2021, "last_year": 2021, "years_active": 1}}, {"type": "Feature", "geometry": {"type": "Point", "coordinates": [3.075545, 49.079558]}, "properties": {"street_name": "FUSSY", "sales": 5, "sales_appt": 0, "sales_maison": 0, "median_price": 130000.0, "median_price_per_sqm": null, "turnover_score": 20.8, "turnover_rank": 17, "first_year": 2021, "last_year": 2022, "years_active": 2}}, {"type": "Feature", "geometry": {"type": "Point", "coordinates": [3.066016, 49.093994]}, "properties": {"street_name": "CHEMIN DE LA PROCESSION", "sales": 5, "sales_appt": 0, "sales_maison": 0, "median_price": 650000.0, "median_price_per_sqm": null, "turnover_score": 20.8, "turnover_rank": 17, "first_year": 2021, "last_year": 2021, "years_active": 1}}, {"type": "Feature", "geometry": {"type": "Point", "coordinates": [3.068245, 49.089997]}, "properties": {"street_name": "LE VILLAGE OUEST", "sales": 5, "sales_appt": 0, "sales_maison": 0, "median_price": 105000.0, "median_price_per_sqm": null, "turnover_score": 20.8, "turnover_rank": 17, "first_year": 2022, "last_year": 2025, "years_active": 3}}, {"type": "Feature", "geometry": {"type": "Point", "coordinates": [3.069149, 49.088681]}, "properties": {"street_name": "LES BUTTES", "sales": 5, "sales_appt": 0, "sales_maison": 0, "median_price": 217000.0, "median_price_per_sqm": null, "turnover_score": 20.8, "turnover_rank": 17, "first_year": 2025, "last_year": 2025, "years_active": 1}}, {"type": "Feature", "geometry": {"type": "Point", "coordinates": [3.0814385, 49.073445500000005]}, "properties": {"street_name": "LA QUEUE DU CHAUFOUR", "sales": 4, "sales_appt": 0, "sales_maison": 0, "median_price": 3500.0, "median_price_per_sqm": null, "turnover_score": 16.7, "turnover_rank": 18, "first_year": 2023, "last_year": 2023, "years_active": 1}}, {"type": "Feature", "geometry": {"type": "Point", "coordinates": [3.076066, 49.090654]}, "properties": {"street_name": "RUE COUR DES NOBLES", "sales": 4, "sales_appt": 2, "sales_maison": 0, "median_price": 53500.0, "median_price_per_sqm": 2368.4210526315787, "turnover_score": 16.7, "turnover_rank": 18, "first_year": 2022, "last_year": 2024, "years_active": 3}}, {"type": "Feature", "geometry": {"type": "Point", "coordinates": [3.076332, 49.090874]}, "properties": {"street_name": "RUE DE L EGLISE", "sales": 4, "sales_appt": 3, "sales_maison": 0, "median_price": 190000.0, "median_price_per_sqm": 4750.0, "turnover_score": 16.7, "turnover_rank": 18, "first_year": 2021, "last_year": 2021, "years_active": 1}}, {"type": "Feature", "geometry": {"type": "Point", "coordinates": [3.07077, 49.0662705]}, "properties": {"street_name": "LE CHEMIN DES PLATRIERS", "sales": 4, "sales_appt": 0, "sales_maison": 0, "median_price": 60000.0, "median_price_per_sqm": null, "turnover_score": 16.7, "turnover_rank": 18, "first_year": 2022, "last_year": 2022, "years_active": 1}}, {"type": "Feature", "geometry": {"type": "Point", "coordinates": [3.070541, 49.094093]}, "properties": {"street_name": "RUE DE LA PROCESSION", "sales": 4, "sales_appt": 0, "sales_maison": 2, "median_price": 238250.0, "median_price_per_sqm": 2870.4819277108436, "turnover_score": 16.7, "turnover_rank": 18, "first_year": 2022, "last_year": 2022, "years_active": 1}}, {"type": "Feature", "geometry": {"type": "Point", "coordinates": [3.093136, 49.0895955]}, "properties": {"street_name": "LES PETITES TERRES FORTES", "sales": 4, "sales_appt": 0, "sales_maison": 0, "median_price": 1900.0, "median_price_per_sqm": null, "turnover_score": 16.7, "turnover_rank": 18, "first_year": 2023, "last_year": 2025, "years_active": 2}}, {"type": "Feature", "geometry": {"type": "Point", "coordinates": [3.0720505, 49.078847999999994]}, "properties": {"street_name": "GROS PRES", "sales": 4, "sales_appt": 0, "sales_maison": 0, "median_price": 2216.0, "median_price_per_sqm": null, "turnover_score": 16.7, "turnover_rank": 18, "first_year": 2025, "last_year": 2025, "years_active": 1}}, {"type": "Feature", "geometry": {"type": "Point", "coordinates": [3.0790965000000003, 49.090621]}, "properties": {"street_name": "RUE DE LA RECOMPENSE", "sales": 4, "sales_appt": 0, "sales_maison": 4, "median_price": 200000.0, "median_price_per_sqm": 2618.1281235801907, "turnover_score": 16.7, "turnover_rank": 18, "first_year": 2021, "last_year": 2025, "years_active": 3}}, {"type": "Feature", "geometry": {"type": "Point", "coordinates": [3.074692, 49.090046]}, "properties": {"street_name": "COUR BELHOMME", "sales": 3, "sales_appt": 0, "sales_maison": 0, "median_price": 25000.0, "median_price_per_sqm": null, "turnover_score": 12.5, "turnover_rank": 19, "first_year": 2021, "last_year": 2025, "years_active": 2}}, {"type": "Feature", "geometry": {"type": "Point", "coordinates": [3.065509, 49.090107]}, "properties": {"street_name": "LA BOUVERIE", "sales": 3, "sales_appt": 0, "sales_maison": 0, "median_price": 20000.0, "median_price_per_sqm": null, "turnover_score": 12.5, "turnover_rank": 19, "first_year": 2025, "last_year": 2025, "years_active": 1}}, {"type": "Feature", "geometry": {"type": "Point", "coordinates": [3.070772, 49.091815]}, "properties": {"street_name": "COUR DES ETUVES", "sales": 3, "sales_appt": 0, "sales_maison": 1, "median_price": 139000.0, "median_price_per_sqm": 2171.875, "turnover_score": 12.5, "turnover_rank": 19, "first_year": 2025, "last_year": 2025, "years_active": 1}}, {"type": "Feature", "geometry": {"type": "Point", "coordinates": [3.091744, 49.109263]}, "properties": {"street_name": "CHE DE LA FROIDE FONTAINE", "sales": 3, "sales_appt": 0, "sales_maison": 2, "median_price": 240000.0, "median_price_per_sqm": 3428.5714285714284, "turnover_score": 12.5, "turnover_rank": 19, "first_year": 2025, "last_year": 2025, "years_active": 1}}, {"type": "Feature", "geometry": {"type": "Point", "coordinates": [3.075813, 49.053501]}, "properties": {"street_name": "LA DAMMARIE", "sales": 3, "sales_appt": 0, "sales_maison": 0, "median_price": 26637.0, "median_price_per_sqm": null, "turnover_score": 12.5, "turnover_rank": 19, "first_year": 2025, "last_year": 2025, "years_active": 1}}, {"type": "Feature", "geometry": {"type": "Point", "coordinates": [3.0802, 49.090122]}, "properties": {"street_name": "RUE HENRI DUNANT", "sales": 3, "sales_appt": 0, "sales_maison": 2, "median_price": 270050.0, "median_price_per_sqm": 2959.8956746877857, "turnover_score": 12.5, "turnover_rank": 19, "first_year": 2022, "last_year": 2024, "years_active": 2}}, {"type": "Feature", "geometry": {"type": "Point", "coordinates": [3.077427, 49.092149]}, "properties": {"street_name": "RUE FONTAINE DES TUYAUX", "sales": 3, "sales_appt": 0, "sales_maison": 2, "median_price": 292000.0, "median_price_per_sqm": 2246.153846153846, "turnover_score": 12.5, "turnover_rank": 19, "first_year": 2021, "last_year": 2021, "years_active": 1}}, {"type": "Feature", "geometry": {"type": "Point", "coordinates": [3.068458, 49.082062]}, "properties": {"street_name": "PRAIRIE DE FUSSY", "sales": 3, "sales_appt": 0, "sales_maison": 0, "median_price": 30000.0, "median_price_per_sqm": null, "turnover_score": 12.5, "turnover_rank": 19, "first_year": 2022, "last_year": 2024, "years_active": 3}}, {"type": "Feature", "geometry": {"type": "Point", "coordinates": [3.088692, 49.1025275]}, "properties": {"street_name": "BOIS DE LA COMMANDERIE", "sales": 2, "sales_appt": 0, "sales_maison": 0, "median_price": 14355.0, "median_price_per_sqm": null, "turnover_score": 8.3, "turnover_rank": 20, "first_year": 2022, "last_year": 2023, "years_active": 2}}, {"type": "Feature", "geometry": {"type": "Point", "coordinates": [3.070048, 49.093646]}, "properties": {"street_name": "CHE DE LA PROCESSION", "sales": 2, "sales_appt": 0, "sales_maison": 2, "median_price": 240000.0, "median_price_per_sqm": 2790.6976744186045, "turnover_score": 8.3, "turnover_rank": 20, "first_year": 2021, "last_year": 2021, "years_active": 1}}, {"type": "Feature", "geometry": {"type": "Point", "coordinates": [3.0829095000000004, 49.112480500000004]}, "properties": {"street_name": "GROS PRES DE SAINT BRICE", "sales": 2, "sales_appt": 0, "sales_maison": 0, "median_price": 7750.0, "median_price_per_sqm": null, "turnover_score": 8.3, "turnover_rank": 20, "first_year": 2025, "last_year": 2025, "years_active": 1}}, {"type": "Feature", "geometry": {"type": "Point", "coordinates": [3.0723255, 49.0903335]}, "properties": {"street_name": "COUR DU CYGNE", "sales": 2, "sales_appt": 0, "sales_maison": 1, "median_price": 169000.0, "median_price_per_sqm": 2522.3880597014927, "turnover_score": 8.3, "turnover_rank": 20, "first_year": 2024, "last_year": 2024, "years_active": 1}}, {"type": "Feature", "geometry": {"type": "Point", "coordinates": [3.088797, 49.08929]}, "properties": {"street_name": "LE BOIS DU CHANOIS", "sales": 2, "sales_appt": 0, "sales_maison": 0, "median_price": 2600.0, "median_price_per_sqm": null, "turnover_score": 8.3, "turnover_rank": 20, "first_year": 2024, "last_year": 2025, "years_active": 2}}, {"type": "Feature", "geometry": {"type": "Point", "coordinates": [3.0774325, 49.0604445]}, "properties": {"street_name": "LES LONGS BOULEAUX", "sales": 2, "sales_appt": 0, "sales_maison": 0, "median_price": 3000.0, "median_price_per_sqm": null, "turnover_score": 8.3, "turnover_rank": 20, "first_year": 2021, "last_year": 2021, "years_active": 1}}, {"type": "Feature", "geometry": {"type": "Point", "coordinates": [3.068308, 49.0598855]}, "properties": {"street_name": "LE MURGER", "sales": 2, "sales_appt": 0, "sales_maison": 0, "median_price": 60000.0, "median_price_per_sqm": null, "turnover_score": 8.3, "turnover_rank": 20, "first_year": 2022, "last_year": 2022, "years_active": 1}}, {"type": "Feature", "geometry": {"type": "Point", "coordinates": [3.0745354999999996, 49.075357499999996]}, "properties": {"street_name": "LA VIEILLE GARENNE", "sales": 2, "sales_appt": 0, "sales_maison": 0, "median_price": 3882.5, "median_price_per_sqm": null, "turnover_score": 8.3, "turnover_rank": 20, "first_year": 2022, "last_year": 2023, "years_active": 2}}, {"type": "Feature", "geometry": {"type": "Point", "coordinates": [3.080016, 49.087829]}, "properties": {"street_name": "RUE DE LA DILIGENCE", "sales": 2, "sales_appt": 0, "sales_maison": 2, "median_price": 222000.0, "median_price_per_sqm": 2522.7272727272725, "turnover_score": 8.3, "turnover_rank": 20, "first_year": 2025, "last_year": 2025, "years_active": 1}}, {"type": "Feature", "geometry": {"type": "Point", "coordinates": [3.092806, 49.109171]}, "properties": {"street_name": "RUE DU CLIGNON", "sales": 2, "sales_appt": 0, "sales_maison": 1, "median_price": 60000.0, "median_price_per_sqm": 1034.4827586206898, "turnover_score": 8.3, "turnover_rank": 20, "first_year": 2025, "last_year": 2025, "years_active": 1}}, {"type": "Feature", "geometry": {"type": "Point", "coordinates": [3.072174, 49.0910875]}, "properties": {"street_name": "RUE DUFRENE", "sales": 2, "sales_appt": 1, "sales_maison": 1, "median_price": 90000.0, "median_price_per_sqm": 1604.1666666666665, "turnover_score": 8.3, "turnover_rank": 20, "first_year": 2022, "last_year": 2025, "years_active": 2}}, {"type": "Feature", "geometry": {"type": "Point", "coordinates": [3.068557, 49.0926635]}, "properties": {"street_name": "NEUVILLE", "sales": 2, "sales_appt": 0, "sales_maison": 0, "median_price": 2000.0, "median_price_per_sqm": null, "turnover_score": 8.3, "turnover_rank": 20, "first_year": 2023, "last_year": 2025, "years_active": 2}}, {"type": "Feature", "geometry": {"type": "Point", "coordinates": [3.07437, 49.090452]}, "properties": {"street_name": "COUR BONHOMME", "sales": 2, "sales_appt": 0, "sales_maison": 1, "median_price": 165000.0, "median_price_per_sqm": 1410.2564102564102, "turnover_score": 8.3, "turnover_rank": 20, "first_year": 2022, "last_year": 2022, "years_active": 1}}, {"type": "Feature", "geometry": {"type": "Point", "coordinates": [3.0861, 49.1098695]}, "properties": {"street_name": "FROIDE-FONTAINE", "sales": 2, "sales_appt": 0, "sales_maison": 0, "median_price": 10000.0, "median_price_per_sqm": null, "turnover_score": 8.3, "turnover_rank": 20, "first_year": 2025, "last_year": 2025, "years_active": 1}}, {"type": "Feature", "geometry": {"type": "Point", "coordinates": [3.070173, 49.0866885]}, "properties": {"street_name": "LES TERRES FORTES", "sales": 2, "sales_appt": 0, "sales_maison": 0, "median_price": 20000.0, "median_price_per_sqm": null, "turnover_score": 8.3, "turnover_rank": 20, "first_year": 2025, "last_year": 2025, "years_active": 1}}, {"type": "Feature", "geometry": {"type": "Point", "coordinates": [3.090883, 49.098893]}, "properties": {"street_name": "BOIS DE LA GRANDE LAYE", "sales": 1, "sales_appt": 0, "sales_maison": 0, "median_price": 63000.0, "median_price_per_sqm": null, "turnover_score": 4.2, "turnover_rank": 21, "first_year": 2022, "last_year": 2022, "years_active": 1}}, {"type": "Feature", "geometry": {"type": "Point", "coordinates": [3.076854, 49.055389]}, "properties": {"street_name": "BOIS BOSSUS", "sales": 1, "sales_appt": 0, "sales_maison": 0, "median_price": 26637.0, "median_price_per_sqm": null, "turnover_score": 4.2, "turnover_rank": 21, "first_year": 2025, "last_year": 2025, "years_active": 1}}, {"type": "Feature", "geometry": {"type": "Point", "coordinates": [3.079919, 49.060492]}, "properties": {"street_name": "BOIS DES BOULEAUX", "sales": 1, "sales_appt": 0, "sales_maison": 0, "median_price": 2750.0, "median_price_per_sqm": null, "turnover_score": 4.2, "turnover_rank": 21, "first_year": 2022, "last_year": 2022, "years_active": 1}}, {"type": "Feature", "geometry": {"type": "Point", "coordinates": [3.084564, 49.112464]}, "properties": {"street_name": "CHAMP ROBERT", "sales": 1, "sales_appt": 0, "sales_maison": 0, "median_price": 700.0, "median_price_per_sqm": null, "turnover_score": 4.2, "turnover_rank": 21, "first_year": 2025, "last_year": 2025, "years_active": 1}}, {"type": "Feature", "geometry": {"type": "Point", "coordinates": [3.063329, 49.092501]}, "properties": {"street_name": "CHE DE NOTRE DAME DU CHENE", "sales": 1, "sales_appt": 0, "sales_maison": 0, "median_price": 130000.0, "median_price_per_sqm": null, "turnover_score": 4.2, "turnover_rank": 21, "first_year": 2025, "last_year": 2025, "years_active": 1}}, {"type": "Feature", "geometry": {"type": "Point", "coordinates": [3.077581, 49.092648]}, "properties": {"street_name": "LA CAVEE", "sales": 1, "sales_appt": 0, "sales_maison": 0, "median_price": 292000.0, "median_price_per_sqm": null, "turnover_score": 4.2, "turnover_rank": 21, "first_year": 2021, "last_year": 2021, "years_active": 1}}, {"type": "Feature", "geometry": {"type": "Point", "coordinates": [3.070369, 49.058177]}, "properties": {"street_name": "L ENFER", "sales": 1, "sales_appt": 0, "sales_maison": 0, "median_price": 60000.0, "median_price_per_sqm": null, "turnover_score": 4.2, "turnover_rank": 21, "first_year": 2022, "last_year": 2022, "years_active": 1}}, {"type": "Feature", "geometry": {"type": "Point", "coordinates": [3.066211, 49.065598]}, "properties": {"street_name": "FOND D ANCRE", "sales": 1, "sales_appt": 0, "sales_maison": 0, "median_price": 2750.0, "median_price_per_sqm": null, "turnover_score": 4.2, "turnover_rank": 21, "first_year": 2022, "last_year": 2022, "years_active": 1}}, {"type": "Feature", "geometry": {"type": "Point", "coordinates": [3.100924, 49.089275]}, "properties": {"street_name": "FOSSE ROUGE", "sales": 1, "sales_appt": 0, "sales_maison": 0, "median_price": 138000.0, "median_price_per_sqm": null, "turnover_score": 4.2, "turnover_rank": 21, "first_year": 2025, "last_year": 2025, "years_active": 1}}, {"type": "Feature", "geometry": {"type": "Point", "coordinates": [3.071373, 49.091097]}, "properties": {"street_name": "COUR DES PLANCONS", "sales": 1, "sales_appt": 0, "sales_maison": 1, "median_price": 165000.0, "median_price_per_sqm": 1650.0, "turnover_score": 4.2, "turnover_rank": 21, "first_year": 2022, "last_year": 2022, "years_active": 1}}, {"type": "Feature", "geometry": {"type": "Point", "coordinates": [3.081355, 49.087408]}, "properties": {"street_name": "BELLEVUE", "sales": 1, "sales_appt": 0, "sales_maison": 0, "median_price": 4000.0, "median_price_per_sqm": null, "turnover_score": 4.2, "turnover_rank": 21, "first_year": 2024, "last_year": 2024, "years_active": 1}}, {"type": "Feature", "geometry": {"type": "Point", "coordinates": [3.104314, 49.08992]}, "properties": {"street_name": "BOIS DE VAUBROUTIN", "sales": 1, "sales_appt": 0, "sales_maison": 0, "median_price": 2558.8, "median_price_per_sqm": null, "turnover_score": 4.2, "turnover_rank": 21, "first_year": 2025, "last_year": 2025, "years_active": 1}}, {"type": "Feature", "geometry": {"type": "Point", "coordinates": [3.063204, 49.0905]}, "properties": {"street_name": "LE MOULIN DE CROUY", "sales": 1, "sales_appt": 0, "sales_maison": 0, "median_price": 2500.0, "median_price_per_sqm": null, "turnover_score": 4.2, "turnover_rank": 21, "first_year": 2021, "last_year": 2021, "years_active": 1}}, {"type": "Feature", "geometry": {"type": "Point", "coordinates": [3.074768, 49.090995]}, "properties": {"street_name": "PL DU DOCTEUR DESPAUX", "sales": 1, "sales_appt": 0, "sales_maison": 0, "median_price": 74120.0, "median_price_per_sqm": null, "turnover_score": 4.2, "turnover_rank": 21, "first_year": 2024, "last_year": 2024, "years_active": 1}}, {"type": "Feature", "geometry": {"type": "Point", "coordinates": [3.074788, 49.090803]}, "properties": {"street_name": "PL DE LA MAIRIE", "sales": 1, "sales_appt": 0, "sales_maison": 0, "median_price": 150000.0, "median_price_per_sqm": null, "turnover_score": 4.2, "turnover_rank": 21, "first_year": 2023, "last_year": 2023, "years_active": 1}}, {"type": "Feature", "geometry": {"type": "Point", "coordinates": [3.075856, 49.075854]}, "properties": {"street_name": "MONTE A PEINE", "sales": 1, "sales_appt": 0, "sales_maison": 0, "median_price": 819.9, "median_price_per_sqm": null, "turnover_score": 4.2, "turnover_rank": 21, "first_year": 2025, "last_year": 2025, "years_active": 1}}, {"type": "Feature", "geometry": {"type": "Point", "coordinates": [3.072337, 49.076646]}, "properties": {"street_name": "LES AULNES DE LA MOTTELETT", "sales": 1, "sales_appt": 0, "sales_maison": 0, "median_price": 1445.0, "median_price_per_sqm": null, "turnover_score": 4.2, "turnover_rank": 21, "first_year": 2022, "last_year": 2022, "years_active": 1}}, {"type": "Feature", "geometry": {"type": "Point", "coordinates": [3.081082, 49.064772]}, "properties": {"street_name": "LES GODRIELLES", "sales": 1, "sales_appt": 0, "sales_maison": 0, "median_price": 60000.0, "median_price_per_sqm": null, "turnover_score": 4.2, "turnover_rank": 21, "first_year": 2022, "last_year": 2022, "years_active": 1}}, {"type": "Feature", "geometry": {"type": "Point", "coordinates": [3.07984, 49.062758]}, "properties": {"street_name": "LA TROUEE DE RAROY", "sales": 1, "sales_appt": 0, "sales_maison": 0, "median_price": 26637.0, "median_price_per_sqm": null, "turnover_score": 4.2, "turnover_rank": 21, "first_year": 2025, "last_year": 2025, "years_active": 1}}, {"type": "Feature", "geometry": {"type": "Point", "coordinates": [3.096466, 49.089056]}, "properties": {"street_name": "LE BOIS BEL-HOMME", "sales": 1, "sales_appt": 0, "sales_maison": 0, "median_price": 138000.0, "median_price_per_sqm": null, "turnover_score": 4.2, "turnover_rank": 21, "first_year": 2025, "last_year": 2025, "years_active": 1}}, {"type": "Feature", "geometry": {"type": "Point", "coordinates": [3.075376, 49.091724]}, "properties": {"street_name": "RUE RICORD", "sales": 1, "sales_appt": 0, "sales_maison": 1, "median_price": 120000.0, "median_price_per_sqm": 1333.3333333333333, "turnover_score": 4.2, "turnover_rank": 21, "first_year": 2023, "last_year": 2023, "years_active": 1}}]}