{"type": "FeatureCollection", "features": [{"type": "Feature", "geometry": {"type": "Polygon", "coordinates": [[[3.096599, 49.061901], [3.096669, 49.062504], [3.096714, 49.062647], [3.097092, 49.063331], [3.097123, 49.063476], [3.096995, 49.06358], [3.096645, 49.063732], [3.095092, 49.064351], [3.094335, 49.064635], [3.093767, 49.064872], [3.091886, 49.065621], [3.091561, 49.065729], [3.091384, 49.065741], [3.088585, 49.065996], [3.088475, 49.066503], [3.08823, 49.067258], [3.087816, 49.069004], [3.087699, 49.069325], [3.087438, 49.069662], [3.087294, 49.07036], [3.087449, 49.070708], [3.08744, 49.070887], [3.087223, 49.071269], [3.087277, 49.071443], [3.087513, 49.071869], [3.087523, 49.072159], [3.087674, 49.072563], [3.088558, 49.074358], [3.088641, 49.074552], [3.088758, 49.074953], [3.089001, 49.075511], [3.089191, 49.076416], [3.089463, 49.077762], [3.089668, 49.078815], [3.090715, 49.078719], [3.091041, 49.079027], [3.092171, 49.080061], [3.091533, 49.080272], [3.090585, 49.080525], [3.090703, 49.080717], [3.089532, 49.080931], [3.088668, 49.081017], [3.08799, 49.081117], [3.086795, 49.081238], [3.086923, 49.081982], [3.087349, 49.08202], [3.087651, 49.082503], [3.087727, 49.08271], [3.08855, 49.082518], [3.088417, 49.082307], [3.088826, 49.082191], [3.089101, 49.082153], [3.090059, 49.082073], [3.090377, 49.082118], [3.090941, 49.08217], [3.092028, 49.082132], [3.092552, 49.082102], [3.092758, 49.082263], [3.093062, 49.082401], [3.09359, 49.082405], [3.094369, 49.082329], [3.095499, 49.082245], [3.095996, 49.083517], [3.096172, 49.083484], [3.096785, 49.084644], [3.096916, 49.084832], [3.096909, 49.085006], [3.097091, 49.085158], [3.097294, 49.085196], [3.098089, 49.085089], [3.098502, 49.085373], [3.100753, 49.086719], [3.102772, 49.086539], [3.102892, 49.086727], [3.103113, 49.086938], [3.104144, 49.087452], [3.106471, 49.086271], [3.107802, 49.087341], [3.108737, 49.087251], [3.109964, 49.087966], [3.109848, 49.08833], [3.109435, 49.089068], [3.109274, 49.089464], [3.109285, 49.089532], [3.110834, 49.090225], [3.11088, 49.090148], [3.114114, 49.092132], [3.114221, 49.092225], [3.114936, 49.092689], [3.115703, 49.093976], [3.114653, 49.094333], [3.113626, 49.094473], [3.113139, 49.094562], [3.112387, 49.094655], [3.112247, 49.095655], [3.112916, 49.095755], [3.113448, 49.09688], [3.113692, 49.097049], [3.11224, 49.098793], [3.110889, 49.098208], [3.11083, 49.098109], [3.11033, 49.099926], [3.1101, 49.101291], [3.110102, 49.101407], [3.110364, 49.101801], [3.110824, 49.102293], [3.1133, 49.102367], [3.114011, 49.102516], [3.114513, 49.102601], [3.116282, 49.102938], [3.11735, 49.10473], [3.117704, 49.106182], [3.117779, 49.106592], [3.117012, 49.106531], [3.116164, 49.106486], [3.115542, 49.106469], [3.114436, 49.106415], [3.114499, 49.106787], [3.114499, 49.10702], [3.114355, 49.107168], [3.114441, 49.107204], [3.114708, 49.107169], [3.114822, 49.10725], [3.115141, 49.107322], [3.115729, 49.107319], [3.115754, 49.107545], [3.115874, 49.107757], [3.115912, 49.108128], [3.115949, 49.108252], [3.116131, 49.108477], [3.116674, 49.10865], [3.116881, 49.108674], [3.11852, 49.108728], [3.119177, 49.109024], [3.119899, 49.109152], [3.120234, 49.109262], [3.121009, 49.109242], [3.121435, 49.109311], [3.121904, 49.10892], [3.122373, 49.108865], [3.122574, 49.10865], [3.122673, 49.1084], [3.122908, 49.107969], [3.122928, 49.107589], [3.123036, 49.107294], [3.123163, 49.10709], [3.123358, 49.106695], [3.123432, 49.10663], [3.123696, 49.106932], [3.123752, 49.106889], [3.124202, 49.106799], [3.124706, 49.106599], [3.125023, 49.10653], [3.125113, 49.106426], [3.12531, 49.106397], [3.125633, 49.106231], [3.125766, 49.106123], [3.125768, 49.106012], [3.125974, 49.105987], [3.126144, 49.106071], [3.126601, 49.106075], [3.126913, 49.106167], [3.127438, 49.106086], [3.127456, 49.106233], [3.127631, 49.106564], [3.128096, 49.106307], [3.128222, 49.106552], [3.128324, 49.106637], [3.128509, 49.106684], [3.128898, 49.106713], [3.129602, 49.106913], [3.130075, 49.106989], [3.130426, 49.107219], [3.13064, 49.107333], [3.130867, 49.10733], [3.131, 49.107122], [3.131139, 49.107031], [3.131258, 49.107071], [3.13152, 49.107336], [3.131745, 49.107345], [3.132081, 49.107088], [3.132347, 49.107123], [3.132477, 49.107243], [3.132704, 49.107368], [3.133116, 49.107311], [3.133294, 49.106981], [3.133361, 49.10693], [3.134026, 49.106633], [3.134229, 49.106659], [3.134577, 49.106883], [3.13483, 49.106997], [3.135079, 49.107068], [3.135171, 49.107147], [3.135269, 49.10737], [3.135633, 49.107489], [3.136024, 49.107491], [3.136268, 49.107551], [3.136531, 49.10756], [3.136916, 49.107683], [3.137124, 49.107647], [3.137403, 49.107535], [3.13772, 49.10745], [3.137808, 49.107326], [3.137687, 49.10711], [3.137821, 49.107041], [3.138357, 49.107003], [3.139122, 49.106792], [3.139428, 49.106832], [3.139518, 49.106757], [3.139569, 49.106363], [3.139876, 49.106354], [3.140082, 49.106093], [3.140216, 49.105711], [3.140359, 49.105381], [3.140527, 49.105201], [3.139945, 49.104979], [3.13998, 49.104891], [3.140196, 49.104724], [3.14022, 49.104538], [3.140747, 49.104074], [3.140849, 49.104047], [3.141243, 49.104046], [3.141399, 49.103977], [3.141537, 49.103825], [3.141835, 49.103802], [3.143056, 49.103052], [3.143454, 49.102863], [3.143622, 49.102701], [3.143839, 49.102409], [3.143855, 49.102333], [3.143751, 49.102196], [3.143846, 49.10213], [3.144432, 49.102104], [3.144701, 49.102117], [3.144973, 49.101994], [3.14519, 49.101855], [3.145449, 49.1018], [3.145666, 49.101637], [3.145991, 49.101699], [3.146358, 49.101726], [3.146485, 49.1017], [3.146609, 49.101544], [3.147121, 49.101457], [3.147319, 49.101465], [3.147472, 49.101362], [3.147635, 49.101], [3.14768, 49.10098], [3.148116, 49.101016], [3.148388, 49.100928], [3.148777, 49.100906], [3.148835, 49.100771], [3.149601, 49.100575], [3.150109, 49.100565], [3.15075, 49.100375], [3.150963, 49.100335], [3.151378, 49.100354], [3.151636, 49.100157], [3.152062, 49.100071], [3.152378, 49.100144], [3.15326, 49.100221], [3.153437, 49.100057], [3.153953, 49.100089], [3.1543, 49.099922], [3.154462, 49.0999], [3.154786, 49.099952], [3.155812, 49.099844], [3.155962, 49.099838], [3.156272, 49.099918], [3.156513, 49.099859], [3.156812, 49.099715], [3.157741, 49.099763], [3.15805, 49.099763], [3.158264, 49.099693], [3.159089, 49.099667], [3.159587, 49.099507], [3.159884, 49.099442], [3.160569, 49.099494], [3.161048, 49.09942], [3.161418, 49.099628], [3.161537, 49.099652], [3.161825, 49.099624], [3.162284, 49.099364], [3.162728, 49.099462], [3.162857, 49.099545], [3.162981, 49.099712], [3.163216, 49.099679], [3.163559, 49.099767], [3.164026, 49.099766], [3.164942, 49.099857], [3.165232, 49.099863], [3.16515, 49.099646], [3.164236, 49.097493], [3.163749, 49.096369], [3.163486, 49.095692], [3.16335, 49.095594], [3.163184, 49.095553], [3.163169, 49.095436], [3.162968, 49.095225], [3.162851, 49.094948], [3.162827, 49.094777], [3.162605, 49.094694], [3.162636, 49.09456], [3.162485, 49.094151], [3.162223, 49.093963], [3.162263, 49.093829], [3.162157, 49.093812], [3.162139, 49.093626], [3.161941, 49.093418], [3.161891, 49.093059], [3.16184, 49.092934], [3.161873, 49.092817], [3.16169, 49.092772], [3.161597, 49.092696], [3.161643, 49.092547], [3.161452, 49.092353], [3.161631, 49.09234], [3.161613, 49.092237], [3.161502, 49.09216], [3.161566, 49.092024], [3.161442, 49.091872], [3.161477, 49.091767], [3.161383, 49.091707], [3.161361, 49.091472], [3.161258, 49.091423], [3.161042, 49.091458], [3.160893, 49.09154], [3.1608, 49.091496], [3.160789, 49.091316], [3.160613, 49.09119], [3.160406, 49.090758], [3.160286, 49.090693], [3.160182, 49.090539], [3.160194, 49.0904], [3.160058, 49.090228], [3.159924, 49.090146], [3.159944, 49.089991], [3.15976, 49.089855], [3.159766, 49.089693], [3.159573, 49.089547], [3.159553, 49.089247], [3.158972, 49.088216], [3.15883, 49.087994], [3.158901, 49.087875], [3.158858, 49.087734], [3.158155, 49.087366], [3.15715, 49.086955], [3.156743, 49.086745], [3.156448, 49.086525], [3.156256, 49.086314], [3.155808, 49.085729], [3.153857, 49.083836], [3.153421, 49.083354], [3.156166, 49.08185], [3.15741, 49.081174], [3.15793, 49.080878], [3.158756, 49.080309], [3.158065, 49.080078], [3.157374, 49.079863], [3.156276, 49.079572], [3.154195, 49.07868], [3.153479, 49.078424], [3.152702, 49.078086], [3.152138, 49.077863], [3.15168, 49.077658], [3.150052, 49.076958], [3.146791, 49.075812], [3.146545, 49.075696], [3.146471, 49.075504], [3.14634, 49.075389], [3.145456, 49.075065], [3.145149, 49.074887], [3.144747, 49.074565], [3.144134, 49.073962], [3.143909, 49.073799], [3.143458, 49.07352], [3.144334, 49.072988], [3.144887, 49.072677], [3.14613, 49.071905], [3.146454, 49.071654], [3.147345, 49.070853], [3.149346, 49.068907], [3.148654, 49.068655], [3.148066, 49.06849], [3.147739, 49.068278], [3.147618, 49.068147], [3.147045, 49.067346], [3.146381, 49.066569], [3.146163, 49.066206], [3.145804, 49.065551], [3.145253, 49.06511], [3.144936, 49.064806], [3.144688, 49.064617], [3.144313, 49.064269], [3.144449, 49.064206], [3.144288, 49.064007], [3.143913, 49.063473], [3.144876, 49.063327], [3.145127, 49.062746], [3.145619, 49.062061], [3.146192, 49.061318], [3.148124, 49.058831], [3.1487, 49.058069], [3.150559, 49.056486], [3.15233, 49.053014], [3.153055, 49.051612], [3.15354, 49.050662], [3.153265, 49.050288], [3.153762, 49.050044], [3.154181, 49.049742], [3.15391, 49.049356], [3.155276, 49.048892], [3.154904, 49.047505], [3.154901, 49.047469], [3.156534, 49.047433], [3.158054, 49.047452], [3.155813, 49.04562], [3.157021, 49.04448], [3.155792, 49.043015], [3.15546, 49.04273], [3.155224, 49.042595], [3.155122, 49.042471], [3.153552, 49.041493], [3.152753, 49.041787], [3.152205, 49.041924], [3.150772, 49.042307], [3.150004, 49.042557], [3.149306, 49.042827], [3.148995, 49.042926], [3.147732, 49.043237], [3.146671, 49.042087], [3.14511, 49.043186], [3.143375, 49.043658], [3.143281, 49.043596], [3.1427, 49.042982], [3.14167, 49.043325], [3.140301, 49.04376], [3.140636, 49.044255], [3.140797, 49.044217], [3.140984, 49.044515], [3.139332, 49.045176], [3.138101, 49.04564], [3.138457, 49.045981], [3.138682, 49.046116], [3.139315, 49.046351], [3.139501, 49.046506], [3.139736, 49.046951], [3.139702, 49.046962], [3.140255, 49.047664], [3.138107, 49.048458], [3.135776, 49.049344], [3.134639, 49.049766], [3.134215, 49.049861], [3.1333, 49.049891], [3.132928, 49.049979], [3.130631, 49.051069], [3.130135, 49.051309], [3.128192, 49.052057], [3.128432, 49.052371], [3.128391, 49.052425], [3.126687, 49.053287], [3.126041, 49.053045], [3.125452, 49.052909], [3.125082, 49.0527], [3.124385, 49.052389], [3.123989, 49.052248], [3.123253, 49.052124], [3.12305, 49.052447], [3.122172, 49.05313], [3.123776, 49.053528], [3.122876, 49.055193], [3.12241, 49.055974], [3.121788, 49.056024], [3.121483, 49.056426], [3.12246, 49.056336], [3.122305, 49.061167], [3.121413, 49.060736], [3.121154, 49.060676], [3.12072, 49.060634], [3.120061, 49.060639], [3.118539, 49.060629], [3.116329, 49.060536], [3.116074, 49.060601], [3.114422, 49.061619], [3.111755, 49.060325], [3.109603, 49.05929], [3.1091, 49.059451], [3.1087, 49.059807], [3.108414, 49.059995], [3.108249, 49.060145], [3.108113, 49.060323], [3.107701, 49.061024], [3.107019, 49.061312], [3.1034, 49.062939], [3.101063, 49.063012], [3.101095, 49.062958], [3.099883, 49.062454], [3.099128, 49.062147], [3.096663, 49.061898], [3.096599, 49.061901]]]}, "properties": {"code_iris": "771290000", "nom_iris": "Coulombs-en-Valois (commune entière)", "type_iris": "Z", "lat": 49.0754, "lng": 3.126, "dvf_sales_total": 242, "dvf_sales_appt": 0, "dvf_sales_maison": 0, "dvf_median_price": 71000.0, "dvf_median_ppsqm": 1766.566265060241, "dvf_by_year": "[{\"year\": 2021, \"sales\": 42, \"median_price\": 224000.0}, {\"year\": 2022, \"sales\": 75, \"median_price\": 159000.0}, {\"year\": 2023, \"sales\": 13, \"median_price\": 71000.0}, {\"year\": 2024, \"sales\": 41, \"median_price\": 158000.0}, {\"year\": 2025, \"sales\": 71, \"median_price\": 6273.25}]", "population": 576, "n_log": null, "n_rp": null, "pct_proprio": null, "pct_hlm": null, "pct_appart": null, "pct_cadres": null, "pct_bac5p": null, "pct_etrangers": null, "pct_0_14": null, "pct_65p": null, "bpe_total": null, "bpe_commerces": null, "bpe_enseignement": null, "bpe_sante": null, "dpe": null, "attractivity_score": null, "rank_attractivity_score": null, "rank_total_attractivity_score": 1, "commune_avg": null, "is_stub": true}}]}