{"type": "FeatureCollection", "features": [{"type": "Feature", "geometry": {"type": "Polygon", "coordinates": [[[2.786732, 48.928337], [2.786279, 48.927059], [2.786086, 48.926896], [2.78587, 48.926811], [2.783053, 48.925952], [2.782973, 48.925893], [2.782734, 48.925504], [2.782465, 48.92519], [2.782214, 48.925028], [2.781898, 48.924885], [2.781584, 48.924556], [2.781334, 48.924103], [2.781214, 48.923635], [2.781166, 48.923271], [2.781059, 48.923018], [2.780842, 48.922777], [2.780041, 48.922047], [2.779623, 48.921805], [2.778471, 48.921242], [2.777862, 48.920839], [2.777417, 48.920479], [2.775406, 48.921652], [2.773257, 48.92289], [2.771217, 48.924079], [2.770359, 48.923721], [2.769123, 48.922929], [2.768204, 48.921921], [2.768223, 48.921882], [2.766381, 48.921065], [2.765442, 48.920764], [2.763523, 48.920454], [2.762079, 48.920644], [2.759342, 48.921673], [2.7586, 48.921789], [2.758368, 48.921805], [2.757217, 48.922006], [2.756475, 48.922173], [2.756131, 48.922282], [2.755213, 48.922473], [2.754483, 48.922555], [2.753595, 48.922596], [2.7532, 48.922595], [2.752943, 48.922626], [2.752254, 48.922589], [2.751808, 48.922804], [2.751658, 48.923003], [2.751405, 48.923187], [2.751138, 48.923305], [2.750787, 48.923426], [2.75087, 48.92354], [2.75256, 48.92773], [2.752505, 48.928917], [2.752424, 48.930454], [2.753889, 48.930423], [2.756221, 48.930366], [2.756277, 48.93168], [2.756418, 48.933935], [2.757036, 48.933904], [2.756902, 48.935218], [2.757386, 48.935252], [2.757444, 48.935659], [2.757636, 48.936599], [2.757986, 48.938264], [2.759, 48.940171], [2.759085, 48.94035], [2.758427, 48.941604], [2.758116, 48.942437], [2.757343, 48.944212], [2.757106, 48.944844], [2.756981, 48.945031], [2.756613, 48.945058], [2.756567, 48.946387], [2.756696, 48.946398], [2.756677, 48.947088], [2.7568, 48.947092], [2.756752, 48.948185], [2.756545, 48.948143], [2.756461, 48.948807], [2.757131, 48.948943], [2.762255, 48.950024], [2.762416, 48.949349], [2.762619, 48.948724], [2.762824, 48.948309], [2.763108, 48.947829], [2.763695, 48.946894], [2.763987, 48.946314], [2.764202, 48.945975], [2.764339, 48.94581], [2.764711, 48.945458], [2.765549, 48.944722], [2.765832, 48.944448], [2.766562, 48.943619], [2.767845, 48.942311], [2.76823, 48.941878], [2.76888, 48.941073], [2.770429, 48.939386], [2.772256, 48.937473], [2.773059, 48.93657], [2.773783, 48.935544], [2.774265, 48.934828], [2.774977, 48.933802], [2.775166, 48.933838], [2.775126, 48.934374], [2.77503, 48.935993], [2.775059, 48.93624], [2.77532, 48.93747], [2.775558, 48.938424], [2.775779, 48.939367], [2.775969, 48.940133], [2.776184, 48.941052], [2.77664, 48.941237], [2.776789, 48.941332], [2.777218, 48.941737], [2.77776, 48.941741], [2.777879, 48.941116], [2.7781, 48.940422], [2.779663, 48.940772], [2.77973, 48.940671], [2.780691, 48.938744], [2.780719, 48.938699], [2.782468, 48.938948], [2.782952, 48.938144], [2.783336, 48.93737], [2.78395, 48.937118], [2.785299, 48.93473], [2.785557, 48.934257], [2.785785, 48.933876], [2.785575, 48.933694], [2.786704, 48.933174], [2.786215, 48.932583], [2.785358, 48.93158], [2.784683, 48.930825], [2.783011, 48.929082], [2.783497, 48.92888], [2.784001, 48.928772], [2.786444, 48.9284], [2.786732, 48.928337]]]}, "properties": {"code_iris": "773760000", "nom_iris": "Précy-sur-Marne (commune entière)", "type_iris": "Z", "lat": 48.9352, "lng": 2.7688, "dvf_sales_total": 223, "dvf_sales_appt": 0, "dvf_sales_maison": 0, "dvf_median_price": 277000.0, "dvf_median_ppsqm": 3166.6666666666665, "dvf_by_year": "[{\"year\": 2021, \"sales\": 45, \"median_price\": 288000.0}, {\"year\": 2022, \"sales\": 46, \"median_price\": 280000.0}, {\"year\": 2023, \"sales\": 20, \"median_price\": 52355.0}, {\"year\": 2024, \"sales\": 47, \"median_price\": 266000.0}, {\"year\": 2025, \"sales\": 65, \"median_price\": 327000.0}]", "population": 747, "n_log": null, "n_rp": null, "pct_proprio": null, "pct_hlm": null, "pct_appart": null, "pct_cadres": null, "pct_bac5p": null, "pct_etrangers": null, "pct_0_14": null, "pct_65p": null, "bpe_total": null, "bpe_commerces": null, "bpe_enseignement": null, "bpe_sante": null, "dpe": null, "attractivity_score": null, "rank_attractivity_score": null, "rank_total_attractivity_score": 1, "commune_avg": null, "is_stub": true}}]}