{"type": "FeatureCollection", "features": [{"type": "Feature", "geometry": {"type": "Polygon", "coordinates": [[[3.307199, 48.862308], [3.307336, 48.862257], [3.307928, 48.861892], [3.308199, 48.861801], [3.308715, 48.861724], [3.309333, 48.861252], [3.309685, 48.861141], [3.310197, 48.860885], [3.310808, 48.860669], [3.31141, 48.860774], [3.311792, 48.860969], [3.312181, 48.860983], [3.312553, 48.861242], [3.312793, 48.861295], [3.313993, 48.861286], [3.314648, 48.861352], [3.314726, 48.861189], [3.314722, 48.860974], [3.314336, 48.860743], [3.314279, 48.8606], [3.314386, 48.860509], [3.314604, 48.86049], [3.315286, 48.860484], [3.315418, 48.860357], [3.315253, 48.860251], [3.314951, 48.860145], [3.314949, 48.860037], [3.315544, 48.859762], [3.315762, 48.859761], [3.31603, 48.859543], [3.316275, 48.859523], [3.316958, 48.859608], [3.317393, 48.859604], [3.317829, 48.859546], [3.318509, 48.859559], [3.319623, 48.859369], [3.319922, 48.859367], [3.320579, 48.859451], [3.32085, 48.859449], [3.321502, 48.859318], [3.321775, 48.859334], [3.32188, 48.859135], [3.32207, 48.859116], [3.323082, 48.859323], [3.324526, 48.859311], [3.324718, 48.859399], [3.324835, 48.859793], [3.325134, 48.859792], [3.325364, 48.859902], [3.325789, 48.859803], [3.326171, 48.85989], [3.326775, 48.860083], [3.327513, 48.860256], [3.328413, 48.860285], [3.328769, 48.860391], [3.329073, 48.860604], [3.329513, 48.860834], [3.330086, 48.860882], [3.330503, 48.861328], [3.330667, 48.861327], [3.330883, 48.861254], [3.331101, 48.861252], [3.331267, 48.861376], [3.331408, 48.861626], [3.331682, 48.861732], [3.332253, 48.861673], [3.332389, 48.861618], [3.332771, 48.861651], [3.332846, 48.861414], [3.332888, 48.860629], [3.332958, 48.859118], [3.333095, 48.858441], [3.333249, 48.857602], [3.333298, 48.857416], [3.333361, 48.856969], [3.333447, 48.856537], [3.333647, 48.855377], [3.334331, 48.855265], [3.335226, 48.855153], [3.336095, 48.855093], [3.337049, 48.85499], [3.337474, 48.855011], [3.337933, 48.854972], [3.33825, 48.854888], [3.339083, 48.854891], [3.339708, 48.8548], [3.340069, 48.854798], [3.341156, 48.854902], [3.342278, 48.855067], [3.343484, 48.855171], [3.344106, 48.855263], [3.345243, 48.855609], [3.345847, 48.855826], [3.346565, 48.855966], [3.34705, 48.856154], [3.347182, 48.856171], [3.347684, 48.856395], [3.347612, 48.856451], [3.348087, 48.856717], [3.348495, 48.856852], [3.348899, 48.857038], [3.34919, 48.85723], [3.350029, 48.857688], [3.350868, 48.858262], [3.351137, 48.858482], [3.351472, 48.858873], [3.351688, 48.85902], [3.352157, 48.859246], [3.352585, 48.859629], [3.352962, 48.860158], [3.353345, 48.860566], [3.353772, 48.860961], [3.354107, 48.861221], [3.354701, 48.861511], [3.355734, 48.861862], [3.356607, 48.862217], [3.354584, 48.863302], [3.354244, 48.863459], [3.355147, 48.863708], [3.356252, 48.863944], [3.356354, 48.863788], [3.35701, 48.864105], [3.356983, 48.864172], [3.356233, 48.864695], [3.357099, 48.865099], [3.357334, 48.865221], [3.358038, 48.865131], [3.358645, 48.864964], [3.359396, 48.865004], [3.359804, 48.864471], [3.360143, 48.863937], [3.360327, 48.863574], [3.360956, 48.862498], [3.361022, 48.862339], [3.361403, 48.861666], [3.361736, 48.860995], [3.361632, 48.860943], [3.360767, 48.860662], [3.36048, 48.860841], [3.360032, 48.860774], [3.359809, 48.860674], [3.359138, 48.860445], [3.359237, 48.860299], [3.359008, 48.860232], [3.359065, 48.860036], [3.358473, 48.859966], [3.358682, 48.859433], [3.357356, 48.858678], [3.357121, 48.858567], [3.357029, 48.858673], [3.356391, 48.858436], [3.356512, 48.858393], [3.3571, 48.858068], [3.358025, 48.857534], [3.358612, 48.85728], [3.358431, 48.857088], [3.35811, 48.856796], [3.357824, 48.856578], [3.35737, 48.856314], [3.357182, 48.856181], [3.356976, 48.855967], [3.356745, 48.855488], [3.355712, 48.855275], [3.354557, 48.854965], [3.354074, 48.854824], [3.353366, 48.85457], [3.352017, 48.854176], [3.351651, 48.854136], [3.351341, 48.854079], [3.351977, 48.853127], [3.35264, 48.852302], [3.352878, 48.851782], [3.353053, 48.851257], [3.353247, 48.850725], [3.353426, 48.850157], [3.353627, 48.849117], [3.35374, 48.848872], [3.354698, 48.848396], [3.354751, 48.84809], [3.355049, 48.846763], [3.355301, 48.845716], [3.355371, 48.845464], [3.355493, 48.845204], [3.35558, 48.845126], [3.355189, 48.844862], [3.355092, 48.842327], [3.355061, 48.841177], [3.355595, 48.840345], [3.355682, 48.840114], [3.355579, 48.839796], [3.354876, 48.838363], [3.352427, 48.838513], [3.351457, 48.838629], [3.350889, 48.838711], [3.350454, 48.837809], [3.350265, 48.837482], [3.350159, 48.83735], [3.34893, 48.836275], [3.348736, 48.836129], [3.348348, 48.835891], [3.347019, 48.833433], [3.346543, 48.832584], [3.346124, 48.831887], [3.345661, 48.831193], [3.3455, 48.830996], [3.345005, 48.830515], [3.344601, 48.830041], [3.343962, 48.829202], [3.344247, 48.829129], [3.347203, 48.828341], [3.348399, 48.82864], [3.349026, 48.827648], [3.349064, 48.827541], [3.349095, 48.826935], [3.34916, 48.826679], [3.34775, 48.826187], [3.348463, 48.823561], [3.348746, 48.823301], [3.348127, 48.821896], [3.347841, 48.821299], [3.346871, 48.821427], [3.346204, 48.821538], [3.345569, 48.821698], [3.344793, 48.821925], [3.344497, 48.82162], [3.344393, 48.821327], [3.34431, 48.821002], [3.343864, 48.821126], [3.342321, 48.821591], [3.340709, 48.822097], [3.340309, 48.822292], [3.3401, 48.82248], [3.339586, 48.822579], [3.339254, 48.822666], [3.33842, 48.822815], [3.337763, 48.822919], [3.336087, 48.823126], [3.335168, 48.823217], [3.333386, 48.823318], [3.332298, 48.823362], [3.329281, 48.82334], [3.328636, 48.823358], [3.328268, 48.82341], [3.326849, 48.823794], [3.326465, 48.823877], [3.325687, 48.823905], [3.325048, 48.823897], [3.324904, 48.823863], [3.324436, 48.823813], [3.324255, 48.823815], [3.323384, 48.823692], [3.32307, 48.823679], [3.322714, 48.823699], [3.321583, 48.823864], [3.32139, 48.823873], [3.320045, 48.82382], [3.318976, 48.823866], [3.318428, 48.823811], [3.317025, 48.823531], [3.316421, 48.823444], [3.315044, 48.823267], [3.313785, 48.823117], [3.31255, 48.822947], [3.311827, 48.822862], [3.311537, 48.822887], [3.311091, 48.822881], [3.309543, 48.822724], [3.308242, 48.822586], [3.308244, 48.823321], [3.30809, 48.823703], [3.308041, 48.823931], [3.308174, 48.824225], [3.308687, 48.824728], [3.308879, 48.82495], [3.308954, 48.825252], [3.308915, 48.825858], [3.308916, 48.826645], [3.30896, 48.826858], [3.309361, 48.828152], [3.309384, 48.828317], [3.309304, 48.8286], [3.30844, 48.828603], [3.306951, 48.828631], [3.306764, 48.828333], [3.305612, 48.828185], [3.304362, 48.828016], [3.303668, 48.8276], [3.303267, 48.827345], [3.30257, 48.827364], [3.301681, 48.827375], [3.297629, 48.827445], [3.297264, 48.827533], [3.297012, 48.827774], [3.296602, 48.827951], [3.29637, 48.828075], [3.296007, 48.828054], [3.295891, 48.828011], [3.295477, 48.828037], [3.295402, 48.827948], [3.295246, 48.828021], [3.295055, 48.828014], [3.294714, 48.8279], [3.294713, 48.827804], [3.29452, 48.827713], [3.294174, 48.827617], [3.293749, 48.827614], [3.29358, 48.827559], [3.293276, 48.827543], [3.293329, 48.829153], [3.292728, 48.828858], [3.292321, 48.828746], [3.291769, 48.828706], [3.291783, 48.828813], [3.292231, 48.831186], [3.29181, 48.831194], [3.291868, 48.831465], [3.291917, 48.832001], [3.291846, 48.83339], [3.29177, 48.833954], [3.291465, 48.83382], [3.290753, 48.833584], [3.291265, 48.835195], [3.291458, 48.83584], [3.290688, 48.836122], [3.290133, 48.836293], [3.289384, 48.836555], [3.289214, 48.836681], [3.288801, 48.837089], [3.288976, 48.837421], [3.288658, 48.837518], [3.289186, 48.838143], [3.290335, 48.839474], [3.290713, 48.83992], [3.290742, 48.839918], [3.290994, 48.840449], [3.291698, 48.841621], [3.29187, 48.841882], [3.292048, 48.84204], [3.292868, 48.843004], [3.293056, 48.843276], [3.293437, 48.843609], [3.293618, 48.843866], [3.294051, 48.844671], [3.294543, 48.845359], [3.294729, 48.845557], [3.29543, 48.846212], [3.295617, 48.84644], [3.295923, 48.846912], [3.296234, 48.847342], [3.296451, 48.847695], [3.296671, 48.848334], [3.296783, 48.848511], [3.29707, 48.849117], [3.297273, 48.849311], [3.297714, 48.849853], [3.297974, 48.850265], [3.298491, 48.850949], [3.299268, 48.851843], [3.298867, 48.852023], [3.297758, 48.852488], [3.2982, 48.853094], [3.298583, 48.853674], [3.298746, 48.853884], [3.299123, 48.854264], [3.299325, 48.85458], [3.29951, 48.855027], [3.299648, 48.855259], [3.300054, 48.855808], [3.300239, 48.855986], [3.300565, 48.856134], [3.300752, 48.856308], [3.300841, 48.856511], [3.301053, 48.856489], [3.301078, 48.856689], [3.30122, 48.85681], [3.301325, 48.856987], [3.301306, 48.857062], [3.301462, 48.857217], [3.3014, 48.85728], [3.301548, 48.857359], [3.301509, 48.85746], [3.302041, 48.858041], [3.302222, 48.858274], [3.302683, 48.8588], [3.303439, 48.859687], [3.303896, 48.859924], [3.303995, 48.859858], [3.304388, 48.860019], [3.304795, 48.860338], [3.305143, 48.860227], [3.305846, 48.860369], [3.306166, 48.860472], [3.306079, 48.860521], [3.306334, 48.860742], [3.306186, 48.860839], [3.306514, 48.861306], [3.307199, 48.862308]]]}, "properties": {"code_iris": "770300000", "nom_iris": "Bellot (commune entière)", "type_iris": "Z", "lat": 48.8431, "lng": 3.3252, "dvf_sales_total": 612, "dvf_sales_appt": 0, "dvf_sales_maison": 0, "dvf_median_price": 45236.5, "dvf_median_ppsqm": 1567.0103092783504, "dvf_by_year": "[{\"year\": 2021, \"sales\": 148, \"median_price\": 99145.5}, {\"year\": 2022, \"sales\": 84, \"median_price\": 63444.0}, {\"year\": 2023, \"sales\": 103, \"median_price\": 120000.0}, {\"year\": 2024, \"sales\": 148, \"median_price\": 25000.0}, {\"year\": 2025, \"sales\": 129, \"median_price\": 11200.0}]", "population": 777, "n_log": null, "n_rp": null, "pct_proprio": null, "pct_hlm": null, "pct_appart": null, "pct_cadres": null, "pct_bac5p": null, "pct_etrangers": null, "pct_0_14": null, "pct_65p": null, "bpe_total": null, "bpe_commerces": null, "bpe_enseignement": null, "bpe_sante": null, "dpe": null, "attractivity_score": null, "rank_attractivity_score": null, "rank_total_attractivity_score": 1, "commune_avg": null, "is_stub": true}}]}