{"type": "FeatureCollection", "features": [{"type": "Feature", "geometry": {"type": "Point", "coordinates": [2.997574, 48.423715]}, "properties": {"year": 2021, "valeur_fonciere": 98000.0, "type_local": null, "surface_reelle_bati": null, "nombre_pieces_principales": null, "adresse_nom_voie": "LAVAL", "price_per_sqm": null, "date_iso": "2021-02-26", "parcelle": "772450000B0495", "addr_num": ""}}, {"type": "Feature", "geometry": {"type": "Point", "coordinates": [2.997512, 48.423873]}, "properties": {"year": 2021, "valeur_fonciere": 98000.0, "type_local": "Maison", "surface_reelle_bati": 58.0, "nombre_pieces_principales": 2.0, "adresse_nom_voie": "RUE SAINT LAURENT", "price_per_sqm": 1689.655172413793, "date_iso": "2021-02-26", "parcelle": "772450000B0813", "addr_num": "3"}}, {"type": "Feature", "geometry": {"type": "Point", "coordinates": [2.980347, 48.438254]}, "properties": {"year": 2021, "valeur_fonciere": 2500.0, "type_local": null, "surface_reelle_bati": null, "nombre_pieces_principales": null, "adresse_nom_voie": "LES COUDRAIES", "price_per_sqm": null, "date_iso": "2021-03-20", "parcelle": "772450000C0257", "addr_num": ""}}, {"type": "Feature", "geometry": {"type": "Point", "coordinates": [2.99487, 48.434091]}, "properties": {"year": 2021, "valeur_fonciere": 155000.0, "type_local": "Maison", "surface_reelle_bati": 108.0, "nombre_pieces_principales": 5.0, "adresse_nom_voie": "MAULNY", "price_per_sqm": 1435.1851851851852, "date_iso": "2021-04-16", "parcelle": "772450000B0065", "addr_num": "5124"}}, {"type": "Feature", "geometry": {"type": "Point", "coordinates": [2.995257, 48.434199]}, "properties": {"year": 2021, "valeur_fonciere": 155000.0, "type_local": "Dépendance", "surface_reelle_bati": null, "nombre_pieces_principales": 0.0, "adresse_nom_voie": "MAULNY", "price_per_sqm": null, "date_iso": "2021-04-16", "parcelle": "772450000B1007", "addr_num": ""}}, {"type": "Feature", "geometry": {"type": "Point", "coordinates": [2.996245, 48.424328]}, "properties": {"year": 2021, "valeur_fonciere": 271200.0, "type_local": "Maison", "surface_reelle_bati": 120.0, "nombre_pieces_principales": 4.0, "adresse_nom_voie": "RUE SAINT LAURENT", "price_per_sqm": 2260.0, "date_iso": "2021-04-30", "parcelle": "772450000B0437", "addr_num": "10"}}, {"type": "Feature", "geometry": {"type": "Point", "coordinates": [2.996184, 48.424485]}, "properties": {"year": 2021, "valeur_fonciere": 271200.0, "type_local": null, "surface_reelle_bati": null, "nombre_pieces_principales": null, "adresse_nom_voie": "LAVAL", "price_per_sqm": null, "date_iso": "2021-04-30", "parcelle": "772450000B0864", "addr_num": ""}}, {"type": "Feature", "geometry": {"type": "Point", "coordinates": [2.996038, 48.425384]}, "properties": {"year": 2021, "valeur_fonciere": 271200.0, "type_local": null, "surface_reelle_bati": null, "nombre_pieces_principales": null, "adresse_nom_voie": "LA CORBINIERE", "price_per_sqm": null, "date_iso": "2021-04-30", "parcelle": "77245000ZD0004", "addr_num": ""}}, {"type": "Feature", "geometry": {"type": "Point", "coordinates": [2.984391, 48.425207]}, "properties": {"year": 2021, "valeur_fonciere": 256000.0, "type_local": "Maison", "surface_reelle_bati": 134.0, "nombre_pieces_principales": 5.0, "adresse_nom_voie": "CHE MONTEREAU MARE GUILLEMOT", "price_per_sqm": 1910.44776119403, "date_iso": "2021-08-07", "parcelle": "772450000C0375", "addr_num": "2"}}, {"type": "Feature", "geometry": {"type": "Point", "coordinates": [2.984391, 48.425207]}, "properties": {"year": 2021, "valeur_fonciere": 256000.0, "type_local": "Maison", "surface_reelle_bati": 134.0, "nombre_pieces_principales": 5.0, "adresse_nom_voie": "CHE MONTEREAU MARE GUILLEMOT", "price_per_sqm": 1910.44776119403, "date_iso": "2021-08-07", "parcelle": "772450000C0375", "addr_num": "2"}}, {"type": "Feature", "geometry": {"type": "Point", "coordinates": [2.997284, 48.426139]}, "properties": {"year": 2021, "valeur_fonciere": 36000.0, "type_local": null, "surface_reelle_bati": null, "nombre_pieces_principales": null, "adresse_nom_voie": "LES ROCHERS", "price_per_sqm": null, "date_iso": "2021-09-11", "parcelle": "77245000ZD0152", "addr_num": ""}}, {"type": "Feature", "geometry": {"type": "Point", "coordinates": [2.998476, 48.42429]}, "properties": {"year": 2021, "valeur_fonciere": 285000.0, "type_local": null, "surface_reelle_bati": null, "nombre_pieces_principales": null, "adresse_nom_voie": "LAVAL", "price_per_sqm": null, "date_iso": "2021-09-11", "parcelle": "772450000B0487", "addr_num": ""}}, {"type": "Feature", "geometry": {"type": "Point", "coordinates": [2.998348, 48.424464]}, "properties": {"year": 2021, "valeur_fonciere": 285000.0, "type_local": "Dépendance", "surface_reelle_bati": null, "nombre_pieces_principales": 0.0, "adresse_nom_voie": "RUE DE LA FONTAINE DE L ERABLE", "price_per_sqm": null, "date_iso": "2021-09-11", "parcelle": "772450000B0488", "addr_num": "3"}}, {"type": "Feature", "geometry": {"type": "Point", "coordinates": [2.998348, 48.424464]}, "properties": {"year": 2021, "valeur_fonciere": 285000.0, "type_local": "Maison", "surface_reelle_bati": 163.0, "nombre_pieces_principales": 6.0, "adresse_nom_voie": "RUE DE LA FONTAINE DE L ERABLE", "price_per_sqm": 1748.4662576687117, "date_iso": "2021-09-11", "parcelle": "772450000B0488", "addr_num": "3"}}, {"type": "Feature", "geometry": {"type": "Point", "coordinates": [2.99837, 48.424618]}, "properties": {"year": 2021, "valeur_fonciere": 285000.0, "type_local": null, "surface_reelle_bati": null, "nombre_pieces_principales": null, "adresse_nom_voie": "LAVAL", "price_per_sqm": null, "date_iso": "2021-09-11", "parcelle": "772450000B0839", "addr_num": ""}}, {"type": "Feature", "geometry": {"type": "Point", "coordinates": [2.998989, 48.424481]}, "properties": {"year": 2021, "valeur_fonciere": 285000.0, "type_local": null, "surface_reelle_bati": null, "nombre_pieces_principales": null, "adresse_nom_voie": "LE PRIEURE", "price_per_sqm": null, "date_iso": "2021-09-11", "parcelle": "77245000ZD0131", "addr_num": ""}}, {"type": "Feature", "geometry": {"type": "Point", "coordinates": [2.997403, 48.424307]}, "properties": {"year": 2021, "valeur_fonciere": 180000.0, "type_local": "Dépendance", "surface_reelle_bati": null, "nombre_pieces_principales": 0.0, "adresse_nom_voie": "RUE SAINT LAURENT", "price_per_sqm": null, "date_iso": "2021-10-15", "parcelle": "772450000B1032", "addr_num": "2"}}, {"type": "Feature", "geometry": {"type": "Point", "coordinates": [2.997403, 48.424307]}, "properties": {"year": 2021, "valeur_fonciere": 180000.0, "type_local": "Maison", "surface_reelle_bati": 68.0, "nombre_pieces_principales": 3.0, "adresse_nom_voie": "RUE SAINT LAURENT", "price_per_sqm": 2647.0588235294117, "date_iso": "2021-10-15", "parcelle": "772450000B1032", "addr_num": "2"}}, {"type": "Feature", "geometry": {"type": "Point", "coordinates": [2.974926, 48.430454]}, "properties": {"year": 2022, "valeur_fonciere": 155000.0, "type_local": "Maison", "surface_reelle_bati": 90.0, "nombre_pieces_principales": 2.0, "adresse_nom_voie": "LES GRANDS CHAMPS", "price_per_sqm": 1722.2222222222222, "date_iso": "2022-03-04", "parcelle": "772450000C0395", "addr_num": "9001"}}, {"type": "Feature", "geometry": {"type": "Point", "coordinates": [2.97512, 48.430511]}, "properties": {"year": 2022, "valeur_fonciere": 155000.0, "type_local": null, "surface_reelle_bati": null, "nombre_pieces_principales": null, "adresse_nom_voie": "CHAMPAUBERT", "price_per_sqm": null, "date_iso": "2022-03-04", "parcelle": "772450000C0397", "addr_num": ""}}, {"type": "Feature", "geometry": {"type": "Point", "coordinates": [2.975258, 48.430515]}, "properties": {"year": 2022, "valeur_fonciere": 155000.0, "type_local": null, "surface_reelle_bati": null, "nombre_pieces_principales": null, "adresse_nom_voie": "CHAMPAUBERT", "price_per_sqm": null, "date_iso": "2022-03-04", "parcelle": "772450000C0415", "addr_num": ""}}, {"type": "Feature", "geometry": {"type": "Point", "coordinates": [3.004309, 48.417309]}, "properties": {"year": 2022, "valeur_fonciere": 183500.0, "type_local": "Dépendance", "surface_reelle_bati": null, "nombre_pieces_principales": 0.0, "adresse_nom_voie": "RUE DE L AIGLON", "price_per_sqm": null, "date_iso": "2022-03-19", "parcelle": "772450000B1019", "addr_num": "13"}}, {"type": "Feature", "geometry": {"type": "Point", "coordinates": [3.004309, 48.417309]}, "properties": {"year": 2022, "valeur_fonciere": 183500.0, "type_local": "Maison", "surface_reelle_bati": 73.0, "nombre_pieces_principales": 4.0, "adresse_nom_voie": "RUE DE L AIGLON", "price_per_sqm": 2513.698630136986, "date_iso": "2022-03-19", "parcelle": "772450000B1019", "addr_num": "13"}}, {"type": "Feature", "geometry": {"type": "Point", "coordinates": [3.004309, 48.417309]}, "properties": {"year": 2022, "valeur_fonciere": 183500.0, "type_local": "Maison", "surface_reelle_bati": 73.0, "nombre_pieces_principales": 4.0, "adresse_nom_voie": "RUE DE L AIGLON", "price_per_sqm": 2513.698630136986, "date_iso": "2022-03-19", "parcelle": "772450000B1019", "addr_num": "13"}}, {"type": "Feature", "geometry": {"type": "Point", "coordinates": [3.004309, 48.417309]}, "properties": {"year": 2022, "valeur_fonciere": 183500.0, "type_local": "Dépendance", "surface_reelle_bati": null, "nombre_pieces_principales": 0.0, "adresse_nom_voie": "RUE DE L AIGLON", "price_per_sqm": null, "date_iso": "2022-03-19", "parcelle": "772450000B1019", "addr_num": "13"}}, {"type": "Feature", "geometry": {"type": "Point", "coordinates": [3.002034, 48.42214]}, "properties": {"year": 2022, "valeur_fonciere": 450000.0, "type_local": null, "surface_reelle_bati": null, "nombre_pieces_principales": null, "adresse_nom_voie": "LE GLACEAU", "price_per_sqm": null, "date_iso": "2022-03-30", "parcelle": "772450000B0537", "addr_num": ""}}, {"type": "Feature", "geometry": {"type": "Point", "coordinates": [3.00445, 48.421864]}, "properties": {"year": 2022, "valeur_fonciere": 450000.0, "type_local": null, "surface_reelle_bati": null, "nombre_pieces_principales": null, "adresse_nom_voie": "LE GLACEAU", "price_per_sqm": null, "date_iso": "2022-03-30", "parcelle": "772450000B0556", "addr_num": ""}}, {"type": "Feature", "geometry": {"type": "Point", "coordinates": [3.004079, 48.421827]}, "properties": {"year": 2022, "valeur_fonciere": 450000.0, "type_local": null, "surface_reelle_bati": null, "nombre_pieces_principales": null, "adresse_nom_voie": "LE GLACEAU", "price_per_sqm": null, "date_iso": "2022-03-30", "parcelle": "772450000B0557", "addr_num": ""}}, {"type": "Feature", "geometry": {"type": "Point", "coordinates": [3.003261, 48.421819]}, "properties": {"year": 2022, "valeur_fonciere": 450000.0, "type_local": null, "surface_reelle_bati": null, "nombre_pieces_principales": null, "adresse_nom_voie": "BOIS DE LA GARENNE", "price_per_sqm": null, "date_iso": "2022-03-30", "parcelle": "772450000B0711", "addr_num": ""}}, {"type": "Feature", "geometry": {"type": "Point", "coordinates": [3.003299, 48.422043]}, "properties": {"year": 2022, "valeur_fonciere": 450000.0, "type_local": "Dépendance", "surface_reelle_bati": null, "nombre_pieces_principales": 0.0, "adresse_nom_voie": "RUE DES SOURCES", "price_per_sqm": null, "date_iso": "2022-03-30", "parcelle": "772450000B1075", "addr_num": "2"}}, {"type": "Feature", "geometry": {"type": "Point", "coordinates": [3.003299, 48.422043]}, "properties": {"year": 2022, "valeur_fonciere": 450000.0, "type_local": "Maison", "surface_reelle_bati": 300.0, "nombre_pieces_principales": 9.0, "adresse_nom_voie": "RUE DES SOURCES", "price_per_sqm": 1500.0, "date_iso": "2022-03-30", "parcelle": "772450000B1075", "addr_num": "2"}}, {"type": "Feature", "geometry": {"type": "Point", "coordinates": [3.004575, 48.421793]}, "properties": {"year": 2022, "valeur_fonciere": 450000.0, "type_local": null, "surface_reelle_bati": null, "nombre_pieces_principales": null, "adresse_nom_voie": "RUE DES SOURCES", "price_per_sqm": null, "date_iso": "2022-03-30", "parcelle": "772450000B1076", "addr_num": "2"}}, {"type": "Feature", "geometry": {"type": "Point", "coordinates": [3.002868, 48.418598]}, "properties": {"year": 2022, "valeur_fonciere": 280000.0, "type_local": "Maison", "surface_reelle_bati": 162.0, "nombre_pieces_principales": 5.0, "adresse_nom_voie": "RUE GRANDE DU BUISSON", "price_per_sqm": 1728.3950617283951, "date_iso": "2022-04-21", "parcelle": "77245000ZB0045", "addr_num": "27"}}, {"type": "Feature", "geometry": {"type": "Point", "coordinates": [3.002868, 48.418598]}, "properties": {"year": 2022, "valeur_fonciere": 280000.0, "type_local": "Maison", "surface_reelle_bati": 162.0, "nombre_pieces_principales": 5.0, "adresse_nom_voie": "RUE GRANDE DU BUISSON", "price_per_sqm": 1728.3950617283951, "date_iso": "2022-04-21", "parcelle": "77245000ZB0045", "addr_num": "27"}}, {"type": "Feature", "geometry": {"type": "Point", "coordinates": [3.002607, 48.418312]}, "properties": {"year": 2022, "valeur_fonciere": 280000.0, "type_local": null, "surface_reelle_bati": null, "nombre_pieces_principales": null, "adresse_nom_voie": "RUE GRANDE DU BUISSON", "price_per_sqm": null, "date_iso": "2022-04-21", "parcelle": "77245000ZB0065", "addr_num": ""}}, {"type": "Feature", "geometry": {"type": "Point", "coordinates": [2.997781, 48.423803]}, "properties": {"year": 2022, "valeur_fonciere": 114000.0, "type_local": "Maison", "surface_reelle_bati": 47.0, "nombre_pieces_principales": 3.0, "adresse_nom_voie": "RUE SAINT LAURENT", "price_per_sqm": 2425.531914893617, "date_iso": "2022-07-18", "parcelle": "772450000B0493", "addr_num": "1"}}, {"type": "Feature", "geometry": {"type": "Point", "coordinates": [2.997989, 48.423495]}, "properties": {"year": 2022, "valeur_fonciere": 114000.0, "type_local": null, "surface_reelle_bati": null, "nombre_pieces_principales": null, "adresse_nom_voie": "LAVAL", "price_per_sqm": null, "date_iso": "2022-07-18", "parcelle": "772450000B0494", "addr_num": ""}}, {"type": "Feature", "geometry": {"type": "Point", "coordinates": [2.984288, 48.424803]}, "properties": {"year": 2023, "valeur_fonciere": 10000.0, "type_local": null, "surface_reelle_bati": null, "nombre_pieces_principales": null, "adresse_nom_voie": "LA MORELLE", "price_per_sqm": null, "date_iso": "2023-03-28", "parcelle": "772450000C0173", "addr_num": ""}}, {"type": "Feature", "geometry": {"type": "Point", "coordinates": [3.003084, 48.417353]}, "properties": {"year": 2023, "valeur_fonciere": 180000.0, "type_local": "Maison", "surface_reelle_bati": 65.0, "nombre_pieces_principales": 3.0, "adresse_nom_voie": "RUE DE L AIGLON", "price_per_sqm": 2769.230769230769, "date_iso": "2023-10-05", "parcelle": "772450000B0879", "addr_num": "7"}}, {"type": "Feature", "geometry": {"type": "Point", "coordinates": [2.974926, 48.430454]}, "properties": {"year": 2023, "valeur_fonciere": 18000.0, "type_local": "Maison", "surface_reelle_bati": 90.0, "nombre_pieces_principales": 2.0, "adresse_nom_voie": "LES GRANDS CHAMPS", "price_per_sqm": 200.0, "date_iso": "2023-10-21", "parcelle": "772450000C0395", "addr_num": "9001"}}, {"type": "Feature", "geometry": {"type": "Point", "coordinates": [2.97512, 48.430511]}, "properties": {"year": 2023, "valeur_fonciere": 18000.0, "type_local": null, "surface_reelle_bati": null, "nombre_pieces_principales": null, "adresse_nom_voie": "CHAMPAUBERT", "price_per_sqm": null, "date_iso": "2023-10-21", "parcelle": "772450000C0397", "addr_num": ""}}, {"type": "Feature", "geometry": {"type": "Point", "coordinates": [2.975258, 48.430515]}, "properties": {"year": 2023, "valeur_fonciere": 18000.0, "type_local": null, "surface_reelle_bati": null, "nombre_pieces_principales": null, "adresse_nom_voie": "CHAMPAUBERT", "price_per_sqm": null, "date_iso": "2023-10-21", "parcelle": "772450000C0415", "addr_num": ""}}, {"type": "Feature", "geometry": {"type": "Point", "coordinates": [2.975247, 48.430612]}, "properties": {"year": 2023, "valeur_fonciere": 18000.0, "type_local": null, "surface_reelle_bati": null, "nombre_pieces_principales": null, "adresse_nom_voie": "CHAMPAUBERT", "price_per_sqm": null, "date_iso": "2023-10-21", "parcelle": "772450000C0416", "addr_num": ""}}, {"type": "Feature", "geometry": {"type": "Point", "coordinates": [2.998162, 48.43309]}, "properties": {"year": 2023, "valeur_fonciere": 202850.0, "type_local": "Maison", "surface_reelle_bati": 88.0, "nombre_pieces_principales": 4.0, "adresse_nom_voie": "CHE DE MAULNY A SALINS", "price_per_sqm": 2305.1136363636365, "date_iso": "2023-12-28", "parcelle": "772450000B1053", "addr_num": "1"}}, {"type": "Feature", "geometry": {"type": "Point", "coordinates": [2.964478, 48.471709]}, "properties": {"year": 2023, "valeur_fonciere": 440000.0, "type_local": null, "surface_reelle_bati": null, "nombre_pieces_principales": null, "adresse_nom_voie": "LA NOUE", "price_per_sqm": null, "date_iso": "2023-12-21", "parcelle": "772450000A0043", "addr_num": ""}}, {"type": "Feature", "geometry": {"type": "Point", "coordinates": [2.964863, 48.471723]}, "properties": {"year": 2023, "valeur_fonciere": 440000.0, "type_local": "Dépendance", "surface_reelle_bati": null, "nombre_pieces_principales": 0.0, "adresse_nom_voie": "CHE DE COUTENCON", "price_per_sqm": null, "date_iso": "2023-12-21", "parcelle": "772450000A0044", "addr_num": "5129"}}, {"type": "Feature", "geometry": {"type": "Point", "coordinates": [2.964863, 48.471723]}, "properties": {"year": 2023, "valeur_fonciere": 440000.0, "type_local": "Maison", "surface_reelle_bati": 210.0, "nombre_pieces_principales": 7.0, "adresse_nom_voie": "CHE DE COUTENCON", "price_per_sqm": 2095.2380952380954, "date_iso": "2023-12-21", "parcelle": "772450000A0044", "addr_num": "5129"}}, {"type": "Feature", "geometry": {"type": "Point", "coordinates": [2.964968, 48.471601]}, "properties": {"year": 2023, "valeur_fonciere": 440000.0, "type_local": null, "surface_reelle_bati": null, "nombre_pieces_principales": null, "adresse_nom_voie": "LA NOUE", "price_per_sqm": null, "date_iso": "2023-12-21", "parcelle": "772450000A0163", "addr_num": ""}}, {"type": "Feature", "geometry": {"type": "Point", "coordinates": [3.005994, 48.426632]}, "properties": {"year": 2023, "valeur_fonciere": 135000.0, "type_local": "Maison", "surface_reelle_bati": 103.0, "nombre_pieces_principales": 5.0, "adresse_nom_voie": "LA LONGUE RAIE", "price_per_sqm": 1310.6796116504854, "date_iso": "2023-12-28", "parcelle": "77245000ZD0967", "addr_num": "5139"}}, {"type": "Feature", "geometry": {"type": "Point", "coordinates": [3.005994, 48.426632]}, "properties": {"year": 2023, "valeur_fonciere": 135000.0, "type_local": "Dépendance", "surface_reelle_bati": null, "nombre_pieces_principales": 0.0, "adresse_nom_voie": "LA LONGUE RAIE", "price_per_sqm": null, "date_iso": "2023-12-28", "parcelle": "77245000ZD0967", "addr_num": "5139"}}, {"type": "Feature", "geometry": {"type": "Point", "coordinates": [2.946228, 48.47163]}, "properties": {"year": 2024, "valeur_fonciere": 658652.7, "type_local": null, "surface_reelle_bati": null, "nombre_pieces_principales": null, "adresse_nom_voie": "LE BOIS DES GLANDS", "price_per_sqm": null, "date_iso": "2024-01-29", "parcelle": "772450000A0035", "addr_num": ""}}, {"type": "Feature", "geometry": {"type": "Point", "coordinates": [2.946228, 48.47163]}, "properties": {"year": 2024, "valeur_fonciere": 658652.7, "type_local": null, "surface_reelle_bati": null, "nombre_pieces_principales": null, "adresse_nom_voie": "LE BOIS DES GLANDS", "price_per_sqm": null, "date_iso": "2024-01-29", "parcelle": "772450000A0035", "addr_num": ""}}, {"type": "Feature", "geometry": {"type": "Point", "coordinates": [2.94656, 48.471644]}, "properties": {"year": 2024, "valeur_fonciere": 658652.7, "type_local": null, "surface_reelle_bati": null, "nombre_pieces_principales": null, "adresse_nom_voie": "LE BOIS DES GLANDS", "price_per_sqm": null, "date_iso": "2024-01-29", "parcelle": "772450000A0036", "addr_num": ""}}, {"type": "Feature", "geometry": {"type": "Point", "coordinates": [2.95187, 48.469274]}, "properties": {"year": 2024, "valeur_fonciere": 658652.7, "type_local": null, "surface_reelle_bati": null, "nombre_pieces_principales": null, "adresse_nom_voie": "LES LARRIS", "price_per_sqm": null, "date_iso": "2024-01-29", "parcelle": "772450000A0040", "addr_num": ""}}, {"type": "Feature", "geometry": {"type": "Point", "coordinates": [2.95187, 48.469274]}, "properties": {"year": 2024, "valeur_fonciere": 658652.7, "type_local": null, "surface_reelle_bati": null, "nombre_pieces_principales": null, "adresse_nom_voie": "LES LARRIS", "price_per_sqm": null, "date_iso": "2024-01-29", "parcelle": "772450000A0040", "addr_num": ""}}, {"type": "Feature", "geometry": {"type": "Point", "coordinates": [2.998334, 48.433993]}, "properties": {"year": 2024, "valeur_fonciere": 4632.0, "type_local": null, "surface_reelle_bati": null, "nombre_pieces_principales": null, "adresse_nom_voie": "MAULNY", "price_per_sqm": null, "date_iso": "2024-04-18", "parcelle": "77245000ZD0973", "addr_num": ""}}, {"type": "Feature", "geometry": {"type": "Point", "coordinates": [2.999059, 48.434852]}, "properties": {"year": 2024, "valeur_fonciere": 175000.0, "type_local": "Dépendance", "surface_reelle_bati": null, "nombre_pieces_principales": 0.0, "adresse_nom_voie": "MAULNY", "price_per_sqm": null, "date_iso": "2024-06-15", "parcelle": "772450000B0892", "addr_num": "5135"}}, {"type": "Feature", "geometry": {"type": "Point", "coordinates": [2.999059, 48.434852]}, "properties": {"year": 2024, "valeur_fonciere": 175000.0, "type_local": "Maison", "surface_reelle_bati": 73.0, "nombre_pieces_principales": 4.0, "adresse_nom_voie": "MAULNY", "price_per_sqm": 2397.2602739726026, "date_iso": "2024-06-15", "parcelle": "772450000B0892", "addr_num": "5135"}}, {"type": "Feature", "geometry": {"type": "Point", "coordinates": [2.999059, 48.434852]}, "properties": {"year": 2024, "valeur_fonciere": 175000.0, "type_local": "Dépendance", "surface_reelle_bati": null, "nombre_pieces_principales": 0.0, "adresse_nom_voie": "MAULNY", "price_per_sqm": null, "date_iso": "2024-06-15", "parcelle": "772450000B0892", "addr_num": "5135"}}, {"type": "Feature", "geometry": {"type": "Point", "coordinates": [2.999059, 48.434852]}, "properties": {"year": 2024, "valeur_fonciere": 175000.0, "type_local": "Maison", "surface_reelle_bati": 73.0, "nombre_pieces_principales": 4.0, "adresse_nom_voie": "MAULNY", "price_per_sqm": 2397.2602739726026, "date_iso": "2024-06-15", "parcelle": "772450000B0892", "addr_num": "5135"}}, {"type": "Feature", "geometry": {"type": "Point", "coordinates": [2.994598, 48.424907]}, "properties": {"year": 2024, "valeur_fonciere": 343300.0, "type_local": "Dépendance", "surface_reelle_bati": null, "nombre_pieces_principales": 0.0, "adresse_nom_voie": "RUE SAINT LAURENT", "price_per_sqm": null, "date_iso": "2024-08-09", "parcelle": "772450000B0423", "addr_num": "17"}}, {"type": "Feature", "geometry": {"type": "Point", "coordinates": [2.994598, 48.424907]}, "properties": {"year": 2024, "valeur_fonciere": 343300.0, "type_local": "Maison", "surface_reelle_bati": 168.0, "nombre_pieces_principales": 3.0, "adresse_nom_voie": "RUE SAINT LAURENT", "price_per_sqm": 2043.452380952381, "date_iso": "2024-08-09", "parcelle": "772450000B0423", "addr_num": "17"}}, {"type": "Feature", "geometry": {"type": "Point", "coordinates": [2.994542, 48.424552]}, "properties": {"year": 2024, "valeur_fonciere": 343300.0, "type_local": null, "surface_reelle_bati": null, "nombre_pieces_principales": null, "adresse_nom_voie": "LAVAL", "price_per_sqm": null, "date_iso": "2024-08-09", "parcelle": "772450000B1043", "addr_num": ""}}, {"type": "Feature", "geometry": {"type": "Point", "coordinates": [3.003802, 48.417277]}, "properties": {"year": 2024, "valeur_fonciere": 237000.0, "type_local": "Maison", "surface_reelle_bati": 144.0, "nombre_pieces_principales": 6.0, "adresse_nom_voie": "RUE DE L AIGLON", "price_per_sqm": 1645.8333333333333, "date_iso": "2024-10-26", "parcelle": "772450000B0881", "addr_num": "11"}}, {"type": "Feature", "geometry": {"type": "Point", "coordinates": [2.998372, 48.416977]}, "properties": {"year": 2024, "valeur_fonciere": 445000.0, "type_local": null, "surface_reelle_bati": null, "nombre_pieces_principales": null, "adresse_nom_voie": "LA CHARITE", "price_per_sqm": null, "date_iso": "2024-10-26", "parcelle": "772450000B0954", "addr_num": ""}}, {"type": "Feature", "geometry": {"type": "Point", "coordinates": [2.998372, 48.416977]}, "properties": {"year": 2024, "valeur_fonciere": 445000.0, "type_local": null, "surface_reelle_bati": null, "nombre_pieces_principales": null, "adresse_nom_voie": "LA CHARITE", "price_per_sqm": null, "date_iso": "2024-10-26", "parcelle": "772450000B0954", "addr_num": ""}}, {"type": "Feature", "geometry": {"type": "Point", "coordinates": [2.99905, 48.416928]}, "properties": {"year": 2024, "valeur_fonciere": 445000.0, "type_local": "Maison", "surface_reelle_bati": 168.0, "nombre_pieces_principales": 6.0, "adresse_nom_voie": "RUE DE L ECOLE", "price_per_sqm": 2648.809523809524, "date_iso": "2024-10-26", "parcelle": "772450000B0956", "addr_num": "5142"}}, {"type": "Feature", "geometry": {"type": "Point", "coordinates": [2.99905, 48.416928]}, "properties": {"year": 2024, "valeur_fonciere": 445000.0, "type_local": "Maison", "surface_reelle_bati": 168.0, "nombre_pieces_principales": 6.0, "adresse_nom_voie": "RUE DE L ECOLE", "price_per_sqm": 2648.809523809524, "date_iso": "2024-10-26", "parcelle": "772450000B0956", "addr_num": "5142"}}, {"type": "Feature", "geometry": {"type": "Point", "coordinates": [2.999227, 48.417322]}, "properties": {"year": 2024, "valeur_fonciere": 445000.0, "type_local": null, "surface_reelle_bati": null, "nombre_pieces_principales": null, "adresse_nom_voie": "LA CHARITE", "price_per_sqm": null, "date_iso": "2024-10-26", "parcelle": "772450000B0999", "addr_num": ""}}, {"type": "Feature", "geometry": {"type": "Point", "coordinates": [2.998899, 48.417704]}, "properties": {"year": 2024, "valeur_fonciere": 445000.0, "type_local": null, "surface_reelle_bati": null, "nombre_pieces_principales": null, "adresse_nom_voie": "LA CHARITE", "price_per_sqm": null, "date_iso": "2024-10-26", "parcelle": "772450000B1092", "addr_num": ""}}, {"type": "Feature", "geometry": {"type": "Point", "coordinates": [2.998767, 48.41733]}, "properties": {"year": 2024, "valeur_fonciere": 445000.0, "type_local": null, "surface_reelle_bati": null, "nombre_pieces_principales": null, "adresse_nom_voie": "LA CHARITE", "price_per_sqm": null, "date_iso": "2024-10-26", "parcelle": "772450000B1093", "addr_num": ""}}, {"type": "Feature", "geometry": {"type": "Point", "coordinates": [2.981885, 48.429517]}, "properties": {"year": 2025, "valeur_fonciere": 2200.0, "type_local": null, "surface_reelle_bati": null, "nombre_pieces_principales": null, "adresse_nom_voie": "LES HAIES BRULEES", "price_per_sqm": null, "date_iso": "2025-01-23", "parcelle": "77245000ZC0082", "addr_num": ""}}, {"type": "Feature", "geometry": {"type": "Point", "coordinates": [2.982137, 48.429001]}, "properties": {"year": 2025, "valeur_fonciere": 2200.0, "type_local": null, "surface_reelle_bati": null, "nombre_pieces_principales": null, "adresse_nom_voie": "LES HAIES BRULEES", "price_per_sqm": null, "date_iso": "2025-01-23", "parcelle": "77245000ZC0084", "addr_num": ""}}, {"type": "Feature", "geometry": {"type": "Point", "coordinates": [3.003972, 48.41818]}, "properties": {"year": 2025, "valeur_fonciere": 170000.0, "type_local": "Maison", "surface_reelle_bati": 109.0, "nombre_pieces_principales": 5.0, "adresse_nom_voie": "RUE GRANDE DU BUISSON", "price_per_sqm": 1559.633027522936, "date_iso": "2025-04-29", "parcelle": "772450000B1065", "addr_num": "39"}}, {"type": "Feature", "geometry": {"type": "Point", "coordinates": [3.003972, 48.41818]}, "properties": {"year": 2025, "valeur_fonciere": 170000.0, "type_local": "Maison", "surface_reelle_bati": 109.0, "nombre_pieces_principales": 5.0, "adresse_nom_voie": "RUE GRANDE DU BUISSON", "price_per_sqm": 1559.633027522936, "date_iso": "2025-04-29", "parcelle": "772450000B1065", "addr_num": "39"}}, {"type": "Feature", "geometry": {"type": "Point", "coordinates": [3.001694, 48.417377]}, "properties": {"year": 2025, "valeur_fonciere": 200000.0, "type_local": "Maison", "surface_reelle_bati": 110.0, "nombre_pieces_principales": 5.0, "adresse_nom_voie": "RUE GRANDE DU BUISSON", "price_per_sqm": 1818.1818181818182, "date_iso": "2025-05-24", "parcelle": "772450000B0784", "addr_num": "22"}}, {"type": "Feature", "geometry": {"type": "Point", "coordinates": [3.001567, 48.417178]}, "properties": {"year": 2025, "valeur_fonciere": 200000.0, "type_local": null, "surface_reelle_bati": null, "nombre_pieces_principales": null, "adresse_nom_voie": "LE POT DE VINE", "price_per_sqm": null, "date_iso": "2025-05-24", "parcelle": "772450000B0785", "addr_num": ""}}, {"type": "Feature", "geometry": {"type": "Point", "coordinates": [3.002301, 48.418194]}, "properties": {"year": 2025, "valeur_fonciere": 203979.0, "type_local": "Maison", "surface_reelle_bati": 128.0, "nombre_pieces_principales": 6.0, "adresse_nom_voie": "RUE GRANDE DU BUISSON", "price_per_sqm": 1593.5859375, "date_iso": "2025-05-23", "parcelle": "77245000ZB0072", "addr_num": "23"}}, {"type": "Feature", "geometry": {"type": "Point", "coordinates": [3.002301, 48.418194]}, "properties": {"year": 2025, "valeur_fonciere": 203979.0, "type_local": "Dépendance", "surface_reelle_bati": null, "nombre_pieces_principales": 0.0, "adresse_nom_voie": "RUE GRANDE DU BUISSON", "price_per_sqm": null, "date_iso": "2025-05-23", "parcelle": "77245000ZB0072", "addr_num": "23"}}, {"type": "Feature", "geometry": {"type": "Point", "coordinates": [3.002301, 48.418194]}, "properties": {"year": 2025, "valeur_fonciere": 203979.0, "type_local": "Maison", "surface_reelle_bati": 128.0, "nombre_pieces_principales": 6.0, "adresse_nom_voie": "RUE GRANDE DU BUISSON", "price_per_sqm": 1593.5859375, "date_iso": "2025-05-23", "parcelle": "77245000ZB0072", "addr_num": "23"}}, {"type": "Feature", "geometry": {"type": "Point", "coordinates": [3.002301, 48.418194]}, "properties": {"year": 2025, "valeur_fonciere": 203979.0, "type_local": "Dépendance", "surface_reelle_bati": null, "nombre_pieces_principales": 0.0, "adresse_nom_voie": "RUE GRANDE DU BUISSON", "price_per_sqm": null, "date_iso": "2025-05-23", "parcelle": "77245000ZB0072", "addr_num": "23"}}, {"type": "Feature", "geometry": {"type": "Point", "coordinates": [2.997162, 48.423905]}, "properties": {"year": 2025, "valeur_fonciere": 167000.0, "type_local": null, "surface_reelle_bati": null, "nombre_pieces_principales": null, "adresse_nom_voie": "RUE SAINT LAURENT", "price_per_sqm": null, "date_iso": "2025-06-28", "parcelle": "772450000B1009", "addr_num": ""}}, {"type": "Feature", "geometry": {"type": "Point", "coordinates": [2.99728, 48.423899]}, "properties": {"year": 2025, "valeur_fonciere": 167000.0, "type_local": "Maison", "surface_reelle_bati": 119.0, "nombre_pieces_principales": 4.0, "adresse_nom_voie": "RUE SAINT LAURENT", "price_per_sqm": 1403.361344537815, "date_iso": "2025-06-28", "parcelle": "772450000B1010", "addr_num": "5"}}, {"type": "Feature", "geometry": {"type": "Point", "coordinates": [2.997402, 48.423793]}, "properties": {"year": 2025, "valeur_fonciere": 167000.0, "type_local": null, "surface_reelle_bati": null, "nombre_pieces_principales": null, "adresse_nom_voie": "LAVAL", "price_per_sqm": null, "date_iso": "2025-06-28", "parcelle": "772450000B1012", "addr_num": ""}}, {"type": "Feature", "geometry": {"type": "Point", "coordinates": [2.987723, 48.425503]}, "properties": {"year": 2025, "valeur_fonciere": 230000.0, "type_local": "Maison", "surface_reelle_bati": 88.0, "nombre_pieces_principales": 4.0, "adresse_nom_voie": "RUE D HEURTEBISE", "price_per_sqm": 2613.6363636363635, "date_iso": "2025-07-31", "parcelle": "77245000ZC0029", "addr_num": "27"}}, {"type": "Feature", "geometry": {"type": "Point", "coordinates": [2.987723, 48.425503]}, "properties": {"year": 2025, "valeur_fonciere": 230000.0, "type_local": "Dépendance", "surface_reelle_bati": null, "nombre_pieces_principales": 0.0, "adresse_nom_voie": "RUE D HEURTEBISE", "price_per_sqm": null, "date_iso": "2025-07-31", "parcelle": "77245000ZC0029", "addr_num": "27"}}, {"type": "Feature", "geometry": {"type": "Point", "coordinates": [2.987723, 48.425503]}, "properties": {"year": 2025, "valeur_fonciere": 230000.0, "type_local": "Dépendance", "surface_reelle_bati": null, "nombre_pieces_principales": 0.0, "adresse_nom_voie": "RUE D HEURTEBISE", "price_per_sqm": null, "date_iso": "2025-07-31", "parcelle": "77245000ZC0029", "addr_num": "27"}}, {"type": "Feature", "geometry": {"type": "Point", "coordinates": [2.987723, 48.425503]}, "properties": {"year": 2025, "valeur_fonciere": 230000.0, "type_local": "Maison", "surface_reelle_bati": 88.0, "nombre_pieces_principales": 4.0, "adresse_nom_voie": "RUE D HEURTEBISE", "price_per_sqm": 2613.6363636363635, "date_iso": "2025-07-31", "parcelle": "77245000ZC0029", "addr_num": "27"}}, {"type": "Feature", "geometry": {"type": "Point", "coordinates": [2.987532, 48.425477]}, "properties": {"year": 2025, "valeur_fonciere": 230000.0, "type_local": null, "surface_reelle_bati": null, "nombre_pieces_principales": null, "adresse_nom_voie": "LES FOURNEAUX", "price_per_sqm": null, "date_iso": "2025-07-31", "parcelle": "77245000ZC0109", "addr_num": ""}}, {"type": "Feature", "geometry": {"type": "Point", "coordinates": [2.987532, 48.425477]}, "properties": {"year": 2025, "valeur_fonciere": 230000.0, "type_local": null, "surface_reelle_bati": null, "nombre_pieces_principales": null, "adresse_nom_voie": "LES FOURNEAUX", "price_per_sqm": null, "date_iso": "2025-07-31", "parcelle": "77245000ZC0109", "addr_num": ""}}, {"type": "Feature", "geometry": {"type": "Point", "coordinates": [2.987934, 48.424675]}, "properties": {"year": 2025, "valeur_fonciere": 240000.0, "type_local": null, "surface_reelle_bati": null, "nombre_pieces_principales": null, "adresse_nom_voie": "HEURTEBISE", "price_per_sqm": null, "date_iso": "2025-08-05", "parcelle": "772450000C0031", "addr_num": ""}}, {"type": "Feature", "geometry": {"type": "Point", "coordinates": [2.987912, 48.425334]}, "properties": {"year": 2025, "valeur_fonciere": 240000.0, "type_local": "Dépendance", "surface_reelle_bati": null, "nombre_pieces_principales": 0.0, "adresse_nom_voie": "RUE D HEURTEBISE", "price_per_sqm": null, "date_iso": "2025-08-05", "parcelle": "772450000C0032", "addr_num": "25"}}, {"type": "Feature", "geometry": {"type": "Point", "coordinates": [2.987912, 48.425334]}, "properties": {"year": 2025, "valeur_fonciere": 240000.0, "type_local": "Dépendance", "surface_reelle_bati": null, "nombre_pieces_principales": 0.0, "adresse_nom_voie": "RUE D HEURTEBISE", "price_per_sqm": null, "date_iso": "2025-08-05", "parcelle": "772450000C0032", "addr_num": "25"}}, {"type": "Feature", "geometry": {"type": "Point", "coordinates": [2.987912, 48.425334]}, "properties": {"year": 2025, "valeur_fonciere": 240000.0, "type_local": "Maison", "surface_reelle_bati": 75.0, "nombre_pieces_principales": 4.0, "adresse_nom_voie": "RUE D HEURTEBISE", "price_per_sqm": 3200.0, "date_iso": "2025-08-05", "parcelle": "772450000C0032", "addr_num": "25"}}, {"type": "Feature", "geometry": {"type": "Point", "coordinates": [2.987912, 48.425334]}, "properties": {"year": 2025, "valeur_fonciere": 240000.0, "type_local": "Maison", "surface_reelle_bati": 75.0, "nombre_pieces_principales": 4.0, "adresse_nom_voie": "RUE D HEURTEBISE", "price_per_sqm": 3200.0, "date_iso": "2025-08-05", "parcelle": "772450000C0032", "addr_num": "25"}}, {"type": "Feature", "geometry": {"type": "Point", "coordinates": [2.995872, 48.434377]}, "properties": {"year": 2025, "valeur_fonciere": 5000.0, "type_local": null, "surface_reelle_bati": null, "nombre_pieces_principales": null, "adresse_nom_voie": "MAULNY", "price_per_sqm": null, "date_iso": "2025-09-20", "parcelle": "772450000B1006", "addr_num": ""}}, {"type": "Feature", "geometry": {"type": "Point", "coordinates": [2.998266, 48.418183]}, "properties": {"year": 2025, "valeur_fonciere": 80000.0, "type_local": null, "surface_reelle_bati": null, "nombre_pieces_principales": null, "adresse_nom_voie": "LES LATEUX", "price_per_sqm": null, "date_iso": "2025-09-20", "parcelle": "77245000ZB0068", "addr_num": ""}}, {"type": "Feature", "geometry": {"type": "Point", "coordinates": [3.004055, 48.419032]}, "properties": {"year": 2025, "valeur_fonciere": 208000.0, "type_local": null, "surface_reelle_bati": null, "nombre_pieces_principales": null, "adresse_nom_voie": "RUE GRANDE DU BUISSON", "price_per_sqm": null, "date_iso": "2025-10-28", "parcelle": "772450000B0812", "addr_num": ""}}, {"type": "Feature", "geometry": {"type": "Point", "coordinates": [3.004009, 48.418951]}, "properties": {"year": 2025, "valeur_fonciere": 208000.0, "type_local": "Maison", "surface_reelle_bati": 91.0, "nombre_pieces_principales": 4.0, "adresse_nom_voie": "RUE GRANDE DU BUISSON", "price_per_sqm": 2285.714285714286, "date_iso": "2025-10-28", "parcelle": "772450000B0815", "addr_num": "41"}}, {"type": "Feature", "geometry": {"type": "Point", "coordinates": [3.004009, 48.418951]}, "properties": {"year": 2025, "valeur_fonciere": 208000.0, "type_local": "Maison", "surface_reelle_bati": 91.0, "nombre_pieces_principales": 4.0, "adresse_nom_voie": "RUE GRANDE DU BUISSON", "price_per_sqm": 2285.714285714286, "date_iso": "2025-10-28", "parcelle": "772450000B0815", "addr_num": "41"}}, {"type": "Feature", "geometry": {"type": "Point", "coordinates": [3.001994, 48.417119]}, "properties": {"year": 2025, "valeur_fonciere": 245000.0, "type_local": null, "surface_reelle_bati": null, "nombre_pieces_principales": null, "adresse_nom_voie": "LE POT DE VINE", "price_per_sqm": null, "date_iso": "2025-10-30", "parcelle": "772450000B0787", "addr_num": ""}}, {"type": "Feature", "geometry": {"type": "Point", "coordinates": [3.001992, 48.417423]}, "properties": {"year": 2025, "valeur_fonciere": 245000.0, "type_local": "Maison", "surface_reelle_bati": 130.0, "nombre_pieces_principales": 7.0, "adresse_nom_voie": "RUE GRANDE DU BUISSON", "price_per_sqm": 1884.6153846153845, "date_iso": "2025-10-30", "parcelle": "772450000B0788", "addr_num": "24"}}, {"type": "Feature", "geometry": {"type": "Point", "coordinates": [2.988213, 48.425357]}, "properties": {"year": 2025, "valeur_fonciere": 3600.0, "type_local": null, "surface_reelle_bati": null, "nombre_pieces_principales": null, "adresse_nom_voie": "HEURTEBISE", "price_per_sqm": null, "date_iso": "2025-11-07", "parcelle": "772450000C0029", "addr_num": ""}}, {"type": "Feature", "geometry": {"type": "Point", "coordinates": [2.988329, 48.424672]}, "properties": {"year": 2025, "valeur_fonciere": 3600.0, "type_local": null, "surface_reelle_bati": null, "nombre_pieces_principales": null, "adresse_nom_voie": "HEURTEBISE", "price_per_sqm": null, "date_iso": "2025-11-07", "parcelle": "772450000C0030", "addr_num": ""}}, {"type": "Feature", "geometry": {"type": "Point", "coordinates": [2.995044, 48.424832]}, "properties": {"year": 2025, "valeur_fonciere": 80000.0, "type_local": null, "surface_reelle_bati": null, "nombre_pieces_principales": null, "adresse_nom_voie": "LE VILLAGE", "price_per_sqm": null, "date_iso": "2025-10-30", "parcelle": "772450000B0428", "addr_num": ""}}, {"type": "Feature", "geometry": {"type": "Point", "coordinates": [2.995033, 48.424416]}, "properties": {"year": 2025, "valeur_fonciere": 80000.0, "type_local": null, "surface_reelle_bati": null, "nombre_pieces_principales": null, "adresse_nom_voie": "LAVAL", "price_per_sqm": null, "date_iso": "2025-10-30", "parcelle": "772450000B0430", "addr_num": ""}}, {"type": "Feature", "geometry": {"type": "Point", "coordinates": [2.995193, 48.424611]}, "properties": {"year": 2025, "valeur_fonciere": 80000.0, "type_local": null, "surface_reelle_bati": null, "nombre_pieces_principales": null, "adresse_nom_voie": "LAVAL", "price_per_sqm": null, "date_iso": "2025-10-30", "parcelle": "772450000B0852", "addr_num": ""}}, {"type": "Feature", "geometry": {"type": "Point", "coordinates": [2.995011, 48.424929]}, "properties": {"year": 2025, "valeur_fonciere": 80000.0, "type_local": "Dépendance", "surface_reelle_bati": null, "nombre_pieces_principales": 0.0, "adresse_nom_voie": "RUE SAINT LAURENT", "price_per_sqm": null, "date_iso": "2025-10-30", "parcelle": "772450000B1069", "addr_num": "13"}}, {"type": "Feature", "geometry": {"type": "Point", "coordinates": [2.995011, 48.424929]}, "properties": {"year": 2025, "valeur_fonciere": 80000.0, "type_local": "Maison", "surface_reelle_bati": 38.0, "nombre_pieces_principales": 2.0, "adresse_nom_voie": "RUE SAINT LAURENT", "price_per_sqm": 2105.2631578947367, "date_iso": "2025-10-30", "parcelle": "772450000B1069", "addr_num": "13"}}, {"type": "Feature", "geometry": {"type": "Point", "coordinates": [2.995089, 48.424749]}, "properties": {"year": 2025, "valeur_fonciere": 80000.0, "type_local": null, "surface_reelle_bati": null, "nombre_pieces_principales": null, "adresse_nom_voie": "RUE SAINT LAURENT", "price_per_sqm": null, "date_iso": "2025-10-30", "parcelle": "772450000B1070", "addr_num": "13"}}, {"type": "Feature", "geometry": {"type": "Point", "coordinates": [3.006021, 48.425657]}, "properties": {"year": 2025, "valeur_fonciere": 48037.03, "type_local": null, "surface_reelle_bati": null, "nombre_pieces_principales": null, "adresse_nom_voie": "LA LONGUE RAIE", "price_per_sqm": null, "date_iso": "2025-11-20", "parcelle": "772450000B0355", "addr_num": ""}}, {"type": "Feature", "geometry": {"type": "Point", "coordinates": [3.006021, 48.425657]}, "properties": {"year": 2025, "valeur_fonciere": 48037.03, "type_local": null, "surface_reelle_bati": null, "nombre_pieces_principales": null, "adresse_nom_voie": "LA LONGUE RAIE", "price_per_sqm": null, "date_iso": "2025-11-20", "parcelle": "772450000B0355", "addr_num": ""}}, {"type": "Feature", "geometry": {"type": "Point", "coordinates": [3.005229, 48.42568]}, "properties": {"year": 2025, "valeur_fonciere": 48037.03, "type_local": null, "surface_reelle_bati": null, "nombre_pieces_principales": null, "adresse_nom_voie": "LA LONGUE RAIE", "price_per_sqm": null, "date_iso": "2025-11-20", "parcelle": "772450000B0837", "addr_num": ""}}, {"type": "Feature", "geometry": {"type": "Point", "coordinates": [3.004534, 48.425481]}, "properties": {"year": 2025, "valeur_fonciere": 48037.03, "type_local": null, "surface_reelle_bati": null, "nombre_pieces_principales": null, "adresse_nom_voie": "LA LONGUE RAIE", "price_per_sqm": null, "date_iso": "2025-11-20", "parcelle": "77245000ZD0062", "addr_num": ""}}, {"type": "Feature", "geometry": {"type": "Point", "coordinates": [3.004289, 48.426037]}, "properties": {"year": 2025, "valeur_fonciere": 48037.03, "type_local": null, "surface_reelle_bati": null, "nombre_pieces_principales": null, "adresse_nom_voie": "LA LONGUE RAIE", "price_per_sqm": null, "date_iso": "2025-11-20", "parcelle": "77245000ZD0064", "addr_num": ""}}, {"type": "Feature", "geometry": {"type": "Point", "coordinates": [3.000706, 48.41906]}, "properties": {"year": 2025, "valeur_fonciere": 98759.03, "type_local": null, "surface_reelle_bati": null, "nombre_pieces_principales": null, "adresse_nom_voie": "LES MOUILLERES", "price_per_sqm": null, "date_iso": "2025-11-20", "parcelle": "77245000ZB0030", "addr_num": ""}}, {"type": "Feature", "geometry": {"type": "Point", "coordinates": [3.002602, 48.420235]}, "properties": {"year": 2025, "valeur_fonciere": 98759.03, "type_local": null, "surface_reelle_bati": null, "nombre_pieces_principales": null, "adresse_nom_voie": "LES MOUILLERES", "price_per_sqm": null, "date_iso": "2025-11-20", "parcelle": "77245000ZB0041", "addr_num": ""}}, {"type": "Feature", "geometry": {"type": "Point", "coordinates": [2.981539, 48.472522]}, "properties": {"year": 2025, "valeur_fonciere": 17500.0, "type_local": null, "surface_reelle_bati": null, "nombre_pieces_principales": null, "adresse_nom_voie": "L ETANG DE FRENIERES", "price_per_sqm": null, "date_iso": "2025-12-09", "parcelle": "772450000A0094", "addr_num": ""}}]}