{"type": "FeatureCollection", "features": [{"type": "Feature", "geometry": {"type": "Point", "coordinates": [2.731559, 48.620064]}, "properties": {"street_name": "RUE GRANDE", "sales": 26, "sales_appt": 3, "sales_maison": 7, "median_price": 182500.0, "median_price_per_sqm": 2804.166666666667, "turnover_score": 100.0, "turnover_rank": 1, "first_year": 2021, "last_year": 2025, "years_active": 5}}, {"type": "Feature", "geometry": {"type": "Point", "coordinates": [2.729529, 48.620817]}, "properties": {"street_name": "RUE DES FUSEES", "sales": 24, "sales_appt": 5, "sales_maison": 7, "median_price": 130000.0, "median_price_per_sqm": 3013.8888888888887, "turnover_score": 92.3, "turnover_rank": 2, "first_year": 2021, "last_year": 2025, "years_active": 4}}, {"type": "Feature", "geometry": {"type": "Point", "coordinates": [2.732768, 48.621607]}, "properties": {"street_name": "RUE DE LA MAISONNERAIE", "sales": 15, "sales_appt": 0, "sales_maison": 11, "median_price": 325000.0, "median_price_per_sqm": 3548.3870967741937, "turnover_score": 57.7, "turnover_rank": 3, "first_year": 2021, "last_year": 2025, "years_active": 4}}, {"type": "Feature", "geometry": {"type": "Point", "coordinates": [2.72917, 48.618019000000004]}, "properties": {"street_name": "RUE DE L ISLE", "sales": 14, "sales_appt": 0, "sales_maison": 9, "median_price": 320800.0, "median_price_per_sqm": 3489.5833333333335, "turnover_score": 53.8, "turnover_rank": 4, "first_year": 2021, "last_year": 2025, "years_active": 4}}, {"type": "Feature", "geometry": {"type": "Point", "coordinates": [2.732803, 48.619313]}, "properties": {"street_name": "RUE DE LA PROCESSION", "sales": 7, "sales_appt": 0, "sales_maison": 7, "median_price": 274300.0, "median_price_per_sqm": 2829.816513761468, "turnover_score": 26.9, "turnover_rank": 5, "first_year": 2021, "last_year": 2025, "years_active": 3}}, {"type": "Feature", "geometry": {"type": "Point", "coordinates": [2.727308, 48.620735499999995]}, "properties": {"street_name": "RUE DE LA NOUETTE", "sales": 6, "sales_appt": 0, "sales_maison": 3, "median_price": 225000.0, "median_price_per_sqm": 2556.3380281690143, "turnover_score": 23.1, "turnover_rank": 6, "first_year": 2021, "last_year": 2025, "years_active": 3}}, {"type": "Feature", "geometry": {"type": "Point", "coordinates": [2.730814, 48.620143]}, "properties": {"street_name": "LE VILLAGE DE CHAMPDEUIL", "sales": 5, "sales_appt": 0, "sales_maison": 0, "median_price": 160000.0, "median_price_per_sqm": null, "turnover_score": 19.2, "turnover_rank": 7, "first_year": 2022, "last_year": 2025, "years_active": 2}}, {"type": "Feature", "geometry": {"type": "Point", "coordinates": [2.733434, 48.620317]}, "properties": {"street_name": "RUE DE LA PAIX", "sales": 3, "sales_appt": 0, "sales_maison": 2, "median_price": 447000.0, "median_price_per_sqm": 3638.4637188208617, "turnover_score": 11.5, "turnover_rank": 8, "first_year": 2021, "last_year": 2022, "years_active": 2}}, {"type": "Feature", "geometry": {"type": "Point", "coordinates": [2.728849, 48.620167]}, "properties": {"street_name": "RUE DES VERGERS", "sales": 2, "sales_appt": 0, "sales_maison": 1, "median_price": 95700.0, "median_price_per_sqm": 1386.9565217391305, "turnover_score": 7.7, "turnover_rank": 9, "first_year": 2023, "last_year": 2023, "years_active": 1}}, {"type": "Feature", "geometry": {"type": "Point", "coordinates": [2.739324, 48.613511]}, "properties": {"street_name": "LES DEUX MARCHAIS JAMETS", "sales": 1, "sales_appt": 0, "sales_maison": 0, "median_price": 556050.0, "median_price_per_sqm": null, "turnover_score": 3.8, "turnover_rank": 10, "first_year": 2025, "last_year": 2025, "years_active": 1}}, {"type": "Feature", "geometry": {"type": "Point", "coordinates": [2.733456, 48.618861]}, "properties": {"street_name": "LE PRE FLEURI", "sales": 1, "sales_appt": 0, "sales_maison": 0, "median_price": 130000.0, "median_price_per_sqm": null, "turnover_score": 3.8, "turnover_rank": 10, "first_year": 2024, "last_year": 2024, "years_active": 1}}, {"type": "Feature", "geometry": {"type": "Point", "coordinates": [2.732342, 48.62194]}, "properties": {"street_name": "LE ROTOIR", "sales": 1, "sales_appt": 0, "sales_maison": 0, "median_price": 2800.0, "median_price_per_sqm": null, "turnover_score": 3.8, "turnover_rank": 10, "first_year": 2021, "last_year": 2021, "years_active": 1}}, {"type": "Feature", "geometry": {"type": "Point", "coordinates": [2.739273, 48.6162]}, "properties": {"street_name": "LE MARCHAIS FARVIN", "sales": 1, "sales_appt": 0, "sales_maison": 0, "median_price": 556050.0, "median_price_per_sqm": null, "turnover_score": 3.8, "turnover_rank": 10, "first_year": 2025, "last_year": 2025, "years_active": 1}}, {"type": "Feature", "geometry": {"type": "Point", "coordinates": [2.721661, 48.62237]}, "properties": {"street_name": "LES TERRES NOIRES", "sales": 1, "sales_appt": 0, "sales_maison": 0, "median_price": 26300.0, "median_price_per_sqm": null, "turnover_score": 3.8, "turnover_rank": 10, "first_year": 2021, "last_year": 2021, "years_active": 1}}, {"type": "Feature", "geometry": {"type": "Point", "coordinates": [2.733356, 48.618756]}, "properties": {"street_name": "RUE LE PRE FLEURI", "sales": 1, "sales_appt": 0, "sales_maison": 1, "median_price": 130000.0, "median_price_per_sqm": 1529.4117647058824, "turnover_score": 3.8, "turnover_rank": 10, "first_year": 2024, "last_year": 2024, "years_active": 1}}, {"type": "Feature", "geometry": {"type": "Point", "coordinates": [2.734958, 48.620095]}, "properties": {"street_name": "RUE MARCEL BONNET", "sales": 1, "sales_appt": 0, "sales_maison": 1, "median_price": 395000.0, "median_price_per_sqm": 3185.483870967742, "turnover_score": 3.8, "turnover_rank": 10, "first_year": 2024, "last_year": 2024, "years_active": 1}}]}