{"type": "FeatureCollection", "features": [{"type": "Feature", "geometry": {"type": "Polygon", "coordinates": [[[2.773431, 48.680069], [2.77318, 48.68056], [2.772827, 48.680847], [2.77297, 48.680889], [2.772586, 48.681346], [2.772273, 48.681837], [2.771987, 48.682364], [2.771806, 48.682606], [2.771112, 48.682421], [2.770835, 48.682322], [2.770275, 48.682209], [2.769771, 48.682091], [2.769247, 48.682085], [2.768825, 48.682063], [2.768757, 48.68217], [2.768181, 48.682024], [2.767846, 48.682713], [2.767657, 48.68306], [2.767303, 48.683594], [2.767064, 48.683859], [2.766556, 48.684541], [2.766236, 48.684932], [2.765953, 48.685452], [2.765776, 48.685813], [2.765643, 48.686034], [2.765486, 48.68604], [2.764647, 48.68593], [2.764124, 48.685883], [2.763013, 48.685725], [2.762245, 48.685632], [2.762037, 48.686153], [2.761143, 48.688233], [2.76104, 48.688487], [2.760234, 48.689257], [2.759859, 48.689035], [2.758442, 48.688713], [2.756824, 48.689231], [2.755213, 48.689755], [2.757151, 48.69134], [2.757227, 48.691425], [2.757262, 48.691534], [2.757935, 48.692804], [2.758271, 48.694483], [2.758695, 48.696634], [2.759824, 48.697803], [2.759255, 48.698027], [2.760019, 48.698522], [2.759614, 48.698773], [2.759355, 48.699055], [2.75921, 48.699276], [2.758743, 48.699687], [2.758756, 48.699807], [2.758958, 48.699933], [2.75922, 48.700219], [2.759408, 48.70039], [2.759713, 48.700849], [2.759793, 48.701053], [2.759938, 48.701283], [2.760528, 48.701679], [2.760887, 48.70203], [2.761175, 48.702431], [2.761352, 48.702604], [2.76149, 48.702879], [2.761535, 48.703058], [2.761745, 48.703448], [2.761903, 48.703631], [2.762039, 48.703699], [2.762466, 48.703831], [2.762999, 48.703961], [2.763264, 48.704073], [2.763571, 48.704243], [2.76372, 48.704389], [2.763941, 48.704677], [2.76408, 48.704818], [2.764437, 48.705016], [2.764819, 48.704913], [2.765217, 48.704766], [2.765661, 48.705001], [2.766127, 48.705153], [2.76652, 48.705306], [2.766725, 48.705502], [2.766822, 48.705684], [2.767343, 48.705999], [2.76791, 48.706411], [2.768346, 48.706876], [2.768736, 48.707326], [2.769155, 48.707609], [2.769436, 48.707877], [2.769599, 48.707995], [2.76995, 48.70833], [2.770299, 48.708564], [2.770604, 48.708704], [2.770827, 48.708745], [2.771431, 48.708762], [2.771956, 48.708967], [2.772145, 48.70909], [2.772629, 48.709639], [2.773049, 48.709909], [2.773377, 48.709868], [2.77368, 48.710188], [2.776371, 48.712357], [2.77693, 48.712979], [2.776929, 48.713361], [2.776958, 48.713608], [2.777205, 48.714366], [2.777422, 48.714892], [2.777443, 48.715037], [2.777538, 48.71511], [2.777662, 48.715519], [2.777873, 48.715725], [2.781101, 48.71513], [2.781732, 48.71501], [2.781949, 48.715012], [2.78237, 48.715119], [2.782803, 48.715259], [2.783258, 48.715324], [2.783988, 48.71516], [2.784394, 48.715043], [2.785725, 48.714654], [2.785121, 48.712783], [2.785425, 48.712833], [2.786261, 48.712802], [2.786813, 48.712717], [2.786118, 48.711103], [2.78768, 48.71019], [2.789324, 48.710477], [2.789448, 48.710018], [2.7915, 48.710057], [2.791742, 48.710067], [2.79226, 48.707948], [2.794928, 48.708552], [2.796078, 48.706791], [2.796849, 48.705625], [2.797889, 48.705877], [2.797919, 48.704984], [2.79798, 48.702784], [2.798074, 48.702467], [2.79804, 48.702352], [2.797279, 48.701364], [2.797135, 48.701335], [2.796984, 48.701124], [2.796441, 48.700213], [2.796285, 48.700023], [2.796094, 48.699945], [2.795788, 48.699425], [2.795781, 48.699375], [2.795502, 48.698944], [2.795472, 48.698825], [2.795234, 48.698466], [2.794812, 48.697788], [2.794702, 48.697447], [2.794294, 48.696862], [2.795237, 48.696346], [2.796062, 48.69606], [2.796727, 48.695587], [2.797287, 48.695119], [2.797442, 48.695005], [2.79772, 48.694945], [2.797869, 48.694872], [2.798585, 48.694625], [2.799511, 48.694395], [2.800059, 48.694317], [2.80097, 48.694013], [2.80165, 48.693833], [2.802746, 48.693558], [2.803685, 48.693298], [2.804196, 48.693138], [2.804243, 48.693071], [2.803787, 48.692449], [2.803099, 48.691138], [2.801734, 48.689734], [2.801624, 48.689631], [2.800311, 48.688855], [2.799751, 48.688504], [2.798993, 48.688078], [2.797909, 48.687376], [2.798514, 48.686884], [2.799471, 48.686071], [2.799933, 48.685555], [2.800238, 48.685166], [2.793571, 48.682125], [2.792963, 48.681846], [2.79074, 48.68072], [2.789439, 48.680048], [2.789671, 48.679937], [2.787911, 48.678907], [2.786182, 48.677987], [2.785579, 48.677622], [2.785243, 48.67779], [2.782848, 48.677562], [2.782655, 48.677232], [2.782613, 48.677217], [2.781947, 48.676583], [2.781801, 48.676398], [2.781041, 48.675701], [2.780878, 48.675799], [2.780606, 48.676174], [2.780563, 48.676424], [2.780568, 48.67673], [2.780621, 48.676997], [2.780618, 48.677168], [2.780461, 48.677532], [2.780338, 48.677881], [2.779648, 48.677729], [2.777502, 48.677227], [2.776823, 48.678215], [2.776573, 48.678125], [2.776264, 48.678318], [2.776059, 48.67856], [2.775599, 48.679173], [2.775183, 48.679626], [2.774824, 48.679995], [2.774479, 48.680245], [2.774305, 48.68028], [2.773431, 48.680069]]]}, "properties": {"code_iris": "772540000", "nom_iris": "Liverdy-en-Brie (commune entière)", "type_iris": "Z", "lat": 48.6957, "lng": 2.7797, "dvf_sales_total": 340, "dvf_sales_appt": 0, "dvf_sales_maison": 0, "dvf_median_price": 222000.0, "dvf_median_ppsqm": 3154.7619047619046, "dvf_by_year": "[{\"year\": 2021, \"sales\": 80, \"median_price\": 274500.0}, {\"year\": 2022, \"sales\": 70, \"median_price\": 222000.0}, {\"year\": 2023, \"sales\": 75, \"median_price\": 189000.0}, {\"year\": 2024, \"sales\": 49, \"median_price\": 172000.0}, {\"year\": 2025, \"sales\": 66, \"median_price\": 245500.0}]", "population": 1410, "n_log": null, "n_rp": null, "pct_proprio": null, "pct_hlm": null, "pct_appart": null, "pct_cadres": null, "pct_bac5p": null, "pct_etrangers": null, "pct_0_14": null, "pct_65p": null, "bpe_total": null, "bpe_commerces": null, "bpe_enseignement": null, "bpe_sante": null, "dpe": null, "attractivity_score": null, "rank_attractivity_score": null, "rank_total_attractivity_score": 1, "commune_avg": null, "is_stub": true}}]}