{"type": "FeatureCollection", "features": [{"type": "Feature", "geometry": {"type": "Polygon", "coordinates": [[[2.719117, 49.047781], [2.717986, 49.048106], [2.718029, 49.048349], [2.717681, 49.048624], [2.717146, 49.049355], [2.717005, 49.049454], [2.715011, 49.050779], [2.716169, 49.052677], [2.71495, 49.053035], [2.714731, 49.05359], [2.715353, 49.053792], [2.715497, 49.053969], [2.715775, 49.054408], [2.716065, 49.05495], [2.716267, 49.054903], [2.72007, 49.054055], [2.720431, 49.053982], [2.722052, 49.053607], [2.725089, 49.052927], [2.72721, 49.05612], [2.729222, 49.059135], [2.730359, 49.058689], [2.731535, 49.058292], [2.732639, 49.057928], [2.733673, 49.057597], [2.733903, 49.057486], [2.73407, 49.058018], [2.734721, 49.06017], [2.734823, 49.060527], [2.735119, 49.06053], [2.735926, 49.060588], [2.739174, 49.060952], [2.740289, 49.061117], [2.740459, 49.061133], [2.740896, 49.061119], [2.741522, 49.061074], [2.742482, 49.06098], [2.744964, 49.06101], [2.746417, 49.061002], [2.747212, 49.061009], [2.748354, 49.061098], [2.748966, 49.061115], [2.749776, 49.061096], [2.751808, 49.061034], [2.752592, 49.060958], [2.753187, 49.060851], [2.753794, 49.060778], [2.753998, 49.060814], [2.755101, 49.061341], [2.755305, 49.06134], [2.758647, 49.062408], [2.760964, 49.063118], [2.761773, 49.063108], [2.765074, 49.063044], [2.767546, 49.063], [2.768182, 49.062611], [2.769671, 49.062062], [2.770164, 49.062728], [2.772239, 49.062472], [2.771662, 49.061887], [2.772519, 49.06041], [2.772824, 49.059236], [2.771607, 49.05898], [2.773054, 49.057706], [2.773562, 49.057909], [2.775281, 49.05844], [2.776654, 49.058878], [2.778207, 49.059434], [2.779781, 49.059881], [2.779827, 49.059834], [2.780114, 49.059517], [2.778963, 49.05864], [2.777664, 49.057186], [2.776716, 49.056434], [2.773944, 49.054634], [2.773918, 49.054254], [2.774123, 49.05369], [2.774415, 49.052666], [2.774521, 49.052465], [2.774874, 49.05213], [2.775309, 49.051914], [2.776025, 49.0518], [2.77851, 49.051547], [2.778754, 49.051434], [2.779547, 49.051533], [2.781079, 49.051712], [2.782553, 49.051847], [2.783293, 49.051929], [2.78388, 49.052057], [2.785719, 49.049628], [2.786697, 49.048345], [2.786866, 49.048136], [2.78668, 49.047824], [2.785934, 49.047796], [2.784719, 49.047819], [2.783894, 49.047844], [2.783163, 49.047815], [2.782382, 49.047803], [2.780872, 49.047919], [2.779728, 49.047863], [2.776747, 49.047762], [2.773622, 49.047663], [2.773062, 49.047374], [2.767451, 49.044525], [2.766903, 49.044241], [2.766003, 49.043792], [2.765534, 49.043896], [2.762666, 49.043355], [2.760509, 49.042957], [2.760319, 49.043464], [2.760005, 49.043251], [2.759358, 49.042967], [2.758326, 49.042529], [2.758131, 49.042468], [2.757956, 49.042525], [2.757226, 49.0427], [2.756907, 49.042793], [2.75582, 49.043136], [2.755604, 49.043233], [2.755094, 49.043353], [2.754863, 49.043385], [2.75399, 49.043406], [2.753495, 49.043437], [2.752605, 49.043573], [2.752278, 49.043651], [2.751792, 49.043718], [2.751153, 49.043826], [2.750251, 49.04394], [2.749484, 49.044063], [2.7495, 49.044204], [2.749503, 49.044978], [2.749558, 49.045338], [2.749567, 49.045587], [2.749657, 49.046497], [2.748601, 49.046531], [2.747891, 49.04653], [2.747079, 49.04648], [2.746544, 49.046464], [2.74581, 49.046482], [2.744844, 49.046518], [2.744741, 49.046466], [2.744638, 49.045736], [2.74457, 49.045715], [2.7433, 49.045607], [2.741223, 49.045468], [2.740558, 49.045445], [2.739773, 49.045404], [2.73933, 49.045358], [2.738228, 49.045308], [2.737302, 49.045215], [2.735857, 49.045105], [2.735194, 49.045039], [2.734165, 49.045015], [2.728866, 49.044819], [2.72946, 49.046165], [2.729806, 49.047057], [2.730198, 49.04799], [2.730682, 49.049104], [2.730462, 49.049147], [2.729541, 49.049222], [2.728164, 49.049392], [2.727812, 49.049411], [2.727462, 49.049389], [2.727144, 49.049329], [2.726709, 49.049165], [2.726532, 49.049137], [2.724029, 49.049747], [2.72384, 49.049739], [2.722937, 49.049523], [2.721543, 49.049142], [2.721034, 49.048902], [2.720388, 49.048511], [2.719117, 49.047781]]]}, "properties": {"code_iris": "772730000", "nom_iris": "Marchémoret (commune entière)", "type_iris": "Z", "lat": 49.0528, "lng": 2.7508, "dvf_sales_total": 190, "dvf_sales_appt": 0, "dvf_sales_maison": 0, "dvf_median_price": 170500.0, "dvf_median_ppsqm": 3387.0967741935483, "dvf_by_year": "[{\"year\": 2021, \"sales\": 68, \"median_price\": 169000.0}, {\"year\": 2022, \"sales\": 36, \"median_price\": 294000.0}, {\"year\": 2023, \"sales\": 24, \"median_price\": 165000.0}, {\"year\": 2024, \"sales\": 35, \"median_price\": 253889.9}, {\"year\": 2025, \"sales\": 27, \"median_price\": 285000.0}]", "population": 659, "n_log": null, "n_rp": null, "pct_proprio": null, "pct_hlm": null, "pct_appart": null, "pct_cadres": null, "pct_bac5p": null, "pct_etrangers": null, "pct_0_14": null, "pct_65p": null, "bpe_total": null, "bpe_commerces": null, "bpe_enseignement": null, "bpe_sante": null, "dpe": null, "attractivity_score": null, "rank_attractivity_score": null, "rank_total_attractivity_score": 1, "commune_avg": null, "is_stub": true}}]}