{"type": "FeatureCollection", "features": [{"type": "Feature", "geometry": {"type": "Point", "coordinates": [2.859499, 48.984544]}, "properties": {"id_parcelle": "773580000B1048", "address": "27 RUE DE NEUFMONTIERS", "sales": 84, "median_price": 1950000.0, "median_price_per_sqm": 43825.757575757576, "median_rooms": 0.0, "first_sale": "2022-04-29", "last_sale": "2022-04-29"}}, {"type": "Feature", "geometry": {"type": "Point", "coordinates": [2.854859, 48.992324]}, "properties": {"id_parcelle": "77358000ZA0105", "address": "6 CHE DE LA MARE LORIN", "sales": 6, "median_price": 410000.0, "median_price_per_sqm": 4361.702127659574, "median_rooms": 4.0, "first_sale": "2021-08-31", "last_sale": "2025-04-04"}}, {"type": "Feature", "geometry": {"type": "Point", "coordinates": [2.862591, 48.985762]}, "properties": {"id_parcelle": "77358000ZD0130", "address": "9 RUE LUCIEN DUQUESNE", "sales": 6, "median_price": 555000.0, "median_price_per_sqm": 4021.7391304347825, "median_rooms": 0.0, "first_sale": "2021-07-02", "last_sale": "2021-07-02"}}, {"type": "Feature", "geometry": {"type": "Point", "coordinates": [2.858752, 48.985841]}, "properties": {"id_parcelle": "773580000B0972", "address": "18 RUE DE NEUFMONTIERS", "sales": 5, "median_price": 270000.0, "median_price_per_sqm": 2552.225063938619, "median_rooms": 0.0, "first_sale": "2022-08-27", "last_sale": "2023-05-03"}}, {"type": "Feature", "geometry": {"type": "Point", "coordinates": [2.859891, 48.986688]}, "properties": {"id_parcelle": "773580000B0870", "address": "3 PL DE LA MAIRIE", "sales": 4, "median_price": 280700.0, "median_price_per_sqm": 1651.1764705882354, "median_rooms": 0.0, "first_sale": "2021-07-27", "last_sale": "2021-07-27"}}, {"type": "Feature", "geometry": {"type": "Point", "coordinates": [2.861344, 48.987634]}, "properties": {"id_parcelle": "773580000B0929", "address": "28 GR GRANDE RUE", "sales": 4, "median_price": 355000.0, "median_price_per_sqm": 3944.4444444444443, "median_rooms": 0.0, "first_sale": "2023-06-14", "last_sale": "2023-06-14"}}, {"type": "Feature", "geometry": {"type": "Point", "coordinates": [2.86022, 48.985323]}, "properties": {"id_parcelle": "773580000B0400", "address": "12 RUE DE MEAUX", "sales": 4, "median_price": 220850.0, "median_price_per_sqm": 2300.5208333333335, "median_rooms": 0.0, "first_sale": "2025-12-23", "last_sale": "2025-12-23"}}, {"type": "Feature", "geometry": {"type": "Point", "coordinates": [2.861451, 48.98773]}, "properties": {"id_parcelle": "773580000B1062", "address": "2 RUE DE CHAMBRY", "sales": 4, "median_price": 322000.0, "median_price_per_sqm": 3220.0, "median_rooms": 1.5, "first_sale": "2021-10-20", "last_sale": "2021-10-20"}}, {"type": "Feature", "geometry": {"type": "Point", "coordinates": [2.861272, 48.987499]}, "properties": {"id_parcelle": "773580000B0930", "address": "28 GR GRANDE RUE", "sales": 4, "median_price": 272125.0, "median_price_per_sqm": 3057.5842696629215, "median_rooms": 2.5, "first_sale": "2021-07-03", "last_sale": "2025-05-20"}}, {"type": "Feature", "geometry": {"type": "Point", "coordinates": [2.862598, 48.986343]}, "properties": {"id_parcelle": "77358000ZD0040", "address": "3 RUE DE L ARPENT NOIR", "sales": 4, "median_price": 482600.0, "median_price_per_sqm": 3133.7662337662337, "median_rooms": 3.5, "first_sale": "2022-07-02", "last_sale": "2022-07-02"}}, {"type": "Feature", "geometry": {"type": "Point", "coordinates": [2.85434, 48.99254]}, "properties": {"id_parcelle": "77358000ZA0141", "address": "4 IMP DES AULNES", "sales": 4, "median_price": 157500.0, "median_price_per_sqm": 2136.7924528301887, "median_rooms": 1.0, "first_sale": "2022-02-15", "last_sale": "2023-08-04"}}, {"type": "Feature", "geometry": {"type": "Point", "coordinates": [2.864275, 48.986905]}, "properties": {"id_parcelle": "77358000ZD0143", "address": "3 RUE DE L ARPENT NOIR", "sales": 4, "median_price": 440000.0, "median_price_per_sqm": 3142.8571428571427, "median_rooms": 2.5, "first_sale": "2025-01-08", "last_sale": "2025-01-08"}}, {"type": "Feature", "geometry": {"type": "Point", "coordinates": [2.850645, 49.00282]}, "properties": {"id_parcelle": "77358000ZE0070", "address": "9001 RUE DE SENLIS", "sales": 4, "median_price": 4200000.0, "median_price_per_sqm": 2215.1898734177216, "median_rooms": 0.0, "first_sale": "2025-09-11", "last_sale": "2025-09-11"}}, {"type": "Feature", "geometry": {"type": "Point", "coordinates": [2.861005, 48.986836]}, "properties": {"id_parcelle": "773580000B0865", "address": "16 GR GRANDE RUE", "sales": 3, "median_price": 195000.0, "median_price_per_sqm": 1710.5263157894738, "median_rooms": 0.0, "first_sale": "2021-10-27", "last_sale": "2021-10-27"}}, {"type": "Feature", "geometry": {"type": "Point", "coordinates": [2.875137, 48.990246]}, "properties": {"id_parcelle": "77358000ZC0229", "address": "LE FIDELIUM", "sales": 3, "median_price": 485762.0, "median_price_per_sqm": null, "median_rooms": null, "first_sale": "2021-03-03", "last_sale": "2021-03-03"}}, {"type": "Feature", "geometry": {"type": "Point", "coordinates": [2.862795, 48.988442]}, "properties": {"id_parcelle": "773580000B0841", "address": "2 RUE DU TACOT", "sales": 2, "median_price": 252500.0, "median_price_per_sqm": 2774.7252747252746, "median_rooms": 6.0, "first_sale": "2021-04-23", "last_sale": "2021-04-23"}}, {"type": "Feature", "geometry": {"type": "Point", "coordinates": [2.853557, 48.9915]}, "properties": {"id_parcelle": "773580000A0844", "address": "35 RUE DES ACACIAS", "sales": 2, "median_price": 263000.0, "median_price_per_sqm": 2578.4313725490197, "median_rooms": 3.0, "first_sale": "2021-03-25", "last_sale": "2021-03-25"}}, {"type": "Feature", "geometry": {"type": "Point", "coordinates": [2.856158, 48.991465]}, "properties": {"id_parcelle": "773580000A0854", "address": "2 RUE DES ACACIAS", "sales": 2, "median_price": 355130.0, "median_price_per_sqm": 3699.2708333333335, "median_rooms": 3.0, "first_sale": "2021-04-01", "last_sale": "2021-04-01"}}, {"type": "Feature", "geometry": {"type": "Point", "coordinates": [2.854444, 48.991776]}, "properties": {"id_parcelle": "773580000A0861", "address": "13 RUE DES EGLANTIERS", "sales": 2, "median_price": 378600.0, "median_price_per_sqm": 3410.810810810811, "median_rooms": 5.0, "first_sale": "2022-12-21", "last_sale": "2022-12-21"}}, {"type": "Feature", "geometry": {"type": "Point", "coordinates": [2.85424, 48.983336]}, "properties": {"id_parcelle": "773580000A0743", "address": "15 RUE DE LA RES DU BOIS DE PENCH", "sales": 2, "median_price": 210000.0, "median_price_per_sqm": 2038.8349514563106, "median_rooms": 3.0, "first_sale": "2025-03-27", "last_sale": "2025-03-27"}}, {"type": "Feature", "geometry": {"type": "Point", "coordinates": [2.853418, 48.983539]}, "properties": {"id_parcelle": "773580000A0752", "address": "24 RUE DE LA RES DU BOIS DE PENCH", "sales": 2, "median_price": 305000.0, "median_price_per_sqm": 4420.289855072464, "median_rooms": 4.0, "first_sale": "2021-03-12", "last_sale": "2021-03-12"}}, {"type": "Feature", "geometry": {"type": "Point", "coordinates": [2.855378, 48.984407]}, "properties": {"id_parcelle": "773580000A0763", "address": "35 RUE DE LA RES DU BOIS DE PENCH", "sales": 2, "median_price": 190000.0, "median_price_per_sqm": 1775.7009345794393, "median_rooms": 6.0, "first_sale": "2025-03-26", "last_sale": "2025-03-26"}}, {"type": "Feature", "geometry": {"type": "Point", "coordinates": [2.856898, 48.991292]}, "properties": {"id_parcelle": "773580000A0828", "address": "3 RUE DES ACACIAS", "sales": 2, "median_price": 323000.0, "median_price_per_sqm": 3588.8888888888887, "median_rooms": 1.5, "first_sale": "2024-07-17", "last_sale": "2024-07-17"}}, {"type": "Feature", "geometry": {"type": "Point", "coordinates": [2.855576, 48.983851]}, "properties": {"id_parcelle": "773580000A0736", "address": "8 RUE DE LA RES DU BOIS DE PENCH", "sales": 2, "median_price": 199000.0, "median_price_per_sqm": 2884.057971014493, "median_rooms": 4.0, "first_sale": "2024-12-11", "last_sale": "2024-12-11"}}, {"type": "Feature", "geometry": {"type": "Point", "coordinates": [2.857118, 48.990995]}, "properties": {"id_parcelle": "773580000A0718", "address": "8 ALL DES MERISIERS", "sales": 2, "median_price": 205000.0, "median_price_per_sqm": 2091.8367346938776, "median_rooms": 2.5, "first_sale": "2022-01-19", "last_sale": "2022-01-19"}}, {"type": "Feature", "geometry": {"type": "Point", "coordinates": [2.857016, 48.989834]}, "properties": {"id_parcelle": "773580000A0707", "address": "7 ALL DES FRENES", "sales": 2, "median_price": 312000.0, "median_price_per_sqm": 3466.6666666666665, "median_rooms": 4.0, "first_sale": "2023-04-19", "last_sale": "2023-04-19"}}, {"type": "Feature", "geometry": {"type": "Point", "coordinates": [2.859185, 48.988207]}, "properties": {"id_parcelle": "773580000B1204", "address": "RLE DE LA POMPE", "sales": 2, "median_price": 393525.0, "median_price_per_sqm": null, "median_rooms": null, "first_sale": "2021-05-25", "last_sale": "2021-05-28"}}, {"type": "Feature", "geometry": {"type": "Point", "coordinates": [2.86038, 48.98513]}, "properties": {"id_parcelle": "773580000B1076", "address": "18 RUE DE MEAUX", "sales": 2, "median_price": 316750.0, "median_price_per_sqm": 2381.5789473684213, "median_rooms": 3.0, "first_sale": "2025-07-29", "last_sale": "2025-07-29"}}, {"type": "Feature", "geometry": {"type": "Point", "coordinates": [2.860806, 48.98685]}, "properties": {"id_parcelle": "773580000B1146", "address": "14 GRANDE RUE", "sales": 2, "median_price": 211000.0, "median_price_per_sqm": 2705.128205128205, "median_rooms": 2.0, "first_sale": "2025-09-02", "last_sale": "2025-09-02"}}, {"type": "Feature", "geometry": {"type": "Point", "coordinates": [2.859842, 48.988075]}, "properties": {"id_parcelle": "773580000B1202", "address": "RLE DE LA POMPE", "sales": 2, "median_price": 328525.0, "median_price_per_sqm": null, "median_rooms": null, "first_sale": "2021-05-25", "last_sale": "2021-09-28"}}, {"type": "Feature", "geometry": {"type": "Point", "coordinates": [2.859519, 48.988148]}, "properties": {"id_parcelle": "773580000B1203", "address": "9003 RLE DE LA POMPE", "sales": 2, "median_price": 397525.0, "median_price_per_sqm": null, "median_rooms": null, "first_sale": "2021-05-25", "last_sale": "2021-05-25"}}, {"type": "Feature", "geometry": {"type": "Point", "coordinates": [2.854654, 48.99218]}, "properties": {"id_parcelle": "77358000ZA0091", "address": "8 CHE DE LA MARE LORIN", "sales": 2, "median_price": 870000.0, "median_price_per_sqm": 3429.600371747212, "median_rooms": 2.5, "first_sale": "2023-04-06", "last_sale": "2023-04-06"}}, {"type": "Feature", "geometry": {"type": "Point", "coordinates": [2.859507, 48.984131]}, "properties": {"id_parcelle": "773580000B1221", "address": "33 RUE DE NEUFMONTIERS", "sales": 2, "median_price": 272500.0, "median_price_per_sqm": null, "median_rooms": null, "first_sale": "2022-11-22", "last_sale": "2025-12-04"}}, {"type": "Feature", "geometry": {"type": "Point", "coordinates": [2.859454, 48.984223]}, "properties": {"id_parcelle": "773580000B1220", "address": "31 RUE DE NEUFMONTIERS", "sales": 2, "median_price": 281500.0, "median_price_per_sqm": null, "median_rooms": null, "first_sale": "2022-11-22", "last_sale": "2024-04-23"}}, {"type": "Feature", "geometry": {"type": "Point", "coordinates": [2.859626, 48.983976]}, "properties": {"id_parcelle": "773580000B1219", "address": "27 RUE DE NEUFMONTIERS", "sales": 2, "median_price": 430000.0, "median_price_per_sqm": 3706.896551724138, "median_rooms": 7.0, "first_sale": "2022-11-22", "last_sale": "2022-11-22"}}, {"type": "Feature", "geometry": {"type": "Point", "coordinates": [2.858337, 48.984958]}, "properties": {"id_parcelle": "773580000B1218", "address": "34 RUE DE NEUFMONTIERS", "sales": 2, "median_price": 586000.0, "median_price_per_sqm": null, "median_rooms": null, "first_sale": "2023-08-30", "last_sale": "2023-08-30"}}, {"type": "Feature", "geometry": {"type": "Point", "coordinates": [2.858603, 48.984806]}, "properties": {"id_parcelle": "773580000B1210", "address": "34 RUE DE NEUFMONTIERS", "sales": 2, "median_price": 586000.0, "median_price_per_sqm": 2627.8026905829597, "median_rooms": 2.0, "first_sale": "2023-08-30", "last_sale": "2023-08-30"}}, {"type": "Feature", "geometry": {"type": "Point", "coordinates": [2.859532, 48.988247]}, "properties": {"id_parcelle": "773580000B1205", "address": "9003 RLE DE LA POMPE", "sales": 2, "median_price": 397525.0, "median_price_per_sqm": 1987.625, "median_rooms": 7.0, "first_sale": "2021-05-25", "last_sale": "2021-05-25"}}, {"type": "Feature", "geometry": {"type": "Point", "coordinates": [2.85937, 48.992234]}, "properties": {"id_parcelle": "77358000ZB0071", "address": "LES CARRIERES", "sales": 2, "median_price": 5000.0, "median_price_per_sqm": null, "median_rooms": null, "first_sale": "2025-05-06", "last_sale": "2025-05-06"}}, {"type": "Feature", "geometry": {"type": "Point", "coordinates": [2.863959, 48.985221]}, "properties": {"id_parcelle": "77358000ZD0121", "address": "17 RUE LUCIEN DUQUESNE", "sales": 2, "median_price": 423500.0, "median_price_per_sqm": 3921.296296296296, "median_rooms": 5.0, "first_sale": "2023-01-11", "last_sale": "2023-01-11"}}, {"type": "Feature", "geometry": {"type": "Point", "coordinates": [2.864429, 48.985308]}, "properties": {"id_parcelle": "77358000ZD0119", "address": "21 RUE LUCIEN DUQUESNE", "sales": 2, "median_price": 360000.0, "median_price_per_sqm": 4000.0, "median_rooms": 3.0, "first_sale": "2022-12-16", "last_sale": "2022-12-16"}}, {"type": "Feature", "geometry": {"type": "Point", "coordinates": [2.862314, 48.987468]}, "properties": {"id_parcelle": "77358000ZD0065", "address": "8 AV DES BLEUETS", "sales": 2, "median_price": 517000.0, "median_price_per_sqm": 4535.087719298245, "median_rooms": 5.0, "first_sale": "2022-01-21", "last_sale": "2022-01-21"}}, {"type": "Feature", "geometry": {"type": "Point", "coordinates": [2.86318, 48.985577]}, "properties": {"id_parcelle": "77358000ZD0128", "address": "11 RUE LUCIEN DUQUESNE", "sales": 2, "median_price": 517000.0, "median_price_per_sqm": 2888.268156424581, "median_rooms": 5.0, "first_sale": "2021-08-18", "last_sale": "2021-08-18"}}, {"type": "Feature", "geometry": {"type": "Point", "coordinates": [2.86303, 48.985972]}, "properties": {"id_parcelle": "77358000ZD0131", "address": "2 RUE DE L ARPENT NOIR", "sales": 2, "median_price": 505000.0, "median_price_per_sqm": 3300.653594771242, "median_rooms": 5.0, "first_sale": "2023-04-19", "last_sale": "2023-04-19"}}, {"type": "Feature", "geometry": {"type": "Point", "coordinates": [2.864808, 48.986018]}, "properties": {"id_parcelle": "77358000ZD0148", "address": "10 RUE DE L ARPENT NOIR", "sales": 2, "median_price": 361000.0, "median_price_per_sqm": 4197.674418604651, "median_rooms": 4.0, "first_sale": "2023-09-20", "last_sale": "2023-09-20"}}, {"type": "Feature", "geometry": {"type": "Point", "coordinates": [2.863224, 48.987263]}, "properties": {"id_parcelle": "77358000ZD0220", "address": "4 AV DES BLEUETS", "sales": 2, "median_price": 310000.0, "median_price_per_sqm": 2952.3809523809523, "median_rooms": 2.5, "first_sale": "2022-12-21", "last_sale": "2022-12-21"}}, {"type": "Feature", "geometry": {"type": "Point", "coordinates": [2.85376, 49.003729]}, "properties": {"id_parcelle": "77358000ZE0098", "address": "MONTBOUT", "sales": 2, "median_price": 2100150.0, "median_price_per_sqm": null, "median_rooms": null, "first_sale": "2023-10-16", "last_sale": "2025-09-11"}}]}