{"type": "FeatureCollection", "features": [{"type": "Feature", "geometry": {"type": "Polygon", "coordinates": [[[3.10784, 48.732973], [3.107712, 48.730756], [3.107558, 48.727965], [3.107517, 48.727106], [3.107418, 48.725304], [3.107375, 48.724411], [3.107296, 48.723051], [3.107232, 48.722109], [3.107144, 48.72098], [3.1068, 48.716304], [3.106556, 48.713237], [3.107155, 48.713293], [3.107258, 48.7135], [3.107297, 48.713707], [3.10842, 48.713801], [3.109145, 48.713885], [3.109693, 48.713935], [3.110177, 48.713944], [3.110743, 48.713909], [3.111355, 48.713856], [3.111927, 48.713736], [3.111282, 48.711974], [3.112037, 48.712022], [3.112934, 48.712035], [3.113152, 48.712018], [3.113267, 48.711947], [3.112978, 48.711048], [3.114318, 48.711], [3.115771, 48.710941], [3.116195, 48.71102], [3.116204, 48.711099], [3.116747, 48.711034], [3.117473, 48.710964], [3.117608, 48.710863], [3.118069, 48.710244], [3.118127, 48.710032], [3.119014, 48.709944], [3.119014, 48.709885], [3.118646, 48.709549], [3.118514, 48.709251], [3.118694, 48.709148], [3.11845, 48.708618], [3.118436, 48.708404], [3.118469, 48.707974], [3.118798, 48.707495], [3.11874, 48.707438], [3.119052, 48.707246], [3.119561, 48.706963], [3.119875, 48.706676], [3.120231, 48.706462], [3.120561, 48.706233], [3.120741, 48.705958], [3.121039, 48.705715], [3.121348, 48.705504], [3.121534, 48.705407], [3.121927, 48.705327], [3.122397, 48.705309], [3.122634, 48.705343], [3.123186, 48.705472], [3.123849, 48.705606], [3.124156, 48.705639], [3.124641, 48.705639], [3.125299, 48.7055], [3.125649, 48.705449], [3.126053, 48.705433], [3.126712, 48.7053], [3.126217, 48.704879], [3.124238, 48.70322], [3.123268, 48.702399], [3.121746, 48.701123], [3.119742, 48.699431], [3.119679, 48.699402], [3.119361, 48.698684], [3.118997, 48.698739], [3.118464, 48.697184], [3.11887, 48.696776], [3.119221, 48.696384], [3.118865, 48.696366], [3.118698, 48.696396], [3.118081, 48.696384], [3.117766, 48.696354], [3.117329, 48.696391], [3.116459, 48.696509], [3.116209, 48.69648], [3.115612, 48.696297], [3.115302, 48.696219], [3.114734, 48.696128], [3.113898, 48.696065], [3.113273, 48.696034], [3.113114, 48.695976], [3.112828, 48.695721], [3.112326, 48.694742], [3.112007, 48.694156], [3.111631, 48.69359], [3.111174, 48.692929], [3.110977, 48.692861], [3.11065, 48.692902], [3.109501, 48.693132], [3.108933, 48.693199], [3.108168, 48.693188], [3.106656, 48.693094], [3.105324, 48.692919], [3.105164, 48.692911], [3.105082, 48.691505], [3.104912, 48.688717], [3.10488, 48.688019], [3.104781, 48.686349], [3.104619, 48.684564], [3.104646, 48.68405], [3.104577, 48.683615], [3.104587, 48.683217], [3.104517, 48.681867], [3.104477, 48.68097], [3.104237, 48.676454], [3.104183, 48.675301], [3.104047, 48.673045], [3.103966, 48.671362], [3.103783, 48.667914], [3.103748, 48.667421], [3.103522, 48.667427], [3.10316, 48.66752], [3.10204, 48.667905], [3.101447, 48.668031], [3.0991, 48.668255], [3.098139, 48.668419], [3.097296, 48.668626], [3.095947, 48.669082], [3.095387, 48.669188], [3.094024, 48.669392], [3.093488, 48.669484], [3.092763, 48.669572], [3.092144, 48.66962], [3.091745, 48.669622], [3.090994, 48.66965], [3.090145, 48.669564], [3.089616, 48.66953], [3.088755, 48.669505], [3.088047, 48.669601], [3.086493, 48.670163], [3.085594, 48.670447], [3.084282, 48.67098], [3.083184, 48.671375], [3.08287, 48.671466], [3.081805, 48.671711], [3.08077, 48.672928], [3.080107, 48.673732], [3.080048, 48.673787], [3.079518, 48.673826], [3.078638, 48.673933], [3.078589, 48.673826], [3.078529, 48.67203], [3.078454, 48.671668], [3.076692, 48.671858], [3.075433, 48.669312], [3.075017, 48.669556], [3.074619, 48.669082], [3.072968, 48.669767], [3.071462, 48.668981], [3.071032, 48.668592], [3.070703, 48.66821], [3.070366, 48.66818], [3.070149, 48.667865], [3.069901, 48.667301], [3.069658, 48.666813], [3.06988, 48.666771], [3.069445, 48.665785], [3.068723, 48.665871], [3.06713, 48.666017], [3.066462, 48.666042], [3.065176, 48.666022], [3.064895, 48.665964], [3.064788, 48.665885], [3.063785, 48.664773], [3.063611, 48.664566], [3.063218, 48.664149], [3.062539, 48.66354], [3.060474, 48.662791], [3.060628, 48.662316], [3.057286, 48.663085], [3.057496, 48.663682], [3.05702, 48.66408], [3.055837, 48.664103], [3.055338, 48.663778], [3.054925, 48.663615], [3.054117, 48.663502], [3.053391, 48.663323], [3.052594, 48.663265], [3.051904, 48.663173], [3.051375, 48.663155], [3.051168, 48.663211], [3.050964, 48.663177], [3.050721, 48.663071], [3.050144, 48.663365], [3.049385, 48.663767], [3.048673, 48.665896], [3.048218, 48.667285], [3.048236, 48.667339], [3.047792, 48.66849], [3.048012, 48.669186], [3.048267, 48.66975], [3.048479, 48.67016], [3.048378, 48.670147], [3.047555, 48.670242], [3.047091, 48.670238], [3.046341, 48.670104], [3.045738, 48.670017], [3.044194, 48.670068], [3.043863, 48.67006], [3.043064, 48.670079], [3.042656, 48.670116], [3.042145, 48.670272], [3.041903, 48.670396], [3.043626, 48.674559], [3.043961, 48.675379], [3.045733, 48.678175], [3.046761, 48.679471], [3.04741, 48.680024], [3.048834, 48.681629], [3.048852, 48.681815], [3.049121, 48.682865], [3.049341, 48.683881], [3.04951, 48.684591], [3.049575, 48.684946], [3.049275, 48.685192], [3.049098, 48.685524], [3.048963, 48.685831], [3.048874, 48.686174], [3.048729, 48.686493], [3.048454, 48.686864], [3.048784, 48.686898], [3.050998, 48.686985], [3.052787, 48.687062], [3.054278, 48.687149], [3.057727, 48.687341], [3.059035, 48.687418], [3.059289, 48.688647], [3.059938, 48.691688], [3.060153, 48.691653], [3.061423, 48.695187], [3.061107, 48.695839], [3.06049, 48.697079], [3.060157, 48.697489], [3.059012, 48.698924], [3.058124, 48.700055], [3.056611, 48.701959], [3.055899, 48.702199], [3.057361, 48.703788], [3.057824, 48.705212], [3.057647, 48.705753], [3.057479, 48.706126], [3.057219, 48.706423], [3.05671, 48.706799], [3.055995, 48.707389], [3.055639, 48.7077], [3.055172, 48.708148], [3.054957, 48.708451], [3.054955, 48.708619], [3.055034, 48.709163], [3.05505, 48.70951], [3.055079, 48.71115], [3.055109, 48.711619], [3.055181, 48.712013], [3.055314, 48.712582], [3.055366, 48.71301], [3.055436, 48.713306], [3.055536, 48.713512], [3.055968, 48.714076], [3.05627, 48.714527], [3.056559, 48.715344], [3.057005, 48.71524], [3.058504, 48.714868], [3.058702, 48.714828], [3.058954, 48.715419], [3.05946, 48.716717], [3.059581, 48.717096], [3.059854, 48.718197], [3.059895, 48.718396], [3.06017, 48.71852], [3.060594, 48.718781], [3.0609, 48.718766], [3.061853, 48.718613], [3.062066, 48.718601], [3.061947, 48.718748], [3.06183, 48.719016], [3.061783, 48.719499], [3.061849, 48.719802], [3.062011, 48.720318], [3.062101, 48.72066], [3.062119, 48.720859], [3.062062, 48.721928], [3.062042, 48.722244], [3.061921, 48.723644], [3.061755, 48.725294], [3.061708, 48.725834], [3.061649, 48.726775], [3.061761, 48.727115], [3.062107, 48.727892], [3.062084, 48.728101], [3.061729, 48.728471], [3.0617, 48.728559], [3.062059, 48.72843], [3.06227, 48.72839], [3.06262, 48.728197], [3.062687, 48.728108], [3.063108, 48.727964], [3.063382, 48.727743], [3.063676, 48.727608], [3.063715, 48.727513], [3.063948, 48.727458], [3.064437, 48.727262], [3.064428, 48.727133], [3.06453, 48.727], [3.064784, 48.726772], [3.064806, 48.726547], [3.065039, 48.726321], [3.065268, 48.726349], [3.065517, 48.726634], [3.066231, 48.726669], [3.066408, 48.726913], [3.066495, 48.726969], [3.066729, 48.72701], [3.067109, 48.726985], [3.067661, 48.727558], [3.067858, 48.727638], [3.068229, 48.727963], [3.068508, 48.727977], [3.068906, 48.728031], [3.069408, 48.728164], [3.069498, 48.728058], [3.069921, 48.728031], [3.070686, 48.727877], [3.071007, 48.72785], [3.071966, 48.727696], [3.072706, 48.727558], [3.07312, 48.727513], [3.073362, 48.727456], [3.073626, 48.727456], [3.074725, 48.727202], [3.07633, 48.726821], [3.077586, 48.72653], [3.081665, 48.725563], [3.082507, 48.725373], [3.083536, 48.725118], [3.084997, 48.724775], [3.08522, 48.724715], [3.08538, 48.725056], [3.085596, 48.726475], [3.085465, 48.726841], [3.08496, 48.728365], [3.084723, 48.729003], [3.084557, 48.72951], [3.086198, 48.728706], [3.087843, 48.727933], [3.089446, 48.727201], [3.089859, 48.72745], [3.090177, 48.72745], [3.090024, 48.727843], [3.089571, 48.728685], [3.089232, 48.729264], [3.088961, 48.72977], [3.088504, 48.730495], [3.088434, 48.730882], [3.088664, 48.731896], [3.08945, 48.7323], [3.090122, 48.732831], [3.091762, 48.732911], [3.093635, 48.732843], [3.094062, 48.732833], [3.095879, 48.732835], [3.098114, 48.73277], [3.099298, 48.732759], [3.103254, 48.733044], [3.10784, 48.732973]]]}, "properties": {"code_iris": "774860000", "nom_iris": "Vaudoy-en-Brie (commune entière)", "type_iris": "Z", "lat": 48.6977, "lng": 3.0843, "dvf_sales_total": 234, "dvf_sales_appt": 0, "dvf_sales_maison": 0, "dvf_median_price": 234000.0, "dvf_median_ppsqm": 2428.5714285714284, "dvf_by_year": "[{\"year\": 2021, \"sales\": 38, \"median_price\": 216000.0}, {\"year\": 2022, \"sales\": 65, \"median_price\": 170000.0}, {\"year\": 2023, \"sales\": 50, \"median_price\": 242665.5}, {\"year\": 2024, \"sales\": 40, \"median_price\": 275000.0}, {\"year\": 2025, \"sales\": 41, \"median_price\": 250000.0}]", "population": 872, "n_log": null, "n_rp": null, "pct_proprio": null, "pct_hlm": null, "pct_appart": null, "pct_cadres": null, "pct_bac5p": null, "pct_etrangers": null, "pct_0_14": null, "pct_65p": null, "bpe_total": null, "bpe_commerces": null, "bpe_enseignement": null, "bpe_sante": null, "dpe": null, "attractivity_score": null, "rank_attractivity_score": null, "rank_total_attractivity_score": 1, "commune_avg": null, "is_stub": true}}]}