{"type": "FeatureCollection", "features": [{"type": "Feature", "geometry": {"type": "Point", "coordinates": [2.557004, 48.472842]}, "properties": {"id_parcelle": "77359000AE0124", "address": "5000 ALL DES ALISIERS", "sales": 12, "median_price": 360000.0, "median_price_per_sqm": 12000.0, "median_rooms": 0.5, "first_sale": "2022-05-13", "last_sale": "2022-05-13"}}, {"type": "Feature", "geometry": {"type": "Point", "coordinates": [2.553902, 48.477844]}, "properties": {"id_parcelle": "77359000AB0081", "address": "11 RUE LOUIS RODIER", "sales": 10, "median_price": 600000.0, "median_price_per_sqm": 10071.42857142857, "median_rooms": 0.0, "first_sale": "2025-12-19", "last_sale": "2025-12-19"}}, {"type": "Feature", "geometry": {"type": "Point", "coordinates": [2.557263, 48.477795]}, "properties": {"id_parcelle": "77359000AC0088", "address": "25 RUE DE MELUN", "sales": 10, "median_price": 484500.0, "median_price_per_sqm": 3028.125, "median_rooms": 0.0, "first_sale": "2023-09-20", "last_sale": "2023-09-20"}}, {"type": "Feature", "geometry": {"type": "Point", "coordinates": [2.554453, 48.480193]}, "properties": {"id_parcelle": "77359000AB0027", "address": "14 RUE DE LA FOSSE AUX MOINES", "sales": 10, "median_price": 320000.0, "median_price_per_sqm": 4304.16068866571, "median_rooms": 0.0, "first_sale": "2024-01-05", "last_sale": "2024-01-05"}}, {"type": "Feature", "geometry": {"type": "Point", "coordinates": [2.554971, 48.474927]}, "properties": {"id_parcelle": "77359000AE0117", "address": "10 RUE DE FLEURY", "sales": 8, "median_price": 130000.0, "median_price_per_sqm": 3250.0, "median_rooms": 0.5, "first_sale": "2022-02-28", "last_sale": "2025-03-10"}}, {"type": "Feature", "geometry": {"type": "Point", "coordinates": [2.551597, 48.476626]}, "properties": {"id_parcelle": "77359000AI0171", "address": "21 RUE DU GRAND MOULIN", "sales": 8, "median_price": 600000.0, "median_price_per_sqm": 6491.228070175439, "median_rooms": 4.0, "first_sale": "2022-07-27", "last_sale": "2022-07-27"}}, {"type": "Feature", "geometry": {"type": "Point", "coordinates": [2.556371, 48.476584]}, "properties": {"id_parcelle": "77359000AC0215", "address": "10 RUE DE MELUN", "sales": 6, "median_price": 125000.0, "median_price_per_sqm": 2500.0, "median_rooms": 2.0, "first_sale": "2024-10-22", "last_sale": "2024-12-30"}}, {"type": "Feature", "geometry": {"type": "Point", "coordinates": [2.554285, 48.480326]}, "properties": {"id_parcelle": "77359000AB0026", "address": "16 RUE DE LA FOSSE AUX MOINES", "sales": 6, "median_price": 443600.0, "median_price_per_sqm": 3412.3076923076924, "median_rooms": 0.0, "first_sale": "2024-01-04", "last_sale": "2024-01-04"}}, {"type": "Feature", "geometry": {"type": "Point", "coordinates": [2.524648, 48.483508]}, "properties": {"id_parcelle": "77359000AL0019", "address": "8 RUE DES GROUETTES", "sales": 6, "median_price": 268000.0, "median_price_per_sqm": 2762.8865979381444, "median_rooms": 0.0, "first_sale": "2025-10-07", "last_sale": "2025-10-07"}}, {"type": "Feature", "geometry": {"type": "Point", "coordinates": [2.536512, 48.485954]}, "properties": {"id_parcelle": "77359000AM0150", "address": "5 RUE DES CHESNEAUX", "sales": 6, "median_price": 125000.0, "median_price_per_sqm": 3515.625, "median_rooms": 0.0, "first_sale": "2024-09-30", "last_sale": "2024-09-30"}}, {"type": "Feature", "geometry": {"type": "Point", "coordinates": [2.531455, 48.481391]}, "properties": {"id_parcelle": "77359000YB0166", "address": "5333 LE GRAND MOULIN", "sales": 6, "median_price": 1663800.0, "median_price_per_sqm": 22288.360215053763, "median_rooms": 2.0, "first_sale": "2021-05-05", "last_sale": "2021-05-05"}}, {"type": "Feature", "geometry": {"type": "Point", "coordinates": [2.551658, 48.474432]}, "properties": {"id_parcelle": "77359000AI0120", "address": "24 RUE DE MILLY", "sales": 6, "median_price": 267500.0, "median_price_per_sqm": 3767.605633802817, "median_rooms": 0.0, "first_sale": "2021-10-08", "last_sale": "2021-10-08"}}, {"type": "Feature", "geometry": {"type": "Point", "coordinates": [2.557718, 48.474623]}, "properties": {"id_parcelle": "77359000AD0005", "address": "17 RUE DE CHAILLY", "sales": 6, "median_price": 360000.0, "median_price_per_sqm": 3050.8474576271187, "median_rooms": 0.0, "first_sale": "2024-10-17", "last_sale": "2024-10-17"}}, {"type": "Feature", "geometry": {"type": "Point", "coordinates": [2.55589, 48.476448]}, "properties": {"id_parcelle": "77359000AC0219", "address": "4 RUE DE MELUN", "sales": 6, "median_price": 209000.0, "median_price_per_sqm": 4550.0, "median_rooms": 0.0, "first_sale": "2021-11-02", "last_sale": "2022-03-28"}}, {"type": "Feature", "geometry": {"type": "Point", "coordinates": [2.552954, 48.475127]}, "properties": {"id_parcelle": "77359000AI0111", "address": "12 RUE DE MILLY", "sales": 5, "median_price": 360000.0, "median_price_per_sqm": 3000.0, "median_rooms": 0.0, "first_sale": "2025-06-26", "last_sale": "2025-06-26"}}, {"type": "Feature", "geometry": {"type": "Point", "coordinates": [2.556229, 48.476535]}, "properties": {"id_parcelle": "77359000AC0217", "address": "8 RUE DE MELUN", "sales": 4, "median_price": 440000.0, "median_price_per_sqm": 8504.62962962963, "median_rooms": 1.0, "first_sale": "2024-12-30", "last_sale": "2024-12-30"}}, {"type": "Feature", "geometry": {"type": "Point", "coordinates": [2.557956, 48.473815]}, "properties": {"id_parcelle": "77359000AE0067", "address": "18 RUE DE CHAILLY", "sales": 4, "median_price": 240000.0, "median_price_per_sqm": 2352.9411764705883, "median_rooms": 4.0, "first_sale": "2022-03-28", "last_sale": "2022-03-28"}}, {"type": "Feature", "geometry": {"type": "Point", "coordinates": [2.559085, 48.473313]}, "properties": {"id_parcelle": "77359000AE0071", "address": "24 RUE DE CHAILLY", "sales": 4, "median_price": 481500.0, "median_price_per_sqm": null, "median_rooms": null, "first_sale": "2022-10-21", "last_sale": "2025-12-29"}}, {"type": "Feature", "geometry": {"type": "Point", "coordinates": [2.549631, 48.473358]}, "properties": {"id_parcelle": "77359000AH0027", "address": "38 RUE DE MILLY", "sales": 4, "median_price": 347000.0, "median_price_per_sqm": 2798.3870967741937, "median_rooms": 0.0, "first_sale": "2022-10-06", "last_sale": "2022-10-06"}}, {"type": "Feature", "geometry": {"type": "Point", "coordinates": [2.521226, 48.483548]}, "properties": {"id_parcelle": "77359000AL0009", "address": "26 RUE DES GROUETTES", "sales": 4, "median_price": 315000.0, "median_price_per_sqm": 3118.8118811881186, "median_rooms": 2.5, "first_sale": "2024-07-24", "last_sale": "2024-07-24"}}, {"type": "Feature", "geometry": {"type": "Point", "coordinates": [2.553685, 48.474329]}, "properties": {"id_parcelle": "77359000AE0037", "address": "11 RUE DE MILLY", "sales": 4, "median_price": 336000.0, "median_price_per_sqm": 2800.0, "median_rooms": 2.5, "first_sale": "2023-12-19", "last_sale": "2023-12-19"}}, {"type": "Feature", "geometry": {"type": "Point", "coordinates": [2.545991, 48.475927]}, "properties": {"id_parcelle": "77359000AH0005", "address": "45 RUE DE SAINT GERMAIN", "sales": 4, "median_price": 959100.0, "median_price_per_sqm": 4819.597989949749, "median_rooms": 3.0, "first_sale": "2023-07-31", "last_sale": "2023-07-31"}}, {"type": "Feature", "geometry": {"type": "Point", "coordinates": [2.550399, 48.475002]}, "properties": {"id_parcelle": "77359000AI0137", "address": "25 CHE DES MARINIERS", "sales": 4, "median_price": 438200.0, "median_price_per_sqm": 2921.3333333333335, "median_rooms": 2.5, "first_sale": "2023-02-28", "last_sale": "2023-02-28"}}, {"type": "Feature", "geometry": {"type": "Point", "coordinates": [2.556306, 48.47918]}, "properties": {"id_parcelle": "77359000AB0060", "address": "25 RUE LOUIS RODIER", "sales": 4, "median_price": 253000.0, "median_price_per_sqm": 5750.0, "median_rooms": 0.5, "first_sale": "2025-04-23", "last_sale": "2025-04-23"}}, {"type": "Feature", "geometry": {"type": "Point", "coordinates": [2.557123, 48.476793]}, "properties": {"id_parcelle": "77359000AC0296", "address": "16 RUE DE MELUN", "sales": 4, "median_price": 500000.0, "median_price_per_sqm": 9420.289855072464, "median_rooms": 3.5, "first_sale": "2023-02-22", "last_sale": "2023-02-22"}}, {"type": "Feature", "geometry": {"type": "Point", "coordinates": [2.537069, 48.487655]}, "properties": {"id_parcelle": "77359000AM0041", "address": "11 RUE DES BELLES VUES", "sales": 4, "median_price": 545000.0, "median_price_per_sqm": 12851.419413919413, "median_rooms": 2.5, "first_sale": "2023-04-21", "last_sale": "2023-04-21"}}, {"type": "Feature", "geometry": {"type": "Point", "coordinates": [2.518991, 48.481947]}, "properties": {"id_parcelle": "77359000AL0043", "address": "12 CHE DU MONCEAU", "sales": 4, "median_price": 195000.0, "median_price_per_sqm": 5571.428571428572, "median_rooms": 1.0, "first_sale": "2022-09-08", "last_sale": "2022-09-08"}}, {"type": "Feature", "geometry": {"type": "Point", "coordinates": [2.519178, 48.482325]}, "properties": {"id_parcelle": "77359000AL0046", "address": "6 RUE DE LA FONTAINE", "sales": 4, "median_price": 382000.0, "median_price_per_sqm": 2768.1159420289855, "median_rooms": 2.5, "first_sale": "2022-07-20", "last_sale": "2022-07-20"}}, {"type": "Feature", "geometry": {"type": "Point", "coordinates": [2.553919, 48.477642]}, "properties": {"id_parcelle": "77359000AB0082", "address": "9 RUE LOUIS RODIER", "sales": 3, "median_price": 463300.0, "median_price_per_sqm": 4876.8421052631575, "median_rooms": 4.0, "first_sale": "2022-05-03", "last_sale": "2022-05-03"}}, {"type": "Feature", "geometry": {"type": "Point", "coordinates": [2.554482, 48.468711]}, "properties": {"id_parcelle": "773590000F0268", "address": "41 RUE DE FLEURY", "sales": 3, "median_price": 7600.0, "median_price_per_sqm": 101.33333333333333, "median_rooms": 0.0, "first_sale": "2025-04-29", "last_sale": "2025-04-29"}}, {"type": "Feature", "geometry": {"type": "Point", "coordinates": [2.554072, 48.476413]}, "properties": {"id_parcelle": "77359000AC0035", "address": "3 RUE DE L EGLISE", "sales": 3, "median_price": 470000.0, "median_price_per_sqm": 3830.2696078431372, "median_rooms": 3.0, "first_sale": "2025-05-23", "last_sale": "2025-05-23"}}, {"type": "Feature", "geometry": {"type": "Point", "coordinates": [2.555111, 48.47746]}, "properties": {"id_parcelle": "77359000AC0108", "address": "14 RUE GEORGES BOUET", "sales": 3, "median_price": 535000.0, "median_price_per_sqm": 3590.6040268456377, "median_rooms": 0.0, "first_sale": "2024-09-11", "last_sale": "2024-09-11"}}, {"type": "Feature", "geometry": {"type": "Point", "coordinates": [2.526869, 48.48353]}, "properties": {"id_parcelle": "77359000YB0175", "address": "1 RUE DES GROUETTES", "sales": 3, "median_price": 340000.0, "median_price_per_sqm": 3333.3333333333335, "median_rooms": 0.0, "first_sale": "2022-09-14", "last_sale": "2022-09-14"}}, {"type": "Feature", "geometry": {"type": "Point", "coordinates": [2.548122, 48.481077]}, "properties": {"id_parcelle": "77359000AK0114", "address": "7 RUE DE LA PLANCHE", "sales": 3, "median_price": 412000.0, "median_price_per_sqm": 3322.5806451612902, "median_rooms": 0.0, "first_sale": "2022-12-20", "last_sale": "2022-12-20"}}, {"type": "Feature", "geometry": {"type": "Point", "coordinates": [2.551968, 48.477742]}, "properties": {"id_parcelle": "77359000AI0028", "address": "21 RUE DU DOC SIFFRE", "sales": 3, "median_price": 155000.0, "median_price_per_sqm": 5000.0, "median_rooms": 0.0, "first_sale": "2025-04-07", "last_sale": "2025-04-07"}}, {"type": "Feature", "geometry": {"type": "Point", "coordinates": [2.553125, 48.476072]}, "properties": {"id_parcelle": "77359000AI0166", "address": "3 RUE DU GRAND MOULIN", "sales": 3, "median_price": 216560.0, "median_price_per_sqm": 2518.139534883721, "median_rooms": 0.0, "first_sale": "2025-11-14", "last_sale": "2025-11-14"}}, {"type": "Feature", "geometry": {"type": "Point", "coordinates": [2.553929, 48.475385]}, "properties": {"id_parcelle": "77359000AE0001", "address": "1 RUE DE MILLY", "sales": 3, "median_price": 249380.0, "median_price_per_sqm": 6082.4390243902435, "median_rooms": 1.0, "first_sale": "2024-06-05", "last_sale": "2024-06-05"}}, {"type": "Feature", "geometry": {"type": "Point", "coordinates": [2.554488, 48.475073]}, "properties": {"id_parcelle": "77359000AE0114", "address": "6 RUE DE FLEURY", "sales": 3, "median_price": 287000.0, "median_price_per_sqm": 3727.2727272727275, "median_rooms": 0.0, "first_sale": "2021-07-19", "last_sale": "2021-07-19"}}, {"type": "Feature", "geometry": {"type": "Point", "coordinates": [2.546498, 48.476252]}, "properties": {"id_parcelle": "77359000AH0003", "address": "41 RUE DE SAINT GERMAIN", "sales": 3, "median_price": 209000.0, "median_price_per_sqm": 2911.0714285714284, "median_rooms": 4.0, "first_sale": "2022-02-07", "last_sale": "2022-02-07"}}, {"type": "Feature", "geometry": {"type": "Point", "coordinates": [2.540024, 48.489532]}, "properties": {"id_parcelle": "77359000AM0137", "address": "33 RUE DES BELLES VUES", "sales": 3, "median_price": 433500.0, "median_price_per_sqm": 2643.2926829268295, "median_rooms": 0.0, "first_sale": "2021-08-19", "last_sale": "2021-08-19"}}, {"type": "Feature", "geometry": {"type": "Point", "coordinates": [2.553042, 48.474934]}, "properties": {"id_parcelle": "77359000AI0114", "address": "14 RUE DE MILLY", "sales": 3, "median_price": 230053.0, "median_price_per_sqm": 5565.798387096775, "median_rooms": 0.0, "first_sale": "2021-07-09", "last_sale": "2021-07-09"}}, {"type": "Feature", "geometry": {"type": "Point", "coordinates": [2.556219, 48.475009]}, "properties": {"id_parcelle": "77359000AC0228", "address": "9 RUE DE CHAILLY", "sales": 2, "median_price": 385000.0, "median_price_per_sqm": 2830.8823529411766, "median_rooms": 2.0, "first_sale": "2021-06-28", "last_sale": "2021-06-28"}}, {"type": "Feature", "geometry": {"type": "Point", "coordinates": [2.561148, 48.479043]}, "properties": {"id_parcelle": "77359000AC0160", "address": "52 RUE DE MELUN", "sales": 2, "median_price": 263000.0, "median_price_per_sqm": 4241.935483870968, "median_rooms": 1.0, "first_sale": "2021-11-02", "last_sale": "2021-11-02"}}, {"type": "Feature", "geometry": {"type": "Point", "coordinates": [2.555029, 48.47756]}, "properties": {"id_parcelle": "77359000AC0109", "address": "16 RUE GEORGES BOUET", "sales": 2, "median_price": 770000.0, "median_price_per_sqm": 6416.666666666667, "median_rooms": 2.0, "first_sale": "2021-10-29", "last_sale": "2021-10-29"}}, {"type": "Feature", "geometry": {"type": "Point", "coordinates": [2.550559, 48.481068]}, "properties": {"id_parcelle": "77359000AB0187", "address": "43 RUE DE LA FOSSE AUX MOINES", "sales": 2, "median_price": 230000.0, "median_price_per_sqm": 3333.3333333333335, "median_rooms": 3.0, "first_sale": "2023-08-03", "last_sale": "2023-08-03"}}, {"type": "Feature", "geometry": {"type": "Point", "coordinates": [2.549787, 48.480491]}, "properties": {"id_parcelle": "77359000AB0189", "address": "52 RUE DU DOC SIFFRE", "sales": 2, "median_price": 169000.0, "median_price_per_sqm": 3595.744680851064, "median_rooms": 1.5, "first_sale": "2023-04-28", "last_sale": "2023-04-28"}}, {"type": "Feature", "geometry": {"type": "Point", "coordinates": [2.553539, 48.477581]}, "properties": {"id_parcelle": "77359000AB0226", "address": "7 RUE LOUIS RODIER", "sales": 2, "median_price": 281700.0, "median_price_per_sqm": null, "median_rooms": null, "first_sale": "2021-06-28", "last_sale": "2021-06-28"}}, {"type": "Feature", "geometry": {"type": "Point", "coordinates": [2.553957, 48.477052]}, "properties": {"id_parcelle": "77359000AC0005", "address": "6 RUE LOUIS RODIER", "sales": 2, "median_price": 298000.0, "median_price_per_sqm": 10006.372549019607, "median_rooms": 1.5, "first_sale": "2025-10-31", "last_sale": "2025-10-31"}}, {"type": "Feature", "geometry": {"type": "Point", "coordinates": [2.54406, 48.470774]}, "properties": {"id_parcelle": "773590000F0593", "address": "74 RUE DE MILLY", "sales": 2, "median_price": 311350.0, "median_price_per_sqm": 3538.068181818182, "median_rooms": 4.0, "first_sale": "2024-10-15", "last_sale": "2024-10-15"}}, {"type": "Feature", "geometry": {"type": "Point", "coordinates": [2.565026, 48.483883]}, "properties": {"id_parcelle": "773590000C0156", "address": "LA PETITE PLAINE", "sales": 2, "median_price": 12000.0, "median_price_per_sqm": null, "median_rooms": null, "first_sale": "2022-12-16", "last_sale": "2022-12-16"}}, {"type": "Feature", "geometry": {"type": "Point", "coordinates": [2.532815, 48.473566]}, "properties": {"id_parcelle": "773590000F0122", "address": "LA MOTTE LAMBERT", "sales": 2, "median_price": 85548.0, "median_price_per_sqm": null, "median_rooms": null, "first_sale": "2021-04-30", "last_sale": "2021-04-30"}}, {"type": "Feature", "geometry": {"type": "Point", "coordinates": [2.56001, 48.478457]}, "properties": {"id_parcelle": "77359000AC0172", "address": "40 RUE DE MELUN", "sales": 2, "median_price": 245000.0, "median_price_per_sqm": 4083.3333333333335, "median_rooms": 2.0, "first_sale": "2021-08-04", "last_sale": "2021-08-04"}}, {"type": "Feature", "geometry": {"type": "Point", "coordinates": [2.55397, 48.475844]}, "properties": {"id_parcelle": "77359000AC0049", "address": "2 RUE DU DOC SIFFRE", "sales": 2, "median_price": 320000.0, "median_price_per_sqm": 2302.1582733812947, "median_rooms": 1.5, "first_sale": "2022-07-18", "last_sale": "2022-07-18"}}, {"type": "Feature", "geometry": {"type": "Point", "coordinates": [2.553879, 48.476153]}, "properties": {"id_parcelle": "77359000AC0040", "address": "6 RUE DU DOC SIFFRE", "sales": 2, "median_price": 180000.0, "median_price_per_sqm": 2392.605633802817, "median_rooms": 1.5, "first_sale": "2023-05-15", "last_sale": "2023-05-15"}}, {"type": "Feature", "geometry": {"type": "Point", "coordinates": [2.558633, 48.47825]}, "properties": {"id_parcelle": "77359000AC0083", "address": "37 RUE DE MELUN", "sales": 2, "median_price": 278100.0, "median_price_per_sqm": 1635.8823529411766, "median_rooms": 3.5, "first_sale": "2022-03-23", "last_sale": "2022-03-23"}}, {"type": "Feature", "geometry": {"type": "Point", "coordinates": [2.55543, 48.477054]}, "properties": {"id_parcelle": "77359000AC0099", "address": "6 RUE GEORGES BOUET", "sales": 2, "median_price": 165450.0, "median_price_per_sqm": 3446.875, "median_rooms": 1.0, "first_sale": "2024-01-19", "last_sale": "2024-01-19"}}, {"type": "Feature", "geometry": {"type": "Point", "coordinates": [2.554127, 48.477228]}, "properties": {"id_parcelle": "77359000AC0009", "address": "34 RUE DE LA FOSSE AUX MOINES", "sales": 2, "median_price": 95000.0, "median_price_per_sqm": null, "median_rooms": null, "first_sale": "2021-03-23", "last_sale": "2024-07-09"}}, {"type": "Feature", "geometry": {"type": "Point", "coordinates": [2.553074, 48.477217]}, "properties": {"id_parcelle": "77359000AB0088", "address": "16 RUE DU DOC SIFFRE", "sales": 2, "median_price": 365000.0, "median_price_per_sqm": 4870.939420544337, "median_rooms": 3.0, "first_sale": "2021-08-27", "last_sale": "2021-08-27"}}, {"type": "Feature", "geometry": {"type": "Point", "coordinates": [2.551708, 48.47855]}, "properties": {"id_parcelle": "77359000AB0142", "address": "RUE DU DOC SIFFRE", "sales": 2, "median_price": 511950.0, "median_price_per_sqm": null, "median_rooms": null, "first_sale": "2021-06-22", "last_sale": "2022-09-13"}}, {"type": "Feature", "geometry": {"type": "Point", "coordinates": [2.552577, 48.480265]}, "properties": {"id_parcelle": "77359000AB0158", "address": "19 RUE DE LA FOSSE AUX MOINES", "sales": 2, "median_price": 360000.0, "median_price_per_sqm": 4675.324675324675, "median_rooms": 3.0, "first_sale": "2023-12-07", "last_sale": "2023-12-07"}}, {"type": "Feature", "geometry": {"type": "Point", "coordinates": [2.558523, 48.473832]}, "properties": {"id_parcelle": "77359000AE0069", "address": "22 RUE DE CHAILLY", "sales": 2, "median_price": 481500.0, "median_price_per_sqm": null, "median_rooms": null, "first_sale": "2022-10-21", "last_sale": "2025-12-29"}}, {"type": "Feature", "geometry": {"type": "Point", "coordinates": [2.549717, 48.472294]}, "properties": {"id_parcelle": "77359000AH0066", "address": "31 RUE DE MILLY", "sales": 2, "median_price": 235500.0, "median_price_per_sqm": 4617.64705882353, "median_rooms": 1.5, "first_sale": "2025-04-15", "last_sale": "2025-04-15"}}, {"type": "Feature", "geometry": {"type": "Point", "coordinates": [2.549444, 48.473905]}, "properties": {"id_parcelle": "77359000AH0019", "address": "16 CHE DES MARINIERS", "sales": 2, "median_price": 284000.0, "median_price_per_sqm": 3550.0, "median_rooms": 4.0, "first_sale": "2022-12-13", "last_sale": "2022-12-13"}}, {"type": "Feature", "geometry": {"type": "Point", "coordinates": [2.549415, 48.472183]}, "properties": {"id_parcelle": "77359000AH0069", "address": "33 RUE DE MILLY", "sales": 2, "median_price": 423000.0, "median_price_per_sqm": 2169.230769230769, "median_rooms": 6.0, "first_sale": "2022-07-04", "last_sale": "2022-07-04"}}, {"type": "Feature", "geometry": {"type": "Point", "coordinates": [2.551312, 48.478313]}, "properties": {"id_parcelle": "77359000AK0156", "address": "RUE DU DOC SIFFRE", "sales": 2, "median_price": 239290.0, "median_price_per_sqm": null, "median_rooms": null, "first_sale": "2023-09-07", "last_sale": "2023-09-07"}}, {"type": "Feature", "geometry": {"type": "Point", "coordinates": [2.551029, 48.478647]}, "properties": {"id_parcelle": "77359000AK0149", "address": "27 RUE DU DOC SIFFRE", "sales": 2, "median_price": 15000.0, "median_price_per_sqm": null, "median_rooms": 0.0, "first_sale": "2022-01-20", "last_sale": "2022-01-20"}}, {"type": "Feature", "geometry": {"type": "Point", "coordinates": [2.550721, 48.478849]}, "properties": {"id_parcelle": "77359000AK0143", "address": "37 RUE DU DOC SIFFRE", "sales": 2, "median_price": 90000.0, "median_price_per_sqm": 2029.4117647058824, "median_rooms": 2.0, "first_sale": "2025-03-03", "last_sale": "2025-03-03"}}, {"type": "Feature", "geometry": {"type": "Point", "coordinates": [2.548544, 48.480294]}, "properties": {"id_parcelle": "77359000AK0124", "address": "63 RUE DU DOC SIFFRE", "sales": 2, "median_price": 379504.0, "median_price_per_sqm": 3833.373737373737, "median_rooms": 5.0, "first_sale": "2024-07-01", "last_sale": "2024-07-01"}}, {"type": "Feature", "geometry": {"type": "Point", "coordinates": [2.548062, 48.480356]}, "properties": {"id_parcelle": "77359000AK0121", "address": "1 RUE DE LA PLANCHE", "sales": 2, "median_price": 320050.0, "median_price_per_sqm": 3265.816326530612, "median_rooms": 4.0, "first_sale": "2021-08-25", "last_sale": "2021-08-25"}}, {"type": "Feature", "geometry": {"type": "Point", "coordinates": [2.552329, 48.476701]}, "properties": {"id_parcelle": "77359000AI0062", "address": "8 RUE DU GRAND MOULIN", "sales": 2, "median_price": 357000.0, "median_price_per_sqm": 4353.658536585366, "median_rooms": 1.5, "first_sale": "2024-08-02", "last_sale": "2024-08-02"}}, {"type": "Feature", "geometry": {"type": "Point", "coordinates": [2.552588, 48.476151]}, "properties": {"id_parcelle": "77359000AI0069", "address": "7 RUE DU GRAND MOULIN", "sales": 2, "median_price": 442000.0, "median_price_per_sqm": 4911.111111111111, "median_rooms": 2.0, "first_sale": "2022-06-01", "last_sale": "2022-06-01"}}, {"type": "Feature", "geometry": {"type": "Point", "coordinates": [2.551761, 48.474295]}, "properties": {"id_parcelle": "77359000AI0122", "address": "26 RUE DE MILLY", "sales": 2, "median_price": 290000.0, "median_price_per_sqm": 3222.222222222222, "median_rooms": 2.0, "first_sale": "2025-01-10", "last_sale": "2025-01-10"}}, {"type": "Feature", "geometry": {"type": "Point", "coordinates": [2.545604, 48.475845]}, "properties": {"id_parcelle": "77359000AH0006", "address": "51 RUE DE SAINT GERMAIN", "sales": 2, "median_price": 350000.0, "median_price_per_sqm": 3535.3535353535353, "median_rooms": 5.0, "first_sale": "2021-05-31", "last_sale": "2021-05-31"}}, {"type": "Feature", "geometry": {"type": "Point", "coordinates": [2.551038, 48.478523]}, "properties": {"id_parcelle": "77359000AK0199", "address": "27 RUE DU DOC SIFFRE", "sales": 2, "median_price": 885000.0, "median_price_per_sqm": 7375.0, "median_rooms": 3.0, "first_sale": "2022-01-20", "last_sale": "2022-01-20"}}, {"type": "Feature", "geometry": {"type": "Point", "coordinates": [2.5453, 48.476689]}, "properties": {"id_parcelle": "77359000AK0188", "address": "38 RUE DE SAINT GERMAIN", "sales": 2, "median_price": 422000.0, "median_price_per_sqm": 3221.374045801527, "median_rooms": 7.0, "first_sale": "2022-03-09", "last_sale": "2022-03-09"}}, {"type": "Feature", "geometry": {"type": "Point", "coordinates": [2.546046, 48.477026]}, "properties": {"id_parcelle": "77359000AK0182", "address": "32 RUE DE SAINT GERMAIN", "sales": 2, "median_price": 312000.0, "median_price_per_sqm": 2400.0, "median_rooms": 2.0, "first_sale": "2024-01-26", "last_sale": "2024-01-26"}}, {"type": "Feature", "geometry": {"type": "Point", "coordinates": [2.520632, 48.483438]}, "properties": {"id_parcelle": "77359000AL0007", "address": "30 RUE DES GROUETTES", "sales": 2, "median_price": 226000.0, "median_price_per_sqm": 2511.1111111111113, "median_rooms": 3.0, "first_sale": "2021-10-07", "last_sale": "2021-10-07"}}, {"type": "Feature", "geometry": {"type": "Point", "coordinates": [2.551034, 48.478208]}, "properties": {"id_parcelle": "77359000AK0158", "address": "25 RUE DU DOC SIFFRE", "sales": 2, "median_price": 239290.0, "median_price_per_sqm": 2943.133365586196, "median_rooms": 3.0, "first_sale": "2023-09-07", "last_sale": "2023-09-07"}}, {"type": "Feature", "geometry": {"type": "Point", "coordinates": [2.546424, 48.47673]}, "properties": {"id_parcelle": "77359000AK0181", "address": "32 RUE DE SAINT GERMAIN", "sales": 2, "median_price": 299000.0, "median_price_per_sqm": 3436.7816091954023, "median_rooms": 2.0, "first_sale": "2025-08-14", "last_sale": "2025-08-14"}}, {"type": "Feature", "geometry": {"type": "Point", "coordinates": [2.548745, 48.477358]}, "properties": {"id_parcelle": "77359000AK0168", "address": "16 RUE DE SAINT GERMAIN", "sales": 2, "median_price": 462000.0, "median_price_per_sqm": 5634.1463414634145, "median_rooms": 2.0, "first_sale": "2022-12-23", "last_sale": "2022-12-23"}}, {"type": "Feature", "geometry": {"type": "Point", "coordinates": [2.539183, 48.488124]}, "properties": {"id_parcelle": "77359000AM0102", "address": "28 RUE DES BELLES VUES", "sales": 2, "median_price": 293000.0, "median_price_per_sqm": 2570.1754385964914, "median_rooms": 5.0, "first_sale": "2024-04-29", "last_sale": "2024-04-29"}}, {"type": "Feature", "geometry": {"type": "Point", "coordinates": [2.535122, 48.486266]}, "properties": {"id_parcelle": "77359000AM0030", "address": "2 RUE DU BATARDEAU", "sales": 2, "median_price": 533400.0, "median_price_per_sqm": 3232.7272727272725, "median_rooms": 6.0, "first_sale": "2024-02-27", "last_sale": "2024-02-27"}}, {"type": "Feature", "geometry": {"type": "Point", "coordinates": [2.521428, 48.48241]}, "properties": {"id_parcelle": "77359000AL0132", "address": "11 CHE DU PETIT MOULIN", "sales": 2, "median_price": 150000.0, "median_price_per_sqm": null, "median_rooms": null, "first_sale": "2023-07-24", "last_sale": "2023-07-24"}}, {"type": "Feature", "geometry": {"type": "Point", "coordinates": [2.515778, 48.481684]}, "properties": {"id_parcelle": "77359000AL0127", "address": "43 RUE DES GROUETTES", "sales": 2, "median_price": 280000.0, "median_price_per_sqm": 3733.3333333333335, "median_rooms": 2.0, "first_sale": "2022-06-10", "last_sale": "2022-06-10"}}, {"type": "Feature", "geometry": {"type": "Point", "coordinates": [2.533232, 48.484649]}, "properties": {"id_parcelle": "77359000YB0164", "address": "5000 CHE DES GLAISES", "sales": 2, "median_price": 645000.0, "median_price_per_sqm": 2087.378640776699, "median_rooms": 8.0, "first_sale": "2021-06-21", "last_sale": "2021-06-21"}}, {"type": "Feature", "geometry": {"type": "Point", "coordinates": [2.536268, 48.485546]}, "properties": {"id_parcelle": "77359000AM0132", "address": "1 RUE DE LA VALLEE", "sales": 2, "median_price": 572300.0, "median_price_per_sqm": 6153.763440860215, "median_rooms": 1.5, "first_sale": "2023-08-03", "last_sale": "2023-08-03"}}, {"type": "Feature", "geometry": {"type": "Point", "coordinates": [2.536294, 48.48413]}, "properties": {"id_parcelle": "77359000YC0021", "address": "LES BAS CHESNEAUX", "sales": 2, "median_price": 14000.0, "median_price_per_sqm": null, "median_rooms": null, "first_sale": "2022-12-16", "last_sale": "2022-12-16"}}, {"type": "Feature", "geometry": {"type": "Point", "coordinates": [2.537401, 48.483066]}, "properties": {"id_parcelle": "77359000YC0072", "address": "LES BAS CHESNEAUX", "sales": 2, "median_price": 6124.5, "median_price_per_sqm": null, "median_rooms": null, "first_sale": "2021-09-30", "last_sale": "2022-10-27"}}, {"type": "Feature", "geometry": {"type": "Point", "coordinates": [2.540076, 48.480336]}, "properties": {"id_parcelle": "77359000YC0244", "address": "LES CARREAUX", "sales": 2, "median_price": 6124.5, "median_price_per_sqm": null, "median_rooms": null, "first_sale": "2021-09-30", "last_sale": "2022-10-27"}}, {"type": "Feature", "geometry": {"type": "Point", "coordinates": [2.539872, 48.479987]}, "properties": {"id_parcelle": "77359000YC0245", "address": "LES CARREAUX", "sales": 2, "median_price": 6124.5, "median_price_per_sqm": null, "median_rooms": null, "first_sale": "2021-09-30", "last_sale": "2022-10-27"}}, {"type": "Feature", "geometry": {"type": "Point", "coordinates": [2.539093, 48.480643]}, "properties": {"id_parcelle": "77359000YC0343", "address": "LES CARREAUX", "sales": 2, "median_price": 6124.5, "median_price_per_sqm": null, "median_rooms": null, "first_sale": "2021-09-30", "last_sale": "2022-10-27"}}, {"type": "Feature", "geometry": {"type": "Point", "coordinates": [2.538754, 48.480307]}, "properties": {"id_parcelle": "77359000YC0344", "address": "LES CARREAUX", "sales": 2, "median_price": 6124.5, "median_price_per_sqm": null, "median_rooms": null, "first_sale": "2021-09-30", "last_sale": "2022-10-27"}}, {"type": "Feature", "geometry": {"type": "Point", "coordinates": [2.539171, 48.480477]}, "properties": {"id_parcelle": "77359000YC0345", "address": "LES CARREAUX", "sales": 2, "median_price": 6124.5, "median_price_per_sqm": null, "median_rooms": null, "first_sale": "2021-09-30", "last_sale": "2022-10-27"}}, {"type": "Feature", "geometry": {"type": "Point", "coordinates": [2.539597, 48.480107]}, "properties": {"id_parcelle": "77359000YC0352", "address": "LES CARREAUX", "sales": 2, "median_price": 6124.5, "median_price_per_sqm": null, "median_rooms": null, "first_sale": "2021-09-30", "last_sale": "2022-10-27"}}, {"type": "Feature", "geometry": {"type": "Point", "coordinates": [2.539162, 48.479845]}, "properties": {"id_parcelle": "77359000YC0354", "address": "LES CARREAUX", "sales": 2, "median_price": 6124.5, "median_price_per_sqm": null, "median_rooms": null, "first_sale": "2021-09-30", "last_sale": "2022-10-27"}}, {"type": "Feature", "geometry": {"type": "Point", "coordinates": [2.538248, 48.479727]}, "properties": {"id_parcelle": "77359000YC0416", "address": "LES CARREAUX", "sales": 2, "median_price": 6124.5, "median_price_per_sqm": null, "median_rooms": null, "first_sale": "2021-09-30", "last_sale": "2022-10-27"}}]}