{"type": "FeatureCollection", "features": [{"type": "Feature", "geometry": {"type": "Point", "coordinates": [2.810738, 48.144297]}, "properties": {"id_parcelle": "77050000ZK0053", "address": "17 RUE DE LA JEANDRILLONNERIE", "sales": 12, "median_price": 275500.0, "median_price_per_sqm": 1669.6969696969697, "median_rooms": 0.0, "first_sale": "2025-07-28", "last_sale": "2025-07-28"}}, {"type": "Feature", "geometry": {"type": "Point", "coordinates": [2.833356, 48.152229]}, "properties": {"id_parcelle": "770500000A0283", "address": "14 RUE GRANDE", "sales": 9, "median_price": 180000.0, "median_price_per_sqm": 4285.714285714285, "median_rooms": 1.0, "first_sale": "2024-05-03", "last_sale": "2024-05-03"}}, {"type": "Feature", "geometry": {"type": "Point", "coordinates": [2.836682, 48.151634]}, "properties": {"id_parcelle": "770500000A0584", "address": "9 RUE SAINT LOUP", "sales": 6, "median_price": 357000.0, "median_price_per_sqm": 2163.6363636363635, "median_rooms": 0.0, "first_sale": "2021-10-02", "last_sale": "2021-10-02"}}, {"type": "Feature", "geometry": {"type": "Point", "coordinates": [2.832035, 48.154879]}, "properties": {"id_parcelle": "77050000ZV0025", "address": "13 RUE DES BORDES", "sales": 4, "median_price": 225000.0, "median_price_per_sqm": 2045.4545454545455, "median_rooms": 3.0, "first_sale": "2023-07-01", "last_sale": "2023-07-01"}}, {"type": "Feature", "geometry": {"type": "Point", "coordinates": [2.848467, 48.141512]}, "properties": {"id_parcelle": "770500000C0394", "address": "6 BARBIGNY", "sales": 4, "median_price": 300000.0, "median_price_per_sqm": 2205.8823529411766, "median_rooms": 2.5, "first_sale": "2022-07-06", "last_sale": "2022-07-06"}}, {"type": "Feature", "geometry": {"type": "Point", "coordinates": [2.81223, 48.146225]}, "properties": {"id_parcelle": "77050000ZK0045", "address": "1 RUE DE LA JEANDRILLONNERIE", "sales": 4, "median_price": 117000.0, "median_price_per_sqm": 1581.081081081081, "median_rooms": 2.0, "first_sale": "2021-11-30", "last_sale": "2021-11-30"}}, {"type": "Feature", "geometry": {"type": "Point", "coordinates": [2.834824, 48.151694]}, "properties": {"id_parcelle": "770500000A0453", "address": "5 AV DU GATINAIS", "sales": 3, "median_price": 126000.0, "median_price_per_sqm": 961.8320610687023, "median_rooms": 0.0, "first_sale": "2025-03-07", "last_sale": "2025-03-07"}}, {"type": "Feature", "geometry": {"type": "Point", "coordinates": [2.832453, 48.151596]}, "properties": {"id_parcelle": "770500000A0469", "address": "6 RUE DU GUE", "sales": 3, "median_price": 110000.0, "median_price_per_sqm": 575.9162303664922, "median_rooms": 0.0, "first_sale": "2022-09-09", "last_sale": "2022-09-09"}}, {"type": "Feature", "geometry": {"type": "Point", "coordinates": [2.834083, 48.15186]}, "properties": {"id_parcelle": "770500000A0436", "address": "6 AV DU GATINAIS", "sales": 3, "median_price": 109300.0, "median_price_per_sqm": 1188.5874542124543, "median_rooms": 0.0, "first_sale": "2025-12-22", "last_sale": "2025-12-22"}}, {"type": "Feature", "geometry": {"type": "Point", "coordinates": [2.805384, 48.147628]}, "properties": {"id_parcelle": "77050000YI0010", "address": "PENTE DES CANNIVELLES", "sales": 3, "median_price": 80210.0, "median_price_per_sqm": null, "median_rooms": null, "first_sale": "2023-07-21", "last_sale": "2023-07-21"}}, {"type": "Feature", "geometry": {"type": "Point", "coordinates": [2.833358, 48.152361]}, "properties": {"id_parcelle": "770500000A0281", "address": "21 RUE DE CESAR", "sales": 3, "median_price": 162000.0, "median_price_per_sqm": 3790.3846153846152, "median_rooms": 2.0, "first_sale": "2022-10-04", "last_sale": "2022-10-04"}}, {"type": "Feature", "geometry": {"type": "Point", "coordinates": [2.829732, 48.152307]}, "properties": {"id_parcelle": "770500000A0446", "address": "54 RUE DE CESAR", "sales": 3, "median_price": 178000.0, "median_price_per_sqm": 1369.2307692307693, "median_rooms": 0.0, "first_sale": "2022-06-30", "last_sale": "2022-06-30"}}, {"type": "Feature", "geometry": {"type": "Point", "coordinates": [2.835249, 48.153049]}, "properties": {"id_parcelle": "770500000A0420", "address": "12 RUE DE CESAR", "sales": 3, "median_price": 94000.0, "median_price_per_sqm": 1305.5555555555557, "median_rooms": 0.0, "first_sale": "2025-06-06", "last_sale": "2025-06-06"}}, {"type": "Feature", "geometry": {"type": "Point", "coordinates": [2.836166, 48.152086]}, "properties": {"id_parcelle": "770500000A0253", "address": "3 RUE SAINT LOUP", "sales": 3, "median_price": 100000.0, "median_price_per_sqm": 787.4015748031496, "median_rooms": 0.0, "first_sale": "2024-02-24", "last_sale": "2024-02-24"}}, {"type": "Feature", "geometry": {"type": "Point", "coordinates": [2.814669, 48.153378]}, "properties": {"id_parcelle": "77050000ZS0028", "address": "LA COUR DIEU", "sales": 3, "median_price": 80210.0, "median_price_per_sqm": null, "median_rooms": null, "first_sale": "2023-07-21", "last_sale": "2023-07-21"}}, {"type": "Feature", "geometry": {"type": "Point", "coordinates": [2.801569, 48.137022]}, "properties": {"id_parcelle": "77050000YE0073", "address": "LE BOIS DE BRANDARD", "sales": 3, "median_price": 7500.0, "median_price_per_sqm": null, "median_rooms": null, "first_sale": "2023-08-02", "last_sale": "2023-08-02"}}, {"type": "Feature", "geometry": {"type": "Point", "coordinates": [2.814194, 48.156416]}, "properties": {"id_parcelle": "77050000ZS0030", "address": "LA COUR DIEU", "sales": 3, "median_price": 42195.0, "median_price_per_sqm": null, "median_rooms": null, "first_sale": "2021-04-12", "last_sale": "2021-04-12"}}, {"type": "Feature", "geometry": {"type": "Point", "coordinates": [2.820136, 48.145516]}, "properties": {"id_parcelle": "77050000YH0064", "address": "ROCHEMORT", "sales": 3, "median_price": 42195.0, "median_price_per_sqm": null, "median_rooms": null, "first_sale": "2021-04-12", "last_sale": "2021-04-12"}}, {"type": "Feature", "geometry": {"type": "Point", "coordinates": [2.82117, 48.142108]}, "properties": {"id_parcelle": "770500000D1508", "address": "2 ROCHEMORT", "sales": 3, "median_price": 257109.1, "median_price_per_sqm": 2706.4115789473685, "median_rooms": 0.0, "first_sale": "2022-05-25", "last_sale": "2022-05-25"}}, {"type": "Feature", "geometry": {"type": "Point", "coordinates": [2.806371, 48.137914]}, "properties": {"id_parcelle": "770500000D0633", "address": "19 BRANDARD", "sales": 3, "median_price": 105000.0, "median_price_per_sqm": 1981.132075471698, "median_rooms": 2.0, "first_sale": "2021-02-10", "last_sale": "2024-01-31"}}, {"type": "Feature", "geometry": {"type": "Point", "coordinates": [2.833464, 48.152191]}, "properties": {"id_parcelle": "770500000A0282", "address": "5 RUE GRANDE", "sales": 2, "median_price": 94000.0, "median_price_per_sqm": 1175.0, "median_rooms": 1.5, "first_sale": "2021-07-31", "last_sale": "2021-07-31"}}, {"type": "Feature", "geometry": {"type": "Point", "coordinates": [2.83513, 48.153083]}, "properties": {"id_parcelle": "770500000A0419", "address": "14 RUE DE CESAR", "sales": 2, "median_price": 35000.0, "median_price_per_sqm": null, "median_rooms": 0.0, "first_sale": "2024-08-10", "last_sale": "2024-08-10"}}, {"type": "Feature", "geometry": {"type": "Point", "coordinates": [2.830345, 48.152094]}, "properties": {"id_parcelle": "770500000A0554", "address": "39 RUE DE CESAR", "sales": 2, "median_price": 85000.0, "median_price_per_sqm": 1000.0, "median_rooms": 2.0, "first_sale": "2022-05-03", "last_sale": "2022-05-03"}}, {"type": "Feature", "geometry": {"type": "Point", "coordinates": [2.832213, 48.152865]}, "properties": {"id_parcelle": "770500000A0476", "address": "5079 RUE DES BORDES", "sales": 2, "median_price": 24000.0, "median_price_per_sqm": null, "median_rooms": 0.0, "first_sale": "2023-03-16", "last_sale": "2023-03-16"}}, {"type": "Feature", "geometry": {"type": "Point", "coordinates": [2.830324, 48.151858]}, "properties": {"id_parcelle": "770500000A0376", "address": "43 RUE DE CESAR", "sales": 2, "median_price": 218000.0, "median_price_per_sqm": 3963.6363636363635, "median_rooms": 1.0, "first_sale": "2023-07-05", "last_sale": "2023-07-05"}}, {"type": "Feature", "geometry": {"type": "Point", "coordinates": [2.828104, 48.151584]}, "properties": {"id_parcelle": "77050000YA0095", "address": "53 RUE DE CESAR", "sales": 2, "median_price": 220500.0, "median_price_per_sqm": 1274.5664739884394, "median_rooms": 7.0, "first_sale": "2025-12-29", "last_sale": "2025-12-29"}}, {"type": "Feature", "geometry": {"type": "Point", "coordinates": [2.83442, 48.14981]}, "properties": {"id_parcelle": "77050000YA0114", "address": "5106 LA CHEVRE", "sales": 2, "median_price": 126000.0, "median_price_per_sqm": 984.375, "median_rooms": 3.5, "first_sale": "2023-12-01", "last_sale": "2023-12-01"}}, {"type": "Feature", "geometry": {"type": "Point", "coordinates": [2.836163, 48.146922]}, "properties": {"id_parcelle": "77050000YA0104", "address": "4 LA CHEVRE", "sales": 2, "median_price": 219000.0, "median_price_per_sqm": 1684.6153846153845, "median_rooms": 6.0, "first_sale": "2025-10-24", "last_sale": "2025-10-24"}}, {"type": "Feature", "geometry": {"type": "Point", "coordinates": [2.806967, 48.137525]}, "properties": {"id_parcelle": "770500000D0634", "address": "BRANDARD", "sales": 2, "median_price": 105000.0, "median_price_per_sqm": null, "median_rooms": null, "first_sale": "2021-02-10", "last_sale": "2024-01-31"}}, {"type": "Feature", "geometry": {"type": "Point", "coordinates": [2.812992, 48.143726]}, "properties": {"id_parcelle": "770500000D0389", "address": "BOIS DE PONTLEVE", "sales": 2, "median_price": 234000.0, "median_price_per_sqm": null, "median_rooms": null, "first_sale": "2021-03-12", "last_sale": "2023-01-20"}}, {"type": "Feature", "geometry": {"type": "Point", "coordinates": [2.809287, 48.147877]}, "properties": {"id_parcelle": "77050000YH0001", "address": "BOIS DES CANNIVELLES", "sales": 2, "median_price": 80210.0, "median_price_per_sqm": null, "median_rooms": null, "first_sale": "2023-07-21", "last_sale": "2023-07-21"}}, {"type": "Feature", "geometry": {"type": "Point", "coordinates": [2.838852, 48.139855]}, "properties": {"id_parcelle": "77050000YC0020", "address": "LES PRES DE BRANLES", "sales": 2, "median_price": 16568.0, "median_price_per_sqm": null, "median_rooms": null, "first_sale": "2021-05-28", "last_sale": "2021-05-28"}}, {"type": "Feature", "geometry": {"type": "Point", "coordinates": [2.838341, 48.139602]}, "properties": {"id_parcelle": "77050000YC0021", "address": "LES PRES DE BRANLES", "sales": 2, "median_price": 16568.0, "median_price_per_sqm": null, "median_rooms": null, "first_sale": "2021-05-28", "last_sale": "2021-05-28"}}, {"type": "Feature", "geometry": {"type": "Point", "coordinates": [2.836845, 48.139441]}, "properties": {"id_parcelle": "77050000YC0022", "address": "LES PRES DE BRANLES", "sales": 2, "median_price": 16568.0, "median_price_per_sqm": null, "median_rooms": null, "first_sale": "2021-05-28", "last_sale": "2021-05-28"}}, {"type": "Feature", "geometry": {"type": "Point", "coordinates": [2.834636, 48.14958]}, "properties": {"id_parcelle": "77050000YA0115", "address": "7 RUE DE LA CHEVRE", "sales": 2, "median_price": 215000.0, "median_price_per_sqm": 1692.9133858267717, "median_rooms": 3.0, "first_sale": "2025-08-28", "last_sale": "2025-08-28"}}, {"type": "Feature", "geometry": {"type": "Point", "coordinates": [2.809657, 48.145256]}, "properties": {"id_parcelle": "77050000ZK0033", "address": "14 RUE DE LA JEANDRILLONNERIE", "sales": 2, "median_price": 215000.0, "median_price_per_sqm": 1762.295081967213, "median_rooms": 4.0, "first_sale": "2021-01-16", "last_sale": "2021-01-16"}}, {"type": "Feature", "geometry": {"type": "Point", "coordinates": [2.802376, 48.140475]}, "properties": {"id_parcelle": "77050000YI0037", "address": "PRAIRIE DE GROS LOT", "sales": 2, "median_price": 7700.0, "median_price_per_sqm": null, "median_rooms": null, "first_sale": "2025-08-12", "last_sale": "2025-08-12"}}, {"type": "Feature", "geometry": {"type": "Point", "coordinates": [2.802984, 48.140285]}, "properties": {"id_parcelle": "77050000YI0038", "address": "PRAIRIE DE GROS LOT", "sales": 2, "median_price": 7700.0, "median_price_per_sqm": null, "median_rooms": null, "first_sale": "2025-08-12", "last_sale": "2025-08-12"}}, {"type": "Feature", "geometry": {"type": "Point", "coordinates": [2.809911, 48.145659]}, "properties": {"id_parcelle": "77050000ZK0142", "address": "12 RUE DE LA JEANDRILLONNERIE", "sales": 2, "median_price": 100000.0, "median_price_per_sqm": 862.0689655172414, "median_rooms": 6.0, "first_sale": "2024-07-17", "last_sale": "2024-07-17"}}, {"type": "Feature", "geometry": {"type": "Point", "coordinates": [2.812844, 48.142903]}, "properties": {"id_parcelle": "77050000ZK0118", "address": "12 PINTOIS", "sales": 2, "median_price": 234000.0, "median_price_per_sqm": 2141.0392364793215, "median_rooms": 3.5, "first_sale": "2021-03-12", "last_sale": "2023-01-20"}}, {"type": "Feature", "geometry": {"type": "Point", "coordinates": [2.802624, 48.141372]}, "properties": {"id_parcelle": "77050000YI0039", "address": "PRAIRIE DE GROS LOT", "sales": 2, "median_price": 7700.0, "median_price_per_sqm": null, "median_rooms": null, "first_sale": "2025-08-12", "last_sale": "2025-08-12"}}, {"type": "Feature", "geometry": {"type": "Point", "coordinates": [2.808732, 48.144612]}, "properties": {"id_parcelle": "77050000ZK0198", "address": "10 RUE DES CLOSEAUX", "sales": 2, "median_price": 310000.0, "median_price_per_sqm": 2000.0, "median_rooms": 5.0, "first_sale": "2023-09-02", "last_sale": "2023-09-02"}}, {"type": "Feature", "geometry": {"type": "Point", "coordinates": [2.817997, 48.162919]}, "properties": {"id_parcelle": "77050000ZT0010", "address": "LES ARDOUZES", "sales": 2, "median_price": 1770000.0, "median_price_per_sqm": null, "median_rooms": null, "first_sale": "2024-01-16", "last_sale": "2024-01-16"}}, {"type": "Feature", "geometry": {"type": "Point", "coordinates": [2.812003, 48.161486]}, "properties": {"id_parcelle": "77050000ZT0066", "address": "LES ARDOUZES", "sales": 2, "median_price": 27000.0, "median_price_per_sqm": null, "median_rooms": null, "first_sale": "2022-10-29", "last_sale": "2022-10-29"}}, {"type": "Feature", "geometry": {"type": "Point", "coordinates": [2.83633, 48.158123]}, "properties": {"id_parcelle": "77050000ZW0007", "address": "LES CHEVETRES", "sales": 2, "median_price": 31905.5, "median_price_per_sqm": null, "median_rooms": null, "first_sale": "2024-07-31", "last_sale": "2024-07-31"}}, {"type": "Feature", "geometry": {"type": "Point", "coordinates": [2.865703, 48.155564]}, "properties": {"id_parcelle": "77050000ZY0014", "address": "LA HAIE MINETTE", "sales": 2, "median_price": 9500.0, "median_price_per_sqm": null, "median_rooms": null, "first_sale": "2021-03-19", "last_sale": "2021-03-19"}}]}