{"type": "FeatureCollection", "features": [{"type": "Feature", "geometry": {"type": "Polygon", "coordinates": [[[2.901489, 48.361186], [2.900215, 48.361193], [2.896313, 48.36123], [2.894755, 48.361236], [2.894345, 48.361228], [2.893078, 48.361246], [2.892133, 48.361251], [2.890193, 48.361276], [2.89016, 48.359957], [2.89014, 48.358905], [2.890117, 48.358548], [2.890017, 48.358208], [2.889616, 48.357282], [2.889452, 48.356751], [2.889376, 48.356282], [2.889421, 48.355762], [2.889413, 48.355571], [2.889253, 48.354956], [2.889172, 48.354753], [2.888943, 48.35432], [2.887963, 48.354332], [2.886986, 48.354301], [2.886249, 48.354252], [2.885396, 48.354145], [2.884668, 48.354138], [2.884122, 48.354166], [2.88135, 48.354508], [2.880434, 48.354616], [2.877694, 48.354916], [2.875637, 48.355146], [2.874778, 48.355228], [2.874326, 48.355657], [2.874074, 48.35585], [2.873788, 48.356023], [2.873241, 48.356252], [2.872933, 48.356361], [2.872116, 48.356688], [2.871799, 48.356856], [2.871477, 48.357054], [2.870887, 48.357489], [2.870611, 48.357727], [2.870185, 48.358048], [2.869931, 48.358206], [2.869268, 48.358526], [2.868089, 48.358979], [2.867718, 48.359147], [2.86709, 48.359462], [2.866771, 48.359601], [2.866145, 48.359936], [2.865883, 48.360098], [2.865629, 48.360288], [2.865373, 48.360527], [2.865236, 48.360703], [2.865187, 48.360871], [2.86519, 48.36121], [2.865456, 48.361438], [2.864826, 48.361542], [2.863147, 48.36191], [2.861857, 48.362256], [2.858464, 48.363084], [2.858597, 48.363189], [2.859145, 48.363814], [2.858401, 48.364131], [2.857657, 48.364323], [2.857809, 48.364557], [2.857374, 48.364494], [2.856887, 48.364473], [2.856077, 48.364528], [2.855574, 48.364603], [2.856491, 48.365571], [2.85812, 48.367306], [2.858217, 48.367229], [2.858889, 48.367626], [2.858747, 48.367757], [2.858036, 48.368315], [2.857899, 48.368466], [2.857869, 48.368615], [2.857639, 48.368876], [2.857367, 48.369088], [2.857198, 48.36935], [2.856668, 48.369823], [2.856282, 48.370032], [2.856123, 48.370219], [2.855841, 48.370317], [2.855471, 48.370684], [2.854582, 48.371505], [2.853947, 48.372042], [2.853233, 48.372481], [2.852699, 48.372879], [2.85241, 48.373001], [2.852053, 48.373268], [2.851668, 48.373421], [2.851753, 48.373474], [2.851978, 48.373462], [2.853694, 48.373087], [2.854578, 48.373777], [2.851694, 48.374957], [2.851372, 48.375157], [2.850621, 48.375484], [2.848983, 48.376408], [2.847938, 48.377186], [2.847724, 48.37742], [2.847108, 48.377891], [2.846707, 48.378342], [2.846194, 48.379053], [2.846959, 48.379349], [2.847215, 48.379482], [2.848357, 48.380295], [2.849061, 48.380729], [2.849204, 48.380771], [2.849342, 48.380738], [2.850311, 48.38034], [2.851099, 48.380053], [2.851237, 48.379974], [2.851431, 48.379797], [2.851658, 48.379654], [2.851912, 48.379537], [2.852112, 48.37948], [2.852356, 48.379287], [2.852943, 48.378956], [2.853138, 48.378931], [2.853304, 48.378847], [2.853881, 48.378674], [2.854142, 48.378474], [2.854401, 48.378333], [2.854965, 48.378289], [2.855046, 48.378326], [2.855372, 48.37878], [2.855508, 48.379012], [2.855645, 48.37916], [2.855715, 48.379319], [2.855761, 48.379717], [2.85589, 48.379796], [2.856143, 48.380148], [2.856358, 48.380094], [2.856813, 48.380179], [2.857019, 48.380379], [2.856938, 48.380483], [2.857112, 48.380676], [2.857481, 48.380871], [2.857929, 48.381031], [2.858353, 48.381242], [2.858504, 48.381343], [2.85901, 48.381761], [2.859456, 48.382086], [2.859524, 48.382175], [2.860055, 48.382625], [2.860265, 48.382667], [2.860629, 48.382959], [2.860791, 48.383062], [2.86115, 48.383027], [2.861739, 48.383126], [2.86213, 48.383332], [2.862929, 48.383571], [2.86428, 48.384069], [2.864508, 48.384145], [2.866422, 48.384415], [2.867822, 48.384738], [2.867895, 48.384821], [2.86815, 48.384827], [2.868281, 48.384787], [2.868759, 48.384946], [2.869087, 48.385087], [2.869585, 48.385218], [2.869979, 48.385293], [2.870309, 48.385485], [2.870474, 48.385655], [2.870654, 48.385943], [2.870648, 48.38634], [2.871107, 48.386742], [2.871204, 48.386791], [2.871859, 48.386883], [2.872331, 48.386906], [2.872541, 48.386885], [2.873164, 48.386916], [2.873841, 48.386907], [2.873909, 48.387007], [2.87389, 48.3873], [2.874087, 48.38737], [2.8754, 48.387699], [2.875483, 48.387755], [2.87605, 48.388265], [2.877195, 48.388842], [2.877418, 48.388937], [2.877619, 48.389091], [2.877853, 48.38912], [2.878421, 48.38913], [2.87864, 48.389173], [2.878805, 48.389271], [2.879029, 48.389336], [2.87948, 48.389409], [2.879594, 48.38954], [2.879846, 48.389697], [2.879405, 48.39017], [2.879255, 48.390398], [2.87908, 48.39072], [2.878944, 48.390921], [2.878633, 48.391221], [2.878551, 48.3914], [2.878472, 48.39177], [2.878493, 48.39201], [2.878506, 48.392613], [2.878578, 48.392809], [2.878683, 48.39296], [2.878986, 48.393143], [2.879141, 48.393401], [2.879197, 48.393666], [2.879168, 48.394086], [2.879221, 48.39423], [2.879257, 48.394808], [2.87919, 48.395126], [2.879052, 48.396118], [2.879012, 48.396539], [2.878949, 48.396881], [2.879067, 48.397444], [2.878635, 48.39778], [2.878157, 48.398119], [2.878, 48.398325], [2.87791, 48.398566], [2.877896, 48.398889], [2.877928, 48.399289], [2.878347, 48.399699], [2.878576, 48.399827], [2.879126, 48.399927], [2.879594, 48.400048], [2.879716, 48.400112], [2.880398, 48.400336], [2.881036, 48.400583], [2.881333, 48.400662], [2.881931, 48.400851], [2.882625, 48.401036], [2.882787, 48.40122], [2.883083, 48.401265], [2.883039, 48.401457], [2.8832, 48.401514], [2.883314, 48.401627], [2.883109, 48.401748], [2.883285, 48.40188], [2.883042, 48.401999], [2.883196, 48.402092], [2.883561, 48.402135], [2.883409, 48.40266], [2.883159, 48.402876], [2.882941, 48.403122], [2.882534, 48.403683], [2.882446, 48.403896], [2.882327, 48.404467], [2.88217, 48.405358], [2.882088, 48.405695], [2.882017, 48.405873], [2.881543, 48.406589], [2.881415, 48.407032], [2.881455, 48.407297], [2.881541, 48.407483], [2.881775, 48.407772], [2.881934, 48.407902], [2.882373, 48.408137], [2.882394, 48.408283], [2.882205, 48.408528], [2.881309, 48.409488], [2.881172, 48.409774], [2.881103, 48.410034], [2.883207, 48.410522], [2.884147, 48.410746], [2.88425, 48.410756], [2.885526, 48.411211], [2.88557, 48.411217], [2.887243, 48.411762], [2.887454, 48.412206], [2.8876, 48.412582], [2.887776, 48.412817], [2.887947, 48.412986], [2.888929, 48.413376], [2.889368, 48.413538], [2.890019, 48.413701], [2.890106, 48.413272], [2.890501, 48.413329], [2.891319, 48.413476], [2.891773, 48.413634], [2.892253, 48.413761], [2.892454, 48.413781], [2.892265, 48.414302], [2.891658, 48.415906], [2.891614, 48.415994], [2.89175, 48.416234], [2.891797, 48.41638], [2.891802, 48.416648], [2.891857, 48.416859], [2.892141, 48.417253], [2.892462, 48.417573], [2.892701, 48.417977], [2.892704, 48.41854], [2.892907, 48.4191], [2.892972, 48.419373], [2.892947, 48.41977], [2.892986, 48.420021], [2.893028, 48.420618], [2.893124, 48.421383], [2.893197, 48.421715], [2.893304, 48.421917], [2.893428, 48.422058], [2.894084, 48.423034], [2.894462, 48.423542], [2.895044, 48.424036], [2.895181, 48.424216], [2.895718, 48.425048], [2.89574, 48.425241], [2.895405, 48.426142], [2.896548, 48.426422], [2.897424, 48.426612], [2.897603, 48.426729], [2.898784, 48.428634], [2.899095, 48.428934], [2.899431, 48.429511], [2.899656, 48.430067], [2.899906, 48.430478], [2.900357, 48.431027], [2.900511, 48.431186], [2.900733, 48.431342], [2.901283, 48.431674], [2.901552, 48.431811], [2.902451, 48.432305], [2.903793, 48.433071], [2.904443, 48.433452], [2.90602, 48.432581], [2.906351, 48.432376], [2.906651, 48.432017], [2.906724, 48.431835], [2.906804, 48.43102], [2.906909, 48.429656], [2.906963, 48.429457], [2.907365, 48.429177], [2.908085, 48.428842], [2.908751, 48.428505], [2.908971, 48.428296], [2.909453, 48.427878], [2.910268, 48.427303], [2.91023, 48.427253], [2.91072, 48.427008], [2.91172, 48.426556], [2.912989, 48.426012], [2.913016, 48.425885], [2.913766, 48.426451], [2.914305, 48.42683], [2.915769, 48.428026], [2.916277, 48.42768], [2.916379, 48.427775], [2.917147, 48.428294], [2.919101, 48.429667], [2.92038, 48.430542], [2.92141, 48.431264], [2.923023, 48.432371], [2.923723, 48.432868], [2.924982, 48.432736], [2.925229, 48.43211], [2.925899, 48.430673], [2.926341, 48.429648], [2.926581, 48.429064], [2.926615, 48.429021], [2.927205, 48.427624], [2.927278, 48.427477], [2.92732, 48.426983], [2.927641, 48.426028], [2.92775, 48.425645], [2.927882, 48.425265], [2.927969, 48.424603], [2.928057, 48.424092], [2.928129, 48.423554], [2.928195, 48.423214], [2.928277, 48.422531], [2.928277, 48.421957], [2.92813, 48.421538], [2.927668, 48.420347], [2.927217, 48.419149], [2.928138, 48.418855], [2.928923, 48.418595], [2.92929, 48.418397], [2.929301, 48.418226], [2.929182, 48.418233], [2.92922, 48.417719], [2.929268, 48.417361], [2.929614, 48.415385], [2.929806, 48.414392], [2.929958, 48.413863], [2.930084, 48.413644], [2.93023, 48.413494], [2.930522, 48.413284], [2.929807, 48.412912], [2.929857, 48.411873], [2.929998, 48.411309], [2.930244, 48.410438], [2.930335, 48.409965], [2.930403, 48.409875], [2.930842, 48.409434], [2.930959, 48.409358], [2.931404, 48.40885], [2.932508, 48.407678], [2.932804, 48.40735], [2.932907, 48.407312], [2.93324, 48.406988], [2.934429, 48.405702], [2.934142, 48.404986], [2.933624, 48.403649], [2.933528, 48.403359], [2.933202, 48.402549], [2.933986, 48.401371], [2.934363, 48.40038], [2.934866, 48.399723], [2.936022, 48.398243], [2.936069, 48.398255], [2.937318, 48.397031], [2.936569, 48.396918], [2.936013, 48.3968], [2.934435, 48.396424], [2.933362, 48.396183], [2.932233, 48.395974], [2.931605, 48.39584], [2.930643, 48.395573], [2.930777, 48.39535], [2.931015, 48.395046], [2.931356, 48.394684], [2.931613, 48.39451], [2.932408, 48.393924], [2.933155, 48.392948], [2.933411, 48.392794], [2.934297, 48.39232], [2.934642, 48.392184], [2.934703, 48.391671], [2.934711, 48.39089], [2.934753, 48.390476], [2.934949, 48.389917], [2.935112, 48.389306], [2.935649, 48.389275], [2.93586, 48.388345], [2.93619, 48.387774], [2.935887, 48.387709], [2.934589, 48.387288], [2.93372, 48.386987], [2.932989, 48.386704], [2.932554, 48.386507], [2.931902, 48.386133], [2.931385, 48.385758], [2.930593, 48.384989], [2.93032, 48.384631], [2.929907, 48.38395], [2.929578, 48.383555], [2.929225, 48.38327], [2.927647, 48.382306], [2.925069, 48.381079], [2.924011, 48.380562], [2.921594, 48.379316], [2.920833, 48.378816], [2.919826, 48.377994], [2.919822, 48.37767], [2.919329, 48.377079], [2.918976, 48.376775], [2.918292, 48.376059], [2.917693, 48.375577], [2.917041, 48.375239], [2.915307, 48.374582], [2.913248, 48.373836], [2.912527, 48.373643], [2.91189, 48.373572], [2.910381, 48.373239], [2.909107, 48.37285], [2.907807, 48.37237], [2.905935, 48.371589], [2.904605, 48.370876], [2.903332, 48.370396], [2.901463, 48.36974], [2.900731, 48.36951], [2.900299, 48.369458], [2.898707, 48.369465], [2.897979, 48.369541], [2.897621, 48.369613], [2.897616, 48.369013], [2.897887, 48.368527], [2.898121, 48.368217], [2.898452, 48.367959], [2.898851, 48.367717], [2.899151, 48.36749], [2.899899, 48.366962], [2.900371, 48.366616], [2.9004, 48.366628], [2.901362, 48.365962], [2.901398, 48.365077], [2.901407, 48.364622], [2.901455, 48.363221], [2.901493, 48.361581], [2.901489, 48.361186]]]}, "properties": {"code_iris": "772100000", "nom_iris": "La Grande-Paroisse (commune entière)", "type_iris": "Z", "lat": 48.3938, "lng": 2.8918, "dvf_sales_total": 620, "dvf_sales_appt": 0, "dvf_sales_maison": 0, "dvf_median_price": 170000.0, "dvf_median_ppsqm": 2331.632653061224, "dvf_by_year": "[{\"year\": 2021, \"sales\": 135, \"median_price\": 199800.0}, {\"year\": 2022, \"sales\": 135, \"median_price\": 205000.0}, {\"year\": 2023, \"sales\": 93, \"median_price\": 160000.0}, {\"year\": 2024, \"sales\": 135, \"median_price\": 148000.0}, {\"year\": 2025, \"sales\": 122, \"median_price\": 5500.0}]", "population": 2893, "n_log": null, "n_rp": null, "pct_proprio": null, "pct_hlm": null, "pct_appart": null, "pct_cadres": null, "pct_bac5p": null, "pct_etrangers": null, "pct_0_14": null, "pct_65p": null, "bpe_total": null, "bpe_commerces": null, "bpe_enseignement": null, "bpe_sante": null, "dpe": null, "attractivity_score": null, "rank_attractivity_score": null, "rank_total_attractivity_score": 1, "commune_avg": null, "is_stub": true}}]}