{"type": "FeatureCollection", "features": [{"type": "Feature", "geometry": {"type": "Point", "coordinates": [2.715903, 48.864889]}, "properties": {"id_parcelle": "771240000A1799", "address": "1 RUE DE LA VALLEE", "sales": 18, "median_price": 400000.0, "median_price_per_sqm": 2962.962962962963, "median_rooms": 0.0, "first_sale": "2023-06-29", "last_sale": "2025-12-10"}}, {"type": "Feature", "geometry": {"type": "Point", "coordinates": [2.721447, 48.862158]}, "properties": {"id_parcelle": "771240000A0239", "address": "50 RTE DE TOURNAN", "sales": 16, "median_price": 1550000.0, "median_price_per_sqm": 42242.00581395349, "median_rooms": 0.5, "first_sale": "2022-12-29", "last_sale": "2022-12-29"}}, {"type": "Feature", "geometry": {"type": "Point", "coordinates": [2.714769, 48.865436]}, "properties": {"id_parcelle": "771240000A1075", "address": "5 RUE DE L ORME BOSSU", "sales": 10, "median_price": 106000.0, "median_price_per_sqm": null, "median_rooms": 0.0, "first_sale": "2021-03-08", "last_sale": "2021-03-08"}}, {"type": "Feature", "geometry": {"type": "Point", "coordinates": [2.71629, 48.8637]}, "properties": {"id_parcelle": "771240000A0808", "address": "22 ALL DU BEAUVALLON", "sales": 8, "median_price": 371000.0, "median_price_per_sqm": 4511.875, "median_rooms": 0.0, "first_sale": "2022-04-12", "last_sale": "2024-08-01"}}, {"type": "Feature", "geometry": {"type": "Point", "coordinates": [2.717762, 48.864335]}, "properties": {"id_parcelle": "771240000A0164", "address": "3 ALL DU POILU", "sales": 7, "median_price": 1550000.0, "median_price_per_sqm": 33695.65217391304, "median_rooms": 1.0, "first_sale": "2022-12-29", "last_sale": "2022-12-29"}}, {"type": "Feature", "geometry": {"type": "Point", "coordinates": [2.726699, 48.854426]}, "properties": {"id_parcelle": "77124000ZA0094", "address": "3 ALL DE JOSSIGNY", "sales": 6, "median_price": 525500.0, "median_price_per_sqm": 3951.127819548872, "median_rooms": 0.0, "first_sale": "2025-07-04", "last_sale": "2025-07-04"}}, {"type": "Feature", "geometry": {"type": "Point", "coordinates": [2.722279, 48.86178]}, "properties": {"id_parcelle": "771240000A1454", "address": "46 RUE DU FORT DU BOIS", "sales": 5, "median_price": 490000.0, "median_price_per_sqm": 8448.275862068966, "median_rooms": 0.0, "first_sale": "2022-08-22", "last_sale": "2022-08-22"}}, {"type": "Feature", "geometry": {"type": "Point", "coordinates": [2.722792, 48.86162]}, "properties": {"id_parcelle": "771240000A0833", "address": "60 RTE DE TOURNAN", "sales": 4, "median_price": 401835.0, "median_price_per_sqm": 4960.925925925925, "median_rooms": 4.0, "first_sale": "2024-06-25", "last_sale": "2025-11-06"}}, {"type": "Feature", "geometry": {"type": "Point", "coordinates": [2.715029, 48.865038]}, "properties": {"id_parcelle": "771240000A1134", "address": "10 RUE DE LA VALLEE", "sales": 4, "median_price": 360000.0, "median_price_per_sqm": 4390.243902439024, "median_rooms": 0.0, "first_sale": "2022-04-22", "last_sale": "2022-04-22"}}, {"type": "Feature", "geometry": {"type": "Point", "coordinates": [2.709806, 48.858579]}, "properties": {"id_parcelle": "771240000A1090", "address": "9001 RUE FERRAILLES", "sales": 4, "median_price": 486000.0, "median_price_per_sqm": 3738.4615384615386, "median_rooms": 2.5, "first_sale": "2022-11-09", "last_sale": "2022-11-09"}}, {"type": "Feature", "geometry": {"type": "Point", "coordinates": [2.720478, 48.862643]}, "properties": {"id_parcelle": "771240000A0230", "address": "40 RTE DE TOURNAN", "sales": 4, "median_price": 982870.0, "median_price_per_sqm": 7226.985294117647, "median_rooms": 2.5, "first_sale": "2025-01-22", "last_sale": "2025-01-22"}}, {"type": "Feature", "geometry": {"type": "Point", "coordinates": [2.720073, 48.854815]}, "properties": {"id_parcelle": "771240000A0929", "address": "13 ALL ALPHONSE DAUDET", "sales": 4, "median_price": 406800.0, "median_price_per_sqm": 3506.896551724138, "median_rooms": 2.5, "first_sale": "2024-06-14", "last_sale": "2025-05-23"}}, {"type": "Feature", "geometry": {"type": "Point", "coordinates": [2.716676, 48.864624]}, "properties": {"id_parcelle": "771240000A0107", "address": "3 ALL BEAUSEJOUR", "sales": 4, "median_price": 276000.0, "median_price_per_sqm": 4246.153846153846, "median_rooms": 1.5, "first_sale": "2023-12-19", "last_sale": "2024-08-29"}}, {"type": "Feature", "geometry": {"type": "Point", "coordinates": [2.716445, 48.86509]}, "properties": {"id_parcelle": "771240000A0100", "address": "8 RTE DE TOURNAN", "sales": 4, "median_price": 378750.0, "median_price_per_sqm": 4983.5526315789475, "median_rooms": 1.5, "first_sale": "2022-08-25", "last_sale": "2022-08-25"}}, {"type": "Feature", "geometry": {"type": "Point", "coordinates": [2.716311, 48.864879]}, "properties": {"id_parcelle": "771240000A1461", "address": "4 ALL BEAUSEJOUR", "sales": 4, "median_price": 621100.0, "median_price_per_sqm": 3412.6373626373625, "median_rooms": 2.5, "first_sale": "2021-08-04", "last_sale": "2021-08-04"}}, {"type": "Feature", "geometry": {"type": "Point", "coordinates": [2.717533, 48.859407]}, "properties": {"id_parcelle": "771240000A1665", "address": "11 RUE DU CHATELET", "sales": 4, "median_price": 250000.0, "median_price_per_sqm": 3968.253968253968, "median_rooms": 1.5, "first_sale": "2024-02-01", "last_sale": "2024-02-01"}}, {"type": "Feature", "geometry": {"type": "Point", "coordinates": [2.713651, 48.860995]}, "properties": {"id_parcelle": "771240000A1643", "address": "36 RUE DU CHATELET", "sales": 4, "median_price": 798000.0, "median_price_per_sqm": 3990.0, "median_rooms": 3.5, "first_sale": "2021-08-26", "last_sale": "2021-08-26"}}, {"type": "Feature", "geometry": {"type": "Point", "coordinates": [2.715622, 48.855602]}, "properties": {"id_parcelle": "771240000A1561", "address": "6 RUE DU FORT DU BOIS", "sales": 4, "median_price": 127000.0, "median_price_per_sqm": 3628.5714285714284, "median_rooms": 2.0, "first_sale": "2022-03-09", "last_sale": "2024-08-08"}}, {"type": "Feature", "geometry": {"type": "Point", "coordinates": [2.720781, 48.862779]}, "properties": {"id_parcelle": "771240000A1450", "address": "42 RTE DE TOURNAN", "sales": 4, "median_price": 728935.0, "median_price_per_sqm": 5607.192307692308, "median_rooms": 3.0, "first_sale": "2022-11-21", "last_sale": "2025-01-22"}}, {"type": "Feature", "geometry": {"type": "Point", "coordinates": [2.724957, 48.854854]}, "properties": {"id_parcelle": "77124000ZA0109", "address": "3 ALL DE CHANTELOUP", "sales": 4, "median_price": 460500.0, "median_price_per_sqm": 3029.6052631578946, "median_rooms": 3.5, "first_sale": "2021-05-11", "last_sale": "2021-05-11"}}, {"type": "Feature", "geometry": {"type": "Point", "coordinates": [2.714702, 48.860068]}, "properties": {"id_parcelle": "771240000A1694", "address": "29 RUE DU CHATELET", "sales": 4, "median_price": 550000.0, "median_price_per_sqm": 3691.2751677852348, "median_rooms": 3.0, "first_sale": "2023-01-20", "last_sale": "2025-03-28"}}, {"type": "Feature", "geometry": {"type": "Point", "coordinates": [2.715366, 48.862456]}, "properties": {"id_parcelle": "771240000A1757", "address": "27 RLE BINETTE", "sales": 4, "median_price": 259500.0, "median_price_per_sqm": null, "median_rooms": 0.0, "first_sale": "2025-03-21", "last_sale": "2025-03-21"}}, {"type": "Feature", "geometry": {"type": "Point", "coordinates": [2.721981, 48.861173]}, "properties": {"id_parcelle": "771240000A1166", "address": "38 RUE DU FORT DU BOIS", "sales": 3, "median_price": 292000.0, "median_price_per_sqm": 3650.0, "median_rooms": 0.0, "first_sale": "2022-08-19", "last_sale": "2022-08-19"}}, {"type": "Feature", "geometry": {"type": "Point", "coordinates": [2.723722, 48.85972]}, "properties": {"id_parcelle": "771240000A0501", "address": "15 CLOS POMMIERS", "sales": 3, "median_price": 213000.0, "median_price_per_sqm": 3872.7272727272725, "median_rooms": 0.0, "first_sale": "2021-07-06", "last_sale": "2021-07-06"}}, {"type": "Feature", "geometry": {"type": "Point", "coordinates": [2.71684, 48.863699]}, "properties": {"id_parcelle": "771240000A0139", "address": "13 ALL DU BEAUVALLON", "sales": 3, "median_price": 265000.0, "median_price_per_sqm": 3312.5, "median_rooms": 0.0, "first_sale": "2025-02-27", "last_sale": "2025-02-27"}}, {"type": "Feature", "geometry": {"type": "Point", "coordinates": [2.717796, 48.863702]}, "properties": {"id_parcelle": "771240000A0185", "address": "12 ALL DE L ERMITAGE", "sales": 3, "median_price": 1550000.0, "median_price_per_sqm": 31000.0, "median_rooms": 2.0, "first_sale": "2022-12-29", "last_sale": "2022-12-29"}}, {"type": "Feature", "geometry": {"type": "Point", "coordinates": [2.715876, 48.865175]}, "properties": {"id_parcelle": "771240000A1802", "address": "1 RUE DE LA VALLEE", "sales": 3, "median_price": 400000.0, "median_price_per_sqm": null, "median_rooms": null, "first_sale": "2023-06-29", "last_sale": "2025-12-10"}}, {"type": "Feature", "geometry": {"type": "Point", "coordinates": [2.716777, 48.863504]}, "properties": {"id_parcelle": "771240000A0141", "address": "17 ALL DU BEAUVALLON", "sales": 3, "median_price": 125000.0, "median_price_per_sqm": 2450.9803921568628, "median_rooms": 0.0, "first_sale": "2024-10-24", "last_sale": "2024-10-24"}}, {"type": "Feature", "geometry": {"type": "Point", "coordinates": [2.715609, 48.864678]}, "properties": {"id_parcelle": "771240000A0078", "address": "9 RUE DE LA VALLEE", "sales": 2, "median_price": 379100.0, "median_price_per_sqm": 4120.652173913043, "median_rooms": 1.0, "first_sale": "2022-04-12", "last_sale": "2022-04-12"}}, {"type": "Feature", "geometry": {"type": "Point", "coordinates": [2.717181, 48.863971]}, "properties": {"id_parcelle": "771240000A0154", "address": "14 ALL DU POILU", "sales": 2, "median_price": 245000.0, "median_price_per_sqm": 5212.765957446809, "median_rooms": 1.5, "first_sale": "2025-04-15", "last_sale": "2025-04-15"}}, {"type": "Feature", "geometry": {"type": "Point", "coordinates": [2.718952, 48.861305]}, "properties": {"id_parcelle": "771240000A1242", "address": "18 RLE BINETTE", "sales": 2, "median_price": 259500.0, "median_price_per_sqm": 4325.0, "median_rooms": 1.5, "first_sale": "2021-08-03", "last_sale": "2021-08-03"}}, {"type": "Feature", "geometry": {"type": "Point", "coordinates": [2.720795, 48.855241]}, "properties": {"id_parcelle": "771240000A0942", "address": "1 ALL GEORGES SAND", "sales": 2, "median_price": 321250.0, "median_price_per_sqm": 4283.333333333333, "median_rooms": 3.0, "first_sale": "2021-04-22", "last_sale": "2023-09-06"}}, {"type": "Feature", "geometry": {"type": "Point", "coordinates": [2.719161, 48.854272]}, "properties": {"id_parcelle": "771240000A1016", "address": "18 RUE ANDRE GIDE", "sales": 2, "median_price": 540000.0, "median_price_per_sqm": 3648.6486486486488, "median_rooms": 3.5, "first_sale": "2023-06-29", "last_sale": "2023-06-29"}}, {"type": "Feature", "geometry": {"type": "Point", "coordinates": [2.716411, 48.855109]}, "properties": {"id_parcelle": "771240000A1039", "address": "2 PL LAMARTINE", "sales": 2, "median_price": 375860.0, "median_price_per_sqm": 3326.1946902654868, "median_rooms": 3.0, "first_sale": "2025-08-01", "last_sale": "2025-08-01"}}, {"type": "Feature", "geometry": {"type": "Point", "coordinates": [2.714142, 48.856714]}, "properties": {"id_parcelle": "771240000A0643", "address": "CLOS CHARON", "sales": 2, "median_price": 2213.9449999999997, "median_price_per_sqm": null, "median_rooms": null, "first_sale": "2024-01-24", "last_sale": "2024-11-07"}}, {"type": "Feature", "geometry": {"type": "Point", "coordinates": [2.72267, 48.861012]}, "properties": {"id_parcelle": "771240000A0473", "address": "LE FORT DU BOIS EST", "sales": 2, "median_price": 292000.0, "median_price_per_sqm": null, "median_rooms": null, "first_sale": "2022-08-19", "last_sale": "2022-08-19"}}, {"type": "Feature", "geometry": {"type": "Point", "coordinates": [2.721425, 48.855607]}, "properties": {"id_parcelle": "771240000A0911", "address": "3 ALL JEAN COCTEAU", "sales": 2, "median_price": 426250.0, "median_price_per_sqm": 3180.9701492537315, "median_rooms": 3.0, "first_sale": "2025-04-09", "last_sale": "2025-04-09"}}, {"type": "Feature", "geometry": {"type": "Point", "coordinates": [2.719503, 48.862744]}, "properties": {"id_parcelle": "771240000A0225", "address": "36 RTE DE TOURNAN", "sales": 2, "median_price": 699000.0, "median_price_per_sqm": 3603.092783505155, "median_rooms": 8.0, "first_sale": "2024-05-03", "last_sale": "2024-05-03"}}, {"type": "Feature", "geometry": {"type": "Point", "coordinates": [2.711806, 48.864582]}, "properties": {"id_parcelle": "771240000A0014", "address": "33 RUE DE L ORME BOSSU", "sales": 2, "median_price": 420000.0, "median_price_per_sqm": 3500.0, "median_rooms": 6.0, "first_sale": "2021-06-08", "last_sale": "2021-06-08"}}, {"type": "Feature", "geometry": {"type": "Point", "coordinates": [2.715995, 48.864513]}, "properties": {"id_parcelle": "771240000A0094", "address": "10 ALL BEAUSEJOUR", "sales": 2, "median_price": 446000.0, "median_price_per_sqm": 2973.3333333333335, "median_rooms": 3.0, "first_sale": "2025-05-26", "last_sale": "2025-05-26"}}, {"type": "Feature", "geometry": {"type": "Point", "coordinates": [2.71255, 48.864776]}, "properties": {"id_parcelle": "771240000A0021", "address": "25 RUE DE L ORME BOSSU", "sales": 2, "median_price": 552000.0, "median_price_per_sqm": 2173.228346456693, "median_rooms": 4.0, "first_sale": "2023-04-11", "last_sale": "2023-04-11"}}, {"type": "Feature", "geometry": {"type": "Point", "coordinates": [2.712395, 48.864427]}, "properties": {"id_parcelle": "771240000A0019", "address": "27 RUE DE L ORME BOSSU", "sales": 2, "median_price": 515000.0, "median_price_per_sqm": 14591.666666666668, "median_rooms": 2.5, "first_sale": "2023-06-22", "last_sale": "2023-06-22"}}, {"type": "Feature", "geometry": {"type": "Point", "coordinates": [2.720448, 48.862074]}, "properties": {"id_parcelle": "771240000A1452", "address": "42 RTE DE TOURNAN", "sales": 2, "median_price": 728935.0, "median_price_per_sqm": null, "median_rooms": null, "first_sale": "2022-11-21", "last_sale": "2025-01-22"}}, {"type": "Feature", "geometry": {"type": "Point", "coordinates": [2.720776, 48.862577]}, "properties": {"id_parcelle": "771240000A1451", "address": "42 RTE DE TOURNAN", "sales": 2, "median_price": 728935.0, "median_price_per_sqm": null, "median_rooms": null, "first_sale": "2022-11-21", "last_sale": "2025-01-22"}}, {"type": "Feature", "geometry": {"type": "Point", "coordinates": [2.715913, 48.864351]}, "properties": {"id_parcelle": "771240000A1253", "address": "14 ALL BEAUSEJOUR", "sales": 2, "median_price": 340000.0, "median_price_per_sqm": 4146.341463414634, "median_rooms": 2.0, "first_sale": "2022-04-29", "last_sale": "2022-04-29"}}, {"type": "Feature", "geometry": {"type": "Point", "coordinates": [2.715038, 48.855368]}, "properties": {"id_parcelle": "771240000A1262", "address": "4 RUE DU FORT DU BOIS", "sales": 2, "median_price": 600000.0, "median_price_per_sqm": 2500.0, "median_rooms": 5.0, "first_sale": "2022-12-08", "last_sale": "2022-12-08"}}, {"type": "Feature", "geometry": {"type": "Point", "coordinates": [2.713541, 48.86398]}, "properties": {"id_parcelle": "771240000A1575", "address": "15 ALL DES ROUGETTES", "sales": 2, "median_price": 520000.0, "median_price_per_sqm": 4333.333333333333, "median_rooms": 5.0, "first_sale": "2022-03-11", "last_sale": "2022-03-11"}}, {"type": "Feature", "geometry": {"type": "Point", "coordinates": [2.714889, 48.863137]}, "properties": {"id_parcelle": "771240000A1497", "address": "1 RLE MAILLARD", "sales": 2, "median_price": 652250.0, "median_price_per_sqm": 3135.8173076923076, "median_rooms": 7.0, "first_sale": "2025-08-28", "last_sale": "2025-08-28"}}, {"type": "Feature", "geometry": {"type": "Point", "coordinates": [2.71458, 48.863451]}, "properties": {"id_parcelle": "771240000A1504", "address": "6 ALL DES ROUGETTES", "sales": 2, "median_price": 572650.0, "median_price_per_sqm": 4618.145161290323, "median_rooms": 5.0, "first_sale": "2021-04-22", "last_sale": "2021-04-22"}}, {"type": "Feature", "geometry": {"type": "Point", "coordinates": [2.72016, 48.863167]}, "properties": {"id_parcelle": "771240000A1524", "address": "38 RTE DE TOURNAN", "sales": 2, "median_price": 647895.0, "median_price_per_sqm": 3788.8596491228072, "median_rooms": 6.0, "first_sale": "2021-09-07", "last_sale": "2021-09-07"}}, {"type": "Feature", "geometry": {"type": "Point", "coordinates": [2.724148, 48.859895]}, "properties": {"id_parcelle": "771240000A1387", "address": "7 RUE DU CLOS SAINTE JEANNE", "sales": 2, "median_price": 475000.0, "median_price_per_sqm": 3598.4848484848485, "median_rooms": 7.0, "first_sale": "2021-10-22", "last_sale": "2021-10-22"}}, {"type": "Feature", "geometry": {"type": "Point", "coordinates": [2.71969, 48.861513]}, "properties": {"id_parcelle": "771240000A1276", "address": "6 RLE DU CLOS BINETTE", "sales": 2, "median_price": 353300.0, "median_price_per_sqm": 3498.019801980198, "median_rooms": 2.5, "first_sale": "2025-06-10", "last_sale": "2025-06-10"}}, {"type": "Feature", "geometry": {"type": "Point", "coordinates": [2.715042, 48.859964]}, "properties": {"id_parcelle": "771240000A1712", "address": "29 RUE DU CHATELET", "sales": 2, "median_price": 550000.0, "median_price_per_sqm": null, "median_rooms": null, "first_sale": "2023-01-20", "last_sale": "2025-03-28"}}, {"type": "Feature", "geometry": {"type": "Point", "coordinates": [2.716488, 48.859753]}, "properties": {"id_parcelle": "771240000A1698", "address": "21 RUE DU CHATELET", "sales": 2, "median_price": 385000.0, "median_price_per_sqm": 4583.333333333333, "median_rooms": 2.0, "first_sale": "2023-03-10", "last_sale": "2023-03-10"}}, {"type": "Feature", "geometry": {"type": "Point", "coordinates": [2.716371, 48.865094]}, "properties": {"id_parcelle": "771240000A1794", "address": "8 RTE DE TOURNAN", "sales": 2, "median_price": 378750.0, "median_price_per_sqm": null, "median_rooms": null, "first_sale": "2022-08-25", "last_sale": "2022-08-25"}}, {"type": "Feature", "geometry": {"type": "Point", "coordinates": [2.716233, 48.865143]}, "properties": {"id_parcelle": "771240000A1793", "address": "8 RTE DE TOURNAN", "sales": 2, "median_price": 327967.5, "median_price_per_sqm": null, "median_rooms": null, "first_sale": "2022-08-25", "last_sale": "2023-02-10"}}, {"type": "Feature", "geometry": {"type": "Point", "coordinates": [2.718849, 48.863762]}, "properties": {"id_parcelle": "771240000A1734", "address": "26 RTE DE TOURNAN", "sales": 2, "median_price": 451690.0, "median_price_per_sqm": 3927.7391304347825, "median_rooms": 5.0, "first_sale": "2022-05-03", "last_sale": "2022-05-03"}}, {"type": "Feature", "geometry": {"type": "Point", "coordinates": [2.714914, 48.864774]}, "properties": {"id_parcelle": "771240000A1716", "address": "18 RLE MAILLARD", "sales": 2, "median_price": 980000.0, "median_price_per_sqm": 2942.942942942943, "median_rooms": 0.0, "first_sale": "2023-05-12", "last_sale": "2023-05-12"}}, {"type": "Feature", "geometry": {"type": "Point", "coordinates": [2.715778, 48.865113]}, "properties": {"id_parcelle": "771240000A1801", "address": "1 RUE DE LA VALLEE", "sales": 2, "median_price": 289000.0, "median_price_per_sqm": null, "median_rooms": null, "first_sale": "2023-06-29", "last_sale": "2023-06-29"}}, {"type": "Feature", "geometry": {"type": "Point", "coordinates": [2.715817, 48.865062]}, "properties": {"id_parcelle": "771240000A1800", "address": "1 RUE DE LA VALLEE", "sales": 2, "median_price": 289000.0, "median_price_per_sqm": null, "median_rooms": null, "first_sale": "2023-06-29", "last_sale": "2023-06-29"}}, {"type": "Feature", "geometry": {"type": "Point", "coordinates": [2.725721, 48.854991]}, "properties": {"id_parcelle": "77124000ZA0102", "address": "39 RUE DU LAURENCON", "sales": 2, "median_price": 592000.0, "median_price_per_sqm": 5192.982456140351, "median_rooms": 2.5, "first_sale": "2021-06-29", "last_sale": "2021-06-29"}}, {"type": "Feature", "geometry": {"type": "Point", "coordinates": [2.723421, 48.854162]}, "properties": {"id_parcelle": "77124000ZA0121", "address": "19 RUE DU LAURENCON", "sales": 2, "median_price": 543000.0, "median_price_per_sqm": 3480.769230769231, "median_rooms": 2.5, "first_sale": "2022-02-17", "last_sale": "2022-02-17"}}]}