{"type": "FeatureCollection", "features": [{"type": "Feature", "geometry": {"type": "Point", "coordinates": [2.827969, 48.4609265]}, "properties": {"street_name": "LA FOSSE JUDAS", "sales": 46, "sales_appt": 0, "sales_maison": 0, "median_price": 155000.0, "median_price_per_sqm": null, "turnover_score": 100.0, "turnover_rank": 1, "first_year": 2022, "last_year": 2025, "years_active": 3}}, {"type": "Feature", "geometry": {"type": "Point", "coordinates": [2.831445, 48.455314]}, "properties": {"street_name": "RUE DES TROIS MAILLETS", "sales": 28, "sales_appt": 2, "sales_maison": 9, "median_price": 225000.0, "median_price_per_sqm": 1732.394366197183, "turnover_score": 60.9, "turnover_rank": 2, "first_year": 2021, "last_year": 2025, "years_active": 4}}, {"type": "Feature", "geometry": {"type": "Point", "coordinates": [2.830038, 48.452245]}, "properties": {"street_name": "RUE DE L HEURTEBISE", "sales": 23, "sales_appt": 0, "sales_maison": 8, "median_price": 260000.0, "median_price_per_sqm": 2608.695652173913, "turnover_score": 50.0, "turnover_rank": 3, "first_year": 2021, "last_year": 2025, "years_active": 5}}, {"type": "Feature", "geometry": {"type": "Point", "coordinates": [2.830733, 48.4611235]}, "properties": {"street_name": "VILLIERS", "sales": 22, "sales_appt": 0, "sales_maison": 0, "median_price": 80000.0, "median_price_per_sqm": 527.9503105590062, "turnover_score": 47.8, "turnover_rank": 4, "first_year": 2021, "last_year": 2025, "years_active": 4}}, {"type": "Feature", "geometry": {"type": "Point", "coordinates": [2.8292070000000002, 48.454986500000004]}, "properties": {"street_name": "MACHAULT", "sales": 16, "sales_appt": 0, "sales_maison": 0, "median_price": 228000.0, "median_price_per_sqm": null, "turnover_score": 34.8, "turnover_rank": 5, "first_year": 2021, "last_year": 2025, "years_active": 5}}, {"type": "Feature", "geometry": {"type": "Point", "coordinates": [2.829777, 48.460517]}, "properties": {"street_name": "RUE DE LA VALLEE", "sales": 11, "sales_appt": 2, "sales_maison": 2, "median_price": 165000.0, "median_price_per_sqm": 2496.031746031746, "turnover_score": 23.9, "turnover_rank": 6, "first_year": 2022, "last_year": 2024, "years_active": 3}}, {"type": "Feature", "geometry": {"type": "Point", "coordinates": [2.82762, 48.45408]}, "properties": {"street_name": "RUE DE CHAMPAGNE", "sales": 9, "sales_appt": 0, "sales_maison": 7, "median_price": 257000.0, "median_price_per_sqm": 2911.1111111111113, "turnover_score": 19.6, "turnover_rank": 7, "first_year": 2021, "last_year": 2025, "years_active": 3}}, {"type": "Feature", "geometry": {"type": "Point", "coordinates": [2.835116, 48.461121]}, "properties": {"street_name": "LES FONTENILS", "sales": 6, "sales_appt": 0, "sales_maison": 0, "median_price": 2628.0, "median_price_per_sqm": null, "turnover_score": 13.0, "turnover_rank": 8, "first_year": 2023, "last_year": 2023, "years_active": 1}}, {"type": "Feature", "geometry": {"type": "Point", "coordinates": [2.8296535, 48.452031500000004]}, "properties": {"street_name": "HEURTEBISE", "sales": 6, "sales_appt": 0, "sales_maison": 0, "median_price": 289517.5, "median_price_per_sqm": null, "turnover_score": 13.0, "turnover_rank": 8, "first_year": 2021, "last_year": 2025, "years_active": 2}}, {"type": "Feature", "geometry": {"type": "Point", "coordinates": [2.867403, 48.434379]}, "properties": {"street_name": "VENTE DE LA SABLIERE", "sales": 5, "sales_appt": 0, "sales_maison": 0, "median_price": 1625000.0, "median_price_per_sqm": null, "turnover_score": 10.9, "turnover_rank": 9, "first_year": 2021, "last_year": 2021, "years_active": 1}}, {"type": "Feature", "geometry": {"type": "Point", "coordinates": [2.825416, 48.454128]}, "properties": {"street_name": "L'OREE DE MACHAULT", "sales": 4, "sales_appt": 0, "sales_maison": 2, "median_price": 329000.0, "median_price_per_sqm": 2414.6262886597938, "turnover_score": 8.7, "turnover_rank": 10, "first_year": 2022, "last_year": 2025, "years_active": 2}}, {"type": "Feature", "geometry": {"type": "Point", "coordinates": [2.8311830000000002, 48.459223]}, "properties": {"street_name": "RUE DU PUITS", "sales": 4, "sales_appt": 0, "sales_maison": 4, "median_price": 213850.0, "median_price_per_sqm": 2223.805452645578, "turnover_score": 8.7, "turnover_rank": 10, "first_year": 2021, "last_year": 2025, "years_active": 3}}, {"type": "Feature", "geometry": {"type": "Point", "coordinates": [2.84301, 48.458155500000004]}, "properties": {"street_name": "LES LARRIS GRIS", "sales": 4, "sales_appt": 0, "sales_maison": 0, "median_price": 4212.0, "median_price_per_sqm": null, "turnover_score": 8.7, "turnover_rank": 10, "first_year": 2022, "last_year": 2023, "years_active": 2}}, {"type": "Feature", "geometry": {"type": "Point", "coordinates": [2.828904, 48.450941]}, "properties": {"street_name": "RUE DES VIEUX PRES", "sales": 3, "sales_appt": 0, "sales_maison": 2, "median_price": 200000.0, "median_price_per_sqm": 2159.037180313776, "turnover_score": 6.5, "turnover_rank": 11, "first_year": 2021, "last_year": 2022, "years_active": 2}}, {"type": "Feature", "geometry": {"type": "Point", "coordinates": [2.831961, 48.460738]}, "properties": {"street_name": "RUE DE BAILLY", "sales": 3, "sales_appt": 0, "sales_maison": 1, "median_price": 277000.0, "median_price_per_sqm": 2130.769230769231, "turnover_score": 6.5, "turnover_rank": 11, "first_year": 2022, "last_year": 2022, "years_active": 1}}, {"type": "Feature", "geometry": {"type": "Point", "coordinates": [2.828092, 48.466037]}, "properties": {"street_name": "LES NANGIS", "sales": 3, "sales_appt": 0, "sales_maison": 0, "median_price": 1160.25, "median_price_per_sqm": null, "turnover_score": 6.5, "turnover_rank": 11, "first_year": 2022, "last_year": 2023, "years_active": 2}}, {"type": "Feature", "geometry": {"type": "Point", "coordinates": [2.846444, 48.457578]}, "properties": {"street_name": "VALLEE JEAN DUMAS", "sales": 3, "sales_appt": 0, "sales_maison": 0, "median_price": 7263.75, "median_price_per_sqm": null, "turnover_score": 6.5, "turnover_rank": 11, "first_year": 2022, "last_year": 2023, "years_active": 2}}, {"type": "Feature", "geometry": {"type": "Point", "coordinates": [2.831556, 48.460619]}, "properties": {"street_name": "PL DU PUITS", "sales": 3, "sales_appt": 0, "sales_maison": 2, "median_price": 80000.0, "median_price_per_sqm": 3280.3580067731014, "turnover_score": 6.5, "turnover_rank": 11, "first_year": 2021, "last_year": 2024, "years_active": 2}}, {"type": "Feature", "geometry": {"type": "Point", "coordinates": [2.873124, 48.438282]}, "properties": {"street_name": "LES EGRIAGES", "sales": 3, "sales_appt": 0, "sales_maison": 0, "median_price": 1625000.0, "median_price_per_sqm": null, "turnover_score": 6.5, "turnover_rank": 11, "first_year": 2021, "last_year": 2021, "years_active": 1}}, {"type": "Feature", "geometry": {"type": "Point", "coordinates": [2.830337, 48.460154]}, "properties": {"street_name": "FERME DE VILLIERS", "sales": 2, "sales_appt": 0, "sales_maison": 0, "median_price": 170000.0, "median_price_per_sqm": null, "turnover_score": 4.3, "turnover_rank": 12, "first_year": 2025, "last_year": 2025, "years_active": 1}}, {"type": "Feature", "geometry": {"type": "Point", "coordinates": [2.8603115, 48.4438515]}, "properties": {"street_name": "VENTE DES PLANTES", "sales": 2, "sales_appt": 0, "sales_maison": 0, "median_price": 1625000.0, "median_price_per_sqm": null, "turnover_score": 4.3, "turnover_rank": 12, "first_year": 2021, "last_year": 2021, "years_active": 1}}, {"type": "Feature", "geometry": {"type": "Point", "coordinates": [2.831977, 48.460114]}, "properties": {"street_name": "RUE DES FONTENILS", "sales": 2, "sales_appt": 0, "sales_maison": 1, "median_price": 330000.0, "median_price_per_sqm": 2619.0476190476193, "turnover_score": 4.3, "turnover_rank": 12, "first_year": 2024, "last_year": 2024, "years_active": 1}}, {"type": "Feature", "geometry": {"type": "Point", "coordinates": [2.82834, 48.455755]}, "properties": {"street_name": "RUE DE VILLIERS", "sales": 2, "sales_appt": 0, "sales_maison": 1, "median_price": 126400.0, "median_price_per_sqm": 2808.8888888888887, "turnover_score": 4.3, "turnover_rank": 12, "first_year": 2022, "last_year": 2022, "years_active": 1}}, {"type": "Feature", "geometry": {"type": "Point", "coordinates": [2.8287009999999997, 48.464746]}, "properties": {"street_name": "LES LARRIS DES FOURNEAUX", "sales": 2, "sales_appt": 0, "sales_maison": 0, "median_price": 7263.75, "median_price_per_sqm": null, "turnover_score": 4.3, "turnover_rank": 12, "first_year": 2022, "last_year": 2022, "years_active": 1}}, {"type": "Feature", "geometry": {"type": "Point", "coordinates": [2.837625, 48.454587000000004]}, "properties": {"street_name": "LE PLACEREAU", "sales": 2, "sales_appt": 0, "sales_maison": 0, "median_price": 20000.0, "median_price_per_sqm": null, "turnover_score": 4.3, "turnover_rank": 12, "first_year": 2024, "last_year": 2024, "years_active": 1}}, {"type": "Feature", "geometry": {"type": "Point", "coordinates": [2.823973, 48.463756000000004]}, "properties": {"street_name": "LES CABOURDINES", "sales": 2, "sales_appt": 0, "sales_maison": 0, "median_price": 7263.75, "median_price_per_sqm": null, "turnover_score": 4.3, "turnover_rank": 12, "first_year": 2022, "last_year": 2022, "years_active": 1}}, {"type": "Feature", "geometry": {"type": "Point", "coordinates": [2.843101, 48.460129]}, "properties": {"street_name": "LES GRANDES VALLEES", "sales": 2, "sales_appt": 0, "sales_maison": 0, "median_price": 3632.375, "median_price_per_sqm": null, "turnover_score": 4.3, "turnover_rank": 12, "first_year": 2022, "last_year": 2022, "years_active": 1}}, {"type": "Feature", "geometry": {"type": "Point", "coordinates": [2.837951, 48.4623265]}, "properties": {"street_name": "LA SAUSSOYE", "sales": 2, "sales_appt": 0, "sales_maison": 0, "median_price": 7263.75, "median_price_per_sqm": null, "turnover_score": 4.3, "turnover_rank": 12, "first_year": 2022, "last_year": 2022, "years_active": 1}}, {"type": "Feature", "geometry": {"type": "Point", "coordinates": [2.826035, 48.45649]}, "properties": {"street_name": "CHE DES MARMOUSETS", "sales": 1, "sales_appt": 0, "sales_maison": 0, "median_price": 41850.0, "median_price_per_sqm": null, "turnover_score": 2.2, "turnover_rank": 13, "first_year": 2025, "last_year": 2025, "years_active": 1}}, {"type": "Feature", "geometry": {"type": "Point", "coordinates": [2.834136, 48.454253]}, "properties": {"street_name": "CHE DES FEMMES", "sales": 1, "sales_appt": 0, "sales_maison": 0, "median_price": 77000.0, "median_price_per_sqm": null, "turnover_score": 2.2, "turnover_rank": 13, "first_year": 2021, "last_year": 2021, "years_active": 1}}, {"type": "Feature", "geometry": {"type": "Point", "coordinates": [2.825864, 48.463592]}, "properties": {"street_name": "CHANTEMERLE", "sales": 1, "sales_appt": 0, "sales_maison": 0, "median_price": 1160.25, "median_price_per_sqm": null, "turnover_score": 2.2, "turnover_rank": 13, "first_year": 2023, "last_year": 2023, "years_active": 1}}, {"type": "Feature", "geometry": {"type": "Point", "coordinates": [2.832359, 48.471178]}, "properties": {"street_name": "LE GOUFFRE", "sales": 1, "sales_appt": 0, "sales_maison": 0, "median_price": 21245.0, "median_price_per_sqm": null, "turnover_score": 2.2, "turnover_rank": 13, "first_year": 2023, "last_year": 2023, "years_active": 1}}, {"type": "Feature", "geometry": {"type": "Point", "coordinates": [2.825761, 48.449101]}, "properties": {"street_name": "LES CLOSEAUX", "sales": 1, "sales_appt": 0, "sales_maison": 0, "median_price": 364.5, "median_price_per_sqm": null, "turnover_score": 2.2, "turnover_rank": 13, "first_year": 2022, "last_year": 2022, "years_active": 1}}, {"type": "Feature", "geometry": {"type": "Point", "coordinates": [2.829946, 48.469146]}, "properties": {"street_name": "LES BAGUETTES", "sales": 1, "sales_appt": 0, "sales_maison": 0, "median_price": 1617.2, "median_price_per_sqm": null, "turnover_score": 2.2, "turnover_rank": 13, "first_year": 2021, "last_year": 2021, "years_active": 1}}, {"type": "Feature", "geometry": {"type": "Point", "coordinates": [2.830121, 48.455097]}, "properties": {"street_name": "PL DE L EGLISE", "sales": 1, "sales_appt": 0, "sales_maison": 1, "median_price": 620000.0, "median_price_per_sqm": 3974.358974358974, "turnover_score": 2.2, "turnover_rank": 13, "first_year": 2022, "last_year": 2022, "years_active": 1}}, {"type": "Feature", "geometry": {"type": "Point", "coordinates": [2.834469, 48.456373]}, "properties": {"street_name": "RUE DU CANAL DES TROUS", "sales": 1, "sales_appt": 0, "sales_maison": 0, "median_price": 130000.0, "median_price_per_sqm": null, "turnover_score": 2.2, "turnover_rank": 13, "first_year": 2024, "last_year": 2024, "years_active": 1}}]}