{"type": "FeatureCollection", "features": [{"type": "Feature", "geometry": {"type": "Polygon", "coordinates": [[[3.46867, 48.572876], [3.465353, 48.570472], [3.465281, 48.570266], [3.46442, 48.56967], [3.463504, 48.569058], [3.463001, 48.569175], [3.462111, 48.569439], [3.462067, 48.569568], [3.461586, 48.571139], [3.461223, 48.571017], [3.459608, 48.570519], [3.459001, 48.570735], [3.458055, 48.571013], [3.457636, 48.57121], [3.457256, 48.571464], [3.455646, 48.57116], [3.452779, 48.570645], [3.451144, 48.570344], [3.450826, 48.570887], [3.450035, 48.572293], [3.44971, 48.572854], [3.449475, 48.572831], [3.441487, 48.571972], [3.441077, 48.571926], [3.441195, 48.571779], [3.441609, 48.571343], [3.442221, 48.570764], [3.442363, 48.570606], [3.443007, 48.569651], [3.44255, 48.569673], [3.439371, 48.569781], [3.438144, 48.569892], [3.435605, 48.570017], [3.433821, 48.570065], [3.433897, 48.569684], [3.433417, 48.569655], [3.43291, 48.569666], [3.432331, 48.569701], [3.431617, 48.569681], [3.430335, 48.569486], [3.430268, 48.569589], [3.429914, 48.569519], [3.428726, 48.569683], [3.426029, 48.570044], [3.423824, 48.570336], [3.423297, 48.57041], [3.423233, 48.570422], [3.420875, 48.574947], [3.420826, 48.575031], [3.420585, 48.574824], [3.420425, 48.57473], [3.420089, 48.579297], [3.419973, 48.580897], [3.417187, 48.580364], [3.415017, 48.579962], [3.41275, 48.579533], [3.411584, 48.579322], [3.409407, 48.578907], [3.409388, 48.580271], [3.409149, 48.583684], [3.409074, 48.584306], [3.406081, 48.58383], [3.405545, 48.583739], [3.404957, 48.583679], [3.404889, 48.584037], [3.404534, 48.585658], [3.404422, 48.586241], [3.404218, 48.58721], [3.40424, 48.587274], [3.402238, 48.589619], [3.40098, 48.591102], [3.398885, 48.593558], [3.398755, 48.593515], [3.397268, 48.593332], [3.39704, 48.592345], [3.397003, 48.592149], [3.394484, 48.591892], [3.395132, 48.592582], [3.395004, 48.592974], [3.394882, 48.593266], [3.394476, 48.594164], [3.394333, 48.594155], [3.39348, 48.59417], [3.393223, 48.594815], [3.392512, 48.594699], [3.391995, 48.595975], [3.391964, 48.595976], [3.391648, 48.596489], [3.390035, 48.596457], [3.389831, 48.596943], [3.389591, 48.597606], [3.388922, 48.597542], [3.388838, 48.598091], [3.388826, 48.598663], [3.387097, 48.598703], [3.386057, 48.598708], [3.38469, 48.598627], [3.383931, 48.598005], [3.38308, 48.597361], [3.382043, 48.598165], [3.381216, 48.598821], [3.381126, 48.598905], [3.380393, 48.599465], [3.379258, 48.600355], [3.378147, 48.60124], [3.376321, 48.602655], [3.375184, 48.60356], [3.374916, 48.603815], [3.375577, 48.604348], [3.377464, 48.605814], [3.377955, 48.606221], [3.378178, 48.606698], [3.378631, 48.607757], [3.379065, 48.608517], [3.380049, 48.610202], [3.381951, 48.613465], [3.383427, 48.615968], [3.384834, 48.618381], [3.385762, 48.619947], [3.386475, 48.621181], [3.387644, 48.623173], [3.386794, 48.623549], [3.386339, 48.623718], [3.385805, 48.623861], [3.385246, 48.623966], [3.384736, 48.624026], [3.383557, 48.624058], [3.383047, 48.624087], [3.382693, 48.624133], [3.382145, 48.624255], [3.381737, 48.624381], [3.381326, 48.624555], [3.381067, 48.624699], [3.382182, 48.625218], [3.382434, 48.625379], [3.382714, 48.625698], [3.383101, 48.626085], [3.383494, 48.626403], [3.384272, 48.626983], [3.385291, 48.627716], [3.386416, 48.628815], [3.386947, 48.629309], [3.387436, 48.629677], [3.387589, 48.629772], [3.390065, 48.630067], [3.391832, 48.630317], [3.392029, 48.630335], [3.394402, 48.630896], [3.395112, 48.631055], [3.395975, 48.631184], [3.396883, 48.631246], [3.397771, 48.631257], [3.398188, 48.631232], [3.398703, 48.631152], [3.399397, 48.630992], [3.400957, 48.630518], [3.401634, 48.630384], [3.40203, 48.630373], [3.402793, 48.630451], [3.40404, 48.630593], [3.405392, 48.630802], [3.406057, 48.630822], [3.40671, 48.630781], [3.407261, 48.630716], [3.408291, 48.630535], [3.408965, 48.630461], [3.409563, 48.630431], [3.410418, 48.63043], [3.410823, 48.630469], [3.411657, 48.630608], [3.412791, 48.63081], [3.413176, 48.630917], [3.413369, 48.63102], [3.413651, 48.63128], [3.413958, 48.631863], [3.415408, 48.631805], [3.418438, 48.63171], [3.425174, 48.631471], [3.42575, 48.631454], [3.427264, 48.631392], [3.43139, 48.631228], [3.435014, 48.631075], [3.435083, 48.631063], [3.435315, 48.630095], [3.43567, 48.629677], [3.436198, 48.629988], [3.43695, 48.630328], [3.437128, 48.629426], [3.440055, 48.629545], [3.440701, 48.629565], [3.442047, 48.629397], [3.445675, 48.629281], [3.446676, 48.629265], [3.446798, 48.628763], [3.446375, 48.628779], [3.446276, 48.628482], [3.4469, 48.628148], [3.447022, 48.628087], [3.446819, 48.627627], [3.446326, 48.626453], [3.446088, 48.625919], [3.445061, 48.62603], [3.444816, 48.624895], [3.44544, 48.624852], [3.445437, 48.623184], [3.445445, 48.622722], [3.446563, 48.622552], [3.446711, 48.619969], [3.446742, 48.619345], [3.446725, 48.61929], [3.446814, 48.617929], [3.446053, 48.617672], [3.44111, 48.617062], [3.438401, 48.613042], [3.438044, 48.612522], [3.438296, 48.612478], [3.439748, 48.61218], [3.440588, 48.611997], [3.441821, 48.611747], [3.441133, 48.611212], [3.437723, 48.608588], [3.43886, 48.607797], [3.440477, 48.606661], [3.442165, 48.605481], [3.444342, 48.60395], [3.443109, 48.603625], [3.442143, 48.603355], [3.442553, 48.602985], [3.444276, 48.601381], [3.445139, 48.600583], [3.445006, 48.600472], [3.445289, 48.600164], [3.445627, 48.599869], [3.444855, 48.599715], [3.445832, 48.59855], [3.44824, 48.595702], [3.449486, 48.594195], [3.450746, 48.592718], [3.451535, 48.591744], [3.451142, 48.591816], [3.44967, 48.59169], [3.448682, 48.591733], [3.448648, 48.590034], [3.448631, 48.589668], [3.453602, 48.589597], [3.454211, 48.588086], [3.455123, 48.58831], [3.455506, 48.588387], [3.456185, 48.588577], [3.456967, 48.588846], [3.457626, 48.589057], [3.457965, 48.589125], [3.459074, 48.586773], [3.460189, 48.584387], [3.461362, 48.5819], [3.461721, 48.581148], [3.463617, 48.581062], [3.464731, 48.581018], [3.465511, 48.580998], [3.466027, 48.578822], [3.466115, 48.578338], [3.46629, 48.576986], [3.466428, 48.576094], [3.465081, 48.573796], [3.465285, 48.572833], [3.465305, 48.572622], [3.467512, 48.572792], [3.46867, 48.572876]]]}, "properties": {"code_iris": "770260000", "nom_iris": "Beauchery-Saint-Martin (commune entière)", "type_iris": "Z", "lat": 48.6005, "lng": 3.4218, "dvf_sales_total": 109, "dvf_sales_appt": 0, "dvf_sales_maison": 0, "dvf_median_price": 138000.0, "dvf_median_ppsqm": 1500.0, "dvf_by_year": "[{\"year\": 2021, \"sales\": 25, \"median_price\": 237500.0}, {\"year\": 2022, \"sales\": 48, \"median_price\": 138000.0}, {\"year\": 2023, \"sales\": 12, \"median_price\": 126580.0}, {\"year\": 2024, \"sales\": 12, \"median_price\": 39000.0}, {\"year\": 2025, \"sales\": 12, \"median_price\": 155000.0}]", "population": 384, "n_log": null, "n_rp": null, "pct_proprio": null, "pct_hlm": null, "pct_appart": null, "pct_cadres": null, "pct_bac5p": null, "pct_etrangers": null, "pct_0_14": null, "pct_65p": null, "bpe_total": null, "bpe_commerces": null, "bpe_enseignement": null, "bpe_sante": null, "dpe": null, "attractivity_score": null, "rank_attractivity_score": null, "rank_total_attractivity_score": 1, "commune_avg": null, "is_stub": true}}]}