{"type": "FeatureCollection", "features": [{"type": "Feature", "geometry": {"type": "Point", "coordinates": [2.363394, 48.854548]}, "properties": {"street_name": "RUE SAINT ANTOINE", "sales": 390, "sales_appt": 230, "sales_maison": 0, "median_price": 588000.0, "median_price_per_sqm": 13888.703703703704, "turnover_score": 100.0, "turnover_rank": 1, "first_year": 2021, "last_year": 2025, "years_active": 5}}, {"type": "Feature", "geometry": {"type": "Point", "coordinates": [2.354392, 48.85804]}, "properties": {"street_name": "RUE DES ARCHIVES", "sales": 383, "sales_appt": 164, "sales_maison": 0, "median_price": 4620000.0, "median_price_per_sqm": 38196.88504864311, "turnover_score": 98.2, "turnover_rank": 2, "first_year": 2021, "last_year": 2025, "years_active": 5}}, {"type": "Feature", "geometry": {"type": "Point", "coordinates": [2.356734, 48.851827]}, "properties": {"street_name": "RUE ST LOUIS EN L ILE", "sales": 229, "sales_appt": 131, "sales_maison": 1, "median_price": 700000.0, "median_price_per_sqm": 15384.615384615385, "turnover_score": 58.7, "turnover_rank": 3, "first_year": 2021, "last_year": 2025, "years_active": 5}}, {"type": "Feature", "geometry": {"type": "Point", "coordinates": [2.353788, 48.85933]}, "properties": {"street_name": "RUE DU TEMPLE", "sales": 213, "sales_appt": 116, "sales_maison": 0, "median_price": 618182.0, "median_price_per_sqm": 13972.602739726028, "turnover_score": 54.6, "turnover_rank": 4, "first_year": 2021, "last_year": 2025, "years_active": 5}}, {"type": "Feature", "geometry": {"type": "Point", "coordinates": [2.357607, 48.8562095]}, "properties": {"street_name": "RUE DE RIVOLI", "sales": 204, "sales_appt": 82, "sales_maison": 0, "median_price": 891007.5, "median_price_per_sqm": 13242.424242424242, "turnover_score": 52.3, "turnover_rank": 5, "first_year": 2021, "last_year": 2025, "years_active": 5}}, {"type": "Feature", "geometry": {"type": "Point", "coordinates": [2.35276, 48.858024]}, "properties": {"street_name": "RUE DE LA VERRERIE", "sales": 189, "sales_appt": 119, "sales_maison": 0, "median_price": 700000.0, "median_price_per_sqm": 14820.0, "turnover_score": 48.5, "turnover_rank": 6, "first_year": 2021, "last_year": 2025, "years_active": 5}}, {"type": "Feature", "geometry": {"type": "Point", "coordinates": [2.36543, 48.852861]}, "properties": {"street_name": "RUE DU PETIT MUSC", "sales": 181, "sales_appt": 39, "sales_maison": 0, "median_price": 76000.0, "median_price_per_sqm": 13944.444444444445, "turnover_score": 46.4, "turnover_rank": 7, "first_year": 2021, "last_year": 2025, "years_active": 5}}, {"type": "Feature", "geometry": {"type": "Point", "coordinates": [2.364451, 48.855532]}, "properties": {"street_name": "PL DES VOSGES", "sales": 172, "sales_appt": 68, "sales_maison": 0, "median_price": 2042830.0, "median_price_per_sqm": 54000.0, "turnover_score": 44.1, "turnover_rank": 8, "first_year": 2021, "last_year": 2025, "years_active": 5}}, {"type": "Feature", "geometry": {"type": "Point", "coordinates": [2.367524, 48.854732]}, "properties": {"street_name": "RUE DES TOURNELLES", "sales": 158, "sales_appt": 85, "sales_maison": 0, "median_price": 490000.0, "median_price_per_sqm": 12918.627450980392, "turnover_score": 40.5, "turnover_rank": 9, "first_year": 2021, "last_year": 2025, "years_active": 5}}, {"type": "Feature", "geometry": {"type": "Point", "coordinates": [2.350275, 48.859706]}, "properties": {"street_name": "RUE QUINCAMPOIX", "sales": 155, "sales_appt": 92, "sales_maison": 0, "median_price": 36000000.0, "median_price_per_sqm": 40817.07317073171, "turnover_score": 39.7, "turnover_rank": 10, "first_year": 2021, "last_year": 2025, "years_active": 5}}, {"type": "Feature", "geometry": {"type": "Point", "coordinates": [2.357623, 48.857342]}, "properties": {"street_name": "RUE VIEILLE DU TEMPLE", "sales": 151, "sales_appt": 72, "sales_maison": 0, "median_price": 360350.0, "median_price_per_sqm": 13223.111111111111, "turnover_score": 38.7, "turnover_rank": 11, "first_year": 2021, "last_year": 2025, "years_active": 5}}, {"type": "Feature", "geometry": {"type": "Point", "coordinates": [2.365529, 48.852]}, "properties": {"street_name": "BD HENRI IV", "sales": 139, "sales_appt": 49, "sales_maison": 0, "median_price": 985000.0, "median_price_per_sqm": 12631.578947368422, "turnover_score": 35.6, "turnover_rank": 12, "first_year": 2021, "last_year": 2025, "years_active": 5}}, {"type": "Feature", "geometry": {"type": "Point", "coordinates": [2.362401, 48.853924]}, "properties": {"street_name": "RUE SAINT PAUL", "sales": 129, "sales_appt": 72, "sales_maison": 0, "median_price": 460000.0, "median_price_per_sqm": 13295.454545454546, "turnover_score": 33.1, "turnover_rank": 13, "first_year": 2021, "last_year": 2025, "years_active": 5}}, {"type": "Feature", "geometry": {"type": "Point", "coordinates": [2.363635, 48.853072]}, "properties": {"street_name": "RUE BEAUTREILLIS", "sales": 121, "sales_appt": 71, "sales_maison": 0, "median_price": 466050.0, "median_price_per_sqm": 13083.316624895573, "turnover_score": 31.0, "turnover_rank": 14, "first_year": 2021, "last_year": 2025, "years_active": 5}}, {"type": "Feature", "geometry": {"type": "Point", "coordinates": [2.360528, 48.857492]}, "properties": {"street_name": "RUE DES FRANCS BOURGEOIS", "sales": 111, "sales_appt": 63, "sales_maison": 0, "median_price": 1130000.0, "median_price_per_sqm": 17389.024390243903, "turnover_score": 28.5, "turnover_rank": 15, "first_year": 2021, "last_year": 2025, "years_active": 5}}, {"type": "Feature", "geometry": {"type": "Point", "coordinates": [2.354892, 48.852877]}, "properties": {"street_name": "QUAI DE BOURBON", "sales": 109, "sales_appt": 53, "sales_maison": 0, "median_price": 1310000.0, "median_price_per_sqm": 19189.18918918919, "turnover_score": 27.9, "turnover_rank": 16, "first_year": 2021, "last_year": 2025, "years_active": 5}}, {"type": "Feature", "geometry": {"type": "Point", "coordinates": [2.366056, 48.849115]}, "properties": {"street_name": "BD BOURDON", "sales": 104, "sales_appt": 45, "sales_maison": 0, "median_price": 1147250.0, "median_price_per_sqm": 14243.819657744625, "turnover_score": 26.7, "turnover_rank": 17, "first_year": 2021, "last_year": 2025, "years_active": 5}}, {"type": "Feature", "geometry": {"type": "Point", "coordinates": [2.359568, 48.857266]}, "properties": {"street_name": "RUE DES ROSIERS", "sales": 102, "sales_appt": 60, "sales_maison": 0, "median_price": 490000.0, "median_price_per_sqm": 12500.0, "turnover_score": 26.2, "turnover_rank": 18, "first_year": 2021, "last_year": 2025, "years_active": 5}}, {"type": "Feature", "geometry": {"type": "Point", "coordinates": [2.350297, 48.85945]}, "properties": {"street_name": "RUE SAINT MARTIN", "sales": 100, "sales_appt": 53, "sales_maison": 0, "median_price": 415000.0, "median_price_per_sqm": 11934.789915966387, "turnover_score": 25.6, "turnover_rank": 19, "first_year": 2021, "last_year": 2025, "years_active": 5}}, {"type": "Feature", "geometry": {"type": "Point", "coordinates": [2.358523, 48.856362]}, "properties": {"street_name": "RUE DU ROI DE SICILE", "sales": 98, "sales_appt": 56, "sales_maison": 0, "median_price": 465000.0, "median_price_per_sqm": 12710.752688172042, "turnover_score": 25.1, "turnover_rank": 20, "first_year": 2021, "last_year": 2025, "years_active": 5}}, {"type": "Feature", "geometry": {"type": "Point", "coordinates": [2.35855, 48.856886]}, "properties": {"street_name": "RUE DES ECOUFFES", "sales": 92, "sales_appt": 56, "sales_maison": 0, "median_price": 385309.5, "median_price_per_sqm": 12121.212121212122, "turnover_score": 23.6, "turnover_rank": 21, "first_year": 2021, "last_year": 2025, "years_active": 5}}, {"type": "Feature", "geometry": {"type": "Point", "coordinates": [2.364704, 48.848333]}, "properties": {"street_name": "BD MORLAND", "sales": 87, "sales_appt": 48, "sales_maison": 0, "median_price": 621000.0, "median_price_per_sqm": 12727.272727272728, "turnover_score": 22.3, "turnover_rank": 22, "first_year": 2021, "last_year": 2025, "years_active": 5}}, {"type": "Feature", "geometry": {"type": "Point", "coordinates": [2.351559, 48.8537]}, "properties": {"street_name": "QUAI AUX FLEURS", "sales": 77, "sales_appt": 25, "sales_maison": 0, "median_price": 2864000.0, "median_price_per_sqm": 19153.75, "turnover_score": 19.7, "turnover_rank": 23, "first_year": 2021, "last_year": 2025, "years_active": 5}}, {"type": "Feature", "geometry": {"type": "Point", "coordinates": [2.354725, 48.852154999999996]}, "properties": {"street_name": "RUE LE REGRATTIER", "sales": 76, "sales_appt": 52, "sales_maison": 0, "median_price": 579500.0, "median_price_per_sqm": 14358.97435897436, "turnover_score": 19.5, "turnover_rank": 24, "first_year": 2021, "last_year": 2025, "years_active": 5}}, {"type": "Feature", "geometry": {"type": "Point", "coordinates": [2.3633610000000003, 48.848737]}, "properties": {"street_name": "QUAI HENRI IV", "sales": 76, "sales_appt": 25, "sales_maison": 0, "median_price": 2010000.0, "median_price_per_sqm": 14722.222222222223, "turnover_score": 19.5, "turnover_rank": 24, "first_year": 2021, "last_year": 2025, "years_active": 5}}, {"type": "Feature", "geometry": {"type": "Point", "coordinates": [2.354339, 48.860688]}, "properties": {"street_name": "RUE RAMBUTEAU", "sales": 75, "sales_appt": 33, "sales_maison": 0, "median_price": 625000.0, "median_price_per_sqm": 12537.5, "turnover_score": 19.2, "turnover_rank": 25, "first_year": 2021, "last_year": 2025, "years_active": 5}}, {"type": "Feature", "geometry": {"type": "Point", "coordinates": [2.356328, 48.857419]}, "properties": {"street_name": "RUE DU BOURG TIBOURG", "sales": 74, "sales_appt": 44, "sales_maison": 0, "median_price": 534615.65, "median_price_per_sqm": 12338.235294117647, "turnover_score": 19.0, "turnover_rank": 26, "first_year": 2021, "last_year": 2025, "years_active": 5}}, {"type": "Feature", "geometry": {"type": "Point", "coordinates": [2.354207, 48.858174]}, "properties": {"street_name": "SQ STE CROIX DE LA BRETONNERI", "sales": 73, "sales_appt": 23, "sales_maison": 0, "median_price": 1370000.0, "median_price_per_sqm": 13709.95670995671, "turnover_score": 18.7, "turnover_rank": 27, "first_year": 2024, "last_year": 2025, "years_active": 2}}, {"type": "Feature", "geometry": {"type": "Point", "coordinates": [2.357852, 48.850779]}, "properties": {"street_name": "QUAI DE BETHUNE", "sales": 70, "sales_appt": 25, "sales_maison": 0, "median_price": 1410000.0, "median_price_per_sqm": 17488.0, "turnover_score": 17.9, "turnover_rank": 28, "first_year": 2021, "last_year": 2025, "years_active": 5}}, {"type": "Feature", "geometry": {"type": "Point", "coordinates": [2.362499, 48.852832]}, "properties": {"street_name": "RUE CHARLES V", "sales": 67, "sales_appt": 36, "sales_maison": 0, "median_price": 636900.0, "median_price_per_sqm": 12964.358974358975, "turnover_score": 17.2, "turnover_rank": 29, "first_year": 2021, "last_year": 2025, "years_active": 5}}, {"type": "Feature", "geometry": {"type": "Point", "coordinates": [2.3618325000000002, 48.852428]}, "properties": {"street_name": "RUE DES LIONS SAINT PAUL", "sales": 66, "sales_appt": 30, "sales_maison": 0, "median_price": 650000.0, "median_price_per_sqm": 12964.912280701754, "turnover_score": 16.9, "turnover_rank": 30, "first_year": 2021, "last_year": 2025, "years_active": 5}}, {"type": "Feature", "geometry": {"type": "Point", "coordinates": [2.362757, 48.849702]}, "properties": {"street_name": "RUE AGRIPPA D AUBIGNE", "sales": 65, "sales_appt": 5, "sales_maison": 0, "median_price": 15000.0, "median_price_per_sqm": 13179.078014184397, "turnover_score": 16.7, "turnover_rank": 31, "first_year": 2022, "last_year": 2025, "years_active": 4}}, {"type": "Feature", "geometry": {"type": "Point", "coordinates": [2.355033, 48.858505]}, "properties": {"street_name": "RUE STE CROIX BRETONNERIE", "sales": 65, "sales_appt": 39, "sales_maison": 0, "median_price": 530050.0, "median_price_per_sqm": 12952.380952380952, "turnover_score": 16.7, "turnover_rank": 31, "first_year": 2021, "last_year": 2025, "years_active": 5}}, {"type": "Feature", "geometry": {"type": "Point", "coordinates": [2.350798, 48.858423]}, "properties": {"street_name": "RUE SAINT BON", "sales": 64, "sales_appt": 37, "sales_maison": 0, "median_price": 3031500.0, "median_price_per_sqm": 64285.71428571429, "turnover_score": 16.4, "turnover_rank": 32, "first_year": 2021, "last_year": 2025, "years_active": 5}}, {"type": "Feature", "geometry": {"type": "Point", "coordinates": [2.363606, 48.855847]}, "properties": {"street_name": "RUE DE TURENNE", "sales": 61, "sales_appt": 36, "sales_maison": 0, "median_price": 458180.0, "median_price_per_sqm": 13954.991087344028, "turnover_score": 15.6, "turnover_rank": 33, "first_year": 2021, "last_year": 2025, "years_active": 5}}, {"type": "Feature", "geometry": {"type": "Point", "coordinates": [2.365903, 48.852692000000005]}, "properties": {"street_name": "RUE CASTEX", "sales": 60, "sales_appt": 29, "sales_maison": 0, "median_price": 456940.0, "median_price_per_sqm": 11457.875799573561, "turnover_score": 15.4, "turnover_rank": 34, "first_year": 2021, "last_year": 2025, "years_active": 5}}, {"type": "Feature", "geometry": {"type": "Point", "coordinates": [2.349417, 48.859311]}, "properties": {"street_name": "RUE DES LOMBARDS", "sales": 60, "sales_appt": 47, "sales_maison": 0, "median_price": 351600.0, "median_price_per_sqm": 11131.866666666667, "turnover_score": 15.4, "turnover_rank": 34, "first_year": 2021, "last_year": 2025, "years_active": 5}}, {"type": "Feature", "geometry": {"type": "Point", "coordinates": [2.362477, 48.856388]}, "properties": {"street_name": "RUE DE SEVIGNE", "sales": 59, "sales_appt": 32, "sales_maison": 0, "median_price": 375000.0, "median_price_per_sqm": 13201.180555555555, "turnover_score": 15.1, "turnover_rank": 35, "first_year": 2021, "last_year": 2024, "years_active": 4}}, {"type": "Feature", "geometry": {"type": "Point", "coordinates": [2.363185, 48.855926]}, "properties": {"street_name": "RUE DE JARENTE", "sales": 59, "sales_appt": 37, "sales_maison": 0, "median_price": 492500.0, "median_price_per_sqm": 13018.667774546462, "turnover_score": 15.1, "turnover_rank": 35, "first_year": 2021, "last_year": 2025, "years_active": 5}}, {"type": "Feature", "geometry": {"type": "Point", "coordinates": [2.358124, 48.857066]}, "properties": {"street_name": "RUE DU TRESOR", "sales": 56, "sales_appt": 26, "sales_maison": 0, "median_price": 875000.0, "median_price_per_sqm": 13390.140845070422, "turnover_score": 14.4, "turnover_rank": 36, "first_year": 2021, "last_year": 2025, "years_active": 5}}, {"type": "Feature", "geometry": {"type": "Point", "coordinates": [2.360546, 48.856208]}, "properties": {"street_name": "RUE PAVEE", "sales": 55, "sales_appt": 34, "sales_maison": 0, "median_price": 2058000.0, "median_price_per_sqm": 833746.8982630273, "turnover_score": 14.1, "turnover_rank": 37, "first_year": 2021, "last_year": 2025, "years_active": 5}}, {"type": "Feature", "geometry": {"type": "Point", "coordinates": [2.366057, 48.851626]}, "properties": {"street_name": "RUE DE LA CERISAIE", "sales": 55, "sales_appt": 29, "sales_maison": 0, "median_price": 510000.0, "median_price_per_sqm": 12162.162162162162, "turnover_score": 14.1, "turnover_rank": 37, "first_year": 2021, "last_year": 2025, "years_active": 5}}, {"type": "Feature", "geometry": {"type": "Point", "coordinates": [2.354759, 48.851781]}, "properties": {"street_name": "QUAI D ORLEANS", "sales": 54, "sales_appt": 23, "sales_maison": 0, "median_price": 4250000.0, "median_price_per_sqm": 36666.666666666664, "turnover_score": 13.8, "turnover_rank": 38, "first_year": 2021, "last_year": 2025, "years_active": 5}}, {"type": "Feature", "geometry": {"type": "Point", "coordinates": [2.367946, 48.854474]}, "properties": {"street_name": "RUE JEAN BEAUSIRE", "sales": 53, "sales_appt": 28, "sales_maison": 0, "median_price": 405000.0, "median_price_per_sqm": 11349.831649831649, "turnover_score": 13.6, "turnover_rank": 39, "first_year": 2021, "last_year": 2025, "years_active": 5}}, {"type": "Feature", "geometry": {"type": "Point", "coordinates": [2.365073, 48.854267]}, "properties": {"street_name": "RUE DE BIRAGUE", "sales": 53, "sales_appt": 34, "sales_maison": 0, "median_price": 890000.0, "median_price_per_sqm": 13500.0, "turnover_score": 13.6, "turnover_rank": 39, "first_year": 2021, "last_year": 2025, "years_active": 5}}, {"type": "Feature", "geometry": {"type": "Point", "coordinates": [2.349828, 48.860635]}, "properties": {"street_name": "BD DE SEBASTOPOL", "sales": 53, "sales_appt": 19, "sales_maison": 0, "median_price": 1030400.0, "median_price_per_sqm": 12113.430127041742, "turnover_score": 13.6, "turnover_rank": 39, "first_year": 2021, "last_year": 2025, "years_active": 5}}, {"type": "Feature", "geometry": {"type": "Point", "coordinates": [2.356549, 48.851794]}, "properties": {"street_name": "RUE DES DEUX PONTS", "sales": 49, "sales_appt": 26, "sales_maison": 0, "median_price": 755000.0, "median_price_per_sqm": 14823.529411764706, "turnover_score": 12.6, "turnover_rank": 40, "first_year": 2021, "last_year": 2025, "years_active": 5}}, {"type": "Feature", "geometry": {"type": "Point", "coordinates": [2.368349, 48.854516]}, "properties": {"street_name": "BD BEAUMARCHAIS", "sales": 48, "sales_appt": 28, "sales_maison": 0, "median_price": 1220000.0, "median_price_per_sqm": 14186.253561253561, "turnover_score": 12.3, "turnover_rank": 41, "first_year": 2021, "last_year": 2025, "years_active": 5}}, {"type": "Feature", "geometry": {"type": "Point", "coordinates": [2.355445, 48.859445]}, "properties": {"street_name": "RUE DES BLANCS MANTEAUX", "sales": 48, "sales_appt": 26, "sales_maison": 0, "median_price": 452500.0, "median_price_per_sqm": 12347.560975609756, "turnover_score": 12.3, "turnover_rank": 41, "first_year": 2021, "last_year": 2025, "years_active": 5}}, {"type": "Feature", "geometry": {"type": "Point", "coordinates": [2.361591, 48.856103]}, "properties": {"street_name": "RUE MALHER", "sales": 48, "sales_appt": 26, "sales_maison": 0, "median_price": 651737.0, "median_price_per_sqm": 13662.121212121212, "turnover_score": 12.3, "turnover_rank": 41, "first_year": 2021, "last_year": 2025, "years_active": 5}}, {"type": "Feature", "geometry": {"type": "Point", "coordinates": [2.363006, 48.855407]}, "properties": {"street_name": "PL DU MARCHE SAINTE CATHERINE", "sales": 46, "sales_appt": 38, "sales_maison": 0, "median_price": 198500.0, "median_price_per_sqm": 8400.0, "turnover_score": 11.8, "turnover_rank": 42, "first_year": 2021, "last_year": 2025, "years_active": 5}}, {"type": "Feature", "geometry": {"type": "Point", "coordinates": [2.361386, 48.85242]}, "properties": {"street_name": "QUAI DES CELESTINS", "sales": 45, "sales_appt": 23, "sales_maison": 0, "median_price": 1123500.0, "median_price_per_sqm": 13094.554223744293, "turnover_score": 11.5, "turnover_rank": 43, "first_year": 2021, "last_year": 2025, "years_active": 5}}, {"type": "Feature", "geometry": {"type": "Point", "coordinates": [2.353712, 48.860276]}, "properties": {"street_name": "RUE SIMON LE FRANC", "sales": 43, "sales_appt": 17, "sales_maison": 0, "median_price": 950000.0, "median_price_per_sqm": 14287.856071964019, "turnover_score": 11.0, "turnover_rank": 44, "first_year": 2021, "last_year": 2025, "years_active": 5}}, {"type": "Feature", "geometry": {"type": "Point", "coordinates": [2.350098, 48.85357]}, "properties": {"street_name": "RUE DU CLOITRE NOTRE DAME", "sales": 41, "sales_appt": 16, "sales_maison": 0, "median_price": 1330000.0, "median_price_per_sqm": 17646.153846153848, "turnover_score": 10.5, "turnover_rank": 45, "first_year": 2021, "last_year": 2025, "years_active": 5}}, {"type": "Feature", "geometry": {"type": "Point", "coordinates": [2.353949, 48.852351]}, "properties": {"street_name": "RUE BOUTAREL", "sales": 40, "sales_appt": 20, "sales_maison": 0, "median_price": 450000.0, "median_price_per_sqm": 16258.933333333334, "turnover_score": 10.3, "turnover_rank": 46, "first_year": 2021, "last_year": 2025, "years_active": 5}}, {"type": "Feature", "geometry": {"type": "Point", "coordinates": [2.359389, 48.856561]}, "properties": {"street_name": "RUE FERDINAND DUVAL", "sales": 38, "sales_appt": 20, "sales_maison": 0, "median_price": 462900.0, "median_price_per_sqm": 14287.946428571428, "turnover_score": 9.7, "turnover_rank": 47, "first_year": 2021, "last_year": 2025, "years_active": 5}}, {"type": "Feature", "geometry": {"type": "Point", "coordinates": [2.353946, 48.86056]}, "properties": {"street_name": "RUE GEOFFROY L ANGEVIN", "sales": 38, "sales_appt": 23, "sales_maison": 0, "median_price": 337000.0, "median_price_per_sqm": 12622.29574223245, "turnover_score": 9.7, "turnover_rank": 47, "first_year": 2021, "last_year": 2025, "years_active": 5}}, {"type": "Feature", "geometry": {"type": "Point", "coordinates": [2.351134, 48.85396]}, "properties": {"street_name": "RUE CHANOINESSE", "sales": 38, "sales_appt": 17, "sales_maison": 0, "median_price": 582500.0, "median_price_per_sqm": 15363.596491228069, "turnover_score": 9.7, "turnover_rank": 47, "first_year": 2021, "last_year": 2025, "years_active": 5}}, {"type": "Feature", "geometry": {"type": "Point", "coordinates": [2.36727, 48.852157]}, "properties": {"street_name": "RUE JACQUES COEUR", "sales": 37, "sales_appt": 18, "sales_maison": 0, "median_price": 445000.0, "median_price_per_sqm": 12083.333333333334, "turnover_score": 9.5, "turnover_rank": 48, "first_year": 2021, "last_year": 2025, "years_active": 5}}, {"type": "Feature", "geometry": {"type": "Point", "coordinates": [2.357247, 48.855744]}, "properties": {"street_name": "RUE FRANCOIS MIRON", "sales": 37, "sales_appt": 21, "sales_maison": 0, "median_price": 425000.0, "median_price_per_sqm": 12036.596385542169, "turnover_score": 9.5, "turnover_rank": 48, "first_year": 2021, "last_year": 2025, "years_active": 5}}, {"type": "Feature", "geometry": {"type": "Point", "coordinates": [2.35761, 48.851958]}, "properties": {"street_name": "QUAI D ANJOU", "sales": 36, "sales_appt": 19, "sales_maison": 0, "median_price": 973907.5, "median_price_per_sqm": 19888.333333333336, "turnover_score": 9.2, "turnover_rank": 49, "first_year": 2021, "last_year": 2025, "years_active": 5}}, {"type": "Feature", "geometry": {"type": "Point", "coordinates": [2.367882, 48.855599]}, "properties": {"street_name": "RUE DU PAS DE LA MULE", "sales": 36, "sales_appt": 12, "sales_maison": 0, "median_price": 665000.0, "median_price_per_sqm": 13930.993522267207, "turnover_score": 9.2, "turnover_rank": 49, "first_year": 2021, "last_year": 2025, "years_active": 5}}, {"type": "Feature", "geometry": {"type": "Point", "coordinates": [2.357623, 48.858041]}, "properties": {"street_name": "RUE DES GUILLEMITES", "sales": 36, "sales_appt": 7, "sales_maison": 0, "median_price": 39000.0, "median_price_per_sqm": 14000.0, "turnover_score": 9.2, "turnover_rank": 49, "first_year": 2021, "last_year": 2025, "years_active": 5}}, {"type": "Feature", "geometry": {"type": "Point", "coordinates": [2.364988, 48.84938]}, "properties": {"street_name": "RUE MORNAY", "sales": 35, "sales_appt": 18, "sales_maison": 0, "median_price": 710245.0, "median_price_per_sqm": 11626.441102756893, "turnover_score": 9.0, "turnover_rank": 50, "first_year": 2021, "last_year": 2025, "years_active": 5}}, {"type": "Feature", "geometry": {"type": "Point", "coordinates": [2.365133, 48.848644]}, "properties": {"street_name": "RUE CRILLON", "sales": 33, "sales_appt": 16, "sales_maison": 0, "median_price": 559300.0, "median_price_per_sqm": 11188.238095238095, "turnover_score": 8.5, "turnover_rank": 51, "first_year": 2021, "last_year": 2025, "years_active": 5}}, {"type": "Feature", "geometry": {"type": "Point", "coordinates": [2.356933, 48.8516945]}, "properties": {"street_name": "RUE SAINT LOUIS EN L ILE", "sales": 32, "sales_appt": 19, "sales_maison": 0, "median_price": 360000.0, "median_price_per_sqm": 14800.0, "turnover_score": 8.2, "turnover_rank": 52, "first_year": 2025, "last_year": 2025, "years_active": 1}}, {"type": "Feature", "geometry": {"type": "Point", "coordinates": [2.362477, 48.856279]}, "properties": {"street_name": "RUE MADAME DE SEVIGNE", "sales": 32, "sales_appt": 15, "sales_maison": 0, "median_price": 406600.0, "median_price_per_sqm": 12869.632890365448, "turnover_score": 8.2, "turnover_rank": 52, "first_year": 2024, "last_year": 2025, "years_active": 2}}, {"type": "Feature", "geometry": {"type": "Point", "coordinates": [2.359936, 48.854633]}, "properties": {"street_name": "RUE CHARLEMAGNE", "sales": 31, "sales_appt": 15, "sales_maison": 0, "median_price": 697900.0, "median_price_per_sqm": 11386.517283950618, "turnover_score": 7.9, "turnover_rank": 53, "first_year": 2021, "last_year": 2025, "years_active": 4}}, {"type": "Feature", "geometry": {"type": "Point", "coordinates": [2.355647, 48.85188]}, "properties": {"street_name": "RUE BUDE", "sales": 31, "sales_appt": 16, "sales_maison": 0, "median_price": 550000.0, "median_price_per_sqm": 13681.666666666666, "turnover_score": 7.9, "turnover_rank": 53, "first_year": 2021, "last_year": 2025, "years_active": 5}}, {"type": "Feature", "geometry": {"type": "Point", "coordinates": [2.349865, 48.854102]}, "properties": {"street_name": "RUE D ARCOLE", "sales": 30, "sales_appt": 13, "sales_maison": 0, "median_price": 617310.0, "median_price_per_sqm": 12972.549019607843, "turnover_score": 7.7, "turnover_rank": 54, "first_year": 2021, "last_year": 2025, "years_active": 5}}, {"type": "Feature", "geometry": {"type": "Point", "coordinates": [2.357011, 48.858715]}, "properties": {"street_name": "RUE AUBRIOT", "sales": 29, "sales_appt": 18, "sales_maison": 0, "median_price": 450000.0, "median_price_per_sqm": 12162.162162162162, "turnover_score": 7.4, "turnover_rank": 55, "first_year": 2021, "last_year": 2025, "years_active": 5}}, {"type": "Feature", "geometry": {"type": "Point", "coordinates": [2.366812, 48.852156]}, "properties": {"street_name": "RUE DE LESDIGUIERES", "sales": 27, "sales_appt": 12, "sales_maison": 0, "median_price": 725000.0, "median_price_per_sqm": 11186.309830159547, "turnover_score": 6.9, "turnover_rank": 56, "first_year": 2021, "last_year": 2025, "years_active": 5}}, {"type": "Feature", "geometry": {"type": "Point", "coordinates": [2.352053, 48.858866]}, "properties": {"street_name": "RUE DU RENARD", "sales": 25, "sales_appt": 13, "sales_maison": 0, "median_price": 795000.0, "median_price_per_sqm": 13035.714285714286, "turnover_score": 6.4, "turnover_rank": 57, "first_year": 2021, "last_year": 2025, "years_active": 5}}, {"type": "Feature", "geometry": {"type": "Point", "coordinates": [2.355957, 48.860102]}, "properties": {"street_name": "RUE PECQUAY", "sales": 23, "sales_appt": 18, "sales_maison": 0, "median_price": 300000.0, "median_price_per_sqm": 11412.698412698413, "turnover_score": 5.9, "turnover_rank": 58, "first_year": 2021, "last_year": 2025, "years_active": 5}}, {"type": "Feature", "geometry": {"type": "Point", "coordinates": [2.362777, 48.855144]}, "properties": {"street_name": "RUE D ORMESSON", "sales": 21, "sales_appt": 18, "sales_maison": 0, "median_price": 290000.0, "median_price_per_sqm": 12509.409090909092, "turnover_score": 5.4, "turnover_rank": 59, "first_year": 2021, "last_year": 2025, "years_active": 5}}, {"type": "Feature", "geometry": {"type": "Point", "coordinates": [2.365877, 48.853984]}, "properties": {"street_name": "IMP GUEMENEE", "sales": 20, "sales_appt": 8, "sales_maison": 0, "median_price": 855000.0, "median_price_per_sqm": 13135.225225225226, "turnover_score": 5.1, "turnover_rank": 60, "first_year": 2021, "last_year": 2025, "years_active": 5}}, {"type": "Feature", "geometry": {"type": "Point", "coordinates": [2.354974, 48.858928]}, "properties": {"street_name": "RUE DU PLATRE", "sales": 20, "sales_appt": 10, "sales_maison": 0, "median_price": 820000.0, "median_price_per_sqm": 12131.147540983606, "turnover_score": 5.1, "turnover_rank": 60, "first_year": 2021, "last_year": 2025, "years_active": 5}}, {"type": "Feature", "geometry": {"type": "Point", "coordinates": [2.354578, 48.85881]}, "properties": {"street_name": "RUE SAINTE CROIX BRETONNERIE", "sales": 19, "sales_appt": 9, "sales_maison": 0, "median_price": 620000.0, "median_price_per_sqm": 12310.344827586207, "turnover_score": 4.9, "turnover_rank": 61, "first_year": 2025, "last_year": 2025, "years_active": 1}}, {"type": "Feature", "geometry": {"type": "Point", "coordinates": [2.366232, 48.851333]}, "properties": {"street_name": "RUE DE L ARSENAL", "sales": 19, "sales_appt": 8, "sales_maison": 0, "median_price": 610000.0, "median_price_per_sqm": 12327.824812764571, "turnover_score": 4.9, "turnover_rank": 61, "first_year": 2021, "last_year": 2025, "years_active": 5}}, {"type": "Feature", "geometry": {"type": "Point", "coordinates": [2.349688, 48.857422]}, "properties": {"street_name": "AV VICTORIA", "sales": 19, "sales_appt": 11, "sales_maison": 0, "median_price": 1000000.0, "median_price_per_sqm": 13027.522935779816, "turnover_score": 4.9, "turnover_rank": 61, "first_year": 2021, "last_year": 2025, "years_active": 4}}, {"type": "Feature", "geometry": {"type": "Point", "coordinates": [2.349735, 48.859846]}, "properties": {"street_name": "RUE DE LA REYNIE", "sales": 17, "sales_appt": 7, "sales_maison": 0, "median_price": 430000.0, "median_price_per_sqm": 10984.484949832775, "turnover_score": 4.4, "turnover_rank": 62, "first_year": 2022, "last_year": 2025, "years_active": 3}}, {"type": "Feature", "geometry": {"type": "Point", "coordinates": [2.359235, 48.85804]}, "properties": {"street_name": "RUE DES HOSPIT ST GERVAIS", "sales": 16, "sales_appt": 7, "sales_maison": 0, "median_price": 862742.5, "median_price_per_sqm": 15282.432432432432, "turnover_score": 4.1, "turnover_rank": 63, "first_year": 2021, "last_year": 2025, "years_active": 4}}, {"type": "Feature", "geometry": {"type": "Point", "coordinates": [2.353299, 48.859358]}, "properties": {"street_name": "RUE SAINT MERRI", "sales": 16, "sales_appt": 13, "sales_maison": 0, "median_price": 859800.0, "median_price_per_sqm": 13037.5, "turnover_score": 4.1, "turnover_rank": 63, "first_year": 2021, "last_year": 2025, "years_active": 5}}, {"type": "Feature", "geometry": {"type": "Point", "coordinates": [2.356664, 48.856002]}, "properties": {"street_name": "RUE DU PONT LOUIS-PHILIPPE", "sales": 15, "sales_appt": 12, "sales_maison": 0, "median_price": 4280000.0, "median_price_per_sqm": 89166.66666666667, "turnover_score": 3.8, "turnover_rank": 64, "first_year": 2022, "last_year": 2025, "years_active": 3}}, {"type": "Feature", "geometry": {"type": "Point", "coordinates": [2.358697, 48.854065]}, "properties": {"street_name": "RUE DES NONNAINS D HYERES", "sales": 15, "sales_appt": 7, "sales_maison": 0, "median_price": 838000.0, "median_price_per_sqm": 13207.547169811322, "turnover_score": 3.8, "turnover_rank": 64, "first_year": 2021, "last_year": 2025, "years_active": 4}}, {"type": "Feature", "geometry": {"type": "Point", "coordinates": [2.351643, 48.859183]}, "properties": {"street_name": "RUE BRISEMICHE", "sales": 14, "sales_appt": 8, "sales_maison": 0, "median_price": 407000.0, "median_price_per_sqm": 12515.496129032257, "turnover_score": 3.6, "turnover_rank": 65, "first_year": 2021, "last_year": 2025, "years_active": 4}}, {"type": "Feature", "geometry": {"type": "Point", "coordinates": [2.35813, 48.85111]}, "properties": {"street_name": "RUE POULLETIER", "sales": 11, "sales_appt": 5, "sales_maison": 0, "median_price": 570000.0, "median_price_per_sqm": 13695.652173913044, "turnover_score": 2.8, "turnover_rank": 66, "first_year": 2021, "last_year": 2025, "years_active": 4}}, {"type": "Feature", "geometry": {"type": "Point", "coordinates": [2.350593, 48.853594]}, "properties": {"street_name": "RUE MASSILLON", "sales": 10, "sales_appt": 5, "sales_maison": 0, "median_price": 550000.0, "median_price_per_sqm": 11363.636363636364, "turnover_score": 2.6, "turnover_rank": 67, "first_year": 2021, "last_year": 2024, "years_active": 3}}, {"type": "Feature", "geometry": {"type": "Point", "coordinates": [2.355576, 48.855492]}, "properties": {"street_name": "RUE DES BARRES", "sales": 10, "sales_appt": 3, "sales_maison": 0, "median_price": 1450000.0, "median_price_per_sqm": 13901.851851851852, "turnover_score": 2.6, "turnover_rank": 67, "first_year": 2023, "last_year": 2024, "years_active": 2}}, {"type": "Feature", "geometry": {"type": "Point", "coordinates": [2.3633685, 48.8518075]}, "properties": {"street_name": "RUE JULES COUSIN", "sales": 10, "sales_appt": 5, "sales_maison": 0, "median_price": 1915000.0, "median_price_per_sqm": 13734.939759036144, "turnover_score": 2.6, "turnover_rank": 67, "first_year": 2021, "last_year": 2025, "years_active": 4}}, {"type": "Feature", "geometry": {"type": "Point", "coordinates": [2.36645, 48.854032]}, "properties": {"street_name": "COUR BERARD", "sales": 9, "sales_appt": 3, "sales_maison": 0, "median_price": 360645.0, "median_price_per_sqm": 9195.3125, "turnover_score": 2.3, "turnover_rank": 68, "first_year": 2021, "last_year": 2025, "years_active": 5}}, {"type": "Feature", "geometry": {"type": "Point", "coordinates": [2.357447, 48.856305]}, "properties": {"street_name": "RUE CLOCHE PERCE", "sales": 9, "sales_appt": 6, "sales_maison": 0, "median_price": 404306.0, "median_price_per_sqm": 9700.0, "turnover_score": 2.3, "turnover_rank": 68, "first_year": 2023, "last_year": 2025, "years_active": 3}}, {"type": "Feature", "geometry": {"type": "Point", "coordinates": [2.358819, 48.850818]}, "properties": {"street_name": "RUE DE BRETONVILLIERS", "sales": 9, "sales_appt": 4, "sales_maison": 0, "median_price": 1708334.0, "median_price_per_sqm": 17902.550161812298, "turnover_score": 2.3, "turnover_rank": 68, "first_year": 2021, "last_year": 2025, "years_active": 3}}, {"type": "Feature", "geometry": {"type": "Point", "coordinates": [2.351571, 48.8588]}, "properties": {"street_name": "RUE DES JUGES CONSULS", "sales": 9, "sales_appt": 5, "sales_maison": 0, "median_price": 1075000.0, "median_price_per_sqm": 11944.444444444445, "turnover_score": 2.3, "turnover_rank": 68, "first_year": 2021, "last_year": 2025, "years_active": 5}}, {"type": "Feature", "geometry": {"type": "Point", "coordinates": [2.350193, 48.858329]}, "properties": {"street_name": "RUE PERNELLE", "sales": 8, "sales_appt": 3, "sales_maison": 0, "median_price": 758500.0, "median_price_per_sqm": 8280.404152762329, "turnover_score": 2.1, "turnover_rank": 69, "first_year": 2021, "last_year": 2023, "years_active": 3}}, {"type": "Feature", "geometry": {"type": "Point", "coordinates": [2.351122, 48.857385]}, "properties": {"street_name": "RUE DE LA COUTELLERIE", "sales": 8, "sales_appt": 5, "sales_maison": 0, "median_price": 554000.0, "median_price_per_sqm": 13333.333333333334, "turnover_score": 2.1, "turnover_rank": 69, "first_year": 2021, "last_year": 2025, "years_active": 4}}, {"type": "Feature", "geometry": {"type": "Point", "coordinates": [2.350456, 48.856306]}, "properties": {"street_name": "QUAI DE GESVRES", "sales": 8, "sales_appt": 3, "sales_maison": 0, "median_price": 767500.0, "median_price_per_sqm": 14940.47619047619, "turnover_score": 2.1, "turnover_rank": 69, "first_year": 2021, "last_year": 2025, "years_active": 4}}, {"type": "Feature", "geometry": {"type": "Point", "coordinates": [2.3650435, 48.8487655]}, "properties": {"street_name": "RUE DE BRISSAC", "sales": 8, "sales_appt": 4, "sales_maison": 0, "median_price": 542500.0, "median_price_per_sqm": 11837.222222222223, "turnover_score": 2.1, "turnover_rank": 69, "first_year": 2022, "last_year": 2025, "years_active": 3}}, {"type": "Feature", "geometry": {"type": "Point", "coordinates": [2.3497905, 48.860262500000005]}, "properties": {"street_name": "RUE AUBRY LE BOUCHER", "sales": 8, "sales_appt": 5, "sales_maison": 0, "median_price": 745455.0, "median_price_per_sqm": 11689.156600517686, "turnover_score": 2.1, "turnover_rank": 69, "first_year": 2021, "last_year": 2025, "years_active": 3}}, {"type": "Feature", "geometry": {"type": "Point", "coordinates": [2.350938, 48.861]}, "properties": {"street_name": "RUE DE VENISE", "sales": 8, "sales_appt": 4, "sales_maison": 0, "median_price": 2107830.0, "median_price_per_sqm": 17575.65011820331, "turnover_score": 2.1, "turnover_rank": 69, "first_year": 2021, "last_year": 2025, "years_active": 3}}, {"type": "Feature", "geometry": {"type": "Point", "coordinates": [2.362599, 48.854897]}, "properties": {"street_name": "RUE CARON", "sales": 7, "sales_appt": 4, "sales_maison": 0, "median_price": 385000.0, "median_price_per_sqm": 13041.666666666668, "turnover_score": 1.8, "turnover_rank": 70, "first_year": 2021, "last_year": 2025, "years_active": 3}}, {"type": "Feature", "geometry": {"type": "Point", "coordinates": [2.353571, 48.860985]}, "properties": {"street_name": "RUE BEAUBOURG", "sales": 6, "sales_appt": 4, "sales_maison": 0, "median_price": 462000.0, "median_price_per_sqm": 11439.39393939394, "turnover_score": 1.5, "turnover_rank": 71, "first_year": 2021, "last_year": 2025, "years_active": 4}}, {"type": "Feature", "geometry": {"type": "Point", "coordinates": [2.345997, 48.854971]}, "properties": {"street_name": "BD DU PALAIS", "sales": 6, "sales_appt": 4, "sales_maison": 0, "median_price": 265000.0, "median_price_per_sqm": 10391.33393829401, "turnover_score": 1.5, "turnover_rank": 71, "first_year": 2022, "last_year": 2024, "years_active": 2}}, {"type": "Feature", "geometry": {"type": "Point", "coordinates": [2.363572, 48.853885]}, "properties": {"street_name": "RUE NEUVE ST PIERRE", "sales": 6, "sales_appt": 2, "sales_maison": 0, "median_price": 1383500.0, "median_price_per_sqm": 13835.0, "turnover_score": 1.5, "turnover_rank": 71, "first_year": 2022, "last_year": 2022, "years_active": 1}}, {"type": "Feature", "geometry": {"type": "Point", "coordinates": [2.35507, 48.856985]}, "properties": {"street_name": "RUE DES MAUVAIS GARCONS", "sales": 6, "sales_appt": 5, "sales_maison": 0, "median_price": 293135.0, "median_price_per_sqm": 13180.14705882353, "turnover_score": 1.5, "turnover_rank": 71, "first_year": 2021, "last_year": 2025, "years_active": 3}}, {"type": "Feature", "geometry": {"type": "Point", "coordinates": [2.359559, 48.853853]}, "properties": {"street_name": "RUE DU FAUCONNIER", "sales": 6, "sales_appt": 3, "sales_maison": 0, "median_price": 1134298.0, "median_price_per_sqm": 15123.973333333333, "turnover_score": 1.5, "turnover_rank": 71, "first_year": 2021, "last_year": 2023, "years_active": 3}}, {"type": "Feature", "geometry": {"type": "Point", "coordinates": [2.355688, 48.858148]}, "properties": {"street_name": "RUE DE MOUSSY", "sales": 6, "sales_appt": 3, "sales_maison": 0, "median_price": 650000.0, "median_price_per_sqm": 12264.150943396226, "turnover_score": 1.5, "turnover_rank": 71, "first_year": 2023, "last_year": 2023, "years_active": 1}}, {"type": "Feature", "geometry": {"type": "Point", "coordinates": [2.367956, 48.853649]}, "properties": {"street_name": "RUE DE LA BASTILLE", "sales": 5, "sales_appt": 4, "sales_maison": 0, "median_price": 250000.0, "median_price_per_sqm": 9309.52380952381, "turnover_score": 1.3, "turnover_rank": 72, "first_year": 2021, "last_year": 2024, "years_active": 3}}, {"type": "Feature", "geometry": {"type": "Point", "coordinates": [2.345741, 48.854318]}, "properties": {"street_name": "QUAI DU MARCHE NEUF", "sales": 5, "sales_appt": 3, "sales_maison": 0, "median_price": 642850.0, "median_price_per_sqm": 13975.0, "turnover_score": 1.3, "turnover_rank": 72, "first_year": 2022, "last_year": 2025, "years_active": 2}}, {"type": "Feature", "geometry": {"type": "Point", "coordinates": [2.359235, 48.85804]}, "properties": {"street_name": "RUE DES HOSPIT SAINT GERVAIS", "sales": 5, "sales_appt": 2, "sales_maison": 0, "median_price": 780000.0, "median_price_per_sqm": 15394.48051948052, "turnover_score": 1.3, "turnover_rank": 72, "first_year": 2025, "last_year": 2025, "years_active": 1}}, {"type": "Feature", "geometry": {"type": "Point", "coordinates": [2.354062, 48.853157]}, "properties": {"street_name": "RUE JEAN DU BELLAY", "sales": 4, "sales_appt": 1, "sales_maison": 0, "median_price": 570000.0, "median_price_per_sqm": 13181.818181818182, "turnover_score": 1.0, "turnover_rank": 73, "first_year": 2022, "last_year": 2024, "years_active": 3}}, {"type": "Feature", "geometry": {"type": "Point", "coordinates": [2.359265, 48.853715]}, "properties": {"street_name": "RUE DU FIGUIER", "sales": 4, "sales_appt": 2, "sales_maison": 0, "median_price": 596000.0, "median_price_per_sqm": 14367.59581881533, "turnover_score": 1.0, "turnover_rank": 73, "first_year": 2021, "last_year": 2023, "years_active": 2}}, {"type": "Feature", "geometry": {"type": "Point", "coordinates": [2.358257, 48.858017]}, "properties": {"street_name": "RUE MARCHE DES BLANCS MANTEAUX", "sales": 4, "sales_appt": 2, "sales_maison": 0, "median_price": 677500.0, "median_price_per_sqm": 13028.846153846152, "turnover_score": 1.0, "turnover_rank": 73, "first_year": 2022, "last_year": 2023, "years_active": 2}}, {"type": "Feature", "geometry": {"type": "Point", "coordinates": [2.359634, 48.855127]}, "properties": {"street_name": "RUE DE FOURCY", "sales": 3, "sales_appt": 3, "sales_maison": 0, "median_price": 360000.0, "median_price_per_sqm": 14089.285714285714, "turnover_score": 0.8, "turnover_rank": 74, "first_year": 2021, "last_year": 2024, "years_active": 2}}, {"type": "Feature", "geometry": {"type": "Point", "coordinates": [2.349253, 48.858962]}, "properties": {"street_name": "RUE NICOLAS FLAMEL", "sales": 3, "sales_appt": 2, "sales_maison": 0, "median_price": 67000.0, "median_price_per_sqm": 6030.649706744868, "turnover_score": 0.8, "turnover_rank": 74, "first_year": 2021, "last_year": 2023, "years_active": 2}}, {"type": "Feature", "geometry": {"type": "Point", "coordinates": [2.359721, 48.854671]}, "properties": {"street_name": "RUE DU PREVOT", "sales": 3, "sales_appt": 1, "sales_maison": 0, "median_price": 610000.0, "median_price_per_sqm": 8133.333333333333, "turnover_score": 0.8, "turnover_rank": 74, "first_year": 2023, "last_year": 2023, "years_active": 1}}, {"type": "Feature", "geometry": {"type": "Point", "coordinates": [2.350527, 48.854509]}, "properties": {"street_name": "RUE DES URSINS", "sales": 3, "sales_appt": 2, "sales_maison": 0, "median_price": 755200.0, "median_price_per_sqm": 14807.843137254902, "turnover_score": 0.8, "turnover_rank": 74, "first_year": 2022, "last_year": 2024, "years_active": 2}}, {"type": "Feature", "geometry": {"type": "Point", "coordinates": [2.363572, 48.853885]}, "properties": {"street_name": "RUE NEUVE SAINT PIERRE", "sales": 2, "sales_appt": 1, "sales_maison": 0, "median_price": 1300000.0, "median_price_per_sqm": 13131.31313131313, "turnover_score": 0.5, "turnover_rank": 75, "first_year": 2025, "last_year": 2025, "years_active": 1}}, {"type": "Feature", "geometry": {"type": "Point", "coordinates": [2.350452, 48.854703]}, "properties": {"street_name": "RUE DE LA COLOMBE", "sales": 2, "sales_appt": 2, "sales_maison": 0, "median_price": 615796.5, "median_price_per_sqm": 17137.33712121212, "turnover_score": 0.5, "turnover_rank": 75, "first_year": 2021, "last_year": 2021, "years_active": 1}}, {"type": "Feature", "geometry": {"type": "Point", "coordinates": [2.368303, 48.855011]}, "properties": {"street_name": "IMP JEAN BEAUSIRE", "sales": 2, "sales_appt": 1, "sales_maison": 0, "median_price": 443000.0, "median_price_per_sqm": 11657.894736842105, "turnover_score": 0.5, "turnover_rank": 75, "first_year": 2021, "last_year": 2021, "years_active": 1}}, {"type": "Feature", "geometry": {"type": "Point", "coordinates": [2.350232, 48.85755]}, "properties": {"street_name": "RUE DE LA TACHERIE", "sales": 2, "sales_appt": 1, "sales_maison": 0, "median_price": 400000.0, "median_price_per_sqm": 12121.212121212122, "turnover_score": 0.5, "turnover_rank": 75, "first_year": 2024, "last_year": 2024, "years_active": 1}}, {"type": "Feature", "geometry": {"type": "Point", "coordinates": [2.357608, 48.855694]}, "properties": {"street_name": "RUE TIRON", "sales": 2, "sales_appt": 2, "sales_maison": 0, "median_price": 1789000.0, "median_price_per_sqm": 28669.871794871797, "turnover_score": 0.5, "turnover_rank": 75, "first_year": 2025, "last_year": 2025, "years_active": 1}}, {"type": "Feature", "geometry": {"type": "Point", "coordinates": [2.35165, 48.858703]}, "properties": {"street_name": "RUE DU CLOITRE ST MERRI", "sales": 2, "sales_appt": 1, "sales_maison": 0, "median_price": 139775.5, "median_price_per_sqm": 7356.579947368421, "turnover_score": 0.5, "turnover_rank": 75, "first_year": 2021, "last_year": 2022, "years_active": 2}}, {"type": "Feature", "geometry": {"type": "Point", "coordinates": [2.353681, 48.859421]}, "properties": {"street_name": "IMP DU BOEUF", "sales": 1, "sales_appt": 1, "sales_maison": 0, "median_price": 193000.0, "median_price_per_sqm": 19300.0, "turnover_score": 0.3, "turnover_rank": 76, "first_year": 2025, "last_year": 2025, "years_active": 1}}, {"type": "Feature", "geometry": {"type": "Point", "coordinates": [2.35165, 48.858703]}, "properties": {"street_name": "RUE DU CLOITRE SAINT MERRI", "sales": 1, "sales_appt": 1, "sales_maison": 0, "median_price": 237000.0, "median_price_per_sqm": 12473.684210526315, "turnover_score": 0.3, "turnover_rank": 76, "first_year": 2025, "last_year": 2025, "years_active": 1}}]}