{"type": "FeatureCollection", "features": [{"type": "Feature", "geometry": {"type": "Point", "coordinates": [2.802511, 48.278988]}, "properties": {"id_parcelle": "774730000D0054", "address": "7 CHE DE LA BROSSE", "sales": 6, "median_price": 525000.0, "median_price_per_sqm": 3523.489932885906, "median_rooms": 0.0, "first_sale": "2024-01-27", "last_sale": "2024-01-27"}}, {"type": "Feature", "geometry": {"type": "Point", "coordinates": [2.812633, 48.273527]}, "properties": {"id_parcelle": "77473000ZO0003", "address": "2 PL GUSTAVE MOUFROND", "sales": 6, "median_price": 281000.0, "median_price_per_sqm": 2676.190476190476, "median_rooms": 0.0, "first_sale": "2021-07-27", "last_sale": "2021-07-27"}}, {"type": "Feature", "geometry": {"type": "Point", "coordinates": [2.832944, 48.286825]}, "properties": {"id_parcelle": "77473000YR0021", "address": "LA VALLEE AUX LOUPS", "sales": 5, "median_price": 38520.9, "median_price_per_sqm": null, "median_rooms": null, "first_sale": "2025-05-06", "last_sale": "2025-05-06"}}, {"type": "Feature", "geometry": {"type": "Point", "coordinates": [2.812458, 48.272688]}, "properties": {"id_parcelle": "77473000ZC0032", "address": "3 RUE GRANDE", "sales": 5, "median_price": 210000.0, "median_price_per_sqm": 1707.3170731707316, "median_rooms": 0.0, "first_sale": "2021-07-23", "last_sale": "2021-07-23"}}, {"type": "Feature", "geometry": {"type": "Point", "coordinates": [2.791946, 48.269557]}, "properties": {"id_parcelle": "77473000YL0038", "address": "3 PL DE LA POMPE", "sales": 4, "median_price": 131000.0, "median_price_per_sqm": 1007.6923076923077, "median_rooms": 2.5, "first_sale": "2021-05-26", "last_sale": "2025-03-26"}}, {"type": "Feature", "geometry": {"type": "Point", "coordinates": [2.801474, 48.277701]}, "properties": {"id_parcelle": "77473000ZX0021", "address": "11 RUE DE L EGLISE", "sales": 4, "median_price": 130000.0, "median_price_per_sqm": 2452.830188679245, "median_rooms": 0.0, "first_sale": "2022-09-30", "last_sale": "2022-09-30"}}, {"type": "Feature", "geometry": {"type": "Point", "coordinates": [2.815202, 48.272743]}, "properties": {"id_parcelle": "77473000ZB0246", "address": "2 RUE CREUSE", "sales": 4, "median_price": 225000.0, "median_price_per_sqm": null, "median_rooms": 0.0, "first_sale": "2022-12-20", "last_sale": "2025-08-22"}}, {"type": "Feature", "geometry": {"type": "Point", "coordinates": [2.808965, 48.274521]}, "properties": {"id_parcelle": "77473000ZD0094", "address": "1 RUE DE NANTEAU", "sales": 4, "median_price": 185000.0, "median_price_per_sqm": 1516.3934426229507, "median_rooms": 3.5, "first_sale": "2025-08-01", "last_sale": "2025-08-01"}}, {"type": "Feature", "geometry": {"type": "Point", "coordinates": [2.828458, 48.283233]}, "properties": {"id_parcelle": "77473000ZR0008", "address": "LES MARNIERES", "sales": 4, "median_price": 38520.9, "median_price_per_sqm": null, "median_rooms": null, "first_sale": "2025-05-06", "last_sale": "2025-05-06"}}, {"type": "Feature", "geometry": {"type": "Point", "coordinates": [2.803291, 48.277835]}, "properties": {"id_parcelle": "774730000D0048", "address": "3 RUE DE L EGLISE", "sales": 4, "median_price": 119000.0, "median_price_per_sqm": 2245.2830188679245, "median_rooms": 1.5, "first_sale": "2022-02-14", "last_sale": "2022-02-14"}}, {"type": "Feature", "geometry": {"type": "Point", "coordinates": [2.810577, 48.271476]}, "properties": {"id_parcelle": "77473000ZC0142", "address": "LE PRESSOIR", "sales": 3, "median_price": 4000.0, "median_price_per_sqm": null, "median_rooms": null, "first_sale": "2021-09-07", "last_sale": "2021-09-07"}}, {"type": "Feature", "geometry": {"type": "Point", "coordinates": [2.81985, 48.275779]}, "properties": {"id_parcelle": "77473000ZN0103", "address": "LES PIECES DE CANNES", "sales": 3, "median_price": 31246.5, "median_price_per_sqm": null, "median_rooms": null, "first_sale": "2024-09-19", "last_sale": "2024-09-19"}}, {"type": "Feature", "geometry": {"type": "Point", "coordinates": [2.810373, 48.273263]}, "properties": {"id_parcelle": "77473000ZD0126", "address": "5 RUE DE LA VIGNE AUX VIEUX", "sales": 3, "median_price": 205000.0, "median_price_per_sqm": 2157.8947368421054, "median_rooms": 0.0, "first_sale": "2024-09-28", "last_sale": "2024-09-28"}}, {"type": "Feature", "geometry": {"type": "Point", "coordinates": [2.822513, 48.274631]}, "properties": {"id_parcelle": "77473000ZN0017", "address": "52 RUE GRANDE", "sales": 3, "median_price": 865910.0, "median_price_per_sqm": 11435.21942299878, "median_rooms": 0.0, "first_sale": "2024-04-26", "last_sale": "2024-04-26"}}, {"type": "Feature", "geometry": {"type": "Point", "coordinates": [2.814074, 48.287233]}, "properties": {"id_parcelle": "77473000YP0022", "address": "LA VALLEE DE VILLEMER", "sales": 3, "median_price": 19097.0, "median_price_per_sqm": null, "median_rooms": null, "first_sale": "2024-05-30", "last_sale": "2024-05-30"}}, {"type": "Feature", "geometry": {"type": "Point", "coordinates": [2.815643, 48.272816]}, "properties": {"id_parcelle": "77473000ZB0164", "address": "21 RUE GRANDE", "sales": 3, "median_price": 125000.0, "median_price_per_sqm": 2291.666666666667, "median_rooms": 0.0, "first_sale": "2022-05-18", "last_sale": "2022-05-18"}}, {"type": "Feature", "geometry": {"type": "Point", "coordinates": [2.792896, 48.270059]}, "properties": {"id_parcelle": "77473000YL0083", "address": "12 RUE DU LUNAIN", "sales": 3, "median_price": 290000.0, "median_price_per_sqm": 5948.717948717948, "median_rooms": 1.0, "first_sale": "2021-07-23", "last_sale": "2021-07-23"}}, {"type": "Feature", "geometry": {"type": "Point", "coordinates": [2.802496, 48.279275]}, "properties": {"id_parcelle": "774730000D0067", "address": "LA BROSSE", "sales": 2, "median_price": 525000.0, "median_price_per_sqm": null, "median_rooms": null, "first_sale": "2024-01-27", "last_sale": "2024-01-27"}}, {"type": "Feature", "geometry": {"type": "Point", "coordinates": [2.792432, 48.269793]}, "properties": {"id_parcelle": "77473000YL0159", "address": "1 RUE DU LUNAIN", "sales": 2, "median_price": 160000.0, "median_price_per_sqm": 2191.780821917808, "median_rooms": 2.5, "first_sale": "2021-07-24", "last_sale": "2021-07-24"}}, {"type": "Feature", "geometry": {"type": "Point", "coordinates": [2.77376, 48.249523]}, "properties": {"id_parcelle": "774730000G0087", "address": "BOIS DES BLESSEAUX", "sales": 2, "median_price": 11940.0, "median_price_per_sqm": null, "median_rooms": null, "first_sale": "2024-06-14", "last_sale": "2024-06-14"}}, {"type": "Feature", "geometry": {"type": "Point", "coordinates": [2.744565, 48.273264]}, "properties": {"id_parcelle": "774730000F0034", "address": "LES COTES", "sales": 2, "median_price": 100000.0, "median_price_per_sqm": null, "median_rooms": null, "first_sale": "2022-12-13", "last_sale": "2022-12-13"}}, {"type": "Feature", "geometry": {"type": "Point", "coordinates": [2.774204, 48.249104]}, "properties": {"id_parcelle": "774730000G0086", "address": "BOIS DES BLESSEAUX", "sales": 2, "median_price": 200000.0, "median_price_per_sqm": null, "median_rooms": null, "first_sale": "2024-09-20", "last_sale": "2024-09-20"}}, {"type": "Feature", "geometry": {"type": "Point", "coordinates": [2.803343, 48.278909]}, "properties": {"id_parcelle": "774730000D0092", "address": "5 CHE DE LA BROSSE", "sales": 2, "median_price": 346000.0, "median_price_per_sqm": 2306.6666666666665, "median_rooms": 5.0, "first_sale": "2021-09-16", "last_sale": "2021-09-16"}}, {"type": "Feature", "geometry": {"type": "Point", "coordinates": [2.822701, 48.274185]}, "properties": {"id_parcelle": "77473000ZB0206", "address": "51 RUE GRANDE", "sales": 2, "median_price": 230000.0, "median_price_per_sqm": 1642.857142857143, "median_rooms": 5.0, "first_sale": "2021-11-12", "last_sale": "2021-11-12"}}, {"type": "Feature", "geometry": {"type": "Point", "coordinates": [2.83359, 48.274128]}, "properties": {"id_parcelle": "77473000ZA0015", "address": "LES VALLEES", "sales": 2, "median_price": 38520.9, "median_price_per_sqm": null, "median_rooms": null, "first_sale": "2025-05-06", "last_sale": "2025-05-06"}}, {"type": "Feature", "geometry": {"type": "Point", "coordinates": [2.828135, 48.274408]}, "properties": {"id_parcelle": "77473000ZA0007", "address": "LE CHEM DE GRETZ", "sales": 2, "median_price": 38520.9, "median_price_per_sqm": null, "median_rooms": null, "first_sale": "2025-05-06", "last_sale": "2025-05-06"}}, {"type": "Feature", "geometry": {"type": "Point", "coordinates": [2.813197, 48.271877]}, "properties": {"id_parcelle": "77473000ZC0182", "address": "2 IMP DU PRESSOIR", "sales": 2, "median_price": 236100.0, "median_price_per_sqm": 2361.0, "median_rooms": 4.0, "first_sale": "2021-04-01", "last_sale": "2021-04-01"}}, {"type": "Feature", "geometry": {"type": "Point", "coordinates": [2.812569, 48.272609]}, "properties": {"id_parcelle": "77473000ZC0156", "address": "LE PRESSOIR", "sales": 2, "median_price": 212500.0, "median_price_per_sqm": null, "median_rooms": null, "first_sale": "2021-07-23", "last_sale": "2023-05-29"}}, {"type": "Feature", "geometry": {"type": "Point", "coordinates": [2.811127, 48.272632]}, "properties": {"id_parcelle": "77473000ZC0139", "address": "4 RUE DE LA VIGNE AUX VIEUX", "sales": 2, "median_price": 224000.0, "median_price_per_sqm": 2408.6021505376343, "median_rooms": 6.0, "first_sale": "2022-09-16", "last_sale": "2022-09-16"}}, {"type": "Feature", "geometry": {"type": "Point", "coordinates": [2.810597, 48.272478]}, "properties": {"id_parcelle": "77473000ZC0138", "address": "6 RUE DE LA VIGNE AUX VIEUX", "sales": 2, "median_price": 318000.0, "median_price_per_sqm": 1987.5, "median_rooms": 5.0, "first_sale": "2022-06-27", "last_sale": "2022-06-27"}}, {"type": "Feature", "geometry": {"type": "Point", "coordinates": [2.815316, 48.272661]}, "properties": {"id_parcelle": "77473000ZB0267", "address": "LEVELAY", "sales": 2, "median_price": 225000.0, "median_price_per_sqm": null, "median_rooms": null, "first_sale": "2022-12-20", "last_sale": "2025-08-22"}}, {"type": "Feature", "geometry": {"type": "Point", "coordinates": [2.813377, 48.272168]}, "properties": {"id_parcelle": "77473000ZC0136", "address": "11 RUE GRANDE", "sales": 2, "median_price": 347000.0, "median_price_per_sqm": 2776.0, "median_rooms": 5.0, "first_sale": "2021-04-26", "last_sale": "2021-04-26"}}, {"type": "Feature", "geometry": {"type": "Point", "coordinates": [2.815069, 48.272696]}, "properties": {"id_parcelle": "77473000ZB0162", "address": "2 RUE CREUSE", "sales": 2, "median_price": 225000.0, "median_price_per_sqm": 2083.3333333333335, "median_rooms": 4.0, "first_sale": "2022-12-20", "last_sale": "2025-08-22"}}, {"type": "Feature", "geometry": {"type": "Point", "coordinates": [2.808676, 48.275657]}, "properties": {"id_parcelle": "77473000ZD0060", "address": "5155 RTE DE NANTEAU", "sales": 2, "median_price": 262000.0, "median_price_per_sqm": 1758.3892617449665, "median_rooms": 5.0, "first_sale": "2021-03-04", "last_sale": "2021-03-04"}}, {"type": "Feature", "geometry": {"type": "Point", "coordinates": [2.802593, 48.269891]}, "properties": {"id_parcelle": "77473000ZK0045", "address": "5061 LE CHEM DE LA CLAIE", "sales": 2, "median_price": 365000.0, "median_price_per_sqm": 2786.259541984733, "median_rooms": 4.0, "first_sale": "2021-06-11", "last_sale": "2021-06-11"}}, {"type": "Feature", "geometry": {"type": "Point", "coordinates": [2.800292, 48.277035]}, "properties": {"id_parcelle": "77473000ZE0021", "address": "LA VALLEE DE TREUZY", "sales": 2, "median_price": 303000.0, "median_price_per_sqm": null, "median_rooms": null, "first_sale": "2021-10-19", "last_sale": "2021-10-19"}}, {"type": "Feature", "geometry": {"type": "Point", "coordinates": [2.800509, 48.276813]}, "properties": {"id_parcelle": "77473000ZE0020", "address": "20 RUE DE L EGLISE", "sales": 2, "median_price": 303000.0, "median_price_per_sqm": 2525.0, "median_rooms": 4.0, "first_sale": "2021-10-19", "last_sale": "2021-10-19"}}, {"type": "Feature", "geometry": {"type": "Point", "coordinates": [2.809901, 48.274637]}, "properties": {"id_parcelle": "77473000ZD0130", "address": "7 RUE DE LA CROIX BONNARD", "sales": 2, "median_price": 64500.0, "median_price_per_sqm": 1402.1739130434783, "median_rooms": 1.0, "first_sale": "2021-07-21", "last_sale": "2021-07-21"}}, {"type": "Feature", "geometry": {"type": "Point", "coordinates": [2.8092, 48.273662]}, "properties": {"id_parcelle": "77473000ZD0108", "address": "5 RUE DU CLOS DU VEL", "sales": 2, "median_price": 250000.0, "median_price_per_sqm": 1838.235294117647, "median_rooms": 6.0, "first_sale": "2023-03-30", "last_sale": "2023-03-30"}}, {"type": "Feature", "geometry": {"type": "Point", "coordinates": [2.811664, 48.273693]}, "properties": {"id_parcelle": "77473000ZO0050", "address": "2 RUE DE LA CROIX BONNARD", "sales": 2, "median_price": 215000.0, "median_price_per_sqm": 3071.4285714285716, "median_rooms": 4.0, "first_sale": "2021-04-23", "last_sale": "2021-04-23"}}, {"type": "Feature", "geometry": {"type": "Point", "coordinates": [2.811027, 48.274677]}, "properties": {"id_parcelle": "77473000ZO0063", "address": "14 RUE DE LA CROIX BONNARD", "sales": 2, "median_price": 186000.0, "median_price_per_sqm": 2861.5384615384614, "median_rooms": 3.0, "first_sale": "2025-01-28", "last_sale": "2025-01-28"}}, {"type": "Feature", "geometry": {"type": "Point", "coordinates": [2.821602, 48.281004]}, "properties": {"id_parcelle": "77473000ZS0007", "address": "LA ROCHE A BLAIN", "sales": 2, "median_price": 38520.9, "median_price_per_sqm": null, "median_rooms": null, "first_sale": "2025-05-06", "last_sale": "2025-05-06"}}]}