{"type": "FeatureCollection", "features": [{"type": "Feature", "geometry": {"type": "Point", "coordinates": [2.657329, 49.051711]}, "properties": {"id_parcelle": "772590000C1339", "address": "76 CHE DU GAZON", "sales": 31, "median_price": 254000.0, "median_price_per_sqm": 2770.408163265306, "median_rooms": 0.0, "first_sale": "2021-05-19", "last_sale": "2025-06-11"}}, {"type": "Feature", "geometry": {"type": "Point", "coordinates": [2.653151, 49.051635]}, "properties": {"id_parcelle": "77259000ZE0060", "address": "73 RUE DE MAINCOURT", "sales": 25, "median_price": 159000.0, "median_price_per_sqm": 3372.7272727272725, "median_rooms": 0.0, "first_sale": "2021-04-21", "last_sale": "2024-10-16"}}, {"type": "Feature", "geometry": {"type": "Point", "coordinates": [2.655162, 49.05193]}, "properties": {"id_parcelle": "77259000ZE0049", "address": "59 RUE DE MAINCOURT", "sales": 18, "median_price": 138000.0, "median_price_per_sqm": 3222.4506578947367, "median_rooms": 0.0, "first_sale": "2021-06-07", "last_sale": "2025-11-19"}}, {"type": "Feature", "geometry": {"type": "Point", "coordinates": [2.655395, 49.052828]}, "properties": {"id_parcelle": "772590000C1194", "address": "4 RUE JEHAN DE CHAMBLY", "sales": 14, "median_price": 156000.0, "median_price_per_sqm": 3391.304347826087, "median_rooms": 0.5, "first_sale": "2021-08-30", "last_sale": "2025-12-19"}}, {"type": "Feature", "geometry": {"type": "Point", "coordinates": [2.658808, 49.05035]}, "properties": {"id_parcelle": "772590000C1195", "address": "44 CHE DU GAZON", "sales": 13, "median_price": 164000.0, "median_price_per_sqm": 3557.5, "median_rooms": 2.0, "first_sale": "2021-04-06", "last_sale": "2025-12-17"}}, {"type": "Feature", "geometry": {"type": "Point", "coordinates": [2.660194, 49.052109]}, "properties": {"id_parcelle": "77259000ZL0077", "address": "11 RUE DU PRESBYTERE", "sales": 13, "median_price": 150000.0, "median_price_per_sqm": 3478.228599703117, "median_rooms": 0.0, "first_sale": "2022-04-12", "last_sale": "2024-03-29"}}, {"type": "Feature", "geometry": {"type": "Point", "coordinates": [2.665572, 49.048734]}, "properties": {"id_parcelle": "772590000C0065", "address": "2 RUE DU BORDET", "sales": 11, "median_price": 147000.0, "median_price_per_sqm": 3327.5862068965516, "median_rooms": 0.0, "first_sale": "2021-03-26", "last_sale": "2025-11-14"}}, {"type": "Feature", "geometry": {"type": "Point", "coordinates": [2.665375, 49.054109]}, "properties": {"id_parcelle": "772590000C1107", "address": "32 RUE DE LA FONTAINE DU MEUNIER", "sales": 8, "median_price": 268000.0, "median_price_per_sqm": 3135.711384865304, "median_rooms": 2.0, "first_sale": "2021-12-16", "last_sale": "2025-08-20"}}, {"type": "Feature", "geometry": {"type": "Point", "coordinates": [2.665996, 49.054276]}, "properties": {"id_parcelle": "772590000C1108", "address": "30 RUE DE LA FONTAINE DU MEUNIER", "sales": 8, "median_price": 420000.0, "median_price_per_sqm": 4242.424242424242, "median_rooms": 0.0, "first_sale": "2022-01-06", "last_sale": "2022-01-06"}}, {"type": "Feature", "geometry": {"type": "Point", "coordinates": [2.656846, 49.05167]}, "properties": {"id_parcelle": "772590000C0615", "address": "9001 CHE DU GAZON", "sales": 7, "median_price": 160000.0, "median_price_per_sqm": 3444.4444444444443, "median_rooms": 0.0, "first_sale": "2021-10-15", "last_sale": "2021-12-29"}}, {"type": "Feature", "geometry": {"type": "Point", "coordinates": [2.657587, 49.052192]}, "properties": {"id_parcelle": "772590000C1337", "address": "49 RUE DE MAINCOURT", "sales": 6, "median_price": 158000.0, "median_price_per_sqm": 3260.186513629842, "median_rooms": 2.0, "first_sale": "2021-07-30", "last_sale": "2025-06-11"}}, {"type": "Feature", "geometry": {"type": "Point", "coordinates": [2.664893, 49.048401]}, "properties": {"id_parcelle": "772590000C1393", "address": "18 RUE DU BORDET", "sales": 5, "median_price": 135000.0, "median_price_per_sqm": 3518.5185185185187, "median_rooms": 1.0, "first_sale": "2021-09-17", "last_sale": "2023-09-28"}}, {"type": "Feature", "geometry": {"type": "Point", "coordinates": [2.663904, 49.050511]}, "properties": {"id_parcelle": "772590000C0371", "address": "34 RUE DU VIVIER", "sales": 5, "median_price": 115000.0, "median_price_per_sqm": 3285.714285714286, "median_rooms": 1.0, "first_sale": "2022-05-02", "last_sale": "2025-12-01"}}, {"type": "Feature", "geometry": {"type": "Point", "coordinates": [2.663289, 49.047358]}, "properties": {"id_parcelle": "772590000C0007", "address": "LE GAZON", "sales": 4, "median_price": 142500.0, "median_price_per_sqm": null, "median_rooms": null, "first_sale": "2025-01-17", "last_sale": "2025-02-05"}}, {"type": "Feature", "geometry": {"type": "Point", "coordinates": [2.658914, 49.053038]}, "properties": {"id_parcelle": "772590000C0747", "address": "7 RLE DU PONCEAU", "sales": 4, "median_price": 432200.0, "median_price_per_sqm": 2572.6190476190477, "median_rooms": 3.0, "first_sale": "2023-07-25", "last_sale": "2023-07-25"}}, {"type": "Feature", "geometry": {"type": "Point", "coordinates": [2.66117, 49.051407]}, "properties": {"id_parcelle": "77259000ZL0121", "address": "4 RUE DU PRESBYTERE", "sales": 4, "median_price": 332000.0, "median_price_per_sqm": 2912.280701754386, "median_rooms": 2.5, "first_sale": "2021-09-10", "last_sale": "2021-09-10"}}, {"type": "Feature", "geometry": {"type": "Point", "coordinates": [2.664901, 49.050348]}, "properties": {"id_parcelle": "772590000C1198", "address": "25 RUE DU VIVIER", "sales": 4, "median_price": 240000.0, "median_price_per_sqm": 3428.5714285714284, "median_rooms": 0.0, "first_sale": "2022-06-21", "last_sale": "2022-06-21"}}, {"type": "Feature", "geometry": {"type": "Point", "coordinates": [2.663926, 49.047986]}, "properties": {"id_parcelle": "772590000C1274", "address": "28 RUE DU BORDET", "sales": 4, "median_price": 426736.6, "median_price_per_sqm": 3333.8796875, "median_rooms": 3.0, "first_sale": "2023-03-15", "last_sale": "2023-03-15"}}, {"type": "Feature", "geometry": {"type": "Point", "coordinates": [2.665708, 49.048148]}, "properties": {"id_parcelle": "772590000C1523", "address": "11 RUE DU BORDET", "sales": 4, "median_price": 311200.0, "median_price_per_sqm": 3536.363636363636, "median_rooms": 4.0, "first_sale": "2021-11-29", "last_sale": "2025-05-05"}}, {"type": "Feature", "geometry": {"type": "Point", "coordinates": [2.65918, 49.052512]}, "properties": {"id_parcelle": "772590000C0571", "address": "58 RUE DE MAINCOURT", "sales": 4, "median_price": 350000.0, "median_price_per_sqm": 4875.0, "median_rooms": 1.0, "first_sale": "2021-11-27", "last_sale": "2021-11-27"}}, {"type": "Feature", "geometry": {"type": "Point", "coordinates": [2.664407, 49.053682]}, "properties": {"id_parcelle": "772590000C1139", "address": "23 RUE DE LA FONTAINE DU MEUNIER", "sales": 4, "median_price": 350500.0, "median_price_per_sqm": 2352.3489932885905, "median_rooms": 3.5, "first_sale": "2025-08-20", "last_sale": "2025-08-20"}}, {"type": "Feature", "geometry": {"type": "Point", "coordinates": [2.663225, 49.04739]}, "properties": {"id_parcelle": "772590000C0005", "address": "8 RUE DE PARIS", "sales": 4, "median_price": 420000.0, "median_price_per_sqm": 4941.176470588235, "median_rooms": 2.0, "first_sale": "2025-01-17", "last_sale": "2025-02-05"}}, {"type": "Feature", "geometry": {"type": "Point", "coordinates": [2.663395, 49.0527]}, "properties": {"id_parcelle": "772590000C0965", "address": "3 RUE DU GUE DES FOURCHES", "sales": 3, "median_price": 195000.0, "median_price_per_sqm": 3000.0, "median_rooms": 0.0, "first_sale": "2022-12-23", "last_sale": "2025-07-07"}}, {"type": "Feature", "geometry": {"type": "Point", "coordinates": [2.658296, 49.052074]}, "properties": {"id_parcelle": "772590000C0470", "address": "2 RUE DU PONCEAU", "sales": 3, "median_price": 150000.0, "median_price_per_sqm": 2500.0, "median_rooms": 0.0, "first_sale": "2025-12-30", "last_sale": "2025-12-30"}}, {"type": "Feature", "geometry": {"type": "Point", "coordinates": [2.665881, 49.048412]}, "properties": {"id_parcelle": "772590000C0235", "address": "9 RUE DU BORDET", "sales": 3, "median_price": 200000.0, "median_price_per_sqm": 2898.550724637681, "median_rooms": 0.0, "first_sale": "2022-01-25", "last_sale": "2022-01-25"}}, {"type": "Feature", "geometry": {"type": "Point", "coordinates": [2.665471, 49.048628]}, "properties": {"id_parcelle": "772590000C0703", "address": "8 RUE DU BORDET", "sales": 3, "median_price": 160000.0, "median_price_per_sqm": 3137.2549019607845, "median_rooms": 0.0, "first_sale": "2024-04-22", "last_sale": "2024-04-22"}}, {"type": "Feature", "geometry": {"type": "Point", "coordinates": [2.659416, 49.051572]}, "properties": {"id_parcelle": "772590000C0642", "address": "3 RUE RES DU JARDIN DU PUITS", "sales": 3, "median_price": 309000.0, "median_price_per_sqm": 3090.0, "median_rooms": 0.0, "first_sale": "2025-07-04", "last_sale": "2025-07-04"}}, {"type": "Feature", "geometry": {"type": "Point", "coordinates": [2.665485, 49.048332]}, "properties": {"id_parcelle": "772590000C0249", "address": "RUE DU BORDET", "sales": 3, "median_price": 180000.0, "median_price_per_sqm": null, "median_rooms": null, "first_sale": "2022-12-13", "last_sale": "2025-07-29"}}, {"type": "Feature", "geometry": {"type": "Point", "coordinates": [2.66349, 49.046618]}, "properties": {"id_parcelle": "77259000ZD0022", "address": "9002 RUE DE LA BELLE ETOILE", "sales": 3, "median_price": 8160000.0, "median_price_per_sqm": 8969.983591585857, "median_rooms": 0.0, "first_sale": "2022-02-24", "last_sale": "2022-02-24"}}, {"type": "Feature", "geometry": {"type": "Point", "coordinates": [2.666815, 49.048796]}, "properties": {"id_parcelle": "772590000C1291", "address": "53 RUE DU VIVIER", "sales": 3, "median_price": 175000.0, "median_price_per_sqm": 4268.292682926829, "median_rooms": 0.0, "first_sale": "2021-12-16", "last_sale": "2021-12-16"}}, {"type": "Feature", "geometry": {"type": "Point", "coordinates": [2.665091, 49.053671]}, "properties": {"id_parcelle": "772590000C1249", "address": "19 RUE DE LA FONTAINE DU MEUNIER", "sales": 3, "median_price": 266000.0, "median_price_per_sqm": 3022.7272727272725, "median_rooms": 0.0, "first_sale": "2021-06-18", "last_sale": "2021-06-18"}}, {"type": "Feature", "geometry": {"type": "Point", "coordinates": [2.663518, 49.051684]}, "properties": {"id_parcelle": "772590000C0926", "address": "5 RUE DU VIVIER", "sales": 3, "median_price": 130000.0, "median_price_per_sqm": 2031.25, "median_rooms": 0.0, "first_sale": "2023-02-21", "last_sale": "2023-02-21"}}, {"type": "Feature", "geometry": {"type": "Point", "coordinates": [2.668663, 49.054415]}, "properties": {"id_parcelle": "772590000C0816", "address": "22 RUE DU DOCTEUR ALEXIS BETHOUX", "sales": 2, "median_price": 340000.0, "median_price_per_sqm": 4857.142857142857, "median_rooms": 2.0, "first_sale": "2024-04-18", "last_sale": "2024-04-18"}}, {"type": "Feature", "geometry": {"type": "Point", "coordinates": [2.662227, 49.052152]}, "properties": {"id_parcelle": "772590000C0758", "address": "13 RUE DE MAINCOURT", "sales": 2, "median_price": 160300.0, "median_price_per_sqm": 3339.5833333333335, "median_rooms": 1.0, "first_sale": "2021-12-27", "last_sale": "2021-12-27"}}, {"type": "Feature", "geometry": {"type": "Point", "coordinates": [2.66837, 49.052379]}, "properties": {"id_parcelle": "772590000C0793", "address": "2 RUE DE CONDE", "sales": 2, "median_price": 289000.0, "median_price_per_sqm": 4188.405797101449, "median_rooms": 3.0, "first_sale": "2022-04-01", "last_sale": "2022-04-01"}}, {"type": "Feature", "geometry": {"type": "Point", "coordinates": [2.658777, 49.053573]}, "properties": {"id_parcelle": "772590000C0744", "address": "13 RLE DU PONCEAU", "sales": 2, "median_price": 329000.0, "median_price_per_sqm": 1880.0, "median_rooms": 6.0, "first_sale": "2025-03-25", "last_sale": "2025-03-25"}}, {"type": "Feature", "geometry": {"type": "Point", "coordinates": [2.659134, 49.051996]}, "properties": {"id_parcelle": "772590000C0591", "address": "6 RUE DU HAMEL", "sales": 2, "median_price": 130000.0, "median_price_per_sqm": 3250.0, "median_rooms": 1.0, "first_sale": "2022-02-28", "last_sale": "2022-02-28"}}, {"type": "Feature", "geometry": {"type": "Point", "coordinates": [2.658946, 49.051992]}, "properties": {"id_parcelle": "772590000C0594", "address": "8 RUE DU HAMEL", "sales": 2, "median_price": 169000.0, "median_price_per_sqm": 4333.333333333333, "median_rooms": 1.5, "first_sale": "2022-01-21", "last_sale": "2022-01-21"}}, {"type": "Feature", "geometry": {"type": "Point", "coordinates": [2.66255, 49.052055]}, "properties": {"id_parcelle": "772590000C0595", "address": "LE VIEUX CIMETIERE", "sales": 2, "median_price": 96750.0, "median_price_per_sqm": null, "median_rooms": null, "first_sale": "2024-01-30", "last_sale": "2024-06-04"}}, {"type": "Feature", "geometry": {"type": "Point", "coordinates": [2.661009, 49.052165]}, "properties": {"id_parcelle": "772590000C0437", "address": "23 RUE DE MAINCOURT", "sales": 2, "median_price": 304000.0, "median_price_per_sqm": 2412.6984126984125, "median_rooms": 2.0, "first_sale": "2024-06-12", "last_sale": "2024-06-12"}}, {"type": "Feature", "geometry": {"type": "Point", "coordinates": [2.663938, 49.050187]}, "properties": {"id_parcelle": "772590000C0388", "address": "LES SIX ARPENTS", "sales": 2, "median_price": 235000.0, "median_price_per_sqm": null, "median_rooms": null, "first_sale": "2022-12-09", "last_sale": "2023-07-12"}}, {"type": "Feature", "geometry": {"type": "Point", "coordinates": [2.662928, 49.047163]}, "properties": {"id_parcelle": "772590000C0003", "address": "LE GAZON", "sales": 2, "median_price": 5455276.0, "median_price_per_sqm": null, "median_rooms": null, "first_sale": "2025-02-05", "last_sale": "2025-02-05"}}, {"type": "Feature", "geometry": {"type": "Point", "coordinates": [2.66597, 49.048512]}, "properties": {"id_parcelle": "772590000C0227", "address": "5 RUE DU BORDET", "sales": 2, "median_price": 120000.0, "median_price_per_sqm": 1739.1304347826087, "median_rooms": 2.0, "first_sale": "2025-04-25", "last_sale": "2025-04-25"}}, {"type": "Feature", "geometry": {"type": "Point", "coordinates": [2.665432, 49.048359]}, "properties": {"id_parcelle": "772590000C0250", "address": "13 RUE DU BORDET", "sales": 2, "median_price": 180000.0, "median_price_per_sqm": 3750.0, "median_rooms": 1.0, "first_sale": "2022-12-13", "last_sale": "2022-12-13"}}, {"type": "Feature", "geometry": {"type": "Point", "coordinates": [2.665368, 49.0483]}, "properties": {"id_parcelle": "772590000C0251", "address": "13 RUE DU BORDET", "sales": 2, "median_price": 151000.0, "median_price_per_sqm": 3282.608695652174, "median_rooms": 2.0, "first_sale": "2021-09-27", "last_sale": "2025-07-29"}}, {"type": "Feature", "geometry": {"type": "Point", "coordinates": [2.663595, 49.051052]}, "properties": {"id_parcelle": "772590000C0346", "address": "18 RUE DU VIVIER", "sales": 2, "median_price": 141300.0, "median_price_per_sqm": 2883.673469387755, "median_rooms": 2.0, "first_sale": "2021-04-23", "last_sale": "2024-09-09"}}, {"type": "Feature", "geometry": {"type": "Point", "coordinates": [2.66366, 49.050561]}, "properties": {"id_parcelle": "772590000C0361", "address": "LES SIX ARPENTS", "sales": 2, "median_price": 98500.0, "median_price_per_sqm": null, "median_rooms": null, "first_sale": "2023-04-14", "last_sale": "2024-03-26"}}, {"type": "Feature", "geometry": {"type": "Point", "coordinates": [2.662787, 49.047211]}, "properties": {"id_parcelle": "772590000C0004", "address": "LE GAZON", "sales": 2, "median_price": 5457776.0, "median_price_per_sqm": null, "median_rooms": null, "first_sale": "2025-01-17", "last_sale": "2025-02-05"}}, {"type": "Feature", "geometry": {"type": "Point", "coordinates": [2.663307, 49.047421]}, "properties": {"id_parcelle": "772590000C0006", "address": "6 RUE DE PARIS", "sales": 2, "median_price": 397500.0, "median_price_per_sqm": 7361.111111111111, "median_rooms": 4.0, "first_sale": "2025-02-05", "last_sale": "2025-02-05"}}, {"type": "Feature", "geometry": {"type": "Point", "coordinates": [2.662873, 49.047071]}, "properties": {"id_parcelle": "772590000C0002", "address": "LE GAZON", "sales": 2, "median_price": 5463776.0, "median_price_per_sqm": null, "median_rooms": null, "first_sale": "2023-07-07", "last_sale": "2025-02-05"}}, {"type": "Feature", "geometry": {"type": "Point", "coordinates": [2.663607, 49.047859]}, "properties": {"id_parcelle": "772590000C0751", "address": "2 CHE DU GAZON", "sales": 2, "median_price": 232000.0, "median_price_per_sqm": 2761.904761904762, "median_rooms": 2.0, "first_sale": "2024-08-06", "last_sale": "2024-08-06"}}, {"type": "Feature", "geometry": {"type": "Point", "coordinates": [2.665093, 49.048431]}, "properties": {"id_parcelle": "772590000C1087", "address": "RUE DU BORDET", "sales": 2, "median_price": 262850.0, "median_price_per_sqm": null, "median_rooms": null, "first_sale": "2023-09-28", "last_sale": "2024-03-14"}}, {"type": "Feature", "geometry": {"type": "Point", "coordinates": [2.663322, 49.047778]}, "properties": {"id_parcelle": "772590000C1077", "address": "CHE DU GAZON", "sales": 2, "median_price": 283500.0, "median_price_per_sqm": null, "median_rooms": null, "first_sale": "2021-09-17", "last_sale": "2025-02-04"}}, {"type": "Feature", "geometry": {"type": "Point", "coordinates": [2.664842, 49.046923]}, "properties": {"id_parcelle": "772590000C0888", "address": "3 N 2 PARIS A MAUBEUGE", "sales": 2, "median_price": 5880565.5, "median_price_per_sqm": 34591.56176470588, "median_rooms": 5.0, "first_sale": "2022-02-24", "last_sale": "2022-12-22"}}, {"type": "Feature", "geometry": {"type": "Point", "coordinates": [2.662948, 49.047765]}, "properties": {"id_parcelle": "772590000C0897", "address": "1 CHE DU GAZON", "sales": 2, "median_price": 301700.0, "median_price_per_sqm": 3918.181818181818, "median_rooms": 4.0, "first_sale": "2025-09-09", "last_sale": "2025-09-09"}}, {"type": "Feature", "geometry": {"type": "Point", "coordinates": [2.665078, 49.047125]}, "properties": {"id_parcelle": "772590000C0885", "address": "5 N 2 PARIS A MAUBEUGE", "sales": 2, "median_price": 5982815.5, "median_price_per_sqm": 4864.077642276423, "median_rooms": 0.0, "first_sale": "2021-12-27", "last_sale": "2022-12-22"}}, {"type": "Feature", "geometry": {"type": "Point", "coordinates": [2.664914, 49.046969]}, "properties": {"id_parcelle": "772590000C0884", "address": "N 2 PARIS A MAUBEUGE", "sales": 2, "median_price": 5880565.5, "median_price_per_sqm": null, "median_rooms": null, "first_sale": "2022-02-24", "last_sale": "2022-12-22"}}, {"type": "Feature", "geometry": {"type": "Point", "coordinates": [2.660444, 49.052783]}, "properties": {"id_parcelle": "772590000C0903", "address": "4 RUE DES PRES DE L OSERAIE", "sales": 2, "median_price": 339000.0, "median_price_per_sqm": 4643.835616438356, "median_rooms": 2.0, "first_sale": "2021-11-10", "last_sale": "2021-11-10"}}, {"type": "Feature", "geometry": {"type": "Point", "coordinates": [2.659893, 49.052583]}, "properties": {"id_parcelle": "772590000C0908", "address": "1 RUE DES PRES DE L OSERAIE", "sales": 2, "median_price": 320000.0, "median_price_per_sqm": 4383.561643835616, "median_rooms": 2.0, "first_sale": "2022-01-27", "last_sale": "2022-01-27"}}, {"type": "Feature", "geometry": {"type": "Point", "coordinates": [2.662315, 49.047626]}, "properties": {"id_parcelle": "772590000C0898", "address": "1 CHE DU GAZON", "sales": 2, "median_price": 700000.0, "median_price_per_sqm": 5109.489051094891, "median_rooms": 5.0, "first_sale": "2025-09-05", "last_sale": "2025-09-05"}}, {"type": "Feature", "geometry": {"type": "Point", "coordinates": [2.664942, 49.047047]}, "properties": {"id_parcelle": "772590000C0887", "address": "N 2 PARIS A MAUBEUGE", "sales": 2, "median_price": 5982815.5, "median_price_per_sqm": null, "median_rooms": null, "first_sale": "2021-12-27", "last_sale": "2022-12-22"}}, {"type": "Feature", "geometry": {"type": "Point", "coordinates": [2.664721, 49.047267]}, "properties": {"id_parcelle": "772590000C0886", "address": "N 2 PARIS A MAUBEUGE", "sales": 2, "median_price": 5982815.5, "median_price_per_sqm": null, "median_rooms": null, "first_sale": "2021-12-27", "last_sale": "2022-12-22"}}, {"type": "Feature", "geometry": {"type": "Point", "coordinates": [2.662859, 49.05325]}, "properties": {"id_parcelle": "772590000C0840", "address": "24 RLE DES BERGERS", "sales": 2, "median_price": 207497.5, "median_price_per_sqm": 2139.1494845360826, "median_rooms": 5.0, "first_sale": "2021-03-23", "last_sale": "2023-01-20"}}, {"type": "Feature", "geometry": {"type": "Point", "coordinates": [2.658852, 49.052798]}, "properties": {"id_parcelle": "772590000C1248", "address": "3 RLE DU PONCEAU", "sales": 2, "median_price": 419000.0, "median_price_per_sqm": 2618.75, "median_rooms": 7.0, "first_sale": "2025-08-08", "last_sale": "2025-08-08"}}, {"type": "Feature", "geometry": {"type": "Point", "coordinates": [2.664564, 49.047338]}, "properties": {"id_parcelle": "772590000C1229", "address": "25 RUE DU BORDET", "sales": 2, "median_price": 5982815.5, "median_price_per_sqm": 8546.879285714285, "median_rooms": 0.0, "first_sale": "2021-12-27", "last_sale": "2022-12-22"}}, {"type": "Feature", "geometry": {"type": "Point", "coordinates": [2.667533, 49.049869]}, "properties": {"id_parcelle": "772590000C1196", "address": "30 RLE A DUGUE", "sales": 2, "median_price": 244000.0, "median_price_per_sqm": 4940.657578187651, "median_rooms": 2.5, "first_sale": "2024-08-01", "last_sale": "2024-08-01"}}, {"type": "Feature", "geometry": {"type": "Point", "coordinates": [2.657038, 49.052974]}, "properties": {"id_parcelle": "772590000C1199", "address": "3 RUE RESIDENCE DE LA POMMERAIE", "sales": 2, "median_price": 258500.0, "median_price_per_sqm": 3318.421052631579, "median_rooms": 4.0, "first_sale": "2022-01-06", "last_sale": "2023-03-13"}}, {"type": "Feature", "geometry": {"type": "Point", "coordinates": [2.666383, 49.054365]}, "properties": {"id_parcelle": "772590000C1110", "address": "26 RUE DE LA FONTAINE DU MEUNIER", "sales": 2, "median_price": 335200.0, "median_price_per_sqm": 2914.782608695652, "median_rooms": 2.0, "first_sale": "2025-05-12", "last_sale": "2025-05-12"}}, {"type": "Feature", "geometry": {"type": "Point", "coordinates": [2.664658, 49.047576]}, "properties": {"id_parcelle": "772590000C0878", "address": "23 RUE DU BORDET", "sales": 2, "median_price": 5705565.5, "median_price_per_sqm": 19018.551666666666, "median_rooms": 0.0, "first_sale": "2022-02-24", "last_sale": "2022-12-22"}}, {"type": "Feature", "geometry": {"type": "Point", "coordinates": [2.665254, 49.049727]}, "properties": {"id_parcelle": "772590000C1437", "address": "37 RUE DU VIVIER", "sales": 2, "median_price": 850000.0, "median_price_per_sqm": 10119.047619047618, "median_rooms": 0.5, "first_sale": "2022-09-08", "last_sale": "2022-09-08"}}, {"type": "Feature", "geometry": {"type": "Point", "coordinates": [2.667836, 49.05206]}, "properties": {"id_parcelle": "772590000C1413", "address": "9001 D 26E MOUSSY LE VX DAMMARTIN", "sales": 2, "median_price": 99220.0, "median_price_per_sqm": null, "median_rooms": 0.0, "first_sale": "2021-11-08", "last_sale": "2021-11-08"}}, {"type": "Feature", "geometry": {"type": "Point", "coordinates": [2.658228, 49.052576]}, "properties": {"id_parcelle": "772590000C1680", "address": "64 RUE DE MAINCOURT", "sales": 2, "median_price": 130000.0, "median_price_per_sqm": 10833.333333333334, "median_rooms": 0.5, "first_sale": "2024-06-20", "last_sale": "2024-06-20"}}, {"type": "Feature", "geometry": {"type": "Point", "coordinates": [2.662646, 49.047339]}, "properties": {"id_parcelle": "772590000C1682", "address": "LE GAZON", "sales": 2, "median_price": 5680276.0, "median_price_per_sqm": null, "median_rooms": null, "first_sale": "2025-02-05", "last_sale": "2025-02-05"}}, {"type": "Feature", "geometry": {"type": "Point", "coordinates": [2.66234, 49.047316]}, "properties": {"id_parcelle": "772590000C1685", "address": "LE GAZON", "sales": 2, "median_price": 5680276.0, "median_price_per_sqm": null, "median_rooms": null, "first_sale": "2025-02-05", "last_sale": "2025-02-05"}}, {"type": "Feature", "geometry": {"type": "Point", "coordinates": [2.664611, 49.048391]}, "properties": {"id_parcelle": "772590000C1450", "address": "22 RUE DU BORDET", "sales": 2, "median_price": 460000.0, "median_price_per_sqm": 2555.5555555555557, "median_rooms": 6.0, "first_sale": "2021-04-02", "last_sale": "2021-04-02"}}, {"type": "Feature", "geometry": {"type": "Point", "coordinates": [2.669188, 49.050856]}, "properties": {"id_parcelle": "772590000C1526", "address": "33 RLE A DUGUE", "sales": 2, "median_price": 135500.0, "median_price_per_sqm": 2739.72602739726, "median_rooms": 2.0, "first_sale": "2022-06-22", "last_sale": "2025-06-03"}}, {"type": "Feature", "geometry": {"type": "Point", "coordinates": [2.664209, 49.049926]}, "properties": {"id_parcelle": "772590000C1527", "address": "58 RUE DU VIVIER", "sales": 2, "median_price": 90000.0, "median_price_per_sqm": null, "median_rooms": 0.0, "first_sale": "2023-01-31", "last_sale": "2023-01-31"}}, {"type": "Feature", "geometry": {"type": "Point", "coordinates": [2.660502, 49.053048]}, "properties": {"id_parcelle": "772590000C1634", "address": "8 RUE DES PRES DE L OSERAIE", "sales": 2, "median_price": 282700.0, "median_price_per_sqm": 3141.1111111111113, "median_rooms": 2.0, "first_sale": "2021-05-21", "last_sale": "2021-05-21"}}, {"type": "Feature", "geometry": {"type": "Point", "coordinates": [2.663245, 49.047692]}, "properties": {"id_parcelle": "772590000C1675", "address": "1 CHE DU GAZON", "sales": 2, "median_price": 280000.0, "median_price_per_sqm": 4375.0, "median_rooms": 2.0, "first_sale": "2025-02-04", "last_sale": "2025-02-04"}}, {"type": "Feature", "geometry": {"type": "Point", "coordinates": [2.662624, 49.047445]}, "properties": {"id_parcelle": "772590000C1690", "address": "LE GAZON", "sales": 2, "median_price": 5680276.0, "median_price_per_sqm": null, "median_rooms": null, "first_sale": "2025-02-05", "last_sale": "2025-02-05"}}, {"type": "Feature", "geometry": {"type": "Point", "coordinates": [2.662567, 49.047419]}, "properties": {"id_parcelle": "772590000C1689", "address": "LE GAZON", "sales": 2, "median_price": 5680276.0, "median_price_per_sqm": null, "median_rooms": null, "first_sale": "2025-02-05", "last_sale": "2025-02-05"}}, {"type": "Feature", "geometry": {"type": "Point", "coordinates": [2.66251, 49.047394]}, "properties": {"id_parcelle": "772590000C1688", "address": "LE GAZON", "sales": 2, "median_price": 5680276.0, "median_price_per_sqm": null, "median_rooms": null, "first_sale": "2025-02-05", "last_sale": "2025-02-05"}}, {"type": "Feature", "geometry": {"type": "Point", "coordinates": [2.662454, 49.047368]}, "properties": {"id_parcelle": "772590000C1687", "address": "LE GAZON", "sales": 2, "median_price": 5680276.0, "median_price_per_sqm": null, "median_rooms": null, "first_sale": "2025-02-05", "last_sale": "2025-02-05"}}, {"type": "Feature", "geometry": {"type": "Point", "coordinates": [2.662411, 49.047344]}, "properties": {"id_parcelle": "772590000C1686", "address": "LE GAZON", "sales": 2, "median_price": 5680276.0, "median_price_per_sqm": null, "median_rooms": null, "first_sale": "2025-02-05", "last_sale": "2025-02-05"}}, {"type": "Feature", "geometry": {"type": "Point", "coordinates": [2.662681, 49.047471]}, "properties": {"id_parcelle": "772590000C1691", "address": "LE GAZON", "sales": 2, "median_price": 5680276.0, "median_price_per_sqm": null, "median_rooms": null, "first_sale": "2025-02-05", "last_sale": "2025-02-05"}}, {"type": "Feature", "geometry": {"type": "Point", "coordinates": [2.662794, 49.047523]}, "properties": {"id_parcelle": "772590000C1693", "address": "LE GAZON", "sales": 2, "median_price": 5680276.0, "median_price_per_sqm": null, "median_rooms": null, "first_sale": "2025-02-05", "last_sale": "2025-02-05"}}, {"type": "Feature", "geometry": {"type": "Point", "coordinates": [2.662738, 49.047497]}, "properties": {"id_parcelle": "772590000C1692", "address": "LE GAZON", "sales": 2, "median_price": 5680276.0, "median_price_per_sqm": null, "median_rooms": null, "first_sale": "2025-02-05", "last_sale": "2025-02-05"}}, {"type": "Feature", "geometry": {"type": "Point", "coordinates": [2.666086, 49.056719]}, "properties": {"id_parcelle": "77259000ZC0024", "address": "LE GUE DES FOURCHES", "sales": 2, "median_price": 1145.0, "median_price_per_sqm": null, "median_rooms": null, "first_sale": "2024-01-22", "last_sale": "2024-05-21"}}, {"type": "Feature", "geometry": {"type": "Point", "coordinates": [2.64477, 49.060195]}, "properties": {"id_parcelle": "77259000ZA0119", "address": "LE BAS DE LA GRUERIE", "sales": 2, "median_price": 1668.0, "median_price_per_sqm": null, "median_rooms": null, "first_sale": "2022-12-20", "last_sale": "2022-12-20"}}, {"type": "Feature", "geometry": {"type": "Point", "coordinates": [2.647887, 49.061808]}, "properties": {"id_parcelle": "77259000ZA0030", "address": "LA GRUERIE", "sales": 2, "median_price": 40000.0, "median_price_per_sqm": null, "median_rooms": null, "first_sale": "2021-06-15", "last_sale": "2021-06-15"}}, {"type": "Feature", "geometry": {"type": "Point", "coordinates": [2.662851, 49.047548]}, "properties": {"id_parcelle": "772590000C1694", "address": "LE GAZON", "sales": 2, "median_price": 5680276.0, "median_price_per_sqm": null, "median_rooms": null, "first_sale": "2025-02-05", "last_sale": "2025-02-05"}}, {"type": "Feature", "geometry": {"type": "Point", "coordinates": [2.651491, 49.056914]}, "properties": {"id_parcelle": "77259000ZI0071", "address": "9001 LE PRE DE VASSANT", "sales": 2, "median_price": 2255.0, "median_price_per_sqm": 56.375, "median_rooms": 2.0, "first_sale": "2024-10-08", "last_sale": "2024-10-08"}}, {"type": "Feature", "geometry": {"type": "Point", "coordinates": [2.660537, 49.047083]}, "properties": {"id_parcelle": "77259000ZD0065", "address": "9999 RUE DE LA BELLE ETOILE", "sales": 2, "median_price": 400000.0, "median_price_per_sqm": 669.1146470828234, "median_rooms": 0.0, "first_sale": "2024-12-19", "last_sale": "2024-12-19"}}, {"type": "Feature", "geometry": {"type": "Point", "coordinates": [2.660862, 49.050853]}, "properties": {"id_parcelle": "77259000ZL0071", "address": "10 RUE DES POIRIERS", "sales": 2, "median_price": 350000.0, "median_price_per_sqm": 2845.528455284553, "median_rooms": 6.0, "first_sale": "2025-05-21", "last_sale": "2025-05-21"}}, {"type": "Feature", "geometry": {"type": "Point", "coordinates": [2.660604, 49.050696]}, "properties": {"id_parcelle": "77259000ZL0070", "address": "8 RUE DES POIRIERS", "sales": 2, "median_price": 350000.0, "median_price_per_sqm": 3535.3535353535353, "median_rooms": 5.0, "first_sale": "2025-07-04", "last_sale": "2025-07-04"}}]}