{"type": "FeatureCollection", "features": [{"type": "Feature", "geometry": {"type": "Point", "coordinates": [2.487566, 48.852007]}, "properties": {"street_name": "RUE ROGER SALENGRO", "sales": 696, "sales_appt": 0, "sales_maison": 0, "median_price": 8641100.0, "median_price_per_sqm": 720091.6666666666, "turnover_score": 100.0, "turnover_rank": 1, "first_year": 2021, "last_year": 2025, "years_active": 5}}, {"type": "Feature", "geometry": {"type": "Point", "coordinates": [2.462462, 48.848747]}, "properties": {"street_name": "RUE DALAYRAC", "sales": 484, "sales_appt": 199, "sales_maison": 9, "median_price": 407300.0, "median_price_per_sqm": 6914.893617021276, "turnover_score": 69.5, "turnover_rank": 2, "first_year": 2021, "last_year": 2025, "years_active": 5}}, {"type": "Feature", "geometry": {"type": "Point", "coordinates": [2.457411, 48.848802]}, "properties": {"street_name": "RUE PASTEUR", "sales": 354, "sales_appt": 171, "sales_maison": 5, "median_price": 173000.0, "median_price_per_sqm": 5580.645161290323, "turnover_score": 50.9, "turnover_rank": 3, "first_year": 2021, "last_year": 2025, "years_active": 5}}, {"type": "Feature", "geometry": {"type": "Point", "coordinates": [2.469385, 48.849535]}, "properties": {"street_name": "RUE MARGUERITE", "sales": 245, "sales_appt": 140, "sales_maison": 11, "median_price": 6570387.5, "median_price_per_sqm": 183025.63888888888, "turnover_score": 35.2, "turnover_rank": 4, "first_year": 2021, "last_year": 2023, "years_active": 3}}, {"type": "Feature", "geometry": {"type": "Point", "coordinates": [2.46001, 48.852538]}, "properties": {"street_name": "AV DE LA REPUBLIQUE", "sales": 240, "sales_appt": 91, "sales_maison": 30, "median_price": 278500.0, "median_price_per_sqm": 6352.380952380952, "turnover_score": 34.5, "turnover_rank": 5, "first_year": 2021, "last_year": 2025, "years_active": 5}}, {"type": "Feature", "geometry": {"type": "Point", "coordinates": [2.458716, 48.844367]}, "properties": {"street_name": "AV FOCH", "sales": 208, "sales_appt": 73, "sales_maison": 18, "median_price": 568750.0, "median_price_per_sqm": 8035.150190994328, "turnover_score": 29.9, "turnover_rank": 6, "first_year": 2021, "last_year": 2025, "years_active": 5}}, {"type": "Feature", "geometry": {"type": "Point", "coordinates": [2.459558, 48.849949]}, "properties": {"street_name": "RUE ROUBLOT", "sales": 194, "sales_appt": 82, "sales_maison": 11, "median_price": 314820.0, "median_price_per_sqm": 6252.1146616541355, "turnover_score": 27.9, "turnover_rank": 7, "first_year": 2021, "last_year": 2025, "years_active": 5}}, {"type": "Feature", "geometry": {"type": "Point", "coordinates": [2.479028, 48.855058]}, "properties": {"street_name": "RUE PAUL LANGEVIN", "sales": 186, "sales_appt": 66, "sales_maison": 0, "median_price": 208265.0, "median_price_per_sqm": 3048.4603386809267, "turnover_score": 26.7, "turnover_rank": 8, "first_year": 2021, "last_year": 2025, "years_active": 5}}, {"type": "Feature", "geometry": {"type": "Point", "coordinates": [2.468856, 48.848893]}, "properties": {"street_name": "RUE CHARLES BASSEE", "sales": 152, "sales_appt": 45, "sales_maison": 20, "median_price": 350000.0, "median_price_per_sqm": 6367.69918699187, "turnover_score": 21.8, "turnover_rank": 9, "first_year": 2021, "last_year": 2025, "years_active": 5}}, {"type": "Feature", "geometry": {"type": "Point", "coordinates": [2.455383, 48.844129]}, "properties": {"street_name": "AV DE LA DAME BLANCHE", "sales": 126, "sales_appt": 38, "sales_maison": 2, "median_price": 915000.0, "median_price_per_sqm": 8645.298660004542, "turnover_score": 18.1, "turnover_rank": 10, "first_year": 2021, "last_year": 2025, "years_active": 5}}, {"type": "Feature", "geometry": {"type": "Point", "coordinates": [2.469051, 48.842809]}, "properties": {"street_name": "RUE DU CLOS D ORLEANS", "sales": 126, "sales_appt": 45, "sales_maison": 4, "median_price": 345500.0, "median_price_per_sqm": 7648.2558139534885, "turnover_score": 18.1, "turnover_rank": 10, "first_year": 2021, "last_year": 2025, "years_active": 5}}, {"type": "Feature", "geometry": {"type": "Point", "coordinates": [2.470141, 48.851719]}, "properties": {"street_name": "RUE ANDRE TESSIER", "sales": 126, "sales_appt": 39, "sales_maison": 11, "median_price": 360000.0, "median_price_per_sqm": 5525.440313111546, "turnover_score": 18.1, "turnover_rank": 10, "first_year": 2021, "last_year": 2025, "years_active": 5}}, {"type": "Feature", "geometry": {"type": "Point", "coordinates": [2.483571, 48.851775]}, "properties": {"street_name": "AV DU MARECHAL JOFFRE", "sales": 122, "sales_appt": 34, "sales_maison": 9, "median_price": 301600.0, "median_price_per_sqm": 4236.111111111111, "turnover_score": 17.5, "turnover_rank": 11, "first_year": 2021, "last_year": 2025, "years_active": 5}}, {"type": "Feature", "geometry": {"type": "Point", "coordinates": [2.451906, 48.851283]}, "properties": {"street_name": "AV DE STALINGRAD", "sales": 120, "sales_appt": 45, "sales_maison": 6, "median_price": 292475.0, "median_price_per_sqm": 6009.072580645161, "turnover_score": 17.2, "turnover_rank": 12, "first_year": 2021, "last_year": 2025, "years_active": 5}}, {"type": "Feature", "geometry": {"type": "Point", "coordinates": [2.46776, 48.845738]}, "properties": {"street_name": "RUE DU CDT JEAN DUHAIL", "sales": 119, "sales_appt": 46, "sales_maison": 4, "median_price": 391850.0, "median_price_per_sqm": 6641.80790960452, "turnover_score": 17.1, "turnover_rank": 13, "first_year": 2021, "last_year": 2025, "years_active": 5}}, {"type": "Feature", "geometry": {"type": "Point", "coordinates": [2.479028, 48.855555]}, "properties": {"street_name": "RUE JEAN MACE", "sales": 110, "sales_appt": 22, "sales_maison": 0, "median_price": 122000.0, "median_price_per_sqm": 3106.125, "turnover_score": 15.8, "turnover_rank": 14, "first_year": 2021, "last_year": 2025, "years_active": 5}}, {"type": "Feature", "geometry": {"type": "Point", "coordinates": [2.48601, 48.855085]}, "properties": {"street_name": "AV DES OLYMPIADES", "sales": 109, "sales_appt": 0, "sales_maison": 0, "median_price": 8143018.0, "median_price_per_sqm": 13112.75040257649, "turnover_score": 15.7, "turnover_rank": 15, "first_year": 2022, "last_year": 2025, "years_active": 3}}, {"type": "Feature", "geometry": {"type": "Point", "coordinates": [2.453292, 48.854193]}, "properties": {"street_name": "AV PARMENTIER", "sales": 104, "sales_appt": 38, "sales_maison": 8, "median_price": 400000.0, "median_price_per_sqm": 6648.565217391304, "turnover_score": 14.9, "turnover_rank": 16, "first_year": 2021, "last_year": 2025, "years_active": 5}}, {"type": "Feature", "geometry": {"type": "Point", "coordinates": [2.471454, 48.857132]}, "properties": {"street_name": "AV VICTOR HUGO", "sales": 93, "sales_appt": 21, "sales_maison": 28, "median_price": 402500.0, "median_price_per_sqm": 5721.518987341772, "turnover_score": 13.4, "turnover_rank": 17, "first_year": 2021, "last_year": 2025, "years_active": 5}}, {"type": "Feature", "geometry": {"type": "Point", "coordinates": [2.452835, 48.845607]}, "properties": {"street_name": "AV DES CHARMES", "sales": 92, "sales_appt": 33, "sales_maison": 8, "median_price": 325500.0, "median_price_per_sqm": 7403.703703703704, "turnover_score": 13.2, "turnover_rank": 18, "first_year": 2021, "last_year": 2025, "years_active": 5}}, {"type": "Feature", "geometry": {"type": "Point", "coordinates": [2.463596, 48.854956]}, "properties": {"street_name": "RUE EDOUARD MAURY", "sales": 91, "sales_appt": 26, "sales_maison": 27, "median_price": 430000.0, "median_price_per_sqm": 5916.04938271605, "turnover_score": 13.1, "turnover_rank": 19, "first_year": 2021, "last_year": 2025, "years_active": 5}}, {"type": "Feature", "geometry": {"type": "Point", "coordinates": [2.470276, 48.841869]}, "properties": {"street_name": "RES CLOS D ORLEANS", "sales": 89, "sales_appt": 28, "sales_maison": 0, "median_price": 473000.0, "median_price_per_sqm": 6943.11075781664, "turnover_score": 12.8, "turnover_rank": 20, "first_year": 2021, "last_year": 2025, "years_active": 5}}, {"type": "Feature", "geometry": {"type": "Point", "coordinates": [2.491472, 48.859509]}, "properties": {"street_name": "AV MAL DE LATTRE DE TASSIGNY", "sales": 89, "sales_appt": 17, "sales_maison": 5, "median_price": 252000.0, "median_price_per_sqm": 4181.464356435644, "turnover_score": 12.8, "turnover_rank": 20, "first_year": 2021, "last_year": 2025, "years_active": 5}}, {"type": "Feature", "geometry": {"type": "Point", "coordinates": [2.457399, 48.852992]}, "properties": {"street_name": "RUE ANDRE LAURENT", "sales": 89, "sales_appt": 34, "sales_maison": 19, "median_price": 246446.0, "median_price_per_sqm": 6465.578865578866, "turnover_score": 12.8, "turnover_rank": 20, "first_year": 2021, "last_year": 2025, "years_active": 5}}, {"type": "Feature", "geometry": {"type": "Point", "coordinates": [2.461868, 48.851579]}, "properties": {"street_name": "RUE GAMBETTA", "sales": 84, "sales_appt": 27, "sales_maison": 11, "median_price": 418000.0, "median_price_per_sqm": 7230.7692307692305, "turnover_score": 12.1, "turnover_rank": 21, "first_year": 2021, "last_year": 2025, "years_active": 5}}, {"type": "Feature", "geometry": {"type": "Point", "coordinates": [2.475665, 48.847736]}, "properties": {"street_name": "RUE DE NEUILLY", "sales": 83, "sales_appt": 33, "sales_maison": 10, "median_price": 386200.0, "median_price_per_sqm": 6866.666666666667, "turnover_score": 11.9, "turnover_rank": 22, "first_year": 2021, "last_year": 2025, "years_active": 5}}, {"type": "Feature", "geometry": {"type": "Point", "coordinates": [2.485438, 48.85167]}, "properties": {"street_name": "RUE MAXIMILIEN ROBESPIERRE", "sales": 80, "sales_appt": 26, "sales_maison": 0, "median_price": 296000.0, "median_price_per_sqm": 4156.50406504065, "turnover_score": 11.5, "turnover_rank": 23, "first_year": 2021, "last_year": 2025, "years_active": 5}}, {"type": "Feature", "geometry": {"type": "Point", "coordinates": [2.466919, 48.840698]}, "properties": {"street_name": "AV DE LA BELLE GABRIELLE", "sales": 77, "sales_appt": 21, "sales_maison": 6, "median_price": 625000.0, "median_price_per_sqm": 8012.820512820513, "turnover_score": 11.1, "turnover_rank": 24, "first_year": 2021, "last_year": 2025, "years_active": 5}}, {"type": "Feature", "geometry": {"type": "Point", "coordinates": [2.462969, 48.853656]}, "properties": {"street_name": "RUE DES MOULINS", "sales": 76, "sales_appt": 15, "sales_maison": 29, "median_price": 425330.0, "median_price_per_sqm": 6819.655069878085, "turnover_score": 10.9, "turnover_rank": 25, "first_year": 2021, "last_year": 2025, "years_active": 5}}, {"type": "Feature", "geometry": {"type": "Point", "coordinates": [2.469409, 48.85387]}, "properties": {"street_name": "BD DE VERDUN", "sales": 73, "sales_appt": 26, "sales_maison": 14, "median_price": 431200.0, "median_price_per_sqm": 6495.615740740741, "turnover_score": 10.5, "turnover_rank": 26, "first_year": 2021, "last_year": 2025, "years_active": 5}}, {"type": "Feature", "geometry": {"type": "Point", "coordinates": [2.462266, 48.844694]}, "properties": {"street_name": "BD DE VINCENNES", "sales": 73, "sales_appt": 20, "sales_maison": 6, "median_price": 535000.0, "median_price_per_sqm": 6726.190476190476, "turnover_score": 10.5, "turnover_rank": 26, "first_year": 2021, "last_year": 2025, "years_active": 5}}, {"type": "Feature", "geometry": {"type": "Point", "coordinates": [2.463251, 48.8558735]}, "properties": {"street_name": "AV ERNEST RENAN", "sales": 72, "sales_appt": 15, "sales_maison": 19, "median_price": 352000.0, "median_price_per_sqm": 5676.893408134642, "turnover_score": 10.3, "turnover_rank": 27, "first_year": 2021, "last_year": 2025, "years_active": 5}}, {"type": "Feature", "geometry": {"type": "Point", "coordinates": [2.459497, 48.84791]}, "properties": {"street_name": "RUE JEAN JACQUES ROUSSEAU", "sales": 70, "sales_appt": 32, "sales_maison": 0, "median_price": 264700.0, "median_price_per_sqm": 6400.0, "turnover_score": 10.1, "turnover_rank": 28, "first_year": 2021, "last_year": 2025, "years_active": 5}}, {"type": "Feature", "geometry": {"type": "Point", "coordinates": [2.48077, 48.851728]}, "properties": {"street_name": "AV RABELAIS", "sales": 69, "sales_appt": 29, "sales_maison": 0, "median_price": 387500.0, "median_price_per_sqm": 4217.187028657617, "turnover_score": 9.9, "turnover_rank": 29, "first_year": 2021, "last_year": 2025, "years_active": 5}}, {"type": "Feature", "geometry": {"type": "Point", "coordinates": [2.468664, 48.858553]}, "properties": {"street_name": "RUE JEAN JAURES", "sales": 67, "sales_appt": 16, "sales_maison": 15, "median_price": 515000.0, "median_price_per_sqm": 6602.5641025641025, "turnover_score": 9.6, "turnover_rank": 30, "first_year": 2021, "last_year": 2025, "years_active": 5}}, {"type": "Feature", "geometry": {"type": "Point", "coordinates": [2.481855, 48.858582999999996]}, "properties": {"street_name": "RUE LA FONTAINE", "sales": 66, "sales_appt": 11, "sales_maison": 5, "median_price": 603150.0, "median_price_per_sqm": 7850.2798409956595, "turnover_score": 9.5, "turnover_rank": 31, "first_year": 2021, "last_year": 2025, "years_active": 5}}, {"type": "Feature", "geometry": {"type": "Point", "coordinates": [2.460955, 48.850084]}, "properties": {"street_name": "RUE JULES FERRY", "sales": 64, "sales_appt": 31, "sales_maison": 12, "median_price": 270000.0, "median_price_per_sqm": 7144.848484848485, "turnover_score": 9.2, "turnover_rank": 32, "first_year": 2021, "last_year": 2025, "years_active": 5}}, {"type": "Feature", "geometry": {"type": "Point", "coordinates": [2.458219, 48.85006]}, "properties": {"street_name": "RUE EUGENE MARTIN", "sales": 63, "sales_appt": 22, "sales_maison": 12, "median_price": 325000.0, "median_price_per_sqm": 6276.595744680851, "turnover_score": 9.1, "turnover_rank": 33, "first_year": 2021, "last_year": 2025, "years_active": 5}}, {"type": "Feature", "geometry": {"type": "Point", "coordinates": [2.464164, 48.842467]}, "properties": {"street_name": "AV DU PT ROOSEVELT", "sales": 62, "sales_appt": 22, "sales_maison": 0, "median_price": 547000.0, "median_price_per_sqm": 7602.941176470588, "turnover_score": 8.9, "turnover_rank": 34, "first_year": 2021, "last_year": 2025, "years_active": 5}}, {"type": "Feature", "geometry": {"type": "Point", "coordinates": [2.479788, 48.857334]}, "properties": {"street_name": "RUE PAUL ELUARD", "sales": 62, "sales_appt": 22, "sales_maison": 0, "median_price": 258000.0, "median_price_per_sqm": 3510.806595365419, "turnover_score": 8.9, "turnover_rank": 34, "first_year": 2021, "last_year": 2025, "years_active": 5}}, {"type": "Feature", "geometry": {"type": "Point", "coordinates": [2.470124, 48.847115]}, "properties": {"street_name": "RUE MAUCONSEIL", "sales": 60, "sales_appt": 34, "sales_maison": 2, "median_price": 297230.0, "median_price_per_sqm": 7500.0, "turnover_score": 8.6, "turnover_rank": 35, "first_year": 2021, "last_year": 2025, "years_active": 5}}, {"type": "Feature", "geometry": {"type": "Point", "coordinates": [2.466167, 48.841673]}, "properties": {"street_name": "AV DES MARRONNIERS", "sales": 60, "sales_appt": 15, "sales_maison": 7, "median_price": 670000.0, "median_price_per_sqm": 6817.645368492225, "turnover_score": 8.6, "turnover_rank": 35, "first_year": 2021, "last_year": 2025, "years_active": 5}}, {"type": "Feature", "geometry": {"type": "Point", "coordinates": [2.455413, 48.855116]}, "properties": {"street_name": "RUE DES QUATRE RUELLES", "sales": 59, "sales_appt": 17, "sales_maison": 9, "median_price": 225000.0, "median_price_per_sqm": 5347.75641025641, "turnover_score": 8.5, "turnover_rank": 36, "first_year": 2021, "last_year": 2025, "years_active": 5}}, {"type": "Feature", "geometry": {"type": "Point", "coordinates": [2.461969, 48.845194]}, "properties": {"street_name": "RUE MALLIER", "sales": 59, "sales_appt": 27, "sales_maison": 4, "median_price": 427400.0, "median_price_per_sqm": 7256.410256410257, "turnover_score": 8.5, "turnover_rank": 36, "first_year": 2021, "last_year": 2025, "years_active": 5}}, {"type": "Feature", "geometry": {"type": "Point", "coordinates": [2.479028, 48.855555]}, "properties": {"street_name": "AV CHARLES GARCIA", "sales": 58, "sales_appt": 8, "sales_maison": 0, "median_price": 139000.0, "median_price_per_sqm": 4013.3557800224467, "turnover_score": 8.3, "turnover_rank": 37, "first_year": 2021, "last_year": 2025, "years_active": 5}}, {"type": "Feature", "geometry": {"type": "Point", "coordinates": [2.49434, 48.855709]}, "properties": {"street_name": "RUE DES ALOUETTES", "sales": 55, "sales_appt": 18, "sales_maison": 1, "median_price": 310000.0, "median_price_per_sqm": 5185.9375, "turnover_score": 7.9, "turnover_rank": 38, "first_year": 2021, "last_year": 2025, "years_active": 5}}, {"type": "Feature", "geometry": {"type": "Point", "coordinates": [2.449239, 48.851328]}, "properties": {"street_name": "RUE DES TROIS TERRITOIRES", "sales": 53, "sales_appt": 14, "sales_maison": 5, "median_price": 504855.0, "median_price_per_sqm": 7735.84375, "turnover_score": 7.6, "turnover_rank": 39, "first_year": 2021, "last_year": 2025, "years_active": 5}}, {"type": "Feature", "geometry": {"type": "Point", "coordinates": [2.465125, 48.851233]}, "properties": {"street_name": "RUE MIRABEAU", "sales": 51, "sales_appt": 18, "sales_maison": 3, "median_price": 333000.0, "median_price_per_sqm": 6090.909090909091, "turnover_score": 7.3, "turnover_rank": 40, "first_year": 2021, "last_year": 2025, "years_active": 5}}, {"type": "Feature", "geometry": {"type": "Point", "coordinates": [2.45486, 48.852778]}, "properties": {"street_name": "RUE D ESTIENNE D ORVES", "sales": 50, "sales_appt": 20, "sales_maison": 9, "median_price": 361480.0, "median_price_per_sqm": 7906.712643678161, "turnover_score": 7.2, "turnover_rank": 41, "first_year": 2021, "last_year": 2025, "years_active": 5}}, {"type": "Feature", "geometry": {"type": "Point", "coordinates": [2.471899, 48.8482515]}, "properties": {"street_name": "RUE DE ROSNY", "sales": 50, "sales_appt": 17, "sales_maison": 4, "median_price": 280000.0, "median_price_per_sqm": 7741.935483870968, "turnover_score": 7.2, "turnover_rank": 41, "first_year": 2021, "last_year": 2025, "years_active": 5}}, {"type": "Feature", "geometry": {"type": "Point", "coordinates": [2.481595, 48.851061]}, "properties": {"street_name": "RUE EDOUARD VAILLANT", "sales": 50, "sales_appt": 25, "sales_maison": 0, "median_price": 350000.0, "median_price_per_sqm": 4219.583333333333, "turnover_score": 7.2, "turnover_rank": 41, "first_year": 2021, "last_year": 2025, "years_active": 5}}, {"type": "Feature", "geometry": {"type": "Point", "coordinates": [2.480738, 48.857545]}, "properties": {"street_name": "RUE HENRI WALLON", "sales": 48, "sales_appt": 15, "sales_maison": 0, "median_price": 267250.0, "median_price_per_sqm": 3550.0, "turnover_score": 6.9, "turnover_rank": 42, "first_year": 2021, "last_year": 2025, "years_active": 5}}, {"type": "Feature", "geometry": {"type": "Point", "coordinates": [2.473129, 48.844257]}, "properties": {"street_name": "RUE DE JOINVILLE", "sales": 46, "sales_appt": 12, "sales_maison": 6, "median_price": 280000.0, "median_price_per_sqm": 7301.078947368422, "turnover_score": 6.6, "turnover_rank": 43, "first_year": 2021, "last_year": 2025, "years_active": 5}}, {"type": "Feature", "geometry": {"type": "Point", "coordinates": [2.454604, 48.850517]}, "properties": {"street_name": "RUE EMILE BOUTRAIS", "sales": 45, "sales_appt": 16, "sales_maison": 6, "median_price": 1440000.0, "median_price_per_sqm": 16804.109589041094, "turnover_score": 6.5, "turnover_rank": 44, "first_year": 2021, "last_year": 2025, "years_active": 5}}, {"type": "Feature", "geometry": {"type": "Point", "coordinates": [2.471831, 48.847172]}, "properties": {"street_name": "PL DU GENERAL LECLERC", "sales": 44, "sales_appt": 24, "sales_maison": 1, "median_price": 306000.0, "median_price_per_sqm": 7943.3, "turnover_score": 6.3, "turnover_rank": 45, "first_year": 2021, "last_year": 2025, "years_active": 4}}, {"type": "Feature", "geometry": {"type": "Point", "coordinates": [2.4722235, 48.850088]}, "properties": {"street_name": "RUE SAINT GERMAIN", "sales": 42, "sales_appt": 9, "sales_maison": 11, "median_price": 600000.0, "median_price_per_sqm": 6156.2255097960815, "turnover_score": 6.0, "turnover_rank": 46, "first_year": 2021, "last_year": 2025, "years_active": 5}}, {"type": "Feature", "geometry": {"type": "Point", "coordinates": [2.4672505, 48.8425615]}, "properties": {"street_name": "BD HENRI RUEL", "sales": 42, "sales_appt": 15, "sales_maison": 3, "median_price": 475000.0, "median_price_per_sqm": 7572.391304347826, "turnover_score": 6.0, "turnover_rank": 46, "first_year": 2021, "last_year": 2025, "years_active": 5}}, {"type": "Feature", "geometry": {"type": "Point", "coordinates": [2.473028, 48.860079]}, "properties": {"street_name": "RUE PIERRE CURIE", "sales": 40, "sales_appt": 4, "sales_maison": 17, "median_price": 450000.0, "median_price_per_sqm": 5097.222222222223, "turnover_score": 5.7, "turnover_rank": 47, "first_year": 2021, "last_year": 2025, "years_active": 5}}, {"type": "Feature", "geometry": {"type": "Point", "coordinates": [2.476357, 48.845129]}, "properties": {"street_name": "RUE LOUIS XAVIER DE RICARD", "sales": 40, "sales_appt": 16, "sales_maison": 4, "median_price": 390000.0, "median_price_per_sqm": 6831.944151738673, "turnover_score": 5.7, "turnover_rank": 47, "first_year": 2021, "last_year": 2025, "years_active": 5}}, {"type": "Feature", "geometry": {"type": "Point", "coordinates": [2.4702175, 48.859455]}, "properties": {"street_name": "RUE DES RIEUX", "sales": 40, "sales_appt": 8, "sales_maison": 11, "median_price": 255000.0, "median_price_per_sqm": 5620.15503875969, "turnover_score": 5.7, "turnover_rank": 47, "first_year": 2021, "last_year": 2025, "years_active": 5}}, {"type": "Feature", "geometry": {"type": "Point", "coordinates": [2.475781, 48.842834]}, "properties": {"street_name": "RUE DE LA FRATERNITE", "sales": 39, "sales_appt": 17, "sales_maison": 7, "median_price": 750000.0, "median_price_per_sqm": 8575.031525851198, "turnover_score": 5.6, "turnover_rank": 48, "first_year": 2022, "last_year": 2025, "years_active": 4}}, {"type": "Feature", "geometry": {"type": "Point", "coordinates": [2.454335, 48.852189]}, "properties": {"street_name": "RUE DE TRUCY", "sales": 39, "sales_appt": 9, "sales_maison": 6, "median_price": 277000.0, "median_price_per_sqm": 7785.714285714285, "turnover_score": 5.6, "turnover_rank": 48, "first_year": 2021, "last_year": 2025, "years_active": 5}}, {"type": "Feature", "geometry": {"type": "Point", "coordinates": [2.4691425000000002, 48.854807]}, "properties": {"street_name": "RUE FABRE D EGLANTINE", "sales": 36, "sales_appt": 6, "sales_maison": 12, "median_price": 380000.0, "median_price_per_sqm": 5600.417038690476, "turnover_score": 5.2, "turnover_rank": 49, "first_year": 2021, "last_year": 2025, "years_active": 5}}, {"type": "Feature", "geometry": {"type": "Point", "coordinates": [2.468488, 48.845768]}, "properties": {"street_name": "RUE GROGNARD", "sales": 36, "sales_appt": 18, "sales_maison": 0, "median_price": 414500.0, "median_price_per_sqm": 7258.064516129032, "turnover_score": 5.2, "turnover_rank": 49, "first_year": 2021, "last_year": 2025, "years_active": 4}}, {"type": "Feature", "geometry": {"type": "Point", "coordinates": [2.466893, 48.846131]}, "properties": {"street_name": "RUE BOSCHOT", "sales": 36, "sales_appt": 14, "sales_maison": 6, "median_price": 434750.0, "median_price_per_sqm": 7023.809523809524, "turnover_score": 5.2, "turnover_rank": 49, "first_year": 2021, "last_year": 2025, "years_active": 5}}, {"type": "Feature", "geometry": {"type": "Point", "coordinates": [2.469756, 48.845797]}, "properties": {"street_name": "RUE MAURICE COUDERCHET", "sales": 35, "sales_appt": 16, "sales_maison": 0, "median_price": 220000.0, "median_price_per_sqm": 6319.444444444444, "turnover_score": 5.0, "turnover_rank": 50, "first_year": 2021, "last_year": 2025, "years_active": 5}}, {"type": "Feature", "geometry": {"type": "Point", "coordinates": [2.450704, 48.845073]}, "properties": {"street_name": "AV DE LA PEPINIERE", "sales": 35, "sales_appt": 20, "sales_maison": 0, "median_price": 332070.0, "median_price_per_sqm": 7336.363636363636, "turnover_score": 5.0, "turnover_rank": 50, "first_year": 2021, "last_year": 2025, "years_active": 4}}, {"type": "Feature", "geometry": {"type": "Point", "coordinates": [2.47587, 48.855053]}, "properties": {"street_name": "RUE DANIELLE CASANOVA", "sales": 34, "sales_appt": 18, "sales_maison": 0, "median_price": 237500.0, "median_price_per_sqm": 3315.032894736842, "turnover_score": 4.9, "turnover_rank": 51, "first_year": 2021, "last_year": 2025, "years_active": 5}}, {"type": "Feature", "geometry": {"type": "Point", "coordinates": [2.464585, 48.844556]}, "properties": {"street_name": "RUE PIERRE SEMARD", "sales": 33, "sales_appt": 9, "sales_maison": 4, "median_price": 515000.0, "median_price_per_sqm": 8306.451612903225, "turnover_score": 4.7, "turnover_rank": 52, "first_year": 2021, "last_year": 2025, "years_active": 5}}, {"type": "Feature", "geometry": {"type": "Point", "coordinates": [2.464818, 48.849686]}, "properties": {"street_name": "RUE DES MOCARDS", "sales": 33, "sales_appt": 12, "sales_maison": 4, "median_price": 458304.0, "median_price_per_sqm": 9087.591240875912, "turnover_score": 4.7, "turnover_rank": 52, "first_year": 2021, "last_year": 2025, "years_active": 5}}, {"type": "Feature", "geometry": {"type": "Point", "coordinates": [2.469756, 48.845298]}, "properties": {"street_name": "RUE DE L AUDIENCE", "sales": 32, "sales_appt": 12, "sales_maison": 0, "median_price": 312215.0, "median_price_per_sqm": 6401.774785801714, "turnover_score": 4.6, "turnover_rank": 53, "first_year": 2021, "last_year": 2025, "years_active": 5}}, {"type": "Feature", "geometry": {"type": "Point", "coordinates": [2.4640885, 48.845448]}, "properties": {"street_name": "RUE EMILE ROUX", "sales": 32, "sales_appt": 4, "sales_maison": 13, "median_price": 1105769.0, "median_price_per_sqm": 8507.132275132275, "turnover_score": 4.6, "turnover_rank": 53, "first_year": 2021, "last_year": 2025, "years_active": 5}}, {"type": "Feature", "geometry": {"type": "Point", "coordinates": [2.453103, 48.850378]}, "properties": {"street_name": "RUE JULES MASSENET", "sales": 31, "sales_appt": 10, "sales_maison": 1, "median_price": 315000.0, "median_price_per_sqm": 5800.0, "turnover_score": 4.5, "turnover_rank": 54, "first_year": 2022, "last_year": 2025, "years_active": 4}}, {"type": "Feature", "geometry": {"type": "Point", "coordinates": [2.485668, 48.848345]}, "properties": {"street_name": "RUE GEORGES GUYNEMER", "sales": 30, "sales_appt": 11, "sales_maison": 0, "median_price": 322000.0, "median_price_per_sqm": 4000.0, "turnover_score": 4.3, "turnover_rank": 55, "first_year": 2021, "last_year": 2025, "years_active": 4}}, {"type": "Feature", "geometry": {"type": "Point", "coordinates": [2.469921, 48.84757]}, "properties": {"street_name": "RUE GEORGES MANDEL", "sales": 29, "sales_appt": 8, "sales_maison": 1, "median_price": 1636000.0, "median_price_per_sqm": 23234.891216760676, "turnover_score": 4.2, "turnover_rank": 56, "first_year": 2023, "last_year": 2024, "years_active": 2}}, {"type": "Feature", "geometry": {"type": "Point", "coordinates": [2.474953, 48.844466]}, "properties": {"street_name": "RUE DESIRE RICHEBOIS", "sales": 27, "sales_appt": 4, "sales_maison": 11, "median_price": 877400.0, "median_price_per_sqm": 9615.763157894737, "turnover_score": 3.9, "turnover_rank": 57, "first_year": 2021, "last_year": 2025, "years_active": 5}}, {"type": "Feature", "geometry": {"type": "Point", "coordinates": [2.451359, 48.851404]}, "properties": {"street_name": "RUE MEDERIC", "sales": 27, "sales_appt": 8, "sales_maison": 7, "median_price": 500000.0, "median_price_per_sqm": 7349.416835699797, "turnover_score": 3.9, "turnover_rank": 57, "first_year": 2021, "last_year": 2025, "years_active": 5}}, {"type": "Feature", "geometry": {"type": "Point", "coordinates": [2.451646, 48.853964]}, "properties": {"street_name": "RUE GABRIEL PERI", "sales": 26, "sales_appt": 6, "sales_maison": 7, "median_price": 395000.0, "median_price_per_sqm": 7372.093023255814, "turnover_score": 3.7, "turnover_rank": 58, "first_year": 2021, "last_year": 2024, "years_active": 4}}, {"type": "Feature", "geometry": {"type": "Point", "coordinates": [2.472263, 48.855684999999994]}, "properties": {"street_name": "RUE ALFRED DE MUSSET", "sales": 26, "sales_appt": 3, "sales_maison": 7, "median_price": 425760.0, "median_price_per_sqm": 6334.615384615385, "turnover_score": 3.7, "turnover_rank": 58, "first_year": 2021, "last_year": 2024, "years_active": 4}}, {"type": "Feature", "geometry": {"type": "Point", "coordinates": [2.4553575, 48.853745]}, "properties": {"street_name": "RUE DES BEAUMONTS", "sales": 26, "sales_appt": 5, "sales_maison": 11, "median_price": 570600.0, "median_price_per_sqm": 7434.845890410959, "turnover_score": 3.7, "turnover_rank": 58, "first_year": 2021, "last_year": 2025, "years_active": 5}}, {"type": "Feature", "geometry": {"type": "Point", "coordinates": [2.465085, 48.845951]}, "properties": {"street_name": "RUE CASTEL", "sales": 25, "sales_appt": 7, "sales_maison": 4, "median_price": 343000.0, "median_price_per_sqm": 8365.853658536585, "turnover_score": 3.6, "turnover_rank": 59, "first_year": 2021, "last_year": 2025, "years_active": 5}}, {"type": "Feature", "geometry": {"type": "Point", "coordinates": [2.468495, 48.839957]}, "properties": {"street_name": "AV ODETTE", "sales": 25, "sales_appt": 9, "sales_maison": 0, "median_price": 460000.0, "median_price_per_sqm": 6707.317073170731, "turnover_score": 3.6, "turnover_rank": 59, "first_year": 2021, "last_year": 2025, "years_active": 5}}, {"type": "Feature", "geometry": {"type": "Point", "coordinates": [2.462864, 48.848468]}, "properties": {"street_name": "RUE PIERRE DULAC", "sales": 25, "sales_appt": 8, "sales_maison": 2, "median_price": 520700.0, "median_price_per_sqm": 7197.916666666666, "turnover_score": 3.6, "turnover_rank": 59, "first_year": 2021, "last_year": 2024, "years_active": 4}}, {"type": "Feature", "geometry": {"type": "Point", "coordinates": [2.469756, 48.845298]}, "properties": {"street_name": "RUE SAINT VINCENT", "sales": 25, "sales_appt": 6, "sales_maison": 6, "median_price": 243200.0, "median_price_per_sqm": 7503.448275862069, "turnover_score": 3.6, "turnover_rank": 59, "first_year": 2021, "last_year": 2025, "years_active": 5}}, {"type": "Feature", "geometry": {"type": "Point", "coordinates": [2.453041, 48.851391]}, "properties": {"street_name": "RUE DE LA RENARDIERE", "sales": 25, "sales_appt": 9, "sales_maison": 3, "median_price": 176250.0, "median_price_per_sqm": 6674.412878787879, "turnover_score": 3.6, "turnover_rank": 59, "first_year": 2021, "last_year": 2025, "years_active": 5}}, {"type": "Feature", "geometry": {"type": "Point", "coordinates": [2.471938, 48.84407]}, "properties": {"street_name": "RUE GASTON CHARLE", "sales": 24, "sales_appt": 10, "sales_maison": 0, "median_price": 539300.0, "median_price_per_sqm": 6475.064599483205, "turnover_score": 3.4, "turnover_rank": 60, "first_year": 2021, "last_year": 2025, "years_active": 5}}, {"type": "Feature", "geometry": {"type": "Point", "coordinates": [2.476953, 48.859563]}, "properties": {"street_name": "RUE BERNARD PALISSY", "sales": 23, "sales_appt": 2, "sales_maison": 11, "median_price": 463900.0, "median_price_per_sqm": 4232.075471698113, "turnover_score": 3.3, "turnover_rank": 61, "first_year": 2021, "last_year": 2025, "years_active": 5}}, {"type": "Feature", "geometry": {"type": "Point", "coordinates": [2.460395, 48.845898]}, "properties": {"street_name": "RUE MARCEL ET JACQUES GAUCHER", "sales": 23, "sales_appt": 4, "sales_maison": 7, "median_price": 682500.0, "median_price_per_sqm": 7902.4390243902435, "turnover_score": 3.3, "turnover_rank": 61, "first_year": 2021, "last_year": 2024, "years_active": 4}}, {"type": "Feature", "geometry": {"type": "Point", "coordinates": [2.473616, 48.847747]}, "properties": {"street_name": "RUE DE LA REUNION", "sales": 22, "sales_appt": 8, "sales_maison": 1, "median_price": 279350.0, "median_price_per_sqm": 6058.823529411765, "turnover_score": 3.2, "turnover_rank": 62, "first_year": 2021, "last_year": 2025, "years_active": 3}}, {"type": "Feature", "geometry": {"type": "Point", "coordinates": [2.477323, 48.8441825]}, "properties": {"street_name": "RUE DE LA CORNEILLE", "sales": 22, "sales_appt": 4, "sales_maison": 10, "median_price": 396000.0, "median_price_per_sqm": 6539.285714285714, "turnover_score": 3.2, "turnover_rank": 62, "first_year": 2021, "last_year": 2025, "years_active": 5}}, {"type": "Feature", "geometry": {"type": "Point", "coordinates": [2.491937, 48.852431]}, "properties": {"street_name": "RUE PIERRE GRANGE", "sales": 22, "sales_appt": 1, "sales_maison": 0, "median_price": 3400000.0, "median_price_per_sqm": 340000.0, "turnover_score": 3.2, "turnover_rank": 62, "first_year": 2021, "last_year": 2022, "years_active": 2}}, {"type": "Feature", "geometry": {"type": "Point", "coordinates": [2.495153, 48.854866]}, "properties": {"street_name": "RUE LOUIS AUROUX", "sales": 22, "sales_appt": 2, "sales_maison": 7, "median_price": 522200.0, "median_price_per_sqm": 5517.5, "turnover_score": 3.2, "turnover_rank": 62, "first_year": 2021, "last_year": 2025, "years_active": 4}}, {"type": "Feature", "geometry": {"type": "Point", "coordinates": [2.46682, 48.853476]}, "properties": {"street_name": "RUE AUGUSTE COMTE", "sales": 21, "sales_appt": 5, "sales_maison": 7, "median_price": 410000.0, "median_price_per_sqm": 6285.714285714285, "turnover_score": 3.0, "turnover_rank": 63, "first_year": 2022, "last_year": 2025, "years_active": 4}}, {"type": "Feature", "geometry": {"type": "Point", "coordinates": [2.464646, 48.849303]}, "properties": {"street_name": "RUE MAISON ROUGE ET DR GUEDJ", "sales": 21, "sales_appt": 10, "sales_maison": 2, "median_price": 215000.0, "median_price_per_sqm": 6294.117647058823, "turnover_score": 3.0, "turnover_rank": 63, "first_year": 2021, "last_year": 2025, "years_active": 5}}, {"type": "Feature", "geometry": {"type": "Point", "coordinates": [2.470772, 48.846183]}, "properties": {"street_name": "RUE NOTRE DAME", "sales": 21, "sales_appt": 13, "sales_maison": 1, "median_price": 366900.0, "median_price_per_sqm": 6518.518518518518, "turnover_score": 3.0, "turnover_rank": 63, "first_year": 2021, "last_year": 2025, "years_active": 4}}, {"type": "Feature", "geometry": {"type": "Point", "coordinates": [2.458481, 48.854831]}, "properties": {"street_name": "AV DANTON", "sales": 21, "sales_appt": 3, "sales_maison": 10, "median_price": 520000.0, "median_price_per_sqm": 6839.6551724137935, "turnover_score": 3.0, "turnover_rank": 63, "first_year": 2021, "last_year": 2025, "years_active": 5}}, {"type": "Feature", "geometry": {"type": "Point", "coordinates": [2.473704, 48.8421085]}, "properties": {"street_name": "RUE PIERRE BROSSOLETTE", "sales": 20, "sales_appt": 2, "sales_maison": 10, "median_price": 670000.0, "median_price_per_sqm": 9366.027742749055, "turnover_score": 2.9, "turnover_rank": 64, "first_year": 2021, "last_year": 2025, "years_active": 5}}, {"type": "Feature", "geometry": {"type": "Point", "coordinates": [2.4942015, 48.858075]}, "properties": {"street_name": "RUE DE LA FONTAINE DU VAISSEAU", "sales": 20, "sales_appt": 0, "sales_maison": 4, "median_price": 1390000.0, "median_price_per_sqm": 14183.673469387755, "turnover_score": 2.9, "turnover_rank": 64, "first_year": 2021, "last_year": 2025, "years_active": 3}}, {"type": "Feature", "geometry": {"type": "Point", "coordinates": [2.476082, 48.844473]}, "properties": {"street_name": "RUE D ALGER", "sales": 20, "sales_appt": 5, "sales_maison": 3, "median_price": 393000.0, "median_price_per_sqm": 5419.387380777696, "turnover_score": 2.9, "turnover_rank": 64, "first_year": 2022, "last_year": 2025, "years_active": 4}}, {"type": "Feature", "geometry": {"type": "Point", "coordinates": [2.494042, 48.859779]}, "properties": {"street_name": "RUE DU BOIS GALON", "sales": 19, "sales_appt": 1, "sales_maison": 2, "median_price": 3308550.0, "median_price_per_sqm": 13968.44049017962, "turnover_score": 2.7, "turnover_rank": 65, "first_year": 2021, "last_year": 2025, "years_active": 4}}, {"type": "Feature", "geometry": {"type": "Point", "coordinates": [2.470554, 48.849469]}, "properties": {"street_name": "RUE DES BELLES VUES", "sales": 19, "sales_appt": 6, "sales_maison": 3, "median_price": 312000.0, "median_price_per_sqm": 6971.142857142857, "turnover_score": 2.7, "turnover_rank": 65, "first_year": 2021, "last_year": 2025, "years_active": 5}}, {"type": "Feature", "geometry": {"type": "Point", "coordinates": [2.448615, 48.852862]}, "properties": {"street_name": "RUE DE LA SOLIDARITE", "sales": 19, "sales_appt": 7, "sales_maison": 3, "median_price": 390400.0, "median_price_per_sqm": 6548.036758563074, "turnover_score": 2.7, "turnover_rank": 65, "first_year": 2021, "last_year": 2023, "years_active": 3}}, {"type": "Feature", "geometry": {"type": "Point", "coordinates": [2.464002, 48.851709]}, "properties": {"street_name": "RUE DU RUISSEAU", "sales": 18, "sales_appt": 3, "sales_maison": 7, "median_price": 339000.0, "median_price_per_sqm": 9083.333333333334, "turnover_score": 2.6, "turnover_rank": 66, "first_year": 2021, "last_year": 2023, "years_active": 3}}, {"type": "Feature", "geometry": {"type": "Point", "coordinates": [2.4778365, 48.846906000000004]}, "properties": {"street_name": "RUE DE LA PLANCHE", "sales": 18, "sales_appt": 1, "sales_maison": 5, "median_price": 255000.0, "median_price_per_sqm": 6145.251396648045, "turnover_score": 2.6, "turnover_rank": 66, "first_year": 2022, "last_year": 2025, "years_active": 4}}, {"type": "Feature", "geometry": {"type": "Point", "coordinates": [2.473644, 48.843266]}, "properties": {"street_name": "RUE SQUEVILLE", "sales": 18, "sales_appt": 7, "sales_maison": 3, "median_price": 417000.0, "median_price_per_sqm": 7022.200772200773, "turnover_score": 2.6, "turnover_rank": 66, "first_year": 2021, "last_year": 2025, "years_active": 4}}, {"type": "Feature", "geometry": {"type": "Point", "coordinates": [2.478926, 48.84487]}, "properties": {"street_name": "BD DU VINGT CINQ AOUT 1944", "sales": 17, "sales_appt": 3, "sales_maison": 7, "median_price": 408000.0, "median_price_per_sqm": 6571.428571428572, "turnover_score": 2.4, "turnover_rank": 67, "first_year": 2021, "last_year": 2025, "years_active": 5}}, {"type": "Feature", "geometry": {"type": "Point", "coordinates": [2.492578, 48.849867]}, "properties": {"street_name": "AV LOUISON BOBET", "sales": 17, "sales_appt": 0, "sales_maison": 0, "median_price": 7140000.0, "median_price_per_sqm": 12548.330404217926, "turnover_score": 2.4, "turnover_rank": 67, "first_year": 2021, "last_year": 2024, "years_active": 2}}, {"type": "Feature", "geometry": {"type": "Point", "coordinates": [2.448474, 48.851341]}, "properties": {"street_name": "RUE NUNGESSER", "sales": 17, "sales_appt": 7, "sales_maison": 1, "median_price": 142000.0, "median_price_per_sqm": 7000.0, "turnover_score": 2.4, "turnover_rank": 67, "first_year": 2021, "last_year": 2024, "years_active": 4}}, {"type": "Feature", "geometry": {"type": "Point", "coordinates": [2.473426, 48.8429035]}, "properties": {"street_name": "RUE LEGRAND", "sales": 16, "sales_appt": 6, "sales_maison": 5, "median_price": 390500.0, "median_price_per_sqm": 6785.714285714285, "turnover_score": 2.3, "turnover_rank": 68, "first_year": 2021, "last_year": 2025, "years_active": 5}}, {"type": "Feature", "geometry": {"type": "Point", "coordinates": [2.473635, 48.84079]}, "properties": {"street_name": "RUE VICTOR MUSSAULT", "sales": 15, "sales_appt": 0, "sales_maison": 6, "median_price": 766230.0, "median_price_per_sqm": 11693.43537414966, "turnover_score": 2.2, "turnover_rank": 69, "first_year": 2021, "last_year": 2025, "years_active": 5}}, {"type": "Feature", "geometry": {"type": "Point", "coordinates": [2.4742405, 48.851574]}, "properties": {"street_name": "RUE PAUL BERT", "sales": 14, "sales_appt": 3, "sales_maison": 6, "median_price": 417119.0, "median_price_per_sqm": 6341.463414634146, "turnover_score": 2.0, "turnover_rank": 70, "first_year": 2022, "last_year": 2025, "years_active": 4}}, {"type": "Feature", "geometry": {"type": "Point", "coordinates": [2.47326, 48.8499705]}, "properties": {"street_name": "RUE GUERIN LEROUX", "sales": 14, "sales_appt": 3, "sales_maison": 5, "median_price": 646835.0, "median_price_per_sqm": 6250.0, "turnover_score": 2.0, "turnover_rank": 70, "first_year": 2022, "last_year": 2025, "years_active": 3}}, {"type": "Feature", "geometry": {"type": "Point", "coordinates": [2.478177, 48.847745]}, "properties": {"street_name": "RUE DES EMERIS", "sales": 14, "sales_appt": 3, "sales_maison": 1, "median_price": 740000.0, "median_price_per_sqm": 9649.06103286385, "turnover_score": 2.0, "turnover_rank": 70, "first_year": 2021, "last_year": 2025, "years_active": 3}}, {"type": "Feature", "geometry": {"type": "Point", "coordinates": [2.468841, 48.846428]}, "properties": {"street_name": "RUE CHEVRETTE", "sales": 14, "sales_appt": 7, "sales_maison": 1, "median_price": 340000.0, "median_price_per_sqm": 5312.753036437247, "turnover_score": 2.0, "turnover_rank": 70, "first_year": 2021, "last_year": 2025, "years_active": 4}}, {"type": "Feature", "geometry": {"type": "Point", "coordinates": [2.471767, 48.850344]}, "properties": {"street_name": "VLA BERANGER", "sales": 13, "sales_appt": 0, "sales_maison": 8, "median_price": 520000.0, "median_price_per_sqm": 7942.876344086021, "turnover_score": 1.9, "turnover_rank": 71, "first_year": 2021, "last_year": 2025, "years_active": 4}}, {"type": "Feature", "geometry": {"type": "Point", "coordinates": [2.471169, 48.85912]}, "properties": {"street_name": "RUE BALZAC", "sales": 13, "sales_appt": 0, "sales_maison": 6, "median_price": 477500.0, "median_price_per_sqm": 3979.1666666666665, "turnover_score": 1.9, "turnover_rank": 71, "first_year": 2022, "last_year": 2025, "years_active": 3}}, {"type": "Feature", "geometry": {"type": "Point", "coordinates": [2.475113, 48.841825]}, "properties": {"street_name": "RUE MAURICE BARTHELEMY", "sales": 13, "sales_appt": 4, "sales_maison": 5, "median_price": 247500.0, "median_price_per_sqm": 6686.046511627907, "turnover_score": 1.9, "turnover_rank": 71, "first_year": 2021, "last_year": 2025, "years_active": 5}}, {"type": "Feature", "geometry": {"type": "Point", "coordinates": [2.468195, 48.857683]}, "properties": {"street_name": "RUE RACINE", "sales": 13, "sales_appt": 0, "sales_maison": 8, "median_price": 540000.0, "median_price_per_sqm": 6287.671232876713, "turnover_score": 1.9, "turnover_rank": 71, "first_year": 2021, "last_year": 2025, "years_active": 5}}, {"type": "Feature", "geometry": {"type": "Point", "coordinates": [2.473751, 48.858497]}, "properties": {"street_name": "RUE AMPERE", "sales": 12, "sales_appt": 0, "sales_maison": 6, "median_price": 361250.0, "median_price_per_sqm": 6046.184803921568, "turnover_score": 1.7, "turnover_rank": 72, "first_year": 2021, "last_year": 2025, "years_active": 5}}, {"type": "Feature", "geometry": {"type": "Point", "coordinates": [2.46383, 48.8544955]}, "properties": {"street_name": "RUE VICTOR LESPAGNE", "sales": 12, "sales_appt": 2, "sales_maison": 7, "median_price": 483000.0, "median_price_per_sqm": 7975.308641975309, "turnover_score": 1.7, "turnover_rank": 72, "first_year": 2021, "last_year": 2025, "years_active": 4}}, {"type": "Feature", "geometry": {"type": "Point", "coordinates": [2.465744, 48.843982]}, "properties": {"street_name": "PL MOREAU DAVID", "sales": 12, "sales_appt": 4, "sales_maison": 0, "median_price": 720000.0, "median_price_per_sqm": 7142.857142857143, "turnover_score": 1.7, "turnover_rank": 72, "first_year": 2021, "last_year": 2025, "years_active": 3}}, {"type": "Feature", "geometry": {"type": "Point", "coordinates": [2.472775, 48.84657]}, "properties": {"street_name": "RUE DE L ANCIENNE MAIRIE", "sales": 12, "sales_appt": 7, "sales_maison": 0, "median_price": 248500.0, "median_price_per_sqm": 5288.461538461538, "turnover_score": 1.7, "turnover_rank": 72, "first_year": 2022, "last_year": 2025, "years_active": 3}}, {"type": "Feature", "geometry": {"type": "Point", "coordinates": [2.477013, 48.848503]}, "properties": {"street_name": "RUE DU NORD", "sales": 12, "sales_appt": 6, "sales_maison": 1, "median_price": 322000.0, "median_price_per_sqm": 10789.473684210527, "turnover_score": 1.7, "turnover_rank": 72, "first_year": 2022, "last_year": 2025, "years_active": 3}}, {"type": "Feature", "geometry": {"type": "Point", "coordinates": [2.476534, 48.846981]}, "properties": {"street_name": "RUE DU RD PERE LUCIEN AUBRY", "sales": 12, "sales_appt": 5, "sales_maison": 3, "median_price": 395000.0, "median_price_per_sqm": 6107.692307692308, "turnover_score": 1.7, "turnover_rank": 72, "first_year": 2021, "last_year": 2025, "years_active": 4}}, {"type": "Feature", "geometry": {"type": "Point", "coordinates": [2.450318, 48.851109]}, "properties": {"street_name": "RUE TURPIN", "sales": 12, "sales_appt": 4, "sales_maison": 3, "median_price": 497500.0, "median_price_per_sqm": 7045.6140350877195, "turnover_score": 1.7, "turnover_rank": 72, "first_year": 2021, "last_year": 2024, "years_active": 4}}, {"type": "Feature", "geometry": {"type": "Point", "coordinates": [2.4702095, 48.846167]}, "properties": {"street_name": "RUE MOT", "sales": 12, "sales_appt": 5, "sales_maison": 1, "median_price": 382000.0, "median_price_per_sqm": 7207.547169811321, "turnover_score": 1.7, "turnover_rank": 72, "first_year": 2021, "last_year": 2025, "years_active": 4}}, {"type": "Feature", "geometry": {"type": "Point", "coordinates": [2.485709, 48.848619]}, "properties": {"street_name": "RUE FERNAND LEGER", "sales": 12, "sales_appt": 0, "sales_maison": 0, "median_price": 285000.0, "median_price_per_sqm": null, "turnover_score": 1.7, "turnover_rank": 72, "first_year": 2021, "last_year": 2025, "years_active": 5}}, {"type": "Feature", "geometry": {"type": "Point", "coordinates": [2.474545, 48.842546]}, "properties": {"street_name": "RUE EPOIGNY", "sales": 11, "sales_appt": 2, "sales_maison": 4, "median_price": 775000.0, "median_price_per_sqm": 7275.64943584361, "turnover_score": 1.6, "turnover_rank": 73, "first_year": 2021, "last_year": 2024, "years_active": 3}}, {"type": "Feature", "geometry": {"type": "Point", "coordinates": [2.452717, 48.844666]}, "properties": {"street_name": "VLA DE LA DAME BLANCHE", "sales": 10, "sales_appt": 5, "sales_maison": 0, "median_price": 163000.0, "median_price_per_sqm": 6520.0, "turnover_score": 1.4, "turnover_rank": 74, "first_year": 2022, "last_year": 2025, "years_active": 3}}, {"type": "Feature", "geometry": {"type": "Point", "coordinates": [2.4662805, 48.845058]}, "properties": {"street_name": "VLA MEMORIS", "sales": 10, "sales_appt": 1, "sales_maison": 4, "median_price": 1000000.0, "median_price_per_sqm": 11210.526315789473, "turnover_score": 1.4, "turnover_rank": 74, "first_year": 2021, "last_year": 2025, "years_active": 4}}, {"type": "Feature", "geometry": {"type": "Point", "coordinates": [2.474289, 48.840646]}, "properties": {"street_name": "BD DES DEUX COMMUNES", "sales": 10, "sales_appt": 3, "sales_maison": 2, "median_price": 185000.0, "median_price_per_sqm": 7000.0, "turnover_score": 1.4, "turnover_rank": 74, "first_year": 2021, "last_year": 2025, "years_active": 4}}, {"type": "Feature", "geometry": {"type": "Point", "coordinates": [2.458446, 48.853651]}, "properties": {"street_name": "RUE DES PRES LORETS", "sales": 10, "sales_appt": 1, "sales_maison": 7, "median_price": 410800.0, "median_price_per_sqm": 7582.107843137255, "turnover_score": 1.4, "turnover_rank": 74, "first_year": 2021, "last_year": 2025, "years_active": 4}}, {"type": "Feature", "geometry": {"type": "Point", "coordinates": [2.474469, 48.852145]}, "properties": {"street_name": "RUE LESAGE", "sales": 10, "sales_appt": 2, "sales_maison": 0, "median_price": 247500.0, "median_price_per_sqm": 5889.774282233053, "turnover_score": 1.4, "turnover_rank": 74, "first_year": 2021, "last_year": 2025, "years_active": 5}}, {"type": "Feature", "geometry": {"type": "Point", "coordinates": [2.4580685, 48.852214]}, "properties": {"street_name": "RUE TERRES ST VICTOR", "sales": 10, "sales_appt": 2, "sales_maison": 1, "median_price": 457500.0, "median_price_per_sqm": 4687.5, "turnover_score": 1.4, "turnover_rank": 74, "first_year": 2021, "last_year": 2025, "years_active": 4}}, {"type": "Feature", "geometry": {"type": "Point", "coordinates": [2.469364, 48.8529845]}, "properties": {"street_name": "RUE GAY LUSSAC", "sales": 10, "sales_appt": 0, "sales_maison": 1, "median_price": 5000000.0, "median_price_per_sqm": 83333.33333333333, "turnover_score": 1.4, "turnover_rank": 74, "first_year": 2021, "last_year": 2025, "years_active": 2}}, {"type": "Feature", "geometry": {"type": "Point", "coordinates": [2.480738, 48.857545]}, "properties": {"street_name": "RUE JEAN PIERRE MARTINIE", "sales": 10, "sales_appt": 4, "sales_maison": 0, "median_price": 235000.0, "median_price_per_sqm": 3373.134328358209, "turnover_score": 1.4, "turnover_rank": 74, "first_year": 2021, "last_year": 2022, "years_active": 2}}, {"type": "Feature", "geometry": {"type": "Point", "coordinates": [2.467377, 48.858701]}, "properties": {"street_name": "RUE POUSSIN", "sales": 9, "sales_appt": 0, "sales_maison": 5, "median_price": 376750.0, "median_price_per_sqm": 8761.627906976744, "turnover_score": 1.3, "turnover_rank": 75, "first_year": 2021, "last_year": 2025, "years_active": 4}}, {"type": "Feature", "geometry": {"type": "Point", "coordinates": [2.477409, 48.846334]}, "properties": {"street_name": "RUE DE LA RESISTANCE", "sales": 9, "sales_appt": 0, "sales_maison": 1, "median_price": 160000.0, "median_price_per_sqm": 6671.178571428572, "turnover_score": 1.3, "turnover_rank": 75, "first_year": 2021, "last_year": 2023, "years_active": 3}}, {"type": "Feature", "geometry": {"type": "Point", "coordinates": [2.495423, 48.857429]}, "properties": {"street_name": "RUE DE LA PRAIRIE", "sales": 9, "sales_appt": 2, "sales_maison": 0, "median_price": 119010.0, "median_price_per_sqm": 5479.750957854406, "turnover_score": 1.3, "turnover_rank": 75, "first_year": 2022, "last_year": 2024, "years_active": 2}}, {"type": "Feature", "geometry": {"type": "Point", "coordinates": [2.476337, 48.850009]}, "properties": {"street_name": "BD GALLIENI", "sales": 8, "sales_appt": 2, "sales_maison": 4, "median_price": 521579.02, "median_price_per_sqm": 5994.941471571907, "turnover_score": 1.1, "turnover_rank": 76, "first_year": 2022, "last_year": 2025, "years_active": 3}}, {"type": "Feature", "geometry": {"type": "Point", "coordinates": [2.4742025, 48.854432]}, "properties": {"street_name": "RUE BEAUMARCHAIS", "sales": 8, "sales_appt": 0, "sales_maison": 2, "median_price": 486250.0, "median_price_per_sqm": 6436.567164179104, "turnover_score": 1.1, "turnover_rank": 76, "first_year": 2021, "last_year": 2023, "years_active": 3}}, {"type": "Feature", "geometry": {"type": "Point", "coordinates": [2.462878, 48.8528605]}, "properties": {"street_name": "RUE DES ROSETTES", "sales": 8, "sales_appt": 3, "sales_maison": 4, "median_price": 456850.0, "median_price_per_sqm": 5240.740740740741, "turnover_score": 1.1, "turnover_rank": 76, "first_year": 2021, "last_year": 2025, "years_active": 3}}, {"type": "Feature", "geometry": {"type": "Point", "coordinates": [2.4560915000000003, 48.852915499999995]}, "properties": {"street_name": "PAS EMILE BOUTRAIS", "sales": 8, "sales_appt": 0, "sales_maison": 5, "median_price": 640170.0, "median_price_per_sqm": 9792.666666666666, "turnover_score": 1.1, "turnover_rank": 76, "first_year": 2021, "last_year": 2025, "years_active": 4}}, {"type": "Feature", "geometry": {"type": "Point", "coordinates": [2.4856055, 48.8471675]}, "properties": {"street_name": "AV DE NEUILLY", "sales": 8, "sales_appt": 0, "sales_maison": 3, "median_price": 669675.0, "median_price_per_sqm": 6035.384615384615, "turnover_score": 1.1, "turnover_rank": 76, "first_year": 2021, "last_year": 2025, "years_active": 3}}, {"type": "Feature", "geometry": {"type": "Point", "coordinates": [2.465751, 48.856193]}, "properties": {"street_name": "VLA HAZE", "sales": 8, "sales_appt": 0, "sales_maison": 4, "median_price": 332000.0, "median_price_per_sqm": 7442.028985507246, "turnover_score": 1.1, "turnover_rank": 76, "first_year": 2021, "last_year": 2025, "years_active": 4}}, {"type": "Feature", "geometry": {"type": "Point", "coordinates": [2.488207, 48.860493]}, "properties": {"street_name": "AUT A 86", "sales": 7, "sales_appt": 0, "sales_maison": 0, "median_price": 337500.0, "median_price_per_sqm": null, "turnover_score": 1.0, "turnover_rank": 77, "first_year": 2023, "last_year": 2023, "years_active": 1}}, {"type": "Feature", "geometry": {"type": "Point", "coordinates": [2.452181, 48.851142]}, "properties": {"street_name": "RUE PIERRE DEMONT", "sales": 7, "sales_appt": 3, "sales_maison": 2, "median_price": 590000.0, "median_price_per_sqm": 13720.93023255814, "turnover_score": 1.0, "turnover_rank": 77, "first_year": 2021, "last_year": 2025, "years_active": 3}}, {"type": "Feature", "geometry": {"type": "Point", "coordinates": [2.466892, 48.84976]}, "properties": {"street_name": "VLA DES CARRIERES", "sales": 7, "sales_appt": 2, "sales_maison": 1, "median_price": 596700.0, "median_price_per_sqm": 6231.636363636364, "turnover_score": 1.0, "turnover_rank": 77, "first_year": 2021, "last_year": 2025, "years_active": 3}}, {"type": "Feature", "geometry": {"type": "Point", "coordinates": [2.471379, 48.851664]}, "properties": {"street_name": "VLA LETOURNEUR", "sales": 7, "sales_appt": 2, "sales_maison": 3, "median_price": 707000.0, "median_price_per_sqm": 7571.428571428572, "turnover_score": 1.0, "turnover_rank": 77, "first_year": 2021, "last_year": 2025, "years_active": 4}}, {"type": "Feature", "geometry": {"type": "Point", "coordinates": [2.488973, 48.846995]}, "properties": {"street_name": "RUE MARCEAU", "sales": 7, "sales_appt": 2, "sales_maison": 1, "median_price": 471000.0, "median_price_per_sqm": 5611.538461538462, "turnover_score": 1.0, "turnover_rank": 77, "first_year": 2021, "last_year": 2025, "years_active": 4}}, {"type": "Feature", "geometry": {"type": "Point", "coordinates": [2.46138, 48.850776]}, "properties": {"street_name": "VLA DE L OUEST", "sales": 7, "sales_appt": 2, "sales_maison": 3, "median_price": 230500.0, "median_price_per_sqm": 6065.789473684211, "turnover_score": 1.0, "turnover_rank": 77, "first_year": 2022, "last_year": 2025, "years_active": 4}}, {"type": "Feature", "geometry": {"type": "Point", "coordinates": [2.470313, 48.845797]}, "properties": {"street_name": "PL DE LA LIBERATION", "sales": 7, "sales_appt": 4, "sales_maison": 0, "median_price": 180000.0, "median_price_per_sqm": 6488.970588235294, "turnover_score": 1.0, "turnover_rank": 77, "first_year": 2022, "last_year": 2023, "years_active": 2}}, {"type": "Feature", "geometry": {"type": "Point", "coordinates": [2.468369, 48.84839]}, "properties": {"street_name": "RUE DES CARRIERES", "sales": 7, "sales_appt": 0, "sales_maison": 4, "median_price": 739260.0, "median_price_per_sqm": 9803.62410378969, "turnover_score": 1.0, "turnover_rank": 77, "first_year": 2021, "last_year": 2025, "years_active": 3}}, {"type": "Feature", "geometry": {"type": "Point", "coordinates": [2.4631555, 48.854398]}, "properties": {"street_name": "VLA DU PLATEAU", "sales": 6, "sales_appt": 0, "sales_maison": 5, "median_price": 589900.0, "median_price_per_sqm": 9014.084507042253, "turnover_score": 0.9, "turnover_rank": 78, "first_year": 2022, "last_year": 2024, "years_active": 3}}, {"type": "Feature", "geometry": {"type": "Point", "coordinates": [2.478381, 48.845142]}, "properties": {"street_name": "RUE PIERRE LAROUSSE", "sales": 6, "sales_appt": 1, "sales_maison": 3, "median_price": 650000.0, "median_price_per_sqm": 7666.666666666667, "turnover_score": 0.9, "turnover_rank": 78, "first_year": 2022, "last_year": 2025, "years_active": 3}}, {"type": "Feature", "geometry": {"type": "Point", "coordinates": [2.453832, 48.855198]}, "properties": {"street_name": "VLA DES QUATRE RUELLES", "sales": 6, "sales_appt": 1, "sales_maison": 2, "median_price": 186950.0, "median_price_per_sqm": 7777.777777777777, "turnover_score": 0.9, "turnover_rank": 78, "first_year": 2021, "last_year": 2022, "years_active": 2}}, {"type": "Feature", "geometry": {"type": "Point", "coordinates": [2.470154, 48.8569545]}, "properties": {"street_name": "RUE EMILE ZOLA", "sales": 6, "sales_appt": 0, "sales_maison": 1, "median_price": 215000.0, "median_price_per_sqm": 7624.390243902439, "turnover_score": 0.9, "turnover_rank": 78, "first_year": 2021, "last_year": 2023, "years_active": 2}}, {"type": "Feature", "geometry": {"type": "Point", "coordinates": [2.465423, 48.844312]}, "properties": {"street_name": "VLA SAINT LOUIS", "sales": 6, "sales_appt": 1, "sales_maison": 2, "median_price": 800000.0, "median_price_per_sqm": 8431.931252826775, "turnover_score": 0.9, "turnover_rank": 78, "first_year": 2021, "last_year": 2024, "years_active": 3}}, {"type": "Feature", "geometry": {"type": "Point", "coordinates": [2.4923225, 48.8533555]}, "properties": {"street_name": "RUE CARNOT", "sales": 6, "sales_appt": 0, "sales_maison": 0, "median_price": 1.0, "median_price_per_sqm": null, "turnover_score": 0.9, "turnover_rank": 78, "first_year": 2022, "last_year": 2022, "years_active": 1}}, {"type": "Feature", "geometry": {"type": "Point", "coordinates": [2.476417, 48.848671]}, "properties": {"street_name": "RUE DES ORMES", "sales": 6, "sales_appt": 4, "sales_maison": 0, "median_price": 400000.0, "median_price_per_sqm": 4325.816843074092, "turnover_score": 0.9, "turnover_rank": 78, "first_year": 2025, "last_year": 2025, "years_active": 1}}, {"type": "Feature", "geometry": {"type": "Point", "coordinates": [2.470411, 48.842471]}, "properties": {"street_name": "VLA MADELEINE", "sales": 6, "sales_appt": 2, "sales_maison": 3, "median_price": 277500.0, "median_price_per_sqm": 6333.333333333333, "turnover_score": 0.9, "turnover_rank": 78, "first_year": 2021, "last_year": 2025, "years_active": 4}}, {"type": "Feature", "geometry": {"type": "Point", "coordinates": [2.461293, 48.854299]}, "properties": {"street_name": "VLA BELLEVUE", "sales": 6, "sales_appt": 0, "sales_maison": 5, "median_price": 495590.0, "median_price_per_sqm": 8914.545454545454, "turnover_score": 0.9, "turnover_rank": 78, "first_year": 2021, "last_year": 2023, "years_active": 3}}, {"type": "Feature", "geometry": {"type": "Point", "coordinates": [2.4659655000000003, 48.850729]}, "properties": {"street_name": "CHE DES SOURCES", "sales": 6, "sales_appt": 0, "sales_maison": 3, "median_price": 744000.0, "median_price_per_sqm": 5357.142857142857, "turnover_score": 0.9, "turnover_rank": 78, "first_year": 2022, "last_year": 2024, "years_active": 3}}, {"type": "Feature", "geometry": {"type": "Point", "coordinates": [2.470835, 48.8519]}, "properties": {"street_name": "RUE CUVIER", "sales": 5, "sales_appt": 1, "sales_maison": 2, "median_price": 692100.0, "median_price_per_sqm": 7566.666666666667, "turnover_score": 0.7, "turnover_rank": 79, "first_year": 2021, "last_year": 2024, "years_active": 3}}, {"type": "Feature", "geometry": {"type": "Point", "coordinates": [2.471329, 48.853609]}, "properties": {"street_name": "RUE ANATOLE FRANCE", "sales": 5, "sales_appt": 1, "sales_maison": 3, "median_price": 500900.0, "median_price_per_sqm": 6331.844512195122, "turnover_score": 0.7, "turnover_rank": 79, "first_year": 2021, "last_year": 2025, "years_active": 3}}, {"type": "Feature", "geometry": {"type": "Point", "coordinates": [2.466699, 48.852374]}, "properties": {"street_name": "RUE DE LA MATENE", "sales": 5, "sales_appt": 1, "sales_maison": 1, "median_price": 350000.0, "median_price_per_sqm": 5000.0, "turnover_score": 0.7, "turnover_rank": 79, "first_year": 2025, "last_year": 2025, "years_active": 1}}, {"type": "Feature", "geometry": {"type": "Point", "coordinates": [2.474333, 48.845137]}, "properties": {"street_name": "RUE DU REGARD", "sales": 5, "sales_appt": 0, "sales_maison": 3, "median_price": 850000.0, "median_price_per_sqm": 8109.756097560976, "turnover_score": 0.7, "turnover_rank": 79, "first_year": 2021, "last_year": 2025, "years_active": 3}}, {"type": "Feature", "geometry": {"type": "Point", "coordinates": [2.450724, 48.85246]}, "properties": {"street_name": "RUE HECTOR MALOT", "sales": 5, "sales_appt": 2, "sales_maison": 0, "median_price": 197000.0, "median_price_per_sqm": 5586.206896551724, "turnover_score": 0.7, "turnover_rank": 79, "first_year": 2025, "last_year": 2025, "years_active": 1}}, {"type": "Feature", "geometry": {"type": "Point", "coordinates": [2.452364, 48.851801]}, "properties": {"street_name": "IMP DE L AVENIR", "sales": 5, "sales_appt": 0, "sales_maison": 4, "median_price": 394000.0, "median_price_per_sqm": 7798.692528735633, "turnover_score": 0.7, "turnover_rank": 79, "first_year": 2021, "last_year": 2024, "years_active": 3}}, {"type": "Feature", "geometry": {"type": "Point", "coordinates": [2.472821, 48.849721]}, "properties": {"street_name": "RUE BOUVARD", "sales": 5, "sales_appt": 0, "sales_maison": 3, "median_price": 740000.0, "median_price_per_sqm": 12333.333333333334, "turnover_score": 0.7, "turnover_rank": 79, "first_year": 2021, "last_year": 2025, "years_active": 3}}, {"type": "Feature", "geometry": {"type": "Point", "coordinates": [2.470882, 48.848902]}, "properties": {"street_name": "VLA DES BELLES VUES", "sales": 5, "sales_appt": 0, "sales_maison": 1, "median_price": 825400.0, "median_price_per_sqm": 7160.305343511451, "turnover_score": 0.7, "turnover_rank": 79, "first_year": 2021, "last_year": 2023, "years_active": 3}}, {"type": "Feature", "geometry": {"type": "Point", "coordinates": [2.467322, 48.854135]}, "properties": {"street_name": "VLA EUGENIE", "sales": 5, "sales_appt": 0, "sales_maison": 3, "median_price": 694100.0, "median_price_per_sqm": 8709.52380952381, "turnover_score": 0.7, "turnover_rank": 79, "first_year": 2021, "last_year": 2025, "years_active": 3}}, {"type": "Feature", "geometry": {"type": "Point", "coordinates": [2.487214, 48.846453]}, "properties": {"street_name": "RUE HOCHE", "sales": 5, "sales_appt": 1, "sales_maison": 2, "median_price": 480900.0, "median_price_per_sqm": 9426.22950819672, "turnover_score": 0.7, "turnover_rank": 79, "first_year": 2022, "last_year": 2024, "years_active": 3}}, {"type": "Feature", "geometry": {"type": "Point", "coordinates": [2.474281, 48.854948]}, "properties": {"street_name": "RUE LAMARTINE", "sales": 5, "sales_appt": 0, "sales_maison": 2, "median_price": 410000.0, "median_price_per_sqm": 4915.372474747475, "turnover_score": 0.7, "turnover_rank": 79, "first_year": 2023, "last_year": 2025, "years_active": 2}}, {"type": "Feature", "geometry": {"type": "Point", "coordinates": [2.475097, 48.84501]}, "properties": {"street_name": "VLA COTEAU", "sales": 5, "sales_appt": 0, "sales_maison": 3, "median_price": 875000.0, "median_price_per_sqm": 9893.617021276596, "turnover_score": 0.7, "turnover_rank": 79, "first_year": 2021, "last_year": 2024, "years_active": 3}}, {"type": "Feature", "geometry": {"type": "Point", "coordinates": [2.46018, 48.847477]}, "properties": {"street_name": "RUE PAULINE", "sales": 5, "sales_appt": 0, "sales_maison": 3, "median_price": 861000.0, "median_price_per_sqm": 8441.176470588236, "turnover_score": 0.7, "turnover_rank": 79, "first_year": 2021, "last_year": 2024, "years_active": 3}}, {"type": "Feature", "geometry": {"type": "Point", "coordinates": [2.48739, 48.853766]}, "properties": {"street_name": "AV DU VAL DE FONTENAY", "sales": 4, "sales_appt": 0, "sales_maison": 0, "median_price": 576474.0, "median_price_per_sqm": 43158.48128342246, "turnover_score": 0.6, "turnover_rank": 80, "first_year": 2021, "last_year": 2021, "years_active": 1}}, {"type": "Feature", "geometry": {"type": "Point", "coordinates": [2.482807, 48.8579]}, "properties": {"street_name": "ALL DU BUISSON DE LA BERGERE", "sales": 4, "sales_appt": 1, "sales_maison": 0, "median_price": 285100.0, "median_price_per_sqm": 4525.396825396825, "turnover_score": 0.6, "turnover_rank": 80, "first_year": 2022, "last_year": 2024, "years_active": 2}}, {"type": "Feature", "geometry": {"type": "Point", "coordinates": [2.4661429999999998, 48.854088]}, "properties": {"street_name": "VLA ROSETTES", "sales": 4, "sales_appt": 0, "sales_maison": 1, "median_price": 380000.0, "median_price_per_sqm": 9500.0, "turnover_score": 0.6, "turnover_rank": 80, "first_year": 2023, "last_year": 2023, "years_active": 1}}, {"type": "Feature", "geometry": {"type": "Point", "coordinates": [2.4963745, 48.853673]}, "properties": {"street_name": "RUE DU BOIS DES JONCS MARINS", "sales": 4, "sales_appt": 0, "sales_maison": 0, "median_price": 1084650.0, "median_price_per_sqm": null, "turnover_score": 0.6, "turnover_rank": 80, "first_year": 2022, "last_year": 2024, "years_active": 2}}, {"type": "Feature", "geometry": {"type": "Point", "coordinates": [2.4897505, 48.84714]}, "properties": {"street_name": "RUE DES PRIETS", "sales": 4, "sales_appt": 0, "sales_maison": 2, "median_price": 496000.0, "median_price_per_sqm": 5445.050545490942, "turnover_score": 0.6, "turnover_rank": 80, "first_year": 2021, "last_year": 2024, "years_active": 2}}, {"type": "Feature", "geometry": {"type": "Point", "coordinates": [2.468732, 48.8480605]}, "properties": {"street_name": "RUE DES NACLIERES", "sales": 4, "sales_appt": 1, "sales_maison": 2, "median_price": 543460.0, "median_price_per_sqm": 6910.377358490566, "turnover_score": 0.6, "turnover_rank": 80, "first_year": 2022, "last_year": 2025, "years_active": 2}}, {"type": "Feature", "geometry": {"type": "Point", "coordinates": [2.464798, 48.848315]}, "properties": {"street_name": "RUE JULES LEPETIT", "sales": 4, "sales_appt": 2, "sales_maison": 0, "median_price": 300000.0, "median_price_per_sqm": 7894.736842105263, "turnover_score": 0.6, "turnover_rank": 80, "first_year": 2021, "last_year": 2021, "years_active": 1}}, {"type": "Feature", "geometry": {"type": "Point", "coordinates": [2.448315, 48.8525255]}, "properties": {"street_name": "RUE LE BRIX", "sales": 4, "sales_appt": 3, "sales_maison": 1, "median_price": 140250.0, "median_price_per_sqm": 3336.497890295359, "turnover_score": 0.6, "turnover_rank": 80, "first_year": 2023, "last_year": 2024, "years_active": 2}}, {"type": "Feature", "geometry": {"type": "Point", "coordinates": [2.44958, 48.853576]}, "properties": {"street_name": "RUE GEORGES LE TIEC", "sales": 4, "sales_appt": 0, "sales_maison": 2, "median_price": 1050000.0, "median_price_per_sqm": 8930.329623287671, "turnover_score": 0.6, "turnover_rank": 80, "first_year": 2022, "last_year": 2023, "years_active": 2}}, {"type": "Feature", "geometry": {"type": "Point", "coordinates": [2.465949, 48.853003]}, "properties": {"street_name": "RUE EUGENE HERICOURT", "sales": 3, "sales_appt": 0, "sales_maison": 2, "median_price": 768200.0, "median_price_per_sqm": 7682.0, "turnover_score": 0.4, "turnover_rank": 81, "first_year": 2021, "last_year": 2023, "years_active": 2}}, {"type": "Feature", "geometry": {"type": "Point", "coordinates": [2.490849, 48.860476]}, "properties": {"street_name": "CHE DES MARAIS", "sales": 3, "sales_appt": 0, "sales_maison": 2, "median_price": 559502.4, "median_price_per_sqm": 8881.265704772475, "turnover_score": 0.4, "turnover_rank": 81, "first_year": 2021, "last_year": 2022, "years_active": 2}}, {"type": "Feature", "geometry": {"type": "Point", "coordinates": [2.476772, 48.85105]}, "properties": {"street_name": "ALL ALBERT CAMUS", "sales": 3, "sales_appt": 0, "sales_maison": 0, "median_price": 1064000.0, "median_price_per_sqm": null, "turnover_score": 0.4, "turnover_rank": 81, "first_year": 2021, "last_year": 2021, "years_active": 1}}, {"type": "Feature", "geometry": {"type": "Point", "coordinates": [2.466538, 48.855183]}, "properties": {"street_name": "RUE GILBERT RIBATTO", "sales": 3, "sales_appt": 0, "sales_maison": 2, "median_price": 385000.0, "median_price_per_sqm": 3944.2397660818715, "turnover_score": 0.4, "turnover_rank": 81, "first_year": 2021, "last_year": 2022, "years_active": 2}}, {"type": "Feature", "geometry": {"type": "Point", "coordinates": [2.460255, 48.854875]}, "properties": {"street_name": "VLA GRANDJEAN", "sales": 3, "sales_appt": 0, "sales_maison": 2, "median_price": 175000.0, "median_price_per_sqm": 7344.733044733045, "turnover_score": 0.4, "turnover_rank": 81, "first_year": 2024, "last_year": 2025, "years_active": 2}}, {"type": "Feature", "geometry": {"type": "Point", "coordinates": [2.473834, 48.851814]}, "properties": {"street_name": "RUE MICHELET", "sales": 3, "sales_appt": 0, "sales_maison": 2, "median_price": 490000.0, "median_price_per_sqm": 5490.428295892898, "turnover_score": 0.4, "turnover_rank": 81, "first_year": 2023, "last_year": 2025, "years_active": 2}}, {"type": "Feature", "geometry": {"type": "Point", "coordinates": [2.471498, 48.850811]}, "properties": {"street_name": "VLA PECHE", "sales": 3, "sales_appt": 0, "sales_maison": 3, "median_price": 520000.0, "median_price_per_sqm": 7323.943661971831, "turnover_score": 0.4, "turnover_rank": 81, "first_year": 2022, "last_year": 2022, "years_active": 1}}, {"type": "Feature", "geometry": {"type": "Point", "coordinates": [2.45513, 48.850779]}, "properties": {"street_name": "VLA HEITZ", "sales": 3, "sales_appt": 0, "sales_maison": 2, "median_price": 565000.0, "median_price_per_sqm": 7705.791666666666, "turnover_score": 0.4, "turnover_rank": 81, "first_year": 2021, "last_year": 2025, "years_active": 2}}, {"type": "Feature", "geometry": {"type": "Point", "coordinates": [2.478665, 48.859888]}, "properties": {"street_name": "RUE GUSTAVE DORE", "sales": 3, "sales_appt": 0, "sales_maison": 1, "median_price": 548000.0, "median_price_per_sqm": 10339.622641509433, "turnover_score": 0.4, "turnover_rank": 81, "first_year": 2023, "last_year": 2023, "years_active": 1}}, {"type": "Feature", "geometry": {"type": "Point", "coordinates": [2.452924, 48.851715]}, "properties": {"street_name": "RUE DE L AVENIR", "sales": 3, "sales_appt": 2, "sales_maison": 0, "median_price": 525000.0, "median_price_per_sqm": 10276.960784313726, "turnover_score": 0.4, "turnover_rank": 81, "first_year": 2022, "last_year": 2024, "years_active": 3}}, {"type": "Feature", "geometry": {"type": "Point", "coordinates": [2.471408, 48.846171]}, "properties": {"street_name": "BD ANDRE BASSEE", "sales": 3, "sales_appt": 2, "sales_maison": 0, "median_price": 410000.0, "median_price_per_sqm": 9113.924050632912, "turnover_score": 0.4, "turnover_rank": 81, "first_year": 2021, "last_year": 2021, "years_active": 1}}, {"type": "Feature", "geometry": {"type": "Point", "coordinates": [2.449603, 48.851785]}, "properties": {"street_name": "RUE DE LA SANTE", "sales": 3, "sales_appt": 0, "sales_maison": 2, "median_price": 1150000.0, "median_price_per_sqm": 8332.400149309444, "turnover_score": 0.4, "turnover_rank": 81, "first_year": 2022, "last_year": 2022, "years_active": 1}}, {"type": "Feature", "geometry": {"type": "Point", "coordinates": [2.480015, 48.846672999999996]}, "properties": {"street_name": "LES EPIVANS", "sales": 2, "sales_appt": 0, "sales_maison": 0, "median_price": 16000.0, "median_price_per_sqm": null, "turnover_score": 0.3, "turnover_rank": 82, "first_year": 2025, "last_year": 2025, "years_active": 1}}, {"type": "Feature", "geometry": {"type": "Point", "coordinates": [2.4763045, 48.8507175]}, "properties": {"street_name": "RUE CHAPTAL", "sales": 2, "sales_appt": 0, "sales_maison": 0, "median_price": 1168500.0, "median_price_per_sqm": null, "turnover_score": 0.3, "turnover_rank": 82, "first_year": 2024, "last_year": 2025, "years_active": 2}}, {"type": "Feature", "geometry": {"type": "Point", "coordinates": [2.473209, 48.840649]}, "properties": {"street_name": "RUE DE BAPAUME", "sales": 2, "sales_appt": 0, "sales_maison": 2, "median_price": 2230000.0, "median_price_per_sqm": 8576.923076923076, "turnover_score": 0.3, "turnover_rank": 82, "first_year": 2022, "last_year": 2022, "years_active": 1}}, {"type": "Feature", "geometry": {"type": "Point", "coordinates": [2.4877469999999997, 48.86053]}, "properties": {"street_name": "AV FAIDHERBE", "sales": 2, "sales_appt": 0, "sales_maison": 0, "median_price": 337500.0, "median_price_per_sqm": null, "turnover_score": 0.3, "turnover_rank": 82, "first_year": 2023, "last_year": 2023, "years_active": 1}}, {"type": "Feature", "geometry": {"type": "Point", "coordinates": [2.475916, 48.847057500000005]}, "properties": {"street_name": "IMP DU SUD", "sales": 2, "sales_appt": 0, "sales_maison": 2, "median_price": 805000.0, "median_price_per_sqm": 8585.119798234553, "turnover_score": 0.3, "turnover_rank": 82, "first_year": 2021, "last_year": 2023, "years_active": 2}}, {"type": "Feature", "geometry": {"type": "Point", "coordinates": [2.470826, 48.843274]}, "properties": {"street_name": "VLA D ORLEANS", "sales": 2, "sales_appt": 0, "sales_maison": 1, "median_price": 1026100.0, "median_price_per_sqm": 9413.761467889908, "turnover_score": 0.3, "turnover_rank": 82, "first_year": 2025, "last_year": 2025, "years_active": 1}}, {"type": "Feature", "geometry": {"type": "Point", "coordinates": [2.469487, 48.843383]}, "properties": {"street_name": "VLA LAPIE", "sales": 2, "sales_appt": 0, "sales_maison": 1, "median_price": 1344000.0, "median_price_per_sqm": 10338.461538461539, "turnover_score": 0.3, "turnover_rank": 82, "first_year": 2022, "last_year": 2022, "years_active": 1}}, {"type": "Feature", "geometry": {"type": "Point", "coordinates": [2.4543, 48.854077]}, "properties": {"street_name": "VLA DES BEAUMONTS", "sales": 2, "sales_appt": 0, "sales_maison": 1, "median_price": 835000.0, "median_price_per_sqm": 10844.155844155845, "turnover_score": 0.3, "turnover_rank": 82, "first_year": 2024, "last_year": 2024, "years_active": 1}}, {"type": "Feature", "geometry": {"type": "Point", "coordinates": [2.468398, 48.853215500000005]}, "properties": {"street_name": "SEN DU MOULIN", "sales": 2, "sales_appt": 0, "sales_maison": 1, "median_price": 720000.0, "median_price_per_sqm": 7346.938775510204, "turnover_score": 0.3, "turnover_rank": 82, "first_year": 2022, "last_year": 2022, "years_active": 1}}, {"type": "Feature", "geometry": {"type": "Point", "coordinates": [2.459481, 48.855584]}, "properties": {"street_name": "VLA BEL AIR", "sales": 2, "sales_appt": 0, "sales_maison": 2, "median_price": 676750.0, "median_price_per_sqm": 7690.340909090909, "turnover_score": 0.3, "turnover_rank": 82, "first_year": 2021, "last_year": 2021, "years_active": 1}}, {"type": "Feature", "geometry": {"type": "Point", "coordinates": [2.497802, 48.855337]}, "properties": {"street_name": "RUE DU BOIS", "sales": 2, "sales_appt": 0, "sales_maison": 1, "median_price": 1500000.0, "median_price_per_sqm": 7141.1192214111925, "turnover_score": 0.3, "turnover_rank": 82, "first_year": 2025, "last_year": 2025, "years_active": 1}}, {"type": "Feature", "geometry": {"type": "Point", "coordinates": [2.485609, 48.84712]}, "properties": {"street_name": "RUE GABRIEL LACASSAGNE", "sales": 2, "sales_appt": 0, "sales_maison": 0, "median_price": 483300.0, "median_price_per_sqm": null, "turnover_score": 0.3, "turnover_rank": 82, "first_year": 2022, "last_year": 2025, "years_active": 2}}, {"type": "Feature", "geometry": {"type": "Point", "coordinates": [2.471876, 48.853008]}, "properties": {"street_name": "RUE DENIS PAPIN", "sales": 2, "sales_appt": 0, "sales_maison": 2, "median_price": 584225.0, "median_price_per_sqm": 5694.400406504065, "turnover_score": 0.3, "turnover_rank": 82, "first_year": 2023, "last_year": 2025, "years_active": 2}}, {"type": "Feature", "geometry": {"type": "Point", "coordinates": [2.471297, 48.842601]}, "properties": {"street_name": "VLA VITRY", "sales": 2, "sales_appt": 0, "sales_maison": 1, "median_price": 380000.0, "median_price_per_sqm": 8444.444444444445, "turnover_score": 0.3, "turnover_rank": 82, "first_year": 2022, "last_year": 2022, "years_active": 1}}, {"type": "Feature", "geometry": {"type": "Point", "coordinates": [2.4708405, 48.852709000000004]}, "properties": {"street_name": "RUE MARCELIN BERTHELOT", "sales": 2, "sales_appt": 0, "sales_maison": 1, "median_price": 337250.0, "median_price_per_sqm": 6875.0, "turnover_score": 0.3, "turnover_rank": 82, "first_year": 2025, "last_year": 2025, "years_active": 1}}, {"type": "Feature", "geometry": {"type": "Point", "coordinates": [2.476039, 48.858936]}, "properties": {"street_name": "RUE DESCARTES", "sales": 2, "sales_appt": 1, "sales_maison": 0, "median_price": 230000.0, "median_price_per_sqm": 5609.756097560976, "turnover_score": 0.3, "turnover_rank": 82, "first_year": 2023, "last_year": 2023, "years_active": 1}}, {"type": "Feature", "geometry": {"type": "Point", "coordinates": [2.4726524999999997, 48.847106]}, "properties": {"street_name": "RUE DU BERCEAU", "sales": 2, "sales_appt": 1, "sales_maison": 1, "median_price": 765415.1, "median_price_per_sqm": 8078.884346504559, "turnover_score": 0.3, "turnover_rank": 82, "first_year": 2021, "last_year": 2024, "years_active": 2}}, {"type": "Feature", "geometry": {"type": "Point", "coordinates": [2.467983, 48.853242]}, "properties": {"street_name": "RUE DU SENTIER DU MOULIN", "sales": 2, "sales_appt": 0, "sales_maison": 1, "median_price": 400000.0, "median_price_per_sqm": 3636.3636363636365, "turnover_score": 0.3, "turnover_rank": 82, "first_year": 2023, "last_year": 2023, "years_active": 1}}, {"type": "Feature", "geometry": {"type": "Point", "coordinates": [2.461042, 48.854523]}, "properties": {"street_name": "VLA DES FRENES", "sales": 2, "sales_appt": 2, "sales_maison": 0, "median_price": 191000.0, "median_price_per_sqm": 6466.666666666667, "turnover_score": 0.3, "turnover_rank": 82, "first_year": 2021, "last_year": 2024, "years_active": 2}}, {"type": "Feature", "geometry": {"type": "Point", "coordinates": [2.454418, 48.851604]}, "properties": {"street_name": "IMP LEGRIS", "sales": 1, "sales_appt": 0, "sales_maison": 1, "median_price": 823700.0, "median_price_per_sqm": 9152.222222222223, "turnover_score": 0.1, "turnover_rank": 83, "first_year": 2022, "last_year": 2022, "years_active": 1}}, {"type": "Feature", "geometry": {"type": "Point", "coordinates": [2.478297, 48.855977]}, "properties": {"street_name": "CTRE CIAL DES LARIS ZUP", "sales": 1, "sales_appt": 0, "sales_maison": 0, "median_price": 205000.0, "median_price_per_sqm": 2228.2608695652175, "turnover_score": 0.1, "turnover_rank": 83, "first_year": 2021, "last_year": 2021, "years_active": 1}}, {"type": "Feature", "geometry": {"type": "Point", "coordinates": [2.471763, 48.852198]}, "properties": {"street_name": "PL MICHELET", "sales": 1, "sales_appt": 0, "sales_maison": 1, "median_price": 520000.0, "median_price_per_sqm": 11063.829787234043, "turnover_score": 0.1, "turnover_rank": 83, "first_year": 2022, "last_year": 2022, "years_active": 1}}, {"type": "Feature", "geometry": {"type": "Point", "coordinates": [2.485972, 48.851762]}, "properties": {"street_name": "PL DU GEN DE GAULLE", "sales": 1, "sales_appt": 0, "sales_maison": 0, "median_price": 10800000.0, "median_price_per_sqm": null, "turnover_score": 0.1, "turnover_rank": 83, "first_year": 2025, "last_year": 2025, "years_active": 1}}, {"type": "Feature", "geometry": {"type": "Point", "coordinates": [2.448396, 48.852258]}, "properties": {"street_name": "RUE COLI", "sales": 1, "sales_appt": 0, "sales_maison": 1, "median_price": 715000.0, "median_price_per_sqm": 7526.315789473684, "turnover_score": 0.1, "turnover_rank": 83, "first_year": 2021, "last_year": 2021, "years_active": 1}}, {"type": "Feature", "geometry": {"type": "Point", "coordinates": [2.473132, 48.859699]}, "properties": {"street_name": "RUE CAMILLE HONORE", "sales": 1, "sales_appt": 0, "sales_maison": 0, "median_price": 480000.0, "median_price_per_sqm": null, "turnover_score": 0.1, "turnover_rank": 83, "first_year": 2021, "last_year": 2021, "years_active": 1}}, {"type": "Feature", "geometry": {"type": "Point", "coordinates": [2.472494, 48.847713]}, "properties": {"street_name": "IMP DE L EGLISE", "sales": 1, "sales_appt": 0, "sales_maison": 1, "median_price": 515000.0, "median_price_per_sqm": 13918.918918918918, "turnover_score": 0.1, "turnover_rank": 83, "first_year": 2022, "last_year": 2022, "years_active": 1}}, {"type": "Feature", "geometry": {"type": "Point", "coordinates": [2.493336, 48.85267]}, "properties": {"street_name": "RUE GISELE HALIMI", "sales": 1, "sales_appt": 1, "sales_maison": 0, "median_price": 280000.0, "median_price_per_sqm": 6222.222222222223, "turnover_score": 0.1, "turnover_rank": 83, "first_year": 2023, "last_year": 2023, "years_active": 1}}, {"type": "Feature", "geometry": {"type": "Point", "coordinates": [2.493336, 48.85267]}, "properties": {"street_name": "RUE SIMONE VEIL", "sales": 1, "sales_appt": 1, "sales_maison": 0, "median_price": 377864.0, "median_price_per_sqm": 6094.580645161291, "turnover_score": 0.1, "turnover_rank": 83, "first_year": 2022, "last_year": 2022, "years_active": 1}}, {"type": "Feature", "geometry": {"type": "Point", "coordinates": [2.463876, 48.855541]}, "properties": {"street_name": "RUE SEYVERT", "sales": 1, "sales_appt": 0, "sales_maison": 1, "median_price": 530000.0, "median_price_per_sqm": 7681.159420289855, "turnover_score": 0.1, "turnover_rank": 83, "first_year": 2022, "last_year": 2022, "years_active": 1}}, {"type": "Feature", "geometry": {"type": "Point", "coordinates": [2.496819, 48.859309]}, "properties": {"street_name": "SEN DE LA PRAIRIE", "sales": 1, "sales_appt": 0, "sales_maison": 0, "median_price": 770000.0, "median_price_per_sqm": null, "turnover_score": 0.1, "turnover_rank": 83, "first_year": 2022, "last_year": 2022, "years_active": 1}}, {"type": "Feature", "geometry": {"type": "Point", "coordinates": [2.461183, 48.855622]}, "properties": {"street_name": "RUE VEDRINES", "sales": 1, "sales_appt": 0, "sales_maison": 1, "median_price": 737500.0, "median_price_per_sqm": 7091.346153846154, "turnover_score": 0.1, "turnover_rank": 83, "first_year": 2023, "last_year": 2023, "years_active": 1}}, {"type": "Feature", "geometry": {"type": "Point", "coordinates": [2.476316, 48.849833]}, "properties": {"street_name": "SEN DU BOIS GUERIN LEROUX", "sales": 1, "sales_appt": 0, "sales_maison": 0, "median_price": 646000.0, "median_price_per_sqm": null, "turnover_score": 0.1, "turnover_rank": 83, "first_year": 2022, "last_year": 2022, "years_active": 1}}, {"type": "Feature", "geometry": {"type": "Point", "coordinates": [2.471163, 48.843286]}, "properties": {"street_name": "VLA DE L ESPERANCE", "sales": 1, "sales_appt": 0, "sales_maison": 1, "median_price": 753000.0, "median_price_per_sqm": 9182.926829268292, "turnover_score": 0.1, "turnover_rank": 83, "first_year": 2025, "last_year": 2025, "years_active": 1}}, {"type": "Feature", "geometry": {"type": "Point", "coordinates": [2.457935, 48.851926]}, "properties": {"street_name": "VLA DES CARREAUX", "sales": 1, "sales_appt": 0, "sales_maison": 1, "median_price": 410000.0, "median_price_per_sqm": 7454.545454545455, "turnover_score": 0.1, "turnover_rank": 83, "first_year": 2023, "last_year": 2023, "years_active": 1}}, {"type": "Feature", "geometry": {"type": "Point", "coordinates": [2.475122, 48.850389]}, "properties": {"street_name": "VLA EUGENE", "sales": 1, "sales_appt": 0, "sales_maison": 1, "median_price": 528000.0, "median_price_per_sqm": 6857.142857142857, "turnover_score": 0.1, "turnover_rank": 83, "first_year": 2023, "last_year": 2023, "years_active": 1}}, {"type": "Feature", "geometry": {"type": "Point", "coordinates": [2.464765, 48.85404]}, "properties": {"street_name": "VLA DU MOULIN", "sales": 1, "sales_appt": 0, "sales_maison": 1, "median_price": 569000.0, "median_price_per_sqm": 5865.979381443299, "turnover_score": 0.1, "turnover_rank": 83, "first_year": 2021, "last_year": 2021, "years_active": 1}}, {"type": "Feature", "geometry": {"type": "Point", "coordinates": [2.459363, 48.854445]}, "properties": {"street_name": "VLA PRESTINARI", "sales": 1, "sales_appt": 1, "sales_maison": 0, "median_price": 323500.0, "median_price_per_sqm": 7352.272727272727, "turnover_score": 0.1, "turnover_rank": 83, "first_year": 2022, "last_year": 2022, "years_active": 1}}]}