{"type": "FeatureCollection", "features": [{"type": "Feature", "geometry": {"type": "Point", "coordinates": [2.670983, 49.071968]}, "properties": {"street_name": "AV DU HUIT MAI 1945", "sales": 98, "sales_appt": 42, "sales_maison": 4, "median_price": 6530225.0, "median_price_per_sqm": 115588.25579573934, "turnover_score": 100.0, "turnover_rank": 1, "first_year": 2021, "last_year": 2025, "years_active": 5}}, {"type": "Feature", "geometry": {"type": "Point", "coordinates": [2.675553, 49.077335]}, "properties": {"street_name": "RUE GERARD DE NERVAL", "sales": 76, "sales_appt": 19, "sales_maison": 11, "median_price": 156500.0, "median_price_per_sqm": 3515.8562367864697, "turnover_score": 77.6, "turnover_rank": 2, "first_year": 2021, "last_year": 2025, "years_active": 5}}, {"type": "Feature", "geometry": {"type": "Point", "coordinates": [2.652663, 49.084581]}, "properties": {"street_name": "RUE PIERRE AUGUSTIN CARON", "sales": 73, "sales_appt": 7, "sales_maison": 22, "median_price": 222000.0, "median_price_per_sqm": 3197.6744186046512, "turnover_score": 74.5, "turnover_rank": 3, "first_year": 2021, "last_year": 2025, "years_active": 5}}, {"type": "Feature", "geometry": {"type": "Point", "coordinates": [2.6713955, 49.070421499999995]}, "properties": {"street_name": "LA JALAISE", "sales": 54, "sales_appt": 0, "sales_maison": 0, "median_price": 2550000.0, "median_price_per_sqm": null, "turnover_score": 55.1, "turnover_rank": 4, "first_year": 2021, "last_year": 2021, "years_active": 1}}, {"type": "Feature", "geometry": {"type": "Point", "coordinates": [2.665944, 49.077215]}, "properties": {"street_name": "AV DES CHATAIGNIERS", "sales": 39, "sales_appt": 0, "sales_maison": 7, "median_price": 290000.0, "median_price_per_sqm": 3146.067415730337, "turnover_score": 39.8, "turnover_rank": 5, "first_year": 2021, "last_year": 2025, "years_active": 5}}, {"type": "Feature", "geometry": {"type": "Point", "coordinates": [2.66706, 49.074866]}, "properties": {"street_name": "RUE DU SAUT DE LA PIERRE", "sales": 38, "sales_appt": 0, "sales_maison": 6, "median_price": 335800.0, "median_price_per_sqm": 3325.8426966292136, "turnover_score": 38.8, "turnover_rank": 6, "first_year": 2021, "last_year": 2025, "years_active": 5}}, {"type": "Feature", "geometry": {"type": "Point", "coordinates": [2.676629, 49.07483]}, "properties": {"street_name": "RUE DE LA NUIT DU 4 AOUT", "sales": 35, "sales_appt": 13, "sales_maison": 5, "median_price": 196000.0, "median_price_per_sqm": 3716.021825396825, "turnover_score": 35.7, "turnover_rank": 7, "first_year": 2021, "last_year": 2025, "years_active": 5}}, {"type": "Feature", "geometry": {"type": "Point", "coordinates": [2.672176, 49.075752]}, "properties": {"street_name": "RUE DE LA MAIN ENCHANTEE", "sales": 33, "sales_appt": 13, "sales_maison": 3, "median_price": 145000.0, "median_price_per_sqm": 3659.966777408638, "turnover_score": 33.7, "turnover_rank": 8, "first_year": 2021, "last_year": 2025, "years_active": 5}}, {"type": "Feature", "geometry": {"type": "Point", "coordinates": [2.680465, 49.073280499999996]}, "properties": {"street_name": "AV DE LA HERSE D OR", "sales": 32, "sales_appt": 1, "sales_maison": 17, "median_price": 293000.0, "median_price_per_sqm": 3026.096056400088, "turnover_score": 32.7, "turnover_rank": 9, "first_year": 2021, "last_year": 2025, "years_active": 5}}, {"type": "Feature", "geometry": {"type": "Point", "coordinates": [2.672015, 49.082825]}, "properties": {"street_name": "AV DES TROIS ARPENTS", "sales": 29, "sales_appt": 0, "sales_maison": 17, "median_price": 299500.0, "median_price_per_sqm": 2676.190476190476, "turnover_score": 29.6, "turnover_rank": 10, "first_year": 2021, "last_year": 2025, "years_active": 5}}, {"type": "Feature", "geometry": {"type": "Point", "coordinates": [2.664218, 49.078811]}, "properties": {"street_name": "RUE DES PLATINIERES", "sales": 26, "sales_appt": 0, "sales_maison": 6, "median_price": 293000.0, "median_price_per_sqm": 2960.030165912519, "turnover_score": 26.5, "turnover_rank": 11, "first_year": 2022, "last_year": 2025, "years_active": 4}}, {"type": "Feature", "geometry": {"type": "Point", "coordinates": [2.66365, 49.075133]}, "properties": {"street_name": "RUE DU VEAUMOIST", "sales": 23, "sales_appt": 0, "sales_maison": 7, "median_price": 354050.0, "median_price_per_sqm": 2663.793103448276, "turnover_score": 23.5, "turnover_rank": 12, "first_year": 2021, "last_year": 2025, "years_active": 4}}, {"type": "Feature", "geometry": {"type": "Point", "coordinates": [2.670201, 49.079198]}, "properties": {"street_name": "RUE DE LA PIERRE MON CONSEIL", "sales": 21, "sales_appt": 0, "sales_maison": 13, "median_price": 315000.0, "median_price_per_sqm": 3076.923076923077, "turnover_score": 21.4, "turnover_rank": 13, "first_year": 2021, "last_year": 2025, "years_active": 4}}, {"type": "Feature", "geometry": {"type": "Point", "coordinates": [2.634208, 49.09184]}, "properties": {"street_name": "BOIS DE L HOPITAL", "sales": 21, "sales_appt": 0, "sales_maison": 0, "median_price": 2824809.8, "median_price_per_sqm": null, "turnover_score": 21.4, "turnover_rank": 13, "first_year": 2023, "last_year": 2023, "years_active": 1}}, {"type": "Feature", "geometry": {"type": "Point", "coordinates": [2.671821, 49.076036]}, "properties": {"street_name": "RUE DE LA BOHEME GALANTE", "sales": 21, "sales_appt": 0, "sales_maison": 14, "median_price": 275000.0, "median_price_per_sqm": 3294.886363636364, "turnover_score": 21.4, "turnover_rank": 13, "first_year": 2021, "last_year": 2025, "years_active": 5}}, {"type": "Feature", "geometry": {"type": "Point", "coordinates": [2.669112, 49.072859]}, "properties": {"street_name": "AV DE LA LIBERATION", "sales": 20, "sales_appt": 0, "sales_maison": 0, "median_price": 1737589.9, "median_price_per_sqm": 22122.417743755035, "turnover_score": 20.4, "turnover_rank": 14, "first_year": 2022, "last_year": 2024, "years_active": 2}}, {"type": "Feature", "geometry": {"type": "Point", "coordinates": [2.669307, 49.079266]}, "properties": {"street_name": "RUE DE LA FONTAINE BRIDET", "sales": 20, "sales_appt": 2, "sales_maison": 11, "median_price": 284500.0, "median_price_per_sqm": 3033.7078651685392, "turnover_score": 20.4, "turnover_rank": 14, "first_year": 2021, "last_year": 2025, "years_active": 5}}, {"type": "Feature", "geometry": {"type": "Point", "coordinates": [2.669122, 49.077102]}, "properties": {"street_name": "RUE MORIANPRE", "sales": 20, "sales_appt": 0, "sales_maison": 5, "median_price": 294500.0, "median_price_per_sqm": 2356.0, "turnover_score": 20.4, "turnover_rank": 14, "first_year": 2021, "last_year": 2025, "years_active": 5}}, {"type": "Feature", "geometry": {"type": "Point", "coordinates": [2.6635845, 49.07338]}, "properties": {"street_name": "RUE LA PARIERE", "sales": 20, "sales_appt": 0, "sales_maison": 2, "median_price": 335800.0, "median_price_per_sqm": 3162.921348314607, "turnover_score": 20.4, "turnover_rank": 14, "first_year": 2021, "last_year": 2025, "years_active": 4}}, {"type": "Feature", "geometry": {"type": "Point", "coordinates": [2.644531, 49.08124]}, "properties": {"street_name": "RTE DE MOUSSY", "sales": 19, "sales_appt": 1, "sales_maison": 6, "median_price": 363000.0, "median_price_per_sqm": 2409.090909090909, "turnover_score": 19.4, "turnover_rank": 15, "first_year": 2021, "last_year": 2025, "years_active": 2}}, {"type": "Feature", "geometry": {"type": "Point", "coordinates": [2.670091, 49.074974]}, "properties": {"street_name": "AV DE L EUROPE", "sales": 17, "sales_appt": 0, "sales_maison": 15, "median_price": 355000.0, "median_price_per_sqm": 3214.285714285714, "turnover_score": 17.3, "turnover_rank": 16, "first_year": 2021, "last_year": 2025, "years_active": 4}}, {"type": "Feature", "geometry": {"type": "Point", "coordinates": [2.673698, 49.083985]}, "properties": {"street_name": "RUE DE L ACACIA", "sales": 17, "sales_appt": 0, "sales_maison": 11, "median_price": 337000.0, "median_price_per_sqm": 3078.921568627451, "turnover_score": 17.3, "turnover_rank": 16, "first_year": 2021, "last_year": 2025, "years_active": 4}}, {"type": "Feature", "geometry": {"type": "Point", "coordinates": [2.664809, 49.078038]}, "properties": {"street_name": "RUE DES ENTELLES", "sales": 15, "sales_appt": 0, "sales_maison": 5, "median_price": 303000.0, "median_price_per_sqm": 3089.2156862745096, "turnover_score": 15.3, "turnover_rank": 17, "first_year": 2021, "last_year": 2025, "years_active": 5}}, {"type": "Feature", "geometry": {"type": "Point", "coordinates": [2.667985, 49.076186]}, "properties": {"street_name": "RUE MAUREGARD", "sales": 14, "sales_appt": 0, "sales_maison": 6, "median_price": 316450.0, "median_price_per_sqm": 3229.4448116325184, "turnover_score": 14.3, "turnover_rank": 18, "first_year": 2021, "last_year": 2025, "years_active": 5}}, {"type": "Feature", "geometry": {"type": "Point", "coordinates": [2.668729, 49.07632]}, "properties": {"street_name": "RUE DU PETIT RONDEAU", "sales": 14, "sales_appt": 0, "sales_maison": 4, "median_price": 340000.0, "median_price_per_sqm": 2933.2663690476193, "turnover_score": 14.3, "turnover_rank": 18, "first_year": 2021, "last_year": 2025, "years_active": 5}}, {"type": "Feature", "geometry": {"type": "Point", "coordinates": [2.629674, 49.09403]}, "properties": {"street_name": "BOIS BARAT", "sales": 13, "sales_appt": 0, "sales_maison": 0, "median_price": 2824809.8, "median_price_per_sqm": null, "turnover_score": 13.3, "turnover_rank": 19, "first_year": 2023, "last_year": 2023, "years_active": 1}}, {"type": "Feature", "geometry": {"type": "Point", "coordinates": [2.663374, 49.080064]}, "properties": {"street_name": "RUE DU BOIS DE L EGLISE", "sales": 13, "sales_appt": 0, "sales_maison": 4, "median_price": 282000.0, "median_price_per_sqm": 2889.0122811601777, "turnover_score": 13.3, "turnover_rank": 19, "first_year": 2021, "last_year": 2025, "years_active": 5}}, {"type": "Feature", "geometry": {"type": "Point", "coordinates": [2.664396, 49.075317]}, "properties": {"street_name": "RUE DU BOIS BARON", "sales": 12, "sales_appt": 0, "sales_maison": 4, "median_price": 334000.0, "median_price_per_sqm": 2630.3273809523807, "turnover_score": 12.2, "turnover_rank": 20, "first_year": 2021, "last_year": 2025, "years_active": 4}}, {"type": "Feature", "geometry": {"type": "Point", "coordinates": [2.665311, 49.076871]}, "properties": {"street_name": "RUE LA BOULAIE", "sales": 12, "sales_appt": 0, "sales_maison": 3, "median_price": 318225.0, "median_price_per_sqm": 3193.27731092437, "turnover_score": 12.2, "turnover_rank": 20, "first_year": 2022, "last_year": 2025, "years_active": 4}}, {"type": "Feature", "geometry": {"type": "Point", "coordinates": [2.666909, 49.077224]}, "properties": {"street_name": "DEVANT GUINCOURT", "sales": 11, "sales_appt": 0, "sales_maison": 0, "median_price": 320000.0, "median_price_per_sqm": null, "turnover_score": 11.2, "turnover_rank": 21, "first_year": 2021, "last_year": 2025, "years_active": 5}}, {"type": "Feature", "geometry": {"type": "Point", "coordinates": [2.66892, 49.071657]}, "properties": {"street_name": "LA MOLLE PATE", "sales": 11, "sales_appt": 0, "sales_maison": 0, "median_price": 35000.0, "median_price_per_sqm": null, "turnover_score": 11.2, "turnover_rank": 21, "first_year": 2022, "last_year": 2024, "years_active": 3}}, {"type": "Feature", "geometry": {"type": "Point", "coordinates": [2.678234, 49.075399]}, "properties": {"street_name": "RUE D ORCHEUX", "sales": 11, "sales_appt": 1, "sales_maison": 5, "median_price": 245000.0, "median_price_per_sqm": 3905.2795031055903, "turnover_score": 11.2, "turnover_rank": 21, "first_year": 2021, "last_year": 2025, "years_active": 4}}, {"type": "Feature", "geometry": {"type": "Point", "coordinates": [2.67831, 49.074903]}, "properties": {"street_name": "RUE LEO FERRE", "sales": 11, "sales_appt": 0, "sales_maison": 6, "median_price": 425000.0, "median_price_per_sqm": 3079.710144927536, "turnover_score": 11.2, "turnover_rank": 21, "first_year": 2022, "last_year": 2025, "years_active": 3}}, {"type": "Feature", "geometry": {"type": "Point", "coordinates": [2.669936, 49.077155]}, "properties": {"street_name": "RUE DES HAUTES OUIES", "sales": 10, "sales_appt": 0, "sales_maison": 4, "median_price": 332500.0, "median_price_per_sqm": 3010.45357902197, "turnover_score": 10.2, "turnover_rank": 22, "first_year": 2021, "last_year": 2025, "years_active": 5}}, {"type": "Feature", "geometry": {"type": "Point", "coordinates": [2.666364, 49.07556]}, "properties": {"street_name": "RUE DU BORDEAU D OR", "sales": 10, "sales_appt": 0, "sales_maison": 3, "median_price": 332000.0, "median_price_per_sqm": 3182.6923076923076, "turnover_score": 10.2, "turnover_rank": 22, "first_year": 2022, "last_year": 2025, "years_active": 4}}, {"type": "Feature", "geometry": {"type": "Point", "coordinates": [2.663831, 49.077499]}, "properties": {"street_name": "RUE DU JARDIN DE L ETANG", "sales": 10, "sales_appt": 0, "sales_maison": 1, "median_price": 286000.0, "median_price_per_sqm": 3168.5393258426966, "turnover_score": 10.2, "turnover_rank": 22, "first_year": 2022, "last_year": 2025, "years_active": 4}}, {"type": "Feature", "geometry": {"type": "Point", "coordinates": [2.665933, 49.07943]}, "properties": {"street_name": "RUE DU SAULE GOUFFE", "sales": 10, "sales_appt": 0, "sales_maison": 2, "median_price": 309725.0, "median_price_per_sqm": 3530.403172504957, "turnover_score": 10.2, "turnover_rank": 22, "first_year": 2022, "last_year": 2025, "years_active": 4}}, {"type": "Feature", "geometry": {"type": "Point", "coordinates": [2.671675, 49.074417]}, "properties": {"street_name": "AV COLUCHE", "sales": 9, "sales_appt": 0, "sales_maison": 9, "median_price": 255000.0, "median_price_per_sqm": 3487.5, "turnover_score": 9.2, "turnover_rank": 23, "first_year": 2021, "last_year": 2025, "years_active": 4}}, {"type": "Feature", "geometry": {"type": "Point", "coordinates": [2.678747, 49.07483]}, "properties": {"street_name": "RUE MARCEL PAGNOL", "sales": 9, "sales_appt": 0, "sales_maison": 8, "median_price": 437400.0, "median_price_per_sqm": 3318.685493119266, "turnover_score": 9.2, "turnover_rank": 23, "first_year": 2021, "last_year": 2025, "years_active": 3}}, {"type": "Feature", "geometry": {"type": "Point", "coordinates": [2.665266, 49.074545]}, "properties": {"street_name": "RUE DES SEPT SAULES", "sales": 9, "sales_appt": 0, "sales_maison": 4, "median_price": 354050.0, "median_price_per_sqm": 3463.4803921568628, "turnover_score": 9.2, "turnover_rank": 23, "first_year": 2022, "last_year": 2025, "years_active": 3}}, {"type": "Feature", "geometry": {"type": "Point", "coordinates": [2.6773175, 49.077614]}, "properties": {"street_name": "RUE LOUISE MICHEL", "sales": 8, "sales_appt": 0, "sales_maison": 6, "median_price": 282000.0, "median_price_per_sqm": 3319.020866773676, "turnover_score": 8.2, "turnover_rank": 24, "first_year": 2021, "last_year": 2025, "years_active": 4}}, {"type": "Feature", "geometry": {"type": "Point", "coordinates": [2.664539, 49.078945]}, "properties": {"street_name": "RUE DE LA FLAGE", "sales": 8, "sales_appt": 0, "sales_maison": 0, "median_price": 291500.0, "median_price_per_sqm": null, "turnover_score": 8.2, "turnover_rank": 24, "first_year": 2022, "last_year": 2025, "years_active": 4}}, {"type": "Feature", "geometry": {"type": "Point", "coordinates": [2.671701, 49.081467]}, "properties": {"street_name": "RUE DE LA FRICHE", "sales": 8, "sales_appt": 0, "sales_maison": 6, "median_price": 254500.0, "median_price_per_sqm": 2797.752808988764, "turnover_score": 8.2, "turnover_rank": 24, "first_year": 2024, "last_year": 2025, "years_active": 2}}, {"type": "Feature", "geometry": {"type": "Point", "coordinates": [2.677867, 49.0766275]}, "properties": {"street_name": "RUE JEAN GOUJON", "sales": 8, "sales_appt": 0, "sales_maison": 6, "median_price": 271500.0, "median_price_per_sqm": 3549.4702665755294, "turnover_score": 8.2, "turnover_rank": 24, "first_year": 2021, "last_year": 2024, "years_active": 4}}, {"type": "Feature", "geometry": {"type": "Point", "coordinates": [2.6733225000000003, 49.0780075]}, "properties": {"street_name": "RUE DES FILLES DU FEU", "sales": 8, "sales_appt": 0, "sales_maison": 8, "median_price": 286000.0, "median_price_per_sqm": 3429.411764705882, "turnover_score": 8.2, "turnover_rank": 24, "first_year": 2021, "last_year": 2024, "years_active": 3}}, {"type": "Feature", "geometry": {"type": "Point", "coordinates": [2.666587, 49.077432]}, "properties": {"street_name": "RUE CHARLEMONT", "sales": 7, "sales_appt": 0, "sales_maison": 6, "median_price": 320000.0, "median_price_per_sqm": 3297.422339722406, "turnover_score": 7.1, "turnover_rank": 25, "first_year": 2021, "last_year": 2025, "years_active": 4}}, {"type": "Feature", "geometry": {"type": "Point", "coordinates": [2.68086, 49.07384]}, "properties": {"street_name": "RUE DES FROIDS VENTS", "sales": 7, "sales_appt": 2, "sales_maison": 4, "median_price": 352000.0, "median_price_per_sqm": 3832.6005536557564, "turnover_score": 7.1, "turnover_rank": 25, "first_year": 2021, "last_year": 2025, "years_active": 3}}, {"type": "Feature", "geometry": {"type": "Point", "coordinates": [2.674515, 49.079167]}, "properties": {"street_name": "RUE DE LA LYRE D ORPHEE", "sales": 7, "sales_appt": 0, "sales_maison": 6, "median_price": 317000.0, "median_price_per_sqm": 3669.6278089887637, "turnover_score": 7.1, "turnover_rank": 25, "first_year": 2021, "last_year": 2025, "years_active": 5}}, {"type": "Feature", "geometry": {"type": "Point", "coordinates": [2.641826, 49.091617]}, "properties": {"street_name": "LE FOND RONDEAU", "sales": 7, "sales_appt": 0, "sales_maison": 0, "median_price": 2824809.8, "median_price_per_sqm": null, "turnover_score": 7.1, "turnover_rank": 25, "first_year": 2023, "last_year": 2023, "years_active": 1}}, {"type": "Feature", "geometry": {"type": "Point", "coordinates": [2.666502, 49.074386]}, "properties": {"street_name": "RUE DU PRE DU GUE", "sales": 6, "sales_appt": 0, "sales_maison": 1, "median_price": 344925.0, "median_price_per_sqm": 3426.9662921348313, "turnover_score": 6.1, "turnover_rank": 26, "first_year": 2022, "last_year": 2025, "years_active": 3}}, {"type": "Feature", "geometry": {"type": "Point", "coordinates": [2.679472, 49.071677]}, "properties": {"street_name": "RUE DU POIRIER DE PARIS", "sales": 6, "sales_appt": 0, "sales_maison": 2, "median_price": 310000.0, "median_price_per_sqm": 2480.0, "turnover_score": 6.1, "turnover_rank": 26, "first_year": 2023, "last_year": 2025, "years_active": 2}}, {"type": "Feature", "geometry": {"type": "Point", "coordinates": [2.676424, 49.076791]}, "properties": {"street_name": "RUE GEORGES BRASSENS", "sales": 6, "sales_appt": 0, "sales_maison": 3, "median_price": 444000.0, "median_price_per_sqm": 3794.871794871795, "turnover_score": 6.1, "turnover_rank": 26, "first_year": 2021, "last_year": 2024, "years_active": 2}}, {"type": "Feature", "geometry": {"type": "Point", "coordinates": [2.663479, 49.074355]}, "properties": {"street_name": "RUE PLAISANCE", "sales": 6, "sales_appt": 0, "sales_maison": 1, "median_price": 344925.0, "median_price_per_sqm": 3416.6666666666665, "turnover_score": 6.1, "turnover_rank": 26, "first_year": 2021, "last_year": 2025, "years_active": 4}}, {"type": "Feature", "geometry": {"type": "Point", "coordinates": [2.649922, 49.08539]}, "properties": {"street_name": "RUE LOUIS MARGOTTEAU", "sales": 6, "sales_appt": 0, "sales_maison": 3, "median_price": 262500.0, "median_price_per_sqm": 3411.1111111111113, "turnover_score": 6.1, "turnover_rank": 26, "first_year": 2021, "last_year": 2025, "years_active": 3}}, {"type": "Feature", "geometry": {"type": "Point", "coordinates": [2.6781315, 49.073097000000004]}, "properties": {"street_name": "RUE JEAN BAPTISTE CLEMENT", "sales": 6, "sales_appt": 0, "sales_maison": 3, "median_price": 319000.0, "median_price_per_sqm": 2935.7798165137615, "turnover_score": 6.1, "turnover_rank": 26, "first_year": 2022, "last_year": 2025, "years_active": 3}}, {"type": "Feature", "geometry": {"type": "Point", "coordinates": [2.672434, 49.081545500000004]}, "properties": {"street_name": "RUE DU BOIS BARAT", "sales": 6, "sales_appt": 0, "sales_maison": 4, "median_price": 305000.0, "median_price_per_sqm": 3151.5783841626535, "turnover_score": 6.1, "turnover_rank": 26, "first_year": 2021, "last_year": 2025, "years_active": 3}}, {"type": "Feature", "geometry": {"type": "Point", "coordinates": [2.663172, 49.079857]}, "properties": {"street_name": "RUE DE LA MARE SAINT EUSTACHE", "sales": 6, "sales_appt": 0, "sales_maison": 2, "median_price": 275000.0, "median_price_per_sqm": 2696.078431372549, "turnover_score": 6.1, "turnover_rank": 26, "first_year": 2025, "last_year": 2025, "years_active": 1}}, {"type": "Feature", "geometry": {"type": "Point", "coordinates": [2.6698779999999998, 49.0813015]}, "properties": {"street_name": "RUE DES CLOS", "sales": 6, "sales_appt": 0, "sales_maison": 5, "median_price": 321500.0, "median_price_per_sqm": 2620.967741935484, "turnover_score": 6.1, "turnover_rank": 26, "first_year": 2021, "last_year": 2025, "years_active": 4}}, {"type": "Feature", "geometry": {"type": "Point", "coordinates": [2.663172, 49.079857]}, "properties": {"street_name": "RUE DE LA MARE ST EUSTACHE", "sales": 6, "sales_appt": 0, "sales_maison": 2, "median_price": 326450.0, "median_price_per_sqm": 3371.178846689572, "turnover_score": 6.1, "turnover_rank": 26, "first_year": 2022, "last_year": 2024, "years_active": 3}}, {"type": "Feature", "geometry": {"type": "Point", "coordinates": [2.671049, 49.0761805]}, "properties": {"street_name": "RUE DES CHIMERES", "sales": 6, "sales_appt": 0, "sales_maison": 6, "median_price": 365000.0, "median_price_per_sqm": 2838.603425559947, "turnover_score": 6.1, "turnover_rank": 26, "first_year": 2021, "last_year": 2025, "years_active": 3}}, {"type": "Feature", "geometry": {"type": "Point", "coordinates": [2.6805849999999998, 49.081001]}, "properties": {"street_name": "LE MOULIN", "sales": 6, "sales_appt": 0, "sales_maison": 0, "median_price": 108000.0, "median_price_per_sqm": null, "turnover_score": 6.1, "turnover_rank": 26, "first_year": 2021, "last_year": 2024, "years_active": 3}}, {"type": "Feature", "geometry": {"type": "Point", "coordinates": [2.6735794999999998, 49.071247]}, "properties": {"street_name": "AV DU PETIT CHAALIS", "sales": 6, "sales_appt": 0, "sales_maison": 5, "median_price": 312500.0, "median_price_per_sqm": 3426.9662921348313, "turnover_score": 6.1, "turnover_rank": 26, "first_year": 2021, "last_year": 2025, "years_active": 3}}, {"type": "Feature", "geometry": {"type": "Point", "coordinates": [2.6329890000000002, 49.1044735]}, "properties": {"street_name": "LES ANTELLES", "sales": 6, "sales_appt": 0, "sales_maison": 0, "median_price": 2824809.8, "median_price_per_sqm": null, "turnover_score": 6.1, "turnover_rank": 26, "first_year": 2023, "last_year": 2023, "years_active": 1}}, {"type": "Feature", "geometry": {"type": "Point", "coordinates": [2.678861, 49.076942]}, "properties": {"street_name": "AV SAINTE-OPPORTUNE", "sales": 5, "sales_appt": 0, "sales_maison": 2, "median_price": 225000.0, "median_price_per_sqm": 3008.5470085470088, "turnover_score": 5.1, "turnover_rank": 27, "first_year": 2022, "last_year": 2025, "years_active": 3}}, {"type": "Feature", "geometry": {"type": "Point", "coordinates": [2.682015, 49.072622]}, "properties": {"street_name": "RUE DE LA MARE A MADAME", "sales": 5, "sales_appt": 1, "sales_maison": 2, "median_price": 285000.0, "median_price_per_sqm": 2693.877551020408, "turnover_score": 5.1, "turnover_rank": 27, "first_year": 2021, "last_year": 2025, "years_active": 2}}, {"type": "Feature", "geometry": {"type": "Point", "coordinates": [2.671724, 49.078898]}, "properties": {"street_name": "RUE DE L ECHARPE D IRIS", "sales": 5, "sales_appt": 0, "sales_maison": 5, "median_price": 332000.0, "median_price_per_sqm": 3732.9545454545455, "turnover_score": 5.1, "turnover_rank": 27, "first_year": 2021, "last_year": 2025, "years_active": 4}}, {"type": "Feature", "geometry": {"type": "Point", "coordinates": [2.654233, 49.084825]}, "properties": {"street_name": "RUE JOSEPH DIEUX", "sales": 5, "sales_appt": 0, "sales_maison": 1, "median_price": 250000.0, "median_price_per_sqm": 2976.190476190476, "turnover_score": 5.1, "turnover_rank": 27, "first_year": 2022, "last_year": 2022, "years_active": 1}}, {"type": "Feature", "geometry": {"type": "Point", "coordinates": [2.650971, 49.085261]}, "properties": {"street_name": "RUE DES SUISSES", "sales": 5, "sales_appt": 1, "sales_maison": 2, "median_price": 660000.0, "median_price_per_sqm": 6111.111111111111, "turnover_score": 5.1, "turnover_rank": 27, "first_year": 2022, "last_year": 2022, "years_active": 1}}, {"type": "Feature", "geometry": {"type": "Point", "coordinates": [2.671976, 49.070572]}, "properties": {"street_name": "RUE DE LA MARE LORILLARD", "sales": 5, "sales_appt": 0, "sales_maison": 3, "median_price": 286000.0, "median_price_per_sqm": 2745.098039215686, "turnover_score": 5.1, "turnover_rank": 27, "first_year": 2021, "last_year": 2025, "years_active": 3}}, {"type": "Feature", "geometry": {"type": "Point", "coordinates": [2.674277, 49.0752445]}, "properties": {"street_name": "JARDINS DES CHATAIGNIERS", "sales": 4, "sales_appt": 0, "sales_maison": 0, "median_price": 15000.0, "median_price_per_sqm": null, "turnover_score": 4.1, "turnover_rank": 28, "first_year": 2022, "last_year": 2022, "years_active": 1}}, {"type": "Feature", "geometry": {"type": "Point", "coordinates": [2.675707, 49.070737]}, "properties": {"street_name": "RUE DE LA MOTTELETTE", "sales": 4, "sales_appt": 0, "sales_maison": 3, "median_price": 352500.0, "median_price_per_sqm": 2836.5384615384614, "turnover_score": 4.1, "turnover_rank": 28, "first_year": 2024, "last_year": 2025, "years_active": 2}}, {"type": "Feature", "geometry": {"type": "Point", "coordinates": [2.636212, 49.100481]}, "properties": {"street_name": "SAINT LAURENT", "sales": 4, "sales_appt": 0, "sales_maison": 0, "median_price": 2824809.8, "median_price_per_sqm": null, "turnover_score": 4.1, "turnover_rank": 28, "first_year": 2023, "last_year": 2023, "years_active": 1}}, {"type": "Feature", "geometry": {"type": "Point", "coordinates": [2.635718, 49.084648]}, "properties": {"street_name": "LES HEURTREAUX", "sales": 3, "sales_appt": 0, "sales_maison": 0, "median_price": 2824809.8, "median_price_per_sqm": null, "turnover_score": 3.1, "turnover_rank": 29, "first_year": 2023, "last_year": 2023, "years_active": 1}}, {"type": "Feature", "geometry": {"type": "Point", "coordinates": [2.670119, 49.082436]}, "properties": {"street_name": "RUE DE LA CALUETTE", "sales": 3, "sales_appt": 0, "sales_maison": 1, "median_price": 297000.0, "median_price_per_sqm": 2828.5714285714284, "turnover_score": 3.1, "turnover_rank": 29, "first_year": 2021, "last_year": 2021, "years_active": 1}}, {"type": "Feature", "geometry": {"type": "Point", "coordinates": [2.649146, 49.083421]}, "properties": {"street_name": "CHE DES CLOS", "sales": 3, "sales_appt": 1, "sales_maison": 1, "median_price": 282000.0, "median_price_per_sqm": 2604.7537368292087, "turnover_score": 3.1, "turnover_rank": 29, "first_year": 2025, "last_year": 2025, "years_active": 1}}, {"type": "Feature", "geometry": {"type": "Point", "coordinates": [2.688055, 49.078305]}, "properties": {"street_name": "LE POIRIER DE PARIS", "sales": 3, "sales_appt": 0, "sales_maison": 0, "median_price": 1950.0, "median_price_per_sqm": null, "turnover_score": 3.1, "turnover_rank": 29, "first_year": 2022, "last_year": 2025, "years_active": 2}}, {"type": "Feature", "geometry": {"type": "Point", "coordinates": [2.673605, 49.08084]}, "properties": {"street_name": "RUE DES USELLES", "sales": 3, "sales_appt": 0, "sales_maison": 2, "median_price": 271000.0, "median_price_per_sqm": 3106.741573033708, "turnover_score": 3.1, "turnover_rank": 29, "first_year": 2021, "last_year": 2022, "years_active": 2}}, {"type": "Feature", "geometry": {"type": "Point", "coordinates": [2.671014, 49.074274]}, "properties": {"street_name": "RUE DE VALMY", "sales": 3, "sales_appt": 0, "sales_maison": 3, "median_price": 270000.0, "median_price_per_sqm": 3068.181818181818, "turnover_score": 3.1, "turnover_rank": 29, "first_year": 2021, "last_year": 2024, "years_active": 3}}, {"type": "Feature", "geometry": {"type": "Point", "coordinates": [2.670731, 49.07517]}, "properties": {"street_name": "RUE EMILE ZOLA", "sales": 3, "sales_appt": 0, "sales_maison": 3, "median_price": 279000.0, "median_price_per_sqm": 3320.0, "turnover_score": 3.1, "turnover_rank": 29, "first_year": 2022, "last_year": 2025, "years_active": 3}}, {"type": "Feature", "geometry": {"type": "Point", "coordinates": [2.6810929999999997, 49.071872]}, "properties": {"street_name": "RUE DES HEURTREAUX", "sales": 2, "sales_appt": 0, "sales_maison": 1, "median_price": 380679.44, "median_price_per_sqm": 3806.7944, "turnover_score": 2.0, "turnover_rank": 30, "first_year": 2022, "last_year": 2022, "years_active": 1}}, {"type": "Feature", "geometry": {"type": "Point", "coordinates": [2.6776704999999996, 49.0782795]}, "properties": {"street_name": "RUE PIERRE ET MARIE CURIE", "sales": 2, "sales_appt": 1, "sales_maison": 1, "median_price": 265000.0, "median_price_per_sqm": 3935.3099730458216, "turnover_score": 2.0, "turnover_rank": 30, "first_year": 2021, "last_year": 2023, "years_active": 2}}, {"type": "Feature", "geometry": {"type": "Point", "coordinates": [2.6723429999999997, 49.0721655]}, "properties": {"street_name": "RUE DU BOIS DES NOUETTES", "sales": 2, "sales_appt": 0, "sales_maison": 2, "median_price": 306500.0, "median_price_per_sqm": 2915.57734204793, "turnover_score": 2.0, "turnover_rank": 30, "first_year": 2024, "last_year": 2025, "years_active": 2}}, {"type": "Feature", "geometry": {"type": "Point", "coordinates": [2.674212, 49.0735015]}, "properties": {"street_name": "RUE DU 19 MARS 1962", "sales": 2, "sales_appt": 0, "sales_maison": 0, "median_price": 92500.0, "median_price_per_sqm": 2636.3636363636365, "turnover_score": 2.0, "turnover_rank": 30, "first_year": 2021, "last_year": 2023, "years_active": 2}}, {"type": "Feature", "geometry": {"type": "Point", "coordinates": [2.6703010000000003, 49.0792735]}, "properties": {"street_name": "RUE DU SAUT MIGNOT", "sales": 2, "sales_appt": 0, "sales_maison": 2, "median_price": 284650.0, "median_price_per_sqm": 2926.7930274073296, "turnover_score": 2.0, "turnover_rank": 30, "first_year": 2021, "last_year": 2024, "years_active": 2}}, {"type": "Feature", "geometry": {"type": "Point", "coordinates": [2.6674059999999997, 49.080417]}, "properties": {"street_name": "RUE DU POTEAU ROUGE", "sales": 2, "sales_appt": 0, "sales_maison": 2, "median_price": 261000.0, "median_price_per_sqm": 2741.407799074686, "turnover_score": 2.0, "turnover_rank": 30, "first_year": 2025, "last_year": 2025, "years_active": 1}}, {"type": "Feature", "geometry": {"type": "Point", "coordinates": [2.674021, 49.08317]}, "properties": {"street_name": "RUE SAINT NICOLAS", "sales": 2, "sales_appt": 0, "sales_maison": 1, "median_price": 338000.0, "median_price_per_sqm": 3281.5533980582522, "turnover_score": 2.0, "turnover_rank": 30, "first_year": 2022, "last_year": 2022, "years_active": 1}}, {"type": "Feature", "geometry": {"type": "Point", "coordinates": [2.668291, 49.075051]}, "properties": {"street_name": "RUE LES CROIX", "sales": 2, "sales_appt": 0, "sales_maison": 2, "median_price": 316000.0, "median_price_per_sqm": 2507.936507936508, "turnover_score": 2.0, "turnover_rank": 30, "first_year": 2021, "last_year": 2021, "years_active": 1}}, {"type": "Feature", "geometry": {"type": "Point", "coordinates": [2.670777, 49.091239]}, "properties": {"street_name": "PONTEUX", "sales": 2, "sales_appt": 0, "sales_maison": 0, "median_price": 1500.0, "median_price_per_sqm": null, "turnover_score": 2.0, "turnover_rank": 30, "first_year": 2024, "last_year": 2024, "years_active": 1}}, {"type": "Feature", "geometry": {"type": "Point", "coordinates": [2.673195, 49.072867]}, "properties": {"street_name": "RUE DE LA MOLLE PATE", "sales": 2, "sales_appt": 0, "sales_maison": 1, "median_price": 370000.0, "median_price_per_sqm": 2402.5974025974024, "turnover_score": 2.0, "turnover_rank": 30, "first_year": 2022, "last_year": 2022, "years_active": 1}}, {"type": "Feature", "geometry": {"type": "Point", "coordinates": [2.673452, 49.07002]}, "properties": {"street_name": "RUE DE LA PERNELLE", "sales": 2, "sales_appt": 0, "sales_maison": 1, "median_price": 255000.0, "median_price_per_sqm": 1634.6153846153845, "turnover_score": 2.0, "turnover_rank": 30, "first_year": 2025, "last_year": 2025, "years_active": 1}}, {"type": "Feature", "geometry": {"type": "Point", "coordinates": [2.6818805, 49.075243]}, "properties": {"street_name": "RUE DE LA SENTE D EVE", "sales": 2, "sales_appt": 0, "sales_maison": 2, "median_price": 334000.0, "median_price_per_sqm": 3036.4145658263305, "turnover_score": 2.0, "turnover_rank": 30, "first_year": 2021, "last_year": 2022, "years_active": 2}}, {"type": "Feature", "geometry": {"type": "Point", "coordinates": [2.6713115, 49.0720945]}, "properties": {"street_name": "RUE DES FABLES", "sales": 2, "sales_appt": 0, "sales_maison": 0, "median_price": 1.0, "median_price_per_sqm": null, "turnover_score": 2.0, "turnover_rank": 30, "first_year": 2022, "last_year": 2022, "years_active": 1}}, {"type": "Feature", "geometry": {"type": "Point", "coordinates": [2.651205, 49.085845]}, "properties": {"street_name": "PLAISANCE", "sales": 1, "sales_appt": 0, "sales_maison": 0, "median_price": 660000.0, "median_price_per_sqm": null, "turnover_score": 1.0, "turnover_rank": 31, "first_year": 2022, "last_year": 2022, "years_active": 1}}, {"type": "Feature", "geometry": {"type": "Point", "coordinates": [2.674923, 49.073041]}, "properties": {"street_name": "PL DE LA REVOLUTION FRANCAISE", "sales": 1, "sales_appt": 0, "sales_maison": 0, "median_price": 1080.0, "median_price_per_sqm": null, "turnover_score": 1.0, "turnover_rank": 31, "first_year": 2022, "last_year": 2022, "years_active": 1}}, {"type": "Feature", "geometry": {"type": "Point", "coordinates": [2.644178, 49.081448]}, "properties": {"street_name": "LES JARDINS DE L ETANG", "sales": 1, "sales_appt": 0, "sales_maison": 0, "median_price": 424000.0, "median_price_per_sqm": null, "turnover_score": 1.0, "turnover_rank": 31, "first_year": 2021, "last_year": 2021, "years_active": 1}}, {"type": "Feature", "geometry": {"type": "Point", "coordinates": [2.67853, 49.070665]}, "properties": {"street_name": "LES HUANTS", "sales": 1, "sales_appt": 0, "sales_maison": 0, "median_price": 23000.0, "median_price_per_sqm": null, "turnover_score": 1.0, "turnover_rank": 31, "first_year": 2022, "last_year": 2022, "years_active": 1}}, {"type": "Feature", "geometry": {"type": "Point", "coordinates": [2.648996, 49.091864]}, "properties": {"street_name": "LE BOIS DE L EGLISE", "sales": 1, "sales_appt": 0, "sales_maison": 0, "median_price": 2824809.8, "median_price_per_sqm": null, "turnover_score": 1.0, "turnover_rank": 31, "first_year": 2023, "last_year": 2023, "years_active": 1}}, {"type": "Feature", "geometry": {"type": "Point", "coordinates": [2.690773, 49.072126]}, "properties": {"street_name": "LE BORDEAU D ORCHEUX", "sales": 1, "sales_appt": 0, "sales_maison": 0, "median_price": 20000.0, "median_price_per_sqm": null, "turnover_score": 1.0, "turnover_rank": 31, "first_year": 2025, "last_year": 2025, "years_active": 1}}, {"type": "Feature", "geometry": {"type": "Point", "coordinates": [2.646235, 49.088263]}, "properties": {"street_name": "LE PETIT FOND RONDEAU", "sales": 1, "sales_appt": 0, "sales_maison": 0, "median_price": 3000.0, "median_price_per_sqm": null, "turnover_score": 1.0, "turnover_rank": 31, "first_year": 2022, "last_year": 2022, "years_active": 1}}, {"type": "Feature", "geometry": {"type": "Point", "coordinates": [2.661981, 49.075134]}, "properties": {"street_name": "LE PRE CALET", "sales": 1, "sales_appt": 0, "sales_maison": 0, "median_price": 20000.0, "median_price_per_sqm": null, "turnover_score": 1.0, "turnover_rank": 31, "first_year": 2021, "last_year": 2021, "years_active": 1}}, {"type": "Feature", "geometry": {"type": "Point", "coordinates": [2.678316, 49.071191]}, "properties": {"street_name": "CHE DES GROS POIRIERS", "sales": 1, "sales_appt": 0, "sales_maison": 1, "median_price": 354080.0, "median_price_per_sqm": 4023.6363636363635, "turnover_score": 1.0, "turnover_rank": 31, "first_year": 2021, "last_year": 2021, "years_active": 1}}, {"type": "Feature", "geometry": {"type": "Point", "coordinates": [2.678519, 49.077199]}, "properties": {"street_name": "FROID VENT", "sales": 1, "sales_appt": 0, "sales_maison": 0, "median_price": 230000.0, "median_price_per_sqm": null, "turnover_score": 1.0, "turnover_rank": 31, "first_year": 2022, "last_year": 2022, "years_active": 1}}, {"type": "Feature", "geometry": {"type": "Point", "coordinates": [2.650485, 49.083001]}, "properties": {"street_name": "BEAUMARCHAIS", "sales": 1, "sales_appt": 0, "sales_maison": 0, "median_price": 15000.0, "median_price_per_sqm": null, "turnover_score": 1.0, "turnover_rank": 31, "first_year": 2023, "last_year": 2023, "years_active": 1}}, {"type": "Feature", "geometry": {"type": "Point", "coordinates": [2.682668, 49.074693]}, "properties": {"street_name": "RUE DU CLOS CHAMPAGNE", "sales": 1, "sales_appt": 0, "sales_maison": 1, "median_price": 323000.0, "median_price_per_sqm": 3166.6666666666665, "turnover_score": 1.0, "turnover_rank": 31, "first_year": 2023, "last_year": 2023, "years_active": 1}}, {"type": "Feature", "geometry": {"type": "Point", "coordinates": [2.678148, 49.072607]}, "properties": {"street_name": "RUE ELSA TRIOLET", "sales": 1, "sales_appt": 0, "sales_maison": 1, "median_price": 347000.0, "median_price_per_sqm": 3304.7619047619046, "turnover_score": 1.0, "turnover_rank": 31, "first_year": 2021, "last_year": 2021, "years_active": 1}}, {"type": "Feature", "geometry": {"type": "Point", "coordinates": [2.675211, 49.071387]}, "properties": {"street_name": "RUE DU VIEUX MOULIN", "sales": 1, "sales_appt": 0, "sales_maison": 1, "median_price": 312000.0, "median_price_per_sqm": 3586.206896551724, "turnover_score": 1.0, "turnover_rank": 31, "first_year": 2022, "last_year": 2022, "years_active": 1}}, {"type": "Feature", "geometry": {"type": "Point", "coordinates": [2.670411, 49.074622]}, "properties": {"street_name": "RUE SIMONE DE BEAUVOIR", "sales": 1, "sales_appt": 0, "sales_maison": 1, "median_price": 310000.0, "median_price_per_sqm": 2583.3333333333335, "turnover_score": 1.0, "turnover_rank": 31, "first_year": 2023, "last_year": 2023, "years_active": 1}}, {"type": "Feature", "geometry": {"type": "Point", "coordinates": [2.677055, 49.069582]}, "properties": {"street_name": "RUE SIMONE VEIL", "sales": 1, "sales_appt": 0, "sales_maison": 0, "median_price": 100000.0, "median_price_per_sqm": null, "turnover_score": 1.0, "turnover_rank": 31, "first_year": 2022, "last_year": 2022, "years_active": 1}}]}