{"type": "FeatureCollection", "features": [{"type": "Feature", "geometry": {"type": "Point", "coordinates": [2.70745, 49.012381]}, "properties": {"id_parcelle": "772410000B1167", "address": "9 RUE BARRE", "sales": 60, "median_price": 181000.0, "median_price_per_sqm": 2691.6666666666665, "median_rooms": 0.0, "first_sale": "2021-10-06", "last_sale": "2025-12-22"}}, {"type": "Feature", "geometry": {"type": "Point", "coordinates": [2.701389, 49.014944]}, "properties": {"id_parcelle": "772410000B0985", "address": "2 RUE DES CHARDONNERETS", "sales": 24, "median_price": 231857.5, "median_price_per_sqm": 3000.0, "median_rooms": 0.0, "first_sale": "2021-06-25", "last_sale": "2025-11-03"}}, {"type": "Feature", "geometry": {"type": "Point", "coordinates": [2.705667, 49.011237]}, "properties": {"id_parcelle": "772410000B1269", "address": "7 RUE BARRE", "sales": 20, "median_price": 4600000.0, "median_price_per_sqm": 108611.11111111111, "median_rooms": 2.0, "first_sale": "2021-10-06", "last_sale": "2021-10-06"}}, {"type": "Feature", "geometry": {"type": "Point", "coordinates": [2.705619, 49.013599]}, "properties": {"id_parcelle": "772410000B0601", "address": "2 RUE SAINT LOUIS", "sales": 9, "median_price": 300000.0, "median_price_per_sqm": 8033.826638477801, "median_rooms": 0.0, "first_sale": "2021-07-29", "last_sale": "2021-07-29"}}, {"type": "Feature", "geometry": {"type": "Point", "coordinates": [2.702307, 49.015417]}, "properties": {"id_parcelle": "772410000B0996", "address": "6 RUE DES FAUVETTES", "sales": 9, "median_price": 210000.0, "median_price_per_sqm": 3578.125, "median_rooms": 0.0, "first_sale": "2021-10-23", "last_sale": "2025-06-30"}}, {"type": "Feature", "geometry": {"type": "Point", "coordinates": [2.705622, 49.012951]}, "properties": {"id_parcelle": "772410000B1173", "address": "5 RUE SAINT LOUIS", "sales": 6, "median_price": 820000.0, "median_price_per_sqm": 18222.222222222223, "median_rooms": 1.0, "first_sale": "2022-11-30", "last_sale": "2022-11-30"}}, {"type": "Feature", "geometry": {"type": "Point", "coordinates": [2.702152, 49.010415]}, "properties": {"id_parcelle": "772410000B0856", "address": "19 RUE DE LA ROCHELLE", "sales": 6, "median_price": 335000.0, "median_price_per_sqm": 3705.5555555555557, "median_rooms": 4.0, "first_sale": "2021-03-19", "last_sale": "2025-03-27"}}, {"type": "Feature", "geometry": {"type": "Point", "coordinates": [2.705705, 49.017297]}, "properties": {"id_parcelle": "772410000B0806", "address": "10 RUE DE SAINT MARD", "sales": 4, "median_price": 482200.0, "median_price_per_sqm": 4423.853211009175, "median_rooms": 3.0, "first_sale": "2023-05-02", "last_sale": "2023-05-02"}}, {"type": "Feature", "geometry": {"type": "Point", "coordinates": [2.703575, 49.01693]}, "properties": {"id_parcelle": "772410000B0724", "address": "4 ALL DU STADE", "sales": 4, "median_price": 388000.0, "median_price_per_sqm": 3031.25, "median_rooms": 2.0, "first_sale": "2021-10-14", "last_sale": "2021-10-14"}}, {"type": "Feature", "geometry": {"type": "Point", "coordinates": [2.70771, 49.014555]}, "properties": {"id_parcelle": "772410000B0120", "address": "12 RUE PAUL FUAN", "sales": 4, "median_price": 481000.0, "median_price_per_sqm": 4219.298245614035, "median_rooms": 3.5, "first_sale": "2023-05-19", "last_sale": "2023-05-19"}}, {"type": "Feature", "geometry": {"type": "Point", "coordinates": [2.706644, 49.014978]}, "properties": {"id_parcelle": "772410000B0658", "address": "18 RUE DU ROSSIGNOL", "sales": 4, "median_price": 350000.0, "median_price_per_sqm": 4375.0, "median_rooms": 3.0, "first_sale": "2024-06-24", "last_sale": "2024-06-24"}}, {"type": "Feature", "geometry": {"type": "Point", "coordinates": [2.706295, 49.01215]}, "properties": {"id_parcelle": "772410000B1265", "address": "7 RUE BARRE", "sales": 4, "median_price": 2500000.0, "median_price_per_sqm": 19622.04462204462, "median_rooms": 5.5, "first_sale": "2021-10-06", "last_sale": "2025-10-30"}}, {"type": "Feature", "geometry": {"type": "Point", "coordinates": [2.705998, 49.020462]}, "properties": {"id_parcelle": "77241000AB0120", "address": "55 RUE DES ROSES", "sales": 4, "median_price": 450000.0, "median_price_per_sqm": 3333.3333333333335, "median_rooms": 3.0, "first_sale": "2021-08-30", "last_sale": "2021-08-30"}}, {"type": "Feature", "geometry": {"type": "Point", "coordinates": [2.707093, 49.014825]}, "properties": {"id_parcelle": "772410000B0541", "address": "2 RUE PAUL FUAN", "sales": 4, "median_price": 288000.0, "median_price_per_sqm": 3350.0, "median_rooms": 2.0, "first_sale": "2021-02-25", "last_sale": "2024-07-19"}}, {"type": "Feature", "geometry": {"type": "Point", "coordinates": [2.705516, 49.013632]}, "properties": {"id_parcelle": "772410000B0602", "address": "2 RUE PIERRE LOYER", "sales": 3, "median_price": 134500.0, "median_price_per_sqm": 1913.9705882352941, "median_rooms": 2.0, "first_sale": "2021-11-15", "last_sale": "2022-06-20"}}, {"type": "Feature", "geometry": {"type": "Point", "coordinates": [2.70658, 49.015183]}, "properties": {"id_parcelle": "772410000B0076", "address": "15 RUE DU ROSSIGNOL", "sales": 2, "median_price": 336000.0, "median_price_per_sqm": 2800.0, "median_rooms": 2.5, "first_sale": "2025-09-12", "last_sale": "2025-09-12"}}, {"type": "Feature", "geometry": {"type": "Point", "coordinates": [2.705983, 49.013766]}, "properties": {"id_parcelle": "772410000B0166", "address": "39 RUE PIERRE LOYER", "sales": 2, "median_price": 218000.0, "median_price_per_sqm": 2759.9358974358975, "median_rooms": 2.0, "first_sale": "2022-07-27", "last_sale": "2022-07-27"}}, {"type": "Feature", "geometry": {"type": "Point", "coordinates": [2.704673, 49.011683]}, "properties": {"id_parcelle": "772410000B0208", "address": "18 RUE BARRE", "sales": 2, "median_price": 87500.0, "median_price_per_sqm": 866.3366336633663, "median_rooms": 2.0, "first_sale": "2024-12-09", "last_sale": "2024-12-09"}}, {"type": "Feature", "geometry": {"type": "Point", "coordinates": [2.706827, 49.016694]}, "properties": {"id_parcelle": "772410000B0350", "address": "26 RUE DE LA LOUVIERE", "sales": 2, "median_price": 160000.0, "median_price_per_sqm": 1777.7777777777778, "median_rooms": 2.0, "first_sale": "2025-10-27", "last_sale": "2025-10-27"}}, {"type": "Feature", "geometry": {"type": "Point", "coordinates": [2.706451, 49.014962]}, "properties": {"id_parcelle": "772410000B0139", "address": "LA PORTE DE MEAUX", "sales": 2, "median_price": 220000.0, "median_price_per_sqm": null, "median_rooms": null, "first_sale": "2024-06-24", "last_sale": "2025-09-19"}}, {"type": "Feature", "geometry": {"type": "Point", "coordinates": [2.703802, 49.017463]}, "properties": {"id_parcelle": "772410000B0712", "address": "2 RUE DU GRAND PRE", "sales": 2, "median_price": 350000.0, "median_price_per_sqm": 3398.0582524271845, "median_rooms": 5.0, "first_sale": "2023-09-05", "last_sale": "2023-09-05"}}, {"type": "Feature", "geometry": {"type": "Point", "coordinates": [2.704925, 49.014867]}, "properties": {"id_parcelle": "772410000B0683", "address": "22 RUE PIERRE LOYER", "sales": 2, "median_price": 227500.0, "median_price_per_sqm": 3500.0, "median_rooms": 4.0, "first_sale": "2021-07-29", "last_sale": "2024-12-20"}}, {"type": "Feature", "geometry": {"type": "Point", "coordinates": [2.703786, 49.009872]}, "properties": {"id_parcelle": "772410000B0651", "address": "8 RUE DU CHEMIN DE NANTOUILLET", "sales": 2, "median_price": 237000.0, "median_price_per_sqm": 4157.894736842105, "median_rooms": 1.5, "first_sale": "2024-09-27", "last_sale": "2024-09-27"}}, {"type": "Feature", "geometry": {"type": "Point", "coordinates": [2.701001, 49.010849]}, "properties": {"id_parcelle": "772410000B0382", "address": "22 RUE DE LA ROCHELLE", "sales": 2, "median_price": 375000.0, "median_price_per_sqm": 4629.62962962963, "median_rooms": 6.0, "first_sale": "2022-10-27", "last_sale": "2022-10-27"}}, {"type": "Feature", "geometry": {"type": "Point", "coordinates": [2.702069, 49.010905]}, "properties": {"id_parcelle": "772410000B0387", "address": "12 RUE DE LA ROCHELLE", "sales": 2, "median_price": 313500.0, "median_price_per_sqm": 4478.571428571428, "median_rooms": 5.0, "first_sale": "2023-02-14", "last_sale": "2023-02-14"}}, {"type": "Feature", "geometry": {"type": "Point", "coordinates": [2.703206, 49.011046]}, "properties": {"id_parcelle": "772410000B0392", "address": "2 RUE DE LA ROCHELLE", "sales": 2, "median_price": 200000.0, "median_price_per_sqm": 3125.0, "median_rooms": 4.0, "first_sale": "2022-10-25", "last_sale": "2022-10-25"}}, {"type": "Feature", "geometry": {"type": "Point", "coordinates": [2.704784, 49.01201]}, "properties": {"id_parcelle": "772410000B0396", "address": "3 RUE SAINTE MARIE", "sales": 2, "median_price": 242500.0, "median_price_per_sqm": 3031.25, "median_rooms": 1.5, "first_sale": "2022-09-30", "last_sale": "2022-09-30"}}, {"type": "Feature", "geometry": {"type": "Point", "coordinates": [2.706611, 49.013739]}, "properties": {"id_parcelle": "772410000B0477", "address": "47 RUE PIERRE LOYER", "sales": 2, "median_price": 180000.0, "median_price_per_sqm": 2400.0, "median_rooms": 1.0, "first_sale": "2021-10-07", "last_sale": "2021-10-07"}}, {"type": "Feature", "geometry": {"type": "Point", "coordinates": [2.703652, 49.008538]}, "properties": {"id_parcelle": "772410000B0341", "address": "7 RUE DU CHEMIN DE NANTOUILLET", "sales": 2, "median_price": 271000.0, "median_price_per_sqm": 2042.2248803827752, "median_rooms": 6.0, "first_sale": "2022-05-06", "last_sale": "2022-05-06"}}, {"type": "Feature", "geometry": {"type": "Point", "coordinates": [2.706448, 49.014271]}, "properties": {"id_parcelle": "772410000B0889", "address": "RUE PIERRE LOYER", "sales": 2, "median_price": 12000.0, "median_price_per_sqm": null, "median_rooms": null, "first_sale": "2022-07-27", "last_sale": "2022-07-27"}}, {"type": "Feature", "geometry": {"type": "Point", "coordinates": [2.701618, 49.010089]}, "properties": {"id_parcelle": "772410000B0859", "address": "25 RUE DE LA ROCHELLE", "sales": 2, "median_price": 524000.0, "median_price_per_sqm": 3939.8496240601503, "median_rooms": 6.0, "first_sale": "2022-12-20", "last_sale": "2022-12-20"}}, {"type": "Feature", "geometry": {"type": "Point", "coordinates": [2.70196, 49.014789]}, "properties": {"id_parcelle": "772410000B0990", "address": "3 RUE DES CHARDONNERETS", "sales": 2, "median_price": 296000.0, "median_price_per_sqm": 3217.391304347826, "median_rooms": 2.0, "first_sale": "2024-10-29", "last_sale": "2024-10-29"}}, {"type": "Feature", "geometry": {"type": "Point", "coordinates": [2.702803, 49.013473]}, "properties": {"id_parcelle": "772410000B0974", "address": "8 RUE DU GERFAUT", "sales": 2, "median_price": 350000.0, "median_price_per_sqm": 4375.0, "median_rooms": 4.0, "first_sale": "2022-10-13", "last_sale": "2022-10-13"}}, {"type": "Feature", "geometry": {"type": "Point", "coordinates": [2.702557, 49.010389]}, "properties": {"id_parcelle": "772410000B0855", "address": "17 RUE DE LA ROCHELLE", "sales": 2, "median_price": 365000.0, "median_price_per_sqm": 3230.0884955752213, "median_rooms": 5.0, "first_sale": "2024-10-11", "last_sale": "2024-10-11"}}, {"type": "Feature", "geometry": {"type": "Point", "coordinates": [2.702823, 49.018561]}, "properties": {"id_parcelle": "772410000B0767", "address": "39 RUE DU GRAND PRE", "sales": 2, "median_price": 310000.0, "median_price_per_sqm": 2540.9836065573772, "median_rooms": 5.0, "first_sale": "2021-07-23", "last_sale": "2021-07-23"}}, {"type": "Feature", "geometry": {"type": "Point", "coordinates": [2.704209, 49.017905]}, "properties": {"id_parcelle": "772410000B0749", "address": "7 RUE DU GRAND PRE", "sales": 2, "median_price": 312500.0, "median_price_per_sqm": 3063.725490196078, "median_rooms": 5.0, "first_sale": "2023-12-06", "last_sale": "2023-12-06"}}, {"type": "Feature", "geometry": {"type": "Point", "coordinates": [2.706698, 49.015599]}, "properties": {"id_parcelle": "772410000B1159", "address": "6 RUE DU TACOT", "sales": 2, "median_price": 340000.0, "median_price_per_sqm": 3300.970873786408, "median_rooms": 2.0, "first_sale": "2025-06-17", "last_sale": "2025-06-17"}}, {"type": "Feature", "geometry": {"type": "Point", "coordinates": [2.705563, 49.014075]}, "properties": {"id_parcelle": "772410000B1129", "address": "29 RUE PIERRE LOYER", "sales": 2, "median_price": 343160.0, "median_price_per_sqm": 4289.5, "median_rooms": 2.0, "first_sale": "2023-07-12", "last_sale": "2023-07-12"}}, {"type": "Feature", "geometry": {"type": "Point", "coordinates": [2.703577, 49.015118]}, "properties": {"id_parcelle": "772410000B1046", "address": "5 RUE DES VANNEAUX", "sales": 2, "median_price": 513000.0, "median_price_per_sqm": 2982.5581395348836, "median_rooms": 5.0, "first_sale": "2021-12-15", "last_sale": "2021-12-15"}}, {"type": "Feature", "geometry": {"type": "Point", "coordinates": [2.702685, 49.01476]}, "properties": {"id_parcelle": "772410000B1039", "address": "15 RUE DES VANNEAUX", "sales": 2, "median_price": 390600.0, "median_price_per_sqm": 3426.315789473684, "median_rooms": 2.5, "first_sale": "2025-09-03", "last_sale": "2025-09-03"}}, {"type": "Feature", "geometry": {"type": "Point", "coordinates": [2.704163, 49.012539]}, "properties": {"id_parcelle": "772410000B1182", "address": "12 RUE SAINT LOUIS", "sales": 2, "median_price": 150000.0, "median_price_per_sqm": 158.89830508474577, "median_rooms": 0.0, "first_sale": "2022-03-14", "last_sale": "2022-03-14"}}, {"type": "Feature", "geometry": {"type": "Point", "coordinates": [2.704479, 49.011887]}, "properties": {"id_parcelle": "772410000B1223", "address": "5 RUE SAINTE MARIE", "sales": 2, "median_price": 351400.0, "median_price_per_sqm": 2703.076923076923, "median_rooms": 5.0, "first_sale": "2021-10-14", "last_sale": "2021-10-14"}}, {"type": "Feature", "geometry": {"type": "Point", "coordinates": [2.706534, 49.012717]}, "properties": {"id_parcelle": "772410000B1169", "address": "RUE BARRE", "sales": 2, "median_price": 2450000.0, "median_price_per_sqm": null, "median_rooms": null, "first_sale": "2021-10-06", "last_sale": "2024-12-31"}}, {"type": "Feature", "geometry": {"type": "Point", "coordinates": [2.706763, 49.012762]}, "properties": {"id_parcelle": "772410000B1168", "address": "RUE BARRE", "sales": 2, "median_price": 2450000.0, "median_price_per_sqm": null, "median_rooms": null, "first_sale": "2021-10-06", "last_sale": "2024-12-31"}}, {"type": "Feature", "geometry": {"type": "Point", "coordinates": [2.706444, 49.012073]}, "properties": {"id_parcelle": "772410000B1264", "address": "LA FONTAINE", "sales": 2, "median_price": 2500000.0, "median_price_per_sqm": null, "median_rooms": null, "first_sale": "2021-10-06", "last_sale": "2025-10-30"}}, {"type": "Feature", "geometry": {"type": "Point", "coordinates": [2.706682, 49.012652]}, "properties": {"id_parcelle": "772410000B1261", "address": "LA FONTAINE", "sales": 2, "median_price": 2450000.0, "median_price_per_sqm": null, "median_rooms": null, "first_sale": "2021-10-06", "last_sale": "2024-12-31"}}, {"type": "Feature", "geometry": {"type": "Point", "coordinates": [2.706579, 49.012412]}, "properties": {"id_parcelle": "772410000B1268", "address": "RUE BARRE", "sales": 2, "median_price": 2450000.0, "median_price_per_sqm": null, "median_rooms": null, "first_sale": "2021-10-06", "last_sale": "2024-12-31"}}, {"type": "Feature", "geometry": {"type": "Point", "coordinates": [2.707742, 49.020226]}, "properties": {"id_parcelle": "77241000AB0129", "address": "73 RUE DES ROSES", "sales": 2, "median_price": 176946.45, "median_price_per_sqm": 2391.168243243243, "median_rooms": 4.0, "first_sale": "2021-04-27", "last_sale": "2025-08-28"}}, {"type": "Feature", "geometry": {"type": "Point", "coordinates": [2.708173, 49.019967]}, "properties": {"id_parcelle": "77241000AB0132", "address": "79 RUE DES ROSES", "sales": 2, "median_price": 377980.0, "median_price_per_sqm": 3374.8214285714284, "median_rooms": 6.0, "first_sale": "2025-07-21", "last_sale": "2025-07-21"}}, {"type": "Feature", "geometry": {"type": "Point", "coordinates": [2.705832, 49.01781]}, "properties": {"id_parcelle": "77241000AB0142", "address": "10 RUE DES VERDIERS", "sales": 2, "median_price": 327000.0, "median_price_per_sqm": 3303.030303030303, "median_rooms": 5.0, "first_sale": "2022-10-28", "last_sale": "2022-10-28"}}, {"type": "Feature", "geometry": {"type": "Point", "coordinates": [2.70696, 49.017772]}, "properties": {"id_parcelle": "77241000AB0156", "address": "3 RUE DES VERDIERS", "sales": 2, "median_price": 305500.0, "median_price_per_sqm": 3055.0, "median_rooms": 2.5, "first_sale": "2021-06-30", "last_sale": "2021-06-30"}}, {"type": "Feature", "geometry": {"type": "Point", "coordinates": [2.699263, 49.008903]}, "properties": {"id_parcelle": "77241000ZD0001", "address": "OMBRE FOSSE", "sales": 2, "median_price": 6264.32, "median_price_per_sqm": null, "median_rooms": null, "first_sale": "2021-06-25", "last_sale": "2021-06-25"}}]}