{"type": "FeatureCollection", "features": [{"type": "Feature", "geometry": {"type": "Point", "coordinates": [2.70745, 49.012381]}, "properties": {"street_name": "RUE BARRE", "sales": 97, "sales_appt": 45, "sales_maison": 3, "median_price": 191600.0, "median_price_per_sqm": 4055.9654631083204, "turnover_score": 100.0, "turnover_rank": 1, "first_year": 2021, "last_year": 2025, "years_active": 5}}, {"type": "Feature", "geometry": {"type": "Point", "coordinates": [2.701389, 49.014944]}, "properties": {"street_name": "RUE DES CHARDONNERETS", "sales": 28, "sales_appt": 8, "sales_maison": 3, "median_price": 233715.0, "median_price_per_sqm": 3023.2558139534885, "turnover_score": 28.9, "turnover_rank": 2, "first_year": 2021, "last_year": 2025, "years_active": 5}}, {"type": "Feature", "geometry": {"type": "Point", "coordinates": [2.705619, 49.013375]}, "properties": {"street_name": "RUE SAINT LOUIS", "sales": 23, "sales_appt": 4, "sales_maison": 6, "median_price": 300000.0, "median_price_per_sqm": 6666.666666666667, "turnover_score": 23.7, "turnover_rank": 3, "first_year": 2021, "last_year": 2023, "years_active": 3}}, {"type": "Feature", "geometry": {"type": "Point", "coordinates": [2.702152, 49.010415]}, "properties": {"street_name": "RUE DE LA ROCHELLE", "sales": 17, "sales_appt": 0, "sales_maison": 14, "median_price": 335000.0, "median_price_per_sqm": 3722.222222222222, "turnover_score": 17.5, "turnover_rank": 4, "first_year": 2021, "last_year": 2025, "years_active": 5}}, {"type": "Feature", "geometry": {"type": "Point", "coordinates": [2.706451, 49.020226]}, "properties": {"street_name": "RUE DES ROSES", "sales": 17, "sales_appt": 0, "sales_maison": 15, "median_price": 310000.0, "median_price_per_sqm": 3229.7297297297296, "turnover_score": 17.5, "turnover_rank": 4, "first_year": 2021, "last_year": 2025, "years_active": 4}}, {"type": "Feature", "geometry": {"type": "Point", "coordinates": [2.705983, 49.013766]}, "properties": {"street_name": "RUE PIERRE LOYER", "sales": 15, "sales_appt": 0, "sales_maison": 6, "median_price": 180000.0, "median_price_per_sqm": 2794.871794871795, "turnover_score": 15.5, "turnover_rank": 5, "first_year": 2021, "last_year": 2024, "years_active": 4}}, {"type": "Feature", "geometry": {"type": "Point", "coordinates": [2.7040505, 49.01201]}, "properties": {"street_name": "RUE SAINTE MARIE", "sales": 12, "sales_appt": 0, "sales_maison": 5, "median_price": 335000.0, "median_price_per_sqm": 2703.076923076923, "turnover_score": 12.4, "turnover_rank": 6, "first_year": 2021, "last_year": 2025, "years_active": 4}}, {"type": "Feature", "geometry": {"type": "Point", "coordinates": [2.702307, 49.015417]}, "properties": {"street_name": "RUE DES FAUVETTES", "sales": 11, "sales_appt": 3, "sales_maison": 2, "median_price": 210000.0, "median_price_per_sqm": 3059.782608695652, "turnover_score": 11.3, "turnover_rank": 7, "first_year": 2021, "last_year": 2025, "years_active": 3}}, {"type": "Feature", "geometry": {"type": "Point", "coordinates": [2.7036635, 49.009606000000005]}, "properties": {"street_name": "RUE DU CHEMIN DE NANTOUILLET", "sales": 10, "sales_appt": 2, "sales_maison": 2, "median_price": 237000.0, "median_price_per_sqm": 3075.438596491228, "turnover_score": 10.3, "turnover_rank": 8, "first_year": 2022, "last_year": 2025, "years_active": 3}}, {"type": "Feature", "geometry": {"type": "Point", "coordinates": [2.705579, 49.009476]}, "properties": {"street_name": "LE COLLEGE", "sales": 10, "sales_appt": 0, "sales_maison": 0, "median_price": 4600000.0, "median_price_per_sqm": null, "turnover_score": 10.3, "turnover_rank": 8, "first_year": 2021, "last_year": 2021, "years_active": 1}}, {"type": "Feature", "geometry": {"type": "Point", "coordinates": [2.7074119999999997, 49.014825]}, "properties": {"street_name": "RUE PAUL FUAN", "sales": 10, "sales_appt": 0, "sales_maison": 5, "median_price": 288000.0, "median_price_per_sqm": 3512.1951219512193, "turnover_score": 10.3, "turnover_rank": 8, "first_year": 2021, "last_year": 2024, "years_active": 4}}, {"type": "Feature", "geometry": {"type": "Point", "coordinates": [2.706644, 49.015014]}, "properties": {"street_name": "RUE DU ROSSIGNOL", "sales": 8, "sales_appt": 4, "sales_maison": 2, "median_price": 343000.0, "median_price_per_sqm": 4375.0, "turnover_score": 8.2, "turnover_rank": 9, "first_year": 2024, "last_year": 2025, "years_active": 2}}, {"type": "Feature", "geometry": {"type": "Point", "coordinates": [2.7067579999999998, 49.0165225]}, "properties": {"street_name": "RUE DE LA LOUVIERE", "sales": 8, "sales_appt": 0, "sales_maison": 2, "median_price": 110000.0, "median_price_per_sqm": 1776.6439909297053, "turnover_score": 8.2, "turnover_rank": 9, "first_year": 2021, "last_year": 2025, "years_active": 4}}, {"type": "Feature", "geometry": {"type": "Point", "coordinates": [2.706682, 49.012351]}, "properties": {"street_name": "LA FONTAINE", "sales": 7, "sales_appt": 0, "sales_maison": 0, "median_price": 4600000.0, "median_price_per_sqm": null, "turnover_score": 7.2, "turnover_rank": 10, "first_year": 2021, "last_year": 2025, "years_active": 3}}, {"type": "Feature", "geometry": {"type": "Point", "coordinates": [2.703802, 49.017905]}, "properties": {"street_name": "RUE DU GRAND PRE", "sales": 7, "sales_appt": 0, "sales_maison": 7, "median_price": 312500.0, "median_price_per_sqm": 3063.725490196078, "turnover_score": 7.2, "turnover_rank": 10, "first_year": 2021, "last_year": 2023, "years_active": 2}}, {"type": "Feature", "geometry": {"type": "Point", "coordinates": [2.706776, 49.015873]}, "properties": {"street_name": "RUE DU TACOT", "sales": 7, "sales_appt": 0, "sales_maison": 3, "median_price": 340000.0, "median_price_per_sqm": 3300.970873786408, "turnover_score": 7.2, "turnover_rank": 10, "first_year": 2021, "last_year": 2025, "years_active": 3}}, {"type": "Feature", "geometry": {"type": "Point", "coordinates": [2.7077725, 49.0143395]}, "properties": {"street_name": "LA PORTE DE MEAUX", "sales": 6, "sales_appt": 0, "sales_maison": 0, "median_price": 415500.0, "median_price_per_sqm": null, "turnover_score": 6.2, "turnover_rank": 11, "first_year": 2023, "last_year": 2025, "years_active": 3}}, {"type": "Feature", "geometry": {"type": "Point", "coordinates": [2.702685, 49.01476]}, "properties": {"street_name": "RUE DES VANNEAUX", "sales": 5, "sales_appt": 0, "sales_maison": 4, "median_price": 390600.0, "median_price_per_sqm": 2982.5581395348836, "turnover_score": 5.2, "turnover_rank": 12, "first_year": 2021, "last_year": 2025, "years_active": 2}}, {"type": "Feature", "geometry": {"type": "Point", "coordinates": [2.70696, 49.017772]}, "properties": {"street_name": "RUE DES VERDIERS", "sales": 5, "sales_appt": 0, "sales_maison": 4, "median_price": 322749.0, "median_price_per_sqm": 3303.030303030303, "turnover_score": 5.2, "turnover_rank": 12, "first_year": 2021, "last_year": 2023, "years_active": 3}}, {"type": "Feature", "geometry": {"type": "Point", "coordinates": [2.703575, 49.01693]}, "properties": {"street_name": "ALL DU STADE", "sales": 4, "sales_appt": 0, "sales_maison": 2, "median_price": 388000.0, "median_price_per_sqm": 3031.25, "turnover_score": 4.1, "turnover_rank": 13, "first_year": 2021, "last_year": 2021, "years_active": 1}}, {"type": "Feature", "geometry": {"type": "Point", "coordinates": [2.702642, 49.014325]}, "properties": {"street_name": "RUE DES CHENES", "sales": 4, "sales_appt": 0, "sales_maison": 4, "median_price": 345000.0, "median_price_per_sqm": 3459.412978674616, "turnover_score": 4.1, "turnover_rank": 13, "first_year": 2021, "last_year": 2024, "years_active": 3}}, {"type": "Feature", "geometry": {"type": "Point", "coordinates": [2.705705, 49.017297]}, "properties": {"street_name": "RUE DE SAINT MARD", "sales": 4, "sales_appt": 0, "sales_maison": 2, "median_price": 482200.0, "median_price_per_sqm": 4423.853211009175, "turnover_score": 4.1, "turnover_rank": 13, "first_year": 2023, "last_year": 2023, "years_active": 1}}, {"type": "Feature", "geometry": {"type": "Point", "coordinates": [2.702803, 49.013473]}, "properties": {"street_name": "RUE DU GERFAUT", "sales": 3, "sales_appt": 0, "sales_maison": 2, "median_price": 350000.0, "median_price_per_sqm": 4375.0, "turnover_score": 3.1, "turnover_rank": 14, "first_year": 2022, "last_year": 2022, "years_active": 1}}, {"type": "Feature", "geometry": {"type": "Point", "coordinates": [2.700987, 49.011905]}, "properties": {"street_name": "RUE LA FONTAINE", "sales": 3, "sales_appt": 0, "sales_maison": 3, "median_price": 302000.0, "median_price_per_sqm": 3430.232558139535, "turnover_score": 3.1, "turnover_rank": 14, "first_year": 2021, "last_year": 2023, "years_active": 3}}, {"type": "Feature", "geometry": {"type": "Point", "coordinates": [2.705876, 49.0128455]}, "properties": {"street_name": "QUARTIER DES PAVILLONS", "sales": 2, "sales_appt": 0, "sales_maison": 0, "median_price": 489500.0, "median_price_per_sqm": null, "turnover_score": 2.1, "turnover_rank": 15, "first_year": 2022, "last_year": 2022, "years_active": 1}}, {"type": "Feature", "geometry": {"type": "Point", "coordinates": [2.7052225, 49.0140605]}, "properties": {"street_name": "QUARTIER SAINTE CROIX", "sales": 2, "sales_appt": 0, "sales_maison": 0, "median_price": 255000.0, "median_price_per_sqm": null, "turnover_score": 2.1, "turnover_rank": 15, "first_year": 2023, "last_year": 2024, "years_active": 2}}, {"type": "Feature", "geometry": {"type": "Point", "coordinates": [2.703787, 49.0118785]}, "properties": {"street_name": "QUARTIER SAINTE MARIE", "sales": 2, "sales_appt": 0, "sales_maison": 0, "median_price": 467500.0, "median_price_per_sqm": null, "turnover_score": 2.1, "turnover_rank": 15, "first_year": 2022, "last_year": 2025, "years_active": 2}}, {"type": "Feature", "geometry": {"type": "Point", "coordinates": [2.7010875, 49.01032]}, "properties": {"street_name": "LA ROCHELLE", "sales": 2, "sales_appt": 0, "sales_maison": 0, "median_price": 174250.0, "median_price_per_sqm": null, "turnover_score": 2.1, "turnover_rank": 15, "first_year": 2023, "last_year": 2025, "years_active": 2}}, {"type": "Feature", "geometry": {"type": "Point", "coordinates": [2.699263, 49.008903]}, "properties": {"street_name": "OMBRE FOSSE", "sales": 2, "sales_appt": 0, "sales_maison": 0, "median_price": 6264.32, "median_price_per_sqm": null, "turnover_score": 2.1, "turnover_rank": 15, "first_year": 2021, "last_year": 2021, "years_active": 1}}, {"type": "Feature", "geometry": {"type": "Point", "coordinates": [2.7062514999999996, 49.013828000000004]}, "properties": {"street_name": "QUARTIER DU COMMERCE", "sales": 2, "sales_appt": 0, "sales_maison": 0, "median_price": 261580.0, "median_price_per_sqm": null, "turnover_score": 2.1, "turnover_rank": 15, "first_year": 2021, "last_year": 2023, "years_active": 2}}, {"type": "Feature", "geometry": {"type": "Point", "coordinates": [2.706734, 49.016455]}, "properties": {"street_name": "BOUT DE LA LOUVIERE", "sales": 1, "sales_appt": 0, "sales_maison": 0, "median_price": 87000.0, "median_price_per_sqm": null, "turnover_score": 1.0, "turnover_rank": 16, "first_year": 2024, "last_year": 2024, "years_active": 1}}, {"type": "Feature", "geometry": {"type": "Point", "coordinates": [2.706041, 49.019088]}, "properties": {"street_name": "AV DES TILLEULS", "sales": 1, "sales_appt": 0, "sales_maison": 1, "median_price": 245000.0, "median_price_per_sqm": 3356.1643835616437, "turnover_score": 1.0, "turnover_rank": 16, "first_year": 2024, "last_year": 2024, "years_active": 1}}, {"type": "Feature", "geometry": {"type": "Point", "coordinates": [2.716292, 49.013973]}, "properties": {"street_name": "LE BLANC LIMON", "sales": 1, "sales_appt": 0, "sales_maison": 0, "median_price": 7000.0, "median_price_per_sqm": null, "turnover_score": 1.0, "turnover_rank": 16, "first_year": 2025, "last_year": 2025, "years_active": 1}}, {"type": "Feature", "geometry": {"type": "Point", "coordinates": [2.719652, 49.033211]}, "properties": {"street_name": "LES FRICHES DES ESSARTS", "sales": 1, "sales_appt": 0, "sales_maison": 0, "median_price": 56581.7, "median_price_per_sqm": null, "turnover_score": 1.0, "turnover_rank": 16, "first_year": 2023, "last_year": 2023, "years_active": 1}}, {"type": "Feature", "geometry": {"type": "Point", "coordinates": [2.69906, 49.028441]}, "properties": {"street_name": "LE FRICHET", "sales": 1, "sales_appt": 0, "sales_maison": 0, "median_price": 56581.7, "median_price_per_sqm": null, "turnover_score": 1.0, "turnover_rank": 16, "first_year": 2023, "last_year": 2023, "years_active": 1}}, {"type": "Feature", "geometry": {"type": "Point", "coordinates": [2.699139, 49.010749]}, "properties": {"street_name": "LES BUTTES", "sales": 1, "sales_appt": 0, "sales_maison": 0, "median_price": 1673.0, "median_price_per_sqm": null, "turnover_score": 1.0, "turnover_rank": 16, "first_year": 2021, "last_year": 2021, "years_active": 1}}, {"type": "Feature", "geometry": {"type": "Point", "coordinates": [2.700268, 49.019802]}, "properties": {"street_name": "LA SENTE DE LA PRINCESSE", "sales": 1, "sales_appt": 0, "sales_maison": 0, "median_price": 49500.0, "median_price_per_sqm": null, "turnover_score": 1.0, "turnover_rank": 16, "first_year": 2024, "last_year": 2024, "years_active": 1}}]}