{"type": "FeatureCollection", "features": [{"type": "Feature", "geometry": {"type": "Point", "coordinates": [3.355762, 48.535392]}, "properties": {"id_parcelle": "774590000G1101", "address": "3 RUE DE BOURG CHERI", "sales": 28, "median_price": 242450.0, "median_price_per_sqm": 5312.5, "median_rooms": 3.0, "first_sale": "2021-10-26", "last_sale": "2022-12-28"}}, {"type": "Feature", "geometry": {"type": "Point", "coordinates": [3.347041, 48.536874]}, "properties": {"id_parcelle": "774590000G0054", "address": "6 RUE DE CHALAUTRE", "sales": 8, "median_price": 300270.5, "median_price_per_sqm": 2729.731818181818, "median_rooms": 0.0, "first_sale": "2022-07-21", "last_sale": "2025-12-22"}}, {"type": "Feature", "geometry": {"type": "Point", "coordinates": [3.331864, 48.540067]}, "properties": {"id_parcelle": "77459000ZS0003", "address": "LES CAVES DE VILLECENDRIER", "sales": 6, "median_price": 185224.0, "median_price_per_sqm": null, "median_rooms": null, "first_sale": "2025-02-25", "last_sale": "2025-05-14"}}, {"type": "Feature", "geometry": {"type": "Point", "coordinates": [3.344153, 48.550784]}, "properties": {"id_parcelle": "77459000ZA0008", "address": "L ARBRE HAUT", "sales": 6, "median_price": 185224.0, "median_price_per_sqm": null, "median_rooms": null, "first_sale": "2025-02-25", "last_sale": "2025-05-14"}}, {"type": "Feature", "geometry": {"type": "Point", "coordinates": [3.357422, 48.538285]}, "properties": {"id_parcelle": "774590000G1892", "address": "24 RUE DE L ORMURION", "sales": 5, "median_price": 173000.0, "median_price_per_sqm": 2035.2941176470588, "median_rooms": 0.0, "first_sale": "2024-08-29", "last_sale": "2024-08-29"}}, {"type": "Feature", "geometry": {"type": "Point", "coordinates": [3.354493, 48.535128]}, "properties": {"id_parcelle": "774590000G1901", "address": "2 RUE DE BOURG CHERI", "sales": 5, "median_price": 148000.0, "median_price_per_sqm": 731.2852022529443, "median_rooms": 0.0, "first_sale": "2021-12-21", "last_sale": "2021-12-21"}}, {"type": "Feature", "geometry": {"type": "Point", "coordinates": [3.358798, 48.538175]}, "properties": {"id_parcelle": "774590000G1354", "address": "LE PAVE", "sales": 4, "median_price": 52500.0, "median_price_per_sqm": null, "median_rooms": null, "first_sale": "2021-06-22", "last_sale": "2025-09-29"}}, {"type": "Feature", "geometry": {"type": "Point", "coordinates": [3.358495, 48.535144]}, "properties": {"id_parcelle": "774590000G1136", "address": "19 RUE DE BOURG CHERI", "sales": 4, "median_price": 370000.0, "median_price_per_sqm": 2551.7241379310344, "median_rooms": 2.0, "first_sale": "2025-07-31", "last_sale": "2025-07-31"}}, {"type": "Feature", "geometry": {"type": "Point", "coordinates": [3.359237, 48.538189]}, "properties": {"id_parcelle": "774590000G1131", "address": "42 RUE DE L ORMURION", "sales": 4, "median_price": 372000.0, "median_price_per_sqm": 2066.6666666666665, "median_rooms": 0.0, "first_sale": "2022-04-28", "last_sale": "2022-04-28"}}, {"type": "Feature", "geometry": {"type": "Point", "coordinates": [3.348985, 48.537883]}, "properties": {"id_parcelle": "774590000G1431", "address": "5 RUE JULES FERRY", "sales": 4, "median_price": 117000.0, "median_price_per_sqm": 1426.8292682926829, "median_rooms": 0.0, "first_sale": "2023-07-07", "last_sale": "2023-07-07"}}, {"type": "Feature", "geometry": {"type": "Point", "coordinates": [3.344959, 48.552198]}, "properties": {"id_parcelle": "774590000A0054", "address": "LE PET EN L AIR", "sales": 4, "median_price": 185224.0, "median_price_per_sqm": null, "median_rooms": null, "first_sale": "2025-02-25", "last_sale": "2025-05-14"}}, {"type": "Feature", "geometry": {"type": "Point", "coordinates": [3.358717, 48.534762]}, "properties": {"id_parcelle": "774590000G1011", "address": "28 RUE DE BOURG CHERI", "sales": 4, "median_price": 130000.0, "median_price_per_sqm": 2600.0, "median_rooms": 0.0, "first_sale": "2022-05-06", "last_sale": "2022-05-06"}}, {"type": "Feature", "geometry": {"type": "Point", "coordinates": [3.356376, 48.538254]}, "properties": {"id_parcelle": "774590000G1579", "address": "13 RUE DES DAMES", "sales": 4, "median_price": 200000.0, "median_price_per_sqm": 1459.85401459854, "median_rooms": 3.0, "first_sale": "2025-03-28", "last_sale": "2025-03-28"}}, {"type": "Feature", "geometry": {"type": "Point", "coordinates": [3.350887, 48.533725]}, "properties": {"id_parcelle": "77459000ZP0011", "address": "14 RUE DES EGLANTIERS", "sales": 4, "median_price": 131000.0, "median_price_per_sqm": 1378.9473684210527, "median_rooms": 3.0, "first_sale": "2022-09-01", "last_sale": "2022-09-01"}}, {"type": "Feature", "geometry": {"type": "Point", "coordinates": [3.339042, 48.547326]}, "properties": {"id_parcelle": "77459000YP0009", "address": "LA HAUTE VOIE", "sales": 4, "median_price": 185224.0, "median_price_per_sqm": null, "median_rooms": null, "first_sale": "2025-02-25", "last_sale": "2025-05-14"}}, {"type": "Feature", "geometry": {"type": "Point", "coordinates": [3.359547, 48.535035]}, "properties": {"id_parcelle": "774590000G1519", "address": "27 RUE DE BOURG CHERI", "sales": 4, "median_price": 166800.0, "median_price_per_sqm": 1755.7894736842106, "median_rooms": 0.0, "first_sale": "2025-06-04", "last_sale": "2025-06-04"}}, {"type": "Feature", "geometry": {"type": "Point", "coordinates": [3.355163, 48.538841]}, "properties": {"id_parcelle": "774590000G0851", "address": "14 RUE DE L ORMURION", "sales": 3, "median_price": 170000.0, "median_price_per_sqm": 1931.8181818181818, "median_rooms": 0.0, "first_sale": "2024-04-25", "last_sale": "2024-04-25"}}, {"type": "Feature", "geometry": {"type": "Point", "coordinates": [3.358356, 48.535806]}, "properties": {"id_parcelle": "774590000G0508", "address": "32 RUE DE PARIS", "sales": 3, "median_price": 285000.0, "median_price_per_sqm": 1410.8910891089108, "median_rooms": 0.0, "first_sale": "2024-11-04", "last_sale": "2024-11-04"}}, {"type": "Feature", "geometry": {"type": "Point", "coordinates": [3.356626, 48.536977]}, "properties": {"id_parcelle": "774590000G1084", "address": "4 RUE DES TOURNELLES", "sales": 3, "median_price": 180000.0, "median_price_per_sqm": 1463.4146341463415, "median_rooms": 0.0, "first_sale": "2021-09-16", "last_sale": "2021-09-16"}}, {"type": "Feature", "geometry": {"type": "Point", "coordinates": [3.35943, 48.534664]}, "properties": {"id_parcelle": "774590000G1665", "address": "BOURG CHERI", "sales": 3, "median_price": 150000.0, "median_price_per_sqm": null, "median_rooms": null, "first_sale": "2021-06-14", "last_sale": "2025-06-24"}}, {"type": "Feature", "geometry": {"type": "Point", "coordinates": [3.346181, 48.537119]}, "properties": {"id_parcelle": "774590000G1052", "address": "10 RUE DE CHALAUTRE", "sales": 3, "median_price": 70395.0, "median_price_per_sqm": 1279.909090909091, "median_rooms": 0.0, "first_sale": "2025-04-30", "last_sale": "2025-04-30"}}, {"type": "Feature", "geometry": {"type": "Point", "coordinates": [3.357338, 48.536704]}, "properties": {"id_parcelle": "774590000G1093", "address": "13 RUE DES TOURNELLES", "sales": 3, "median_price": 175000.0, "median_price_per_sqm": 1881.720430107527, "median_rooms": 0.0, "first_sale": "2023-05-25", "last_sale": "2023-05-25"}}, {"type": "Feature", "geometry": {"type": "Point", "coordinates": [3.380449, 48.541667]}, "properties": {"id_parcelle": "77459000YD0006", "address": "LE GRAND VILLOURS", "sales": 3, "median_price": 1176652.1, "median_price_per_sqm": null, "median_rooms": null, "first_sale": "2021-06-15", "last_sale": "2021-06-15"}}, {"type": "Feature", "geometry": {"type": "Point", "coordinates": [3.350656, 48.540404]}, "properties": {"id_parcelle": "77459000ZB0066", "address": "17 RUE DU PAVE DU ROI", "sales": 3, "median_price": 165000.0, "median_price_per_sqm": 2062.5, "median_rooms": 0.0, "first_sale": "2022-10-12", "last_sale": "2022-10-12"}}, {"type": "Feature", "geometry": {"type": "Point", "coordinates": [3.385835, 48.533949]}, "properties": {"id_parcelle": "77459000YE0016", "address": "LE BEL ERABLE", "sales": 3, "median_price": 304050.75, "median_price_per_sqm": null, "median_rooms": null, "first_sale": "2024-12-21", "last_sale": "2024-12-21"}}, {"type": "Feature", "geometry": {"type": "Point", "coordinates": [3.367083, 48.527043]}, "properties": {"id_parcelle": "77459000YK0002", "address": "LES CINQUANTE ARPENTS", "sales": 3, "median_price": 1176652.1, "median_price_per_sqm": null, "median_rooms": null, "first_sale": "2021-06-15", "last_sale": "2021-06-15"}}, {"type": "Feature", "geometry": {"type": "Point", "coordinates": [3.368754, 48.553561]}, "properties": {"id_parcelle": "77459000YC0007", "address": "LES PIECES CORNUES", "sales": 3, "median_price": 304050.75, "median_price_per_sqm": null, "median_rooms": null, "first_sale": "2024-12-21", "last_sale": "2024-12-21"}}, {"type": "Feature", "geometry": {"type": "Point", "coordinates": [3.35832, 48.535136]}, "properties": {"id_parcelle": "774590000G0502", "address": "17 RUE DE BOURG CHERI", "sales": 2, "median_price": 49650.0, "median_price_per_sqm": 310.3125, "median_rooms": 2.0, "first_sale": "2025-02-01", "last_sale": "2025-02-01"}}, {"type": "Feature", "geometry": {"type": "Point", "coordinates": [3.353563, 48.535173]}, "properties": {"id_parcelle": "774590000G0291", "address": "34 RUE CREUSE", "sales": 2, "median_price": 68000.0, "median_price_per_sqm": 1192.982456140351, "median_rooms": 1.5, "first_sale": "2024-01-12", "last_sale": "2024-01-12"}}, {"type": "Feature", "geometry": {"type": "Point", "coordinates": [3.353474, 48.535867]}, "properties": {"id_parcelle": "774590000G0277", "address": "14 RUE DU PETIT PARACLET", "sales": 2, "median_price": 349800.0, "median_price_per_sqm": 2316.5562913907283, "median_rooms": 2.5, "first_sale": "2025-07-04", "last_sale": "2025-07-04"}}, {"type": "Feature", "geometry": {"type": "Point", "coordinates": [3.355916, 48.554335]}, "properties": {"id_parcelle": "774590000A0093", "address": "5093 LA GLUYERE", "sales": 2, "median_price": 25000.0, "median_price_per_sqm": 625.0, "median_rooms": 0.0, "first_sale": "2022-04-11", "last_sale": "2022-04-11"}}, {"type": "Feature", "geometry": {"type": "Point", "coordinates": [3.353317, 48.53696]}, "properties": {"id_parcelle": "774590000G0864", "address": "40 RUE DE L EGLISE", "sales": 2, "median_price": 345000.0, "median_price_per_sqm": 3136.3636363636365, "median_rooms": 2.5, "first_sale": "2023-11-20", "last_sale": "2023-11-20"}}, {"type": "Feature", "geometry": {"type": "Point", "coordinates": [3.359073, 48.538474]}, "properties": {"id_parcelle": "774590000G0605", "address": "31 RUE DE L ORMURION", "sales": 2, "median_price": 138500.0, "median_price_per_sqm": 4092.0454545454545, "median_rooms": 3.0, "first_sale": "2021-02-08", "last_sale": "2021-02-08"}}, {"type": "Feature", "geometry": {"type": "Point", "coordinates": [3.358507, 48.538341]}, "properties": {"id_parcelle": "774590000G0592", "address": "38 RUE DE L ORMURION", "sales": 2, "median_price": 52500.0, "median_price_per_sqm": 972.2222222222222, "median_rooms": 3.0, "first_sale": "2021-06-22", "last_sale": "2022-11-09"}}, {"type": "Feature", "geometry": {"type": "Point", "coordinates": [3.358209, 48.535603]}, "properties": {"id_parcelle": "774590000G0509", "address": "BOURG CHERI", "sales": 2, "median_price": 285000.0, "median_price_per_sqm": null, "median_rooms": null, "first_sale": "2024-11-04", "last_sale": "2024-11-04"}}, {"type": "Feature", "geometry": {"type": "Point", "coordinates": [3.356727, 48.537132]}, "properties": {"id_parcelle": "774590000G1086", "address": "6 RUE DES TOURNELLES", "sales": 2, "median_price": 155000.0, "median_price_per_sqm": 1845.2380952380952, "median_rooms": 2.5, "first_sale": "2023-10-31", "last_sale": "2023-10-31"}}, {"type": "Feature", "geometry": {"type": "Point", "coordinates": [3.358627, 48.538211]}, "properties": {"id_parcelle": "774590000G1055", "address": "LE PAVE", "sales": 2, "median_price": 52500.0, "median_price_per_sqm": null, "median_rooms": null, "first_sale": "2021-06-22", "last_sale": "2022-11-09"}}, {"type": "Feature", "geometry": {"type": "Point", "coordinates": [3.354443, 48.539827]}, "properties": {"id_parcelle": "774590000G0985", "address": "6 RUE DU PAVE DU ROI", "sales": 2, "median_price": 260000.0, "median_price_per_sqm": 1940.2985074626865, "median_rooms": 6.0, "first_sale": "2023-03-20", "last_sale": "2023-03-20"}}, {"type": "Feature", "geometry": {"type": "Point", "coordinates": [3.351875, 48.535252]}, "properties": {"id_parcelle": "774590000G0262", "address": "1 RUE DU PUITS RENARD", "sales": 2, "median_price": 43000.0, "median_price_per_sqm": 754.3859649122807, "median_rooms": 1.0, "first_sale": "2025-06-18", "last_sale": "2025-06-18"}}, {"type": "Feature", "geometry": {"type": "Point", "coordinates": [3.352488, 48.53522]}, "properties": {"id_parcelle": "774590000G0258", "address": "18 RUE CREUSE", "sales": 2, "median_price": 175500.0, "median_price_per_sqm": 1526.0869565217392, "median_rooms": 3.5, "first_sale": "2024-09-16", "last_sale": "2024-09-16"}}, {"type": "Feature", "geometry": {"type": "Point", "coordinates": [3.348854, 48.533481]}, "properties": {"id_parcelle": "774590000G0224", "address": "10 RUE DES EGLANTIERS", "sales": 2, "median_price": 155000.0, "median_price_per_sqm": 1722.2222222222222, "median_rooms": 3.0, "first_sale": "2024-12-12", "last_sale": "2024-12-12"}}, {"type": "Feature", "geometry": {"type": "Point", "coordinates": [3.349269, 48.535367]}, "properties": {"id_parcelle": "774590000G0183", "address": "4 RUE CREUSE", "sales": 2, "median_price": 200000.0, "median_price_per_sqm": 1904.7619047619048, "median_rooms": 2.5, "first_sale": "2022-01-19", "last_sale": "2022-01-19"}}, {"type": "Feature", "geometry": {"type": "Point", "coordinates": [3.351091, 48.535727]}, "properties": {"id_parcelle": "774590000G0147", "address": "19 RUE CREUSE", "sales": 2, "median_price": 320000.0, "median_price_per_sqm": 2547.5453339230426, "median_rooms": 4.5, "first_sale": "2022-02-17", "last_sale": "2022-02-17"}}, {"type": "Feature", "geometry": {"type": "Point", "coordinates": [3.349357, 48.536639]}, "properties": {"id_parcelle": "774590000G0102", "address": "1 RUE DE L EGLISE", "sales": 2, "median_price": 180000.0, "median_price_per_sqm": 1768.257619321449, "median_rooms": 4.0, "first_sale": "2021-05-05", "last_sale": "2021-05-05"}}, {"type": "Feature", "geometry": {"type": "Point", "coordinates": [3.33303, 48.537447]}, "properties": {"id_parcelle": "774590000F0384", "address": "LA REMISE DES CARRIERES", "sales": 2, "median_price": 185224.0, "median_price_per_sqm": null, "median_rooms": null, "first_sale": "2025-02-25", "last_sale": "2025-05-14"}}, {"type": "Feature", "geometry": {"type": "Point", "coordinates": [3.36464, 48.514946]}, "properties": {"id_parcelle": "774590000E0843", "address": "LES VIGNES SENARD", "sales": 2, "median_price": 185224.0, "median_price_per_sqm": null, "median_rooms": null, "first_sale": "2025-02-25", "last_sale": "2025-05-14"}}, {"type": "Feature", "geometry": {"type": "Point", "coordinates": [3.344494, 48.552749]}, "properties": {"id_parcelle": "774590000A0050", "address": "LE PET EN L AIR", "sales": 2, "median_price": 185224.0, "median_price_per_sqm": null, "median_rooms": null, "first_sale": "2025-02-25", "last_sale": "2025-05-14"}}, {"type": "Feature", "geometry": {"type": "Point", "coordinates": [3.345577, 48.552562]}, "properties": {"id_parcelle": "774590000A0049", "address": "LE PET EN L AIR", "sales": 2, "median_price": 185224.0, "median_price_per_sqm": null, "median_rooms": null, "first_sale": "2025-02-25", "last_sale": "2025-05-14"}}, {"type": "Feature", "geometry": {"type": "Point", "coordinates": [3.345172, 48.552861]}, "properties": {"id_parcelle": "774590000A0048", "address": "LE PET EN L AIR", "sales": 2, "median_price": 185224.0, "median_price_per_sqm": null, "median_rooms": null, "first_sale": "2025-02-25", "last_sale": "2025-05-14"}}, {"type": "Feature", "geometry": {"type": "Point", "coordinates": [3.343559, 48.551698]}, "properties": {"id_parcelle": "774590000A0053", "address": "LE PET EN L AIR", "sales": 2, "median_price": 185224.0, "median_price_per_sqm": null, "median_rooms": null, "first_sale": "2025-02-25", "last_sale": "2025-05-14"}}, {"type": "Feature", "geometry": {"type": "Point", "coordinates": [3.34714, 48.552687]}, "properties": {"id_parcelle": "774590000A0047", "address": "LE PET EN L AIR", "sales": 2, "median_price": 185224.0, "median_price_per_sqm": null, "median_rooms": null, "first_sale": "2025-02-25", "last_sale": "2025-05-14"}}, {"type": "Feature", "geometry": {"type": "Point", "coordinates": [3.356559, 48.538484]}, "properties": {"id_parcelle": "774590000G1578", "address": "LE PAVE", "sales": 2, "median_price": 184000.0, "median_price_per_sqm": null, "median_rooms": null, "first_sale": "2021-04-19", "last_sale": "2021-04-19"}}, {"type": "Feature", "geometry": {"type": "Point", "coordinates": [3.358575, 48.540354]}, "properties": {"id_parcelle": "774590000G1371", "address": "8 RES MAUPERTHUIS", "sales": 2, "median_price": 190000.0, "median_price_per_sqm": 2111.1111111111113, "median_rooms": 2.0, "first_sale": "2022-09-27", "last_sale": "2022-09-27"}}, {"type": "Feature", "geometry": {"type": "Point", "coordinates": [3.348922, 48.541174]}, "properties": {"id_parcelle": "774590000G1345", "address": "28 RUE DU PAVE DU ROI", "sales": 2, "median_price": 90000.0, "median_price_per_sqm": 1058.8235294117646, "median_rooms": 2.0, "first_sale": "2022-03-11", "last_sale": "2022-03-11"}}, {"type": "Feature", "geometry": {"type": "Point", "coordinates": [3.359168, 48.538048]}, "properties": {"id_parcelle": "774590000G1356", "address": "LE PAVE", "sales": 2, "median_price": 67500.0, "median_price_per_sqm": null, "median_rooms": null, "first_sale": "2025-07-25", "last_sale": "2025-09-29"}}, {"type": "Feature", "geometry": {"type": "Point", "coordinates": [3.352273, 48.540141]}, "properties": {"id_parcelle": "774590000G1213", "address": "4 RUE DES CAVES", "sales": 2, "median_price": 186500.0, "median_price_per_sqm": 2194.1176470588234, "median_rooms": 2.5, "first_sale": "2025-09-02", "last_sale": "2025-09-02"}}, {"type": "Feature", "geometry": {"type": "Point", "coordinates": [3.357572, 48.537091]}, "properties": {"id_parcelle": "774590000G1091", "address": "11 RUE DES TOURNELLES", "sales": 2, "median_price": 90000.0, "median_price_per_sqm": 756.3025210084033, "median_rooms": 3.5, "first_sale": "2024-09-13", "last_sale": "2024-09-13"}}, {"type": "Feature", "geometry": {"type": "Point", "coordinates": [3.34975, 48.536406]}, "properties": {"id_parcelle": "774590000G1147", "address": "1 RLE ABSOLUE", "sales": 2, "median_price": 180000.0, "median_price_per_sqm": 1730.7692307692307, "median_rooms": 3.0, "first_sale": "2025-07-24", "last_sale": "2025-07-24"}}, {"type": "Feature", "geometry": {"type": "Point", "coordinates": [3.35056, 48.538413]}, "properties": {"id_parcelle": "774590000G1195", "address": "10 RUE DU PUITS DES CHAMPS", "sales": 2, "median_price": 184914.84, "median_price_per_sqm": 1696.4664220183486, "median_rooms": 5.0, "first_sale": "2023-11-13", "last_sale": "2023-11-13"}}, {"type": "Feature", "geometry": {"type": "Point", "coordinates": [3.355764, 48.535056]}, "properties": {"id_parcelle": "774590000G1102", "address": "BOURG CHERI", "sales": 2, "median_price": 242450.0, "median_price_per_sqm": null, "median_rooms": null, "first_sale": "2021-10-26", "last_sale": "2022-12-28"}}, {"type": "Feature", "geometry": {"type": "Point", "coordinates": [3.360156, 48.54094]}, "properties": {"id_parcelle": "774590000G0711", "address": "22 RUE DE MAUPERTHUIS", "sales": 2, "median_price": 82000.0, "median_price_per_sqm": 911.1111111111111, "median_rooms": 2.0, "first_sale": "2025-04-29", "last_sale": "2025-04-29"}}, {"type": "Feature", "geometry": {"type": "Point", "coordinates": [3.359455, 48.540065]}, "properties": {"id_parcelle": "774590000G0661", "address": "11 RUE DE MAUPERTHUIS", "sales": 2, "median_price": 159000.0, "median_price_per_sqm": 1892.857142857143, "median_rooms": 5.0, "first_sale": "2021-03-30", "last_sale": "2021-03-30"}}, {"type": "Feature", "geometry": {"type": "Point", "coordinates": [3.346791, 48.536945]}, "properties": {"id_parcelle": "774590000G0920", "address": "SOURDUN", "sales": 2, "median_price": 300270.5, "median_price_per_sqm": null, "median_rooms": null, "first_sale": "2022-07-21", "last_sale": "2025-12-22"}}, {"type": "Feature", "geometry": {"type": "Point", "coordinates": [3.346707, 48.535752]}, "properties": {"id_parcelle": "774590000G1000", "address": "32 RUE JULES FERRY", "sales": 2, "median_price": 130000.0, "median_price_per_sqm": 1120.6896551724137, "median_rooms": 3.0, "first_sale": "2022-05-18", "last_sale": "2022-05-18"}}, {"type": "Feature", "geometry": {"type": "Point", "coordinates": [3.355497, 48.535274]}, "properties": {"id_parcelle": "774590000G1891", "address": "BOURG CHERI", "sales": 2, "median_price": 127550.0, "median_price_per_sqm": null, "median_rooms": null, "first_sale": "2021-10-26", "last_sale": "2022-12-28"}}, {"type": "Feature", "geometry": {"type": "Point", "coordinates": [3.359547, 48.542722]}, "properties": {"id_parcelle": "77459000YB0014", "address": "LA CROIX JACQUES HADROT", "sales": 2, "median_price": 1000.0, "median_price_per_sqm": null, "median_rooms": null, "first_sale": "2022-03-18", "last_sale": "2022-03-18"}}, {"type": "Feature", "geometry": {"type": "Point", "coordinates": [3.357632, 48.53505]}, "properties": {"id_parcelle": "774590000G1846", "address": "BOURG CHERI", "sales": 2, "median_price": 128425.0, "median_price_per_sqm": null, "median_rooms": null, "first_sale": "2022-04-19", "last_sale": "2024-07-26"}}, {"type": "Feature", "geometry": {"type": "Point", "coordinates": [3.364948, 48.55153]}, "properties": {"id_parcelle": "77459000YC0008", "address": "LE HAUT DES CROTTEES", "sales": 2, "median_price": 1000.0, "median_price_per_sqm": null, "median_rooms": null, "first_sale": "2022-03-18", "last_sale": "2022-03-18"}}, {"type": "Feature", "geometry": {"type": "Point", "coordinates": [3.366366, 48.554034]}, "properties": {"id_parcelle": "77459000YC0006", "address": "LES PIECES CORNUES", "sales": 2, "median_price": 1000.0, "median_price_per_sqm": null, "median_rooms": null, "first_sale": "2022-03-18", "last_sale": "2022-03-18"}}, {"type": "Feature", "geometry": {"type": "Point", "coordinates": [3.354208, 48.553043]}, "properties": {"id_parcelle": "77459000YC0002", "address": "LA GLUYERE", "sales": 2, "median_price": 304050.75, "median_price_per_sqm": null, "median_rooms": null, "first_sale": "2024-12-21", "last_sale": "2024-12-21"}}, {"type": "Feature", "geometry": {"type": "Point", "coordinates": [3.36636, 48.541006]}, "properties": {"id_parcelle": "77459000YD0004", "address": "LES TOURNELLES", "sales": 2, "median_price": 1000.0, "median_price_per_sqm": null, "median_rooms": null, "first_sale": "2022-03-18", "last_sale": "2022-03-18"}}, {"type": "Feature", "geometry": {"type": "Point", "coordinates": [3.385177, 48.536718]}, "properties": {"id_parcelle": "77459000YE0008", "address": "LA FOSSE PAINFOIN", "sales": 2, "median_price": 1000.0, "median_price_per_sqm": null, "median_rooms": null, "first_sale": "2022-03-18", "last_sale": "2022-03-18"}}, {"type": "Feature", "geometry": {"type": "Point", "coordinates": [3.377818, 48.535024]}, "properties": {"id_parcelle": "77459000YE0012", "address": "LE PETIT VILLOURS", "sales": 2, "median_price": 1000.0, "median_price_per_sqm": null, "median_rooms": null, "first_sale": "2022-03-18", "last_sale": "2022-03-18"}}, {"type": "Feature", "geometry": {"type": "Point", "coordinates": [3.379372, 48.533475]}, "properties": {"id_parcelle": "77459000YE0014", "address": "LA FOSSE PAINFOIN", "sales": 2, "median_price": 1000.0, "median_price_per_sqm": null, "median_rooms": null, "first_sale": "2022-03-18", "last_sale": "2022-03-18"}}, {"type": "Feature", "geometry": {"type": "Point", "coordinates": [3.358255, 48.55024]}, "properties": {"id_parcelle": "77459000YC0009", "address": "LE HAUT DES CROTTEES", "sales": 2, "median_price": 1000.0, "median_price_per_sqm": null, "median_rooms": null, "first_sale": "2022-03-18", "last_sale": "2022-03-18"}}, {"type": "Feature", "geometry": {"type": "Point", "coordinates": [3.386098, 48.53521]}, "properties": {"id_parcelle": "77459000YE0017", "address": "LA FOSSE PAINFOIN", "sales": 2, "median_price": 1000.0, "median_price_per_sqm": null, "median_rooms": null, "first_sale": "2022-03-18", "last_sale": "2022-03-18"}}, {"type": "Feature", "geometry": {"type": "Point", "coordinates": [3.391999, 48.530719]}, "properties": {"id_parcelle": "77459000YH0003", "address": "LE PETIT ETANG", "sales": 2, "median_price": 1000.0, "median_price_per_sqm": null, "median_rooms": null, "first_sale": "2022-03-18", "last_sale": "2022-03-18"}}, {"type": "Feature", "geometry": {"type": "Point", "coordinates": [3.385372, 48.523672]}, "properties": {"id_parcelle": "77459000YI0017", "address": "LES HANTES", "sales": 2, "median_price": 1000.0, "median_price_per_sqm": null, "median_rooms": null, "first_sale": "2022-03-18", "last_sale": "2022-03-18"}}, {"type": "Feature", "geometry": {"type": "Point", "coordinates": [3.354062, 48.535105]}, "properties": {"id_parcelle": "774590000G1933", "address": "2 RUE DE BOURG CHERI", "sales": 2, "median_price": 68000.0, "median_price_per_sqm": 226.66666666666666, "median_rooms": 0.0, "first_sale": "2025-06-06", "last_sale": "2025-06-06"}}, {"type": "Feature", "geometry": {"type": "Point", "coordinates": [3.362314, 48.547595]}, "properties": {"id_parcelle": "77459000YB0019", "address": "RUE CHENE GAUTHIER", "sales": 2, "median_price": 1000.0, "median_price_per_sqm": null, "median_rooms": null, "first_sale": "2022-03-18", "last_sale": "2022-03-18"}}, {"type": "Feature", "geometry": {"type": "Point", "coordinates": [3.357494, 48.535102]}, "properties": {"id_parcelle": "774590000G1845", "address": "BOURG CHERI", "sales": 2, "median_price": 128425.0, "median_price_per_sqm": null, "median_rooms": null, "first_sale": "2022-04-19", "last_sale": "2024-07-26"}}, {"type": "Feature", "geometry": {"type": "Point", "coordinates": [3.357553, 48.535119]}, "properties": {"id_parcelle": "774590000G1819", "address": "13 BOURG CHERI", "sales": 2, "median_price": 128425.0, "median_price_per_sqm": 2460.625, "median_rooms": 4.0, "first_sale": "2022-04-19", "last_sale": "2024-07-26"}}, {"type": "Feature", "geometry": {"type": "Point", "coordinates": [3.355727, 48.536112]}, "properties": {"id_parcelle": "774590000G1793", "address": "22 RUE DE PARIS", "sales": 2, "median_price": 150000.0, "median_price_per_sqm": 1339.2857142857142, "median_rooms": 0.0, "first_sale": "2025-06-05", "last_sale": "2025-06-05"}}, {"type": "Feature", "geometry": {"type": "Point", "coordinates": [3.365968, 48.517161]}, "properties": {"id_parcelle": "77459000YK0023", "address": "LES VIGNES SENARD", "sales": 2, "median_price": 1000.0, "median_price_per_sqm": null, "median_rooms": null, "first_sale": "2022-03-18", "last_sale": "2022-03-18"}}, {"type": "Feature", "geometry": {"type": "Point", "coordinates": [3.366871, 48.517256]}, "properties": {"id_parcelle": "77459000YK0019", "address": "LES VIGNES SENARD", "sales": 2, "median_price": 1000.0, "median_price_per_sqm": null, "median_rooms": null, "first_sale": "2022-03-18", "last_sale": "2022-03-18"}}, {"type": "Feature", "geometry": {"type": "Point", "coordinates": [3.368028, 48.51962]}, "properties": {"id_parcelle": "77459000YK0008", "address": "LE GRAND MERISIER", "sales": 2, "median_price": 1176652.1, "median_price_per_sqm": null, "median_rooms": null, "first_sale": "2021-06-15", "last_sale": "2021-06-15"}}, {"type": "Feature", "geometry": {"type": "Point", "coordinates": [3.360549, 48.529603]}, "properties": {"id_parcelle": "77459000YK0001", "address": "LES CINQUANTE ARPENTS", "sales": 2, "median_price": 1000.0, "median_price_per_sqm": null, "median_rooms": null, "first_sale": "2022-03-18", "last_sale": "2022-03-18"}}, {"type": "Feature", "geometry": {"type": "Point", "coordinates": [3.378311, 48.524037]}, "properties": {"id_parcelle": "77459000YI0008", "address": "LE FOND DES HANTES", "sales": 2, "median_price": 1000.0, "median_price_per_sqm": null, "median_rooms": null, "first_sale": "2022-03-18", "last_sale": "2022-03-18"}}, {"type": "Feature", "geometry": {"type": "Point", "coordinates": [3.350766, 48.527802]}, "properties": {"id_parcelle": "77459000YM0022", "address": "LA FONTAINE AUX MALADES", "sales": 2, "median_price": 1000.0, "median_price_per_sqm": null, "median_rooms": null, "first_sale": "2022-03-18", "last_sale": "2022-03-18"}}, {"type": "Feature", "geometry": {"type": "Point", "coordinates": [3.350096, 48.523395]}, "properties": {"id_parcelle": "77459000YL0001", "address": "LA FOSSE AUX LOUPS", "sales": 2, "median_price": 1000.0, "median_price_per_sqm": null, "median_rooms": null, "first_sale": "2022-03-18", "last_sale": "2022-03-18"}}, {"type": "Feature", "geometry": {"type": "Point", "coordinates": [3.354596, 48.522124]}, "properties": {"id_parcelle": "77459000YL0005", "address": "LE CHAMP VILLUIS", "sales": 2, "median_price": 1176652.1, "median_price_per_sqm": null, "median_rooms": null, "first_sale": "2021-06-15", "last_sale": "2021-06-15"}}, {"type": "Feature", "geometry": {"type": "Point", "coordinates": [3.33962, 48.530461]}, "properties": {"id_parcelle": "77459000YN0012", "address": "LA CROIX BOUCHER", "sales": 2, "median_price": 1000.0, "median_price_per_sqm": null, "median_rooms": null, "first_sale": "2022-03-18", "last_sale": "2022-03-18"}}, {"type": "Feature", "geometry": {"type": "Point", "coordinates": [3.366459, 48.530759]}, "properties": {"id_parcelle": "77459000YM0056", "address": "LES VALIGOTS", "sales": 2, "median_price": 1000.0, "median_price_per_sqm": null, "median_rooms": null, "first_sale": "2022-03-18", "last_sale": "2022-03-18"}}, {"type": "Feature", "geometry": {"type": "Point", "coordinates": [3.34336, 48.53645]}, "properties": {"id_parcelle": "77459000YN0016", "address": "LE VIEUX CHATEAU", "sales": 2, "median_price": 1000.0, "median_price_per_sqm": null, "median_rooms": null, "first_sale": "2022-03-18", "last_sale": "2022-03-18"}}, {"type": "Feature", "geometry": {"type": "Point", "coordinates": [3.34363, 48.542311]}, "properties": {"id_parcelle": "77459000YO0017", "address": "L HIRONDELLE", "sales": 2, "median_price": 1000.0, "median_price_per_sqm": null, "median_rooms": null, "first_sale": "2022-03-18", "last_sale": "2022-03-18"}}, {"type": "Feature", "geometry": {"type": "Point", "coordinates": [3.346146, 48.545919]}, "properties": {"id_parcelle": "77459000YO0021", "address": "LES VALLEES", "sales": 2, "median_price": 1000.0, "median_price_per_sqm": null, "median_rooms": null, "first_sale": "2022-03-18", "last_sale": "2022-03-18"}}, {"type": "Feature", "geometry": {"type": "Point", "coordinates": [3.366173, 48.534154]}, "properties": {"id_parcelle": "77459000YM0052", "address": "LES PERREUX", "sales": 2, "median_price": 24777.9, "median_price_per_sqm": null, "median_rooms": null, "first_sale": "2025-08-26", "last_sale": "2025-08-26"}}, {"type": "Feature", "geometry": {"type": "Point", "coordinates": [3.35966, 48.515767]}, "properties": {"id_parcelle": "77459000YL0010", "address": "LE BOIS MONSIEUR", "sales": 2, "median_price": 1176652.1, "median_price_per_sqm": null, "median_rooms": null, "first_sale": "2021-06-15", "last_sale": "2021-06-15"}}, {"type": "Feature", "geometry": {"type": "Point", "coordinates": [3.349696, 48.522769]}, "properties": {"id_parcelle": "77459000YL0011", "address": "LA FOSSE AUX LOUPS", "sales": 2, "median_price": 1000.0, "median_price_per_sqm": null, "median_rooms": null, "first_sale": "2022-03-18", "last_sale": "2022-03-18"}}, {"type": "Feature", "geometry": {"type": "Point", "coordinates": [3.339938, 48.546799]}, "properties": {"id_parcelle": "77459000YP0010", "address": "LA SAUSSOYE", "sales": 2, "median_price": 1000.0, "median_price_per_sqm": null, "median_rooms": null, "first_sale": "2022-03-18", "last_sale": "2022-03-18"}}, {"type": "Feature", "geometry": {"type": "Point", "coordinates": [3.347773, 48.542801]}, "properties": {"id_parcelle": "77459000YO0027", "address": "LES VALLEES", "sales": 2, "median_price": 5000.0, "median_price_per_sqm": null, "median_rooms": null, "first_sale": "2025-09-04", "last_sale": "2025-09-04"}}, {"type": "Feature", "geometry": {"type": "Point", "coordinates": [3.340122, 48.544514]}, "properties": {"id_parcelle": "77459000YO0018", "address": "LES VALLEES", "sales": 2, "median_price": 1000.0, "median_price_per_sqm": null, "median_rooms": null, "first_sale": "2022-03-18", "last_sale": "2022-03-18"}}, {"type": "Feature", "geometry": {"type": "Point", "coordinates": [3.346333, 48.549869]}, "properties": {"id_parcelle": "77459000ZA0011", "address": "LE PET EN L AIR", "sales": 2, "median_price": 185224.0, "median_price_per_sqm": null, "median_rooms": null, "first_sale": "2025-02-25", "last_sale": "2025-05-14"}}, {"type": "Feature", "geometry": {"type": "Point", "coordinates": [3.35602, 48.539734]}, "properties": {"id_parcelle": "77459000ZB0090", "address": "6 RUE DES FOSSES", "sales": 2, "median_price": 222930.0, "median_price_per_sqm": 1714.8461538461538, "median_rooms": 3.5, "first_sale": "2022-04-07", "last_sale": "2022-04-07"}}, {"type": "Feature", "geometry": {"type": "Point", "coordinates": [3.350534, 48.540895]}, "properties": {"id_parcelle": "77459000ZB0098", "address": "22 RUE DU PAVE DU ROI", "sales": 2, "median_price": 160000.0, "median_price_per_sqm": 1739.1304347826087, "median_rooms": 4.0, "first_sale": "2021-07-02", "last_sale": "2021-07-02"}}, {"type": "Feature", "geometry": {"type": "Point", "coordinates": [3.350751, 48.541197]}, "properties": {"id_parcelle": "77459000ZB0099", "address": "22 RUE DU PAVE DU ROI", "sales": 2, "median_price": 207000.0, "median_price_per_sqm": 2049.5049504950493, "median_rooms": 5.0, "first_sale": "2022-06-14", "last_sale": "2022-06-14"}}, {"type": "Feature", "geometry": {"type": "Point", "coordinates": [3.345109, 48.549632]}, "properties": {"id_parcelle": "77459000ZA0010", "address": "LE PET EN L AIR", "sales": 2, "median_price": 185224.0, "median_price_per_sqm": null, "median_rooms": null, "first_sale": "2025-02-25", "last_sale": "2025-05-14"}}, {"type": "Feature", "geometry": {"type": "Point", "coordinates": [3.350779, 48.533718]}, "properties": {"id_parcelle": "77459000ZP0186", "address": "LA RUELLE AUX LOUPS", "sales": 2, "median_price": 131000.0, "median_price_per_sqm": null, "median_rooms": null, "first_sale": "2022-09-01", "last_sale": "2022-09-01"}}, {"type": "Feature", "geometry": {"type": "Point", "coordinates": [3.335807, 48.538648]}, "properties": {"id_parcelle": "77459000ZR0027", "address": "LA REMISE DE CHANTALOUP", "sales": 2, "median_price": 51590.0, "median_price_per_sqm": null, "median_rooms": null, "first_sale": "2022-05-17", "last_sale": "2022-05-17"}}, {"type": "Feature", "geometry": {"type": "Point", "coordinates": [3.344725, 48.534039]}, "properties": {"id_parcelle": "77459000ZR0120", "address": "16 RUE DU VIEUX CHATEAU", "sales": 2, "median_price": 248100.0, "median_price_per_sqm": 2918.823529411765, "median_rooms": 4.0, "first_sale": "2024-07-25", "last_sale": "2024-07-25"}}, {"type": "Feature", "geometry": {"type": "Point", "coordinates": [3.344928, 48.535917]}, "properties": {"id_parcelle": "77459000ZR0098", "address": "36 RUE DU VIEUX CHATEAU", "sales": 2, "median_price": 242000.0, "median_price_per_sqm": 2372.549019607843, "median_rooms": 2.5, "first_sale": "2021-09-27", "last_sale": "2021-09-27"}}, {"type": "Feature", "geometry": {"type": "Point", "coordinates": [3.345473, 48.534408]}, "properties": {"id_parcelle": "77459000ZR0139", "address": "11 RUE DU VIEUX CHATEAU", "sales": 2, "median_price": 232800.0, "median_price_per_sqm": 2097.2972972972975, "median_rooms": 5.0, "first_sale": "2021-07-05", "last_sale": "2021-07-05"}}, {"type": "Feature", "geometry": {"type": "Point", "coordinates": [3.34544, 48.534229]}, "properties": {"id_parcelle": "77459000ZR0140", "address": "LA CROIX BOUCHER", "sales": 2, "median_price": 55500.0, "median_price_per_sqm": null, "median_rooms": null, "first_sale": "2022-11-28", "last_sale": "2023-11-23"}}, {"type": "Feature", "geometry": {"type": "Point", "coordinates": [3.345903, 48.535035]}, "properties": {"id_parcelle": "77459000ZR0164", "address": "23 RUE DU VIEUX CHATEAU", "sales": 2, "median_price": 252500.0, "median_price_per_sqm": 1912.878787878788, "median_rooms": 5.0, "first_sale": "2025-12-10", "last_sale": "2025-12-10"}}, {"type": "Feature", "geometry": {"type": "Point", "coordinates": [3.328588, 48.549704]}, "properties": {"id_parcelle": "77459000ZT0041", "address": "5306 RTE NATIONALE 19", "sales": 2, "median_price": 240000.0, "median_price_per_sqm": 800.0, "median_rooms": 0.0, "first_sale": "2021-10-13", "last_sale": "2021-10-13"}}]}