{"type": "FeatureCollection", "features": [{"type": "Feature", "geometry": {"type": "Point", "coordinates": [2.9749615, 48.4093115]}, "properties": {"street_name": "MERLANGE", "sales": 22, "sales_appt": 0, "sales_maison": 0, "median_price": 104570.0, "median_price_per_sqm": 430.87661621850236, "turnover_score": 100.0, "turnover_rank": 1, "first_year": 2022, "last_year": 2025, "years_active": 4}}, {"type": "Feature", "geometry": {"type": "Point", "coordinates": [2.979242, 48.405983]}, "properties": {"street_name": "COURBETON", "sales": 20, "sales_appt": 0, "sales_maison": 0, "median_price": 65000.0, "median_price_per_sqm": null, "turnover_score": 90.9, "turnover_rank": 2, "first_year": 2022, "last_year": 2025, "years_active": 4}}, {"type": "Feature", "geometry": {"type": "Point", "coordinates": [2.985906, 48.41582]}, "properties": {"street_name": "GARDELOUP", "sales": 19, "sales_appt": 0, "sales_maison": 2, "median_price": 230500.0, "median_price_per_sqm": 2010.2384291725107, "turnover_score": 86.4, "turnover_rank": 3, "first_year": 2021, "last_year": 2025, "years_active": 5}}, {"type": "Feature", "geometry": {"type": "Point", "coordinates": [2.977935, 48.412979500000006]}, "properties": {"street_name": "RUE DE MERLANGES", "sales": 10, "sales_appt": 0, "sales_maison": 4, "median_price": 135000.0, "median_price_per_sqm": 1592.5925925925926, "turnover_score": 45.5, "turnover_rank": 4, "first_year": 2022, "last_year": 2025, "years_active": 3}}, {"type": "Feature", "geometry": {"type": "Point", "coordinates": [2.982666, 48.40028]}, "properties": {"street_name": "ALL DES DALHIAS", "sales": 9, "sales_appt": 0, "sales_maison": 6, "median_price": 189900.0, "median_price_per_sqm": 2133.7078651685392, "turnover_score": 40.9, "turnover_rank": 5, "first_year": 2021, "last_year": 2023, "years_active": 3}}, {"type": "Feature", "geometry": {"type": "Point", "coordinates": [2.987488, 48.401533]}, "properties": {"street_name": "ALL DES PIVOINES", "sales": 8, "sales_appt": 0, "sales_maison": 4, "median_price": 220000.0, "median_price_per_sqm": 2340.425531914894, "turnover_score": 36.4, "turnover_rank": 6, "first_year": 2022, "last_year": 2023, "years_active": 2}}, {"type": "Feature", "geometry": {"type": "Point", "coordinates": [3.019442, 48.403568]}, "properties": {"street_name": "RUE DU CHATEAU D EAU", "sales": 8, "sales_appt": 0, "sales_maison": 4, "median_price": 158000.0, "median_price_per_sqm": 1954.557800956106, "turnover_score": 36.4, "turnover_rank": 6, "first_year": 2021, "last_year": 2024, "years_active": 3}}, {"type": "Feature", "geometry": {"type": "Point", "coordinates": [2.995744, 48.41698]}, "properties": {"street_name": "LE PETIT BUISSON", "sales": 7, "sales_appt": 0, "sales_maison": 0, "median_price": 82000.0, "median_price_per_sqm": null, "turnover_score": 31.8, "turnover_rank": 7, "first_year": 2022, "last_year": 2025, "years_active": 4}}, {"type": "Feature", "geometry": {"type": "Point", "coordinates": [2.998147, 48.398089]}, "properties": {"street_name": "SAINT GERMAIN", "sales": 7, "sales_appt": 0, "sales_maison": 0, "median_price": 155000.0, "median_price_per_sqm": null, "turnover_score": 31.8, "turnover_rank": 7, "first_year": 2022, "last_year": 2025, "years_active": 2}}, {"type": "Feature", "geometry": {"type": "Point", "coordinates": [2.995755, 48.411074]}, "properties": {"street_name": "LES SABLES DU BUISSON", "sales": 7, "sales_appt": 0, "sales_maison": 0, "median_price": 98759.03, "median_price_per_sqm": null, "turnover_score": 31.8, "turnover_rank": 7, "first_year": 2023, "last_year": 2025, "years_active": 2}}, {"type": "Feature", "geometry": {"type": "Point", "coordinates": [2.985824, 48.416448]}, "properties": {"street_name": "RUE JEAN JAURES", "sales": 7, "sales_appt": 0, "sales_maison": 5, "median_price": 255000.0, "median_price_per_sqm": 1423.2348111658457, "turnover_score": 31.8, "turnover_rank": 7, "first_year": 2021, "last_year": 2025, "years_active": 3}}, {"type": "Feature", "geometry": {"type": "Point", "coordinates": [2.99019, 48.400051]}, "properties": {"street_name": "RUE DU PRE VERT", "sales": 7, "sales_appt": 0, "sales_maison": 7, "median_price": 199000.0, "median_price_per_sqm": 2000.0, "turnover_score": 31.8, "turnover_rank": 7, "first_year": 2021, "last_year": 2024, "years_active": 3}}, {"type": "Feature", "geometry": {"type": "Point", "coordinates": [2.988232, 48.400739]}, "properties": {"street_name": "RUE PIECE DE LA COUTURE", "sales": 7, "sales_appt": 0, "sales_maison": 5, "median_price": 215000.0, "median_price_per_sqm": 2559.5238095238096, "turnover_score": 31.8, "turnover_rank": 7, "first_year": 2021, "last_year": 2022, "years_active": 2}}, {"type": "Feature", "geometry": {"type": "Point", "coordinates": [2.995734, 48.41702]}, "properties": {"street_name": "RUE DES ECOLES", "sales": 7, "sales_appt": 0, "sales_maison": 5, "median_price": 165000.0, "median_price_per_sqm": 1954.5454545454545, "turnover_score": 31.8, "turnover_rank": 7, "first_year": 2021, "last_year": 2025, "years_active": 3}}, {"type": "Feature", "geometry": {"type": "Point", "coordinates": [2.988091, 48.414681]}, "properties": {"street_name": "RUE DE LA VOIE CREUSE", "sales": 6, "sales_appt": 0, "sales_maison": 5, "median_price": 308000.0, "median_price_per_sqm": 2686.8241525423728, "turnover_score": 27.3, "turnover_rank": 8, "first_year": 2022, "last_year": 2025, "years_active": 3}}, {"type": "Feature", "geometry": {"type": "Point", "coordinates": [3.0025760000000004, 48.411114999999995]}, "properties": {"street_name": "LES FORGES", "sales": 6, "sales_appt": 0, "sales_maison": 0, "median_price": 18286.5, "median_price_per_sqm": null, "turnover_score": 27.3, "turnover_rank": 8, "first_year": 2022, "last_year": 2025, "years_active": 2}}, {"type": "Feature", "geometry": {"type": "Point", "coordinates": [2.988032, 48.400069]}, "properties": {"street_name": "RUE DU MOULIN", "sales": 6, "sales_appt": 0, "sales_maison": 6, "median_price": 210000.0, "median_price_per_sqm": 2371.8856543404145, "turnover_score": 27.3, "turnover_rank": 8, "first_year": 2021, "last_year": 2024, "years_active": 4}}, {"type": "Feature", "geometry": {"type": "Point", "coordinates": [3.020632, 48.404251]}, "properties": {"street_name": "RUE DES TROIS NOYERS", "sales": 6, "sales_appt": 0, "sales_maison": 2, "median_price": 222000.0, "median_price_per_sqm": 2336.842105263158, "turnover_score": 27.3, "turnover_rank": 8, "first_year": 2022, "last_year": 2022, "years_active": 1}}, {"type": "Feature", "geometry": {"type": "Point", "coordinates": [2.974506, 48.405559]}, "properties": {"street_name": "RUE DES ARGILES VERTES", "sales": 5, "sales_appt": 2, "sales_maison": 0, "median_price": 720000.0, "median_price_per_sqm": 1309.090909090909, "turnover_score": 22.7, "turnover_rank": 9, "first_year": 2022, "last_year": 2023, "years_active": 2}}, {"type": "Feature", "geometry": {"type": "Point", "coordinates": [3.019843, 48.403356]}, "properties": {"street_name": "TRECHY", "sales": 5, "sales_appt": 0, "sales_maison": 0, "median_price": 222250.0, "median_price_per_sqm": null, "turnover_score": 22.7, "turnover_rank": 9, "first_year": 2021, "last_year": 2024, "years_active": 4}}, {"type": "Feature", "geometry": {"type": "Point", "coordinates": [2.994453, 48.416131]}, "properties": {"street_name": "RUE DE L'ECOLE", "sales": 5, "sales_appt": 0, "sales_maison": 3, "median_price": 215000.0, "median_price_per_sqm": 2336.9565217391305, "turnover_score": 22.7, "turnover_rank": 9, "first_year": 2021, "last_year": 2024, "years_active": 2}}, {"type": "Feature", "geometry": {"type": "Point", "coordinates": [3.004071, 48.415111]}, "properties": {"street_name": "RUE ATHANASE HOUSSET", "sales": 5, "sales_appt": 0, "sales_maison": 4, "median_price": 130000.0, "median_price_per_sqm": 1844.4444444444443, "turnover_score": 22.7, "turnover_rank": 9, "first_year": 2021, "last_year": 2025, "years_active": 3}}, {"type": "Feature", "geometry": {"type": "Point", "coordinates": [2.987485, 48.400408]}, "properties": {"street_name": "ALL DES PRIMEVERES", "sales": 5, "sales_appt": 0, "sales_maison": 3, "median_price": 193000.0, "median_price_per_sqm": 2297.6190476190477, "turnover_score": 22.7, "turnover_rank": 9, "first_year": 2023, "last_year": 2025, "years_active": 2}}, {"type": "Feature", "geometry": {"type": "Point", "coordinates": [3.016909, 48.401235]}, "properties": {"street_name": "CHE DES SABLES", "sales": 4, "sales_appt": 0, "sales_maison": 2, "median_price": 268000.0, "median_price_per_sqm": 3350.0, "turnover_score": 18.2, "turnover_rank": 10, "first_year": 2022, "last_year": 2022, "years_active": 1}}, {"type": "Feature", "geometry": {"type": "Point", "coordinates": [2.9813985, 48.398824000000005]}, "properties": {"street_name": "ALL DU PARC", "sales": 4, "sales_appt": 0, "sales_maison": 3, "median_price": 246000.0, "median_price_per_sqm": 1883.5616438356165, "turnover_score": 18.2, "turnover_rank": 10, "first_year": 2022, "last_year": 2024, "years_active": 2}}, {"type": "Feature", "geometry": {"type": "Point", "coordinates": [2.9856165, 48.399494000000004]}, "properties": {"street_name": "ALL DES VIOLETTES", "sales": 4, "sales_appt": 0, "sales_maison": 2, "median_price": 185000.0, "median_price_per_sqm": 2092.933947772657, "turnover_score": 18.2, "turnover_rank": 10, "first_year": 2023, "last_year": 2024, "years_active": 2}}, {"type": "Feature", "geometry": {"type": "Point", "coordinates": [2.97941, 48.415206999999995]}, "properties": {"street_name": "RUE DES CROIX BLANCHES", "sales": 4, "sales_appt": 0, "sales_maison": 4, "median_price": 243750.0, "median_price_per_sqm": 2769.886363636364, "turnover_score": 18.2, "turnover_rank": 10, "first_year": 2021, "last_year": 2025, "years_active": 3}}, {"type": "Feature", "geometry": {"type": "Point", "coordinates": [2.989274, 48.398474]}, "properties": {"street_name": "ALL DES LYS", "sales": 3, "sales_appt": 0, "sales_maison": 2, "median_price": 160000.0, "median_price_per_sqm": 2203.8019451812556, "turnover_score": 13.6, "turnover_rank": 11, "first_year": 2022, "last_year": 2024, "years_active": 2}}, {"type": "Feature", "geometry": {"type": "Point", "coordinates": [2.983418, 48.398187]}, "properties": {"street_name": "ALL DES PAQUERETTES", "sales": 3, "sales_appt": 0, "sales_maison": 3, "median_price": 230000.0, "median_price_per_sqm": 1766.1290322580646, "turnover_score": 13.6, "turnover_rank": 11, "first_year": 2023, "last_year": 2025, "years_active": 3}}, {"type": "Feature", "geometry": {"type": "Point", "coordinates": [2.985875, 48.398192]}, "properties": {"street_name": "ALL DES TULIPES", "sales": 3, "sales_appt": 0, "sales_maison": 2, "median_price": 215000.0, "median_price_per_sqm": 2002.742946708464, "turnover_score": 13.6, "turnover_rank": 11, "first_year": 2023, "last_year": 2025, "years_active": 2}}, {"type": "Feature", "geometry": {"type": "Point", "coordinates": [2.998196, 48.398898]}, "properties": {"street_name": "RUE DE LA FOSSE AUX OISEAUX", "sales": 3, "sales_appt": 0, "sales_maison": 1, "median_price": 393030.0, "median_price_per_sqm": 2233.125, "turnover_score": 13.6, "turnover_rank": 11, "first_year": 2022, "last_year": 2022, "years_active": 1}}, {"type": "Feature", "geometry": {"type": "Point", "coordinates": [3.019423, 48.408404]}, "properties": {"street_name": "LES FOURS A CHAUX", "sales": 3, "sales_appt": 0, "sales_maison": 0, "median_price": 98759.03, "median_price_per_sqm": null, "turnover_score": 13.6, "turnover_rank": 11, "first_year": 2025, "last_year": 2025, "years_active": 1}}, {"type": "Feature", "geometry": {"type": "Point", "coordinates": [2.999028, 48.411391]}, "properties": {"street_name": "LE FOND DU PETIT BUISSON", "sales": 3, "sales_appt": 0, "sales_maison": 0, "median_price": 98759.03, "median_price_per_sqm": null, "turnover_score": 13.6, "turnover_rank": 11, "first_year": 2022, "last_year": 2025, "years_active": 2}}, {"type": "Feature", "geometry": {"type": "Point", "coordinates": [2.975148, 48.410491]}, "properties": {"street_name": "IMP DE MERLANGES", "sales": 3, "sales_appt": 0, "sales_maison": 2, "median_price": 159900.0, "median_price_per_sqm": 3145.6227967097534, "turnover_score": 13.6, "turnover_rank": 11, "first_year": 2024, "last_year": 2025, "years_active": 2}}, {"type": "Feature", "geometry": {"type": "Point", "coordinates": [3.021373, 48.401736]}, "properties": {"street_name": "RUE BOIS DE BAILLY", "sales": 3, "sales_appt": 0, "sales_maison": 1, "median_price": 267700.0, "median_price_per_sqm": 2059.230769230769, "turnover_score": 13.6, "turnover_rank": 11, "first_year": 2022, "last_year": 2022, "years_active": 1}}, {"type": "Feature", "geometry": {"type": "Point", "coordinates": [2.998119, 48.398234]}, "properties": {"street_name": "RUE DES ETANGS", "sales": 3, "sales_appt": 0, "sales_maison": 3, "median_price": 235000.0, "median_price_per_sqm": 2008.5470085470085, "turnover_score": 13.6, "turnover_rank": 11, "first_year": 2022, "last_year": 2022, "years_active": 1}}, {"type": "Feature", "geometry": {"type": "Point", "coordinates": [2.983815, 48.401819]}, "properties": {"street_name": "RUE DES ACACIAS", "sales": 3, "sales_appt": 0, "sales_maison": 2, "median_price": 156000.0, "median_price_per_sqm": 2227.8032036613276, "turnover_score": 13.6, "turnover_rank": 11, "first_year": 2021, "last_year": 2025, "years_active": 3}}, {"type": "Feature", "geometry": {"type": "Point", "coordinates": [2.997276, 48.398224]}, "properties": {"street_name": "RUE DE SEINE", "sales": 3, "sales_appt": 0, "sales_maison": 1, "median_price": 85000.0, "median_price_per_sqm": 809.5238095238095, "turnover_score": 13.6, "turnover_rank": 11, "first_year": 2025, "last_year": 2025, "years_active": 1}}, {"type": "Feature", "geometry": {"type": "Point", "coordinates": [2.990724, 48.401276]}, "properties": {"street_name": "RUE NELSON MANDELA", "sales": 3, "sales_appt": 0, "sales_maison": 0, "median_price": 120000.0, "median_price_per_sqm": 1263.157894736842, "turnover_score": 13.6, "turnover_rank": 11, "first_year": 2023, "last_year": 2023, "years_active": 1}}, {"type": "Feature", "geometry": {"type": "Point", "coordinates": [2.983426, 48.401262]}, "properties": {"street_name": "RUE DES PEUPLIERS", "sales": 3, "sales_appt": 0, "sales_maison": 3, "median_price": 186000.0, "median_price_per_sqm": 2268.2926829268295, "turnover_score": 13.6, "turnover_rank": 11, "first_year": 2022, "last_year": 2025, "years_active": 3}}, {"type": "Feature", "geometry": {"type": "Point", "coordinates": [3.0241605, 48.401694000000006]}, "properties": {"street_name": "LE BOIS DIGNY", "sales": 2, "sales_appt": 0, "sales_maison": 0, "median_price": 1200.0, "median_price_per_sqm": null, "turnover_score": 9.1, "turnover_rank": 12, "first_year": 2022, "last_year": 2022, "years_active": 1}}, {"type": "Feature", "geometry": {"type": "Point", "coordinates": [2.980557, 48.4160615]}, "properties": {"street_name": "IMP DES TOURTERELLES", "sales": 2, "sales_appt": 0, "sales_maison": 2, "median_price": 249000.0, "median_price_per_sqm": 2842.377260981912, "turnover_score": 9.1, "turnover_rank": 12, "first_year": 2021, "last_year": 2022, "years_active": 2}}, {"type": "Feature", "geometry": {"type": "Point", "coordinates": [2.986031, 48.419602]}, "properties": {"street_name": "RUE DE LA HIBOUDIERE", "sales": 2, "sales_appt": 0, "sales_maison": 2, "median_price": 49583.25, "median_price_per_sqm": 476.7620192307692, "turnover_score": 9.1, "turnover_rank": 12, "first_year": 2021, "last_year": 2021, "years_active": 1}}, {"type": "Feature", "geometry": {"type": "Point", "coordinates": [2.986383, 48.400387]}, "properties": {"street_name": "ALL DES JONQUILLES", "sales": 2, "sales_appt": 0, "sales_maison": 1, "median_price": 200000.0, "median_price_per_sqm": 2247.191011235955, "turnover_score": 9.1, "turnover_rank": 12, "first_year": 2022, "last_year": 2022, "years_active": 1}}, {"type": "Feature", "geometry": {"type": "Point", "coordinates": [3.002584, 48.414558]}, "properties": {"street_name": "CHE DES BACHOTTES THIBAUDES", "sales": 2, "sales_appt": 0, "sales_maison": 1, "median_price": 210000.0, "median_price_per_sqm": 1826.0869565217392, "turnover_score": 9.1, "turnover_rank": 12, "first_year": 2023, "last_year": 2023, "years_active": 1}}, {"type": "Feature", "geometry": {"type": "Point", "coordinates": [2.981325, 48.400928]}, "properties": {"street_name": "RUE DES CHATAIGNIERS", "sales": 2, "sales_appt": 0, "sales_maison": 2, "median_price": 184000.0, "median_price_per_sqm": 2257.9042457091236, "turnover_score": 9.1, "turnover_rank": 12, "first_year": 2023, "last_year": 2025, "years_active": 2}}, {"type": "Feature", "geometry": {"type": "Point", "coordinates": [2.984585, 48.4159305]}, "properties": {"street_name": "RUE DU MURGER DES BELLES FEUI", "sales": 2, "sales_appt": 0, "sales_maison": 2, "median_price": 220500.0, "median_price_per_sqm": 2110.6060606060605, "turnover_score": 9.1, "turnover_rank": 12, "first_year": 2022, "last_year": 2025, "years_active": 2}}, {"type": "Feature", "geometry": {"type": "Point", "coordinates": [2.9828905, 48.416634]}, "properties": {"street_name": "RUE DES MERLANGES PROLONGEE", "sales": 2, "sales_appt": 0, "sales_maison": 0, "median_price": 77000.0, "median_price_per_sqm": null, "turnover_score": 9.1, "turnover_rank": 12, "first_year": 2022, "last_year": 2022, "years_active": 1}}, {"type": "Feature", "geometry": {"type": "Point", "coordinates": [3.021486, 48.405934]}, "properties": {"street_name": "LE CHEMIN DES TROIS NOYERS", "sales": 2, "sales_appt": 0, "sales_maison": 0, "median_price": 35245.0, "median_price_per_sqm": null, "turnover_score": 9.1, "turnover_rank": 12, "first_year": 2021, "last_year": 2021, "years_active": 1}}, {"type": "Feature", "geometry": {"type": "Point", "coordinates": [2.992825, 48.414307]}, "properties": {"street_name": "LA CROIX DES BONNERIES", "sales": 2, "sales_appt": 0, "sales_maison": 0, "median_price": 98759.03, "median_price_per_sqm": null, "turnover_score": 9.1, "turnover_rank": 12, "first_year": 2025, "last_year": 2025, "years_active": 1}}, {"type": "Feature", "geometry": {"type": "Point", "coordinates": [2.9853825, 48.415915999999996]}, "properties": {"street_name": "LE MURGER DES BELLES FEUIL", "sales": 2, "sales_appt": 0, "sales_maison": 0, "median_price": 267500.0, "median_price_per_sqm": null, "turnover_score": 9.1, "turnover_rank": 12, "first_year": 2021, "last_year": 2024, "years_active": 2}}, {"type": "Feature", "geometry": {"type": "Point", "coordinates": [2.988188, 48.416263]}, "properties": {"street_name": "RUE DE LA HAIE PACOU", "sales": 2, "sales_appt": 0, "sales_maison": 2, "median_price": 275600.0, "median_price_per_sqm": 2087.878787878788, "turnover_score": 9.1, "turnover_rank": 12, "first_year": 2023, "last_year": 2023, "years_active": 1}}, {"type": "Feature", "geometry": {"type": "Point", "coordinates": [2.996474, 48.398857]}, "properties": {"street_name": "RUE DE PROVINS", "sales": 2, "sales_appt": 0, "sales_maison": 1, "median_price": 176000.0, "median_price_per_sqm": 1725.4901960784314, "turnover_score": 9.1, "turnover_rank": 12, "first_year": 2021, "last_year": 2021, "years_active": 1}}, {"type": "Feature", "geometry": {"type": "Point", "coordinates": [2.978756, 48.40102]}, "properties": {"street_name": "RUE DES FRENES", "sales": 2, "sales_appt": 0, "sales_maison": 2, "median_price": 220000.0, "median_price_per_sqm": 2682.9268292682927, "turnover_score": 9.1, "turnover_rank": 12, "first_year": 2023, "last_year": 2023, "years_active": 1}}, {"type": "Feature", "geometry": {"type": "Point", "coordinates": [2.992971, 48.417338]}, "properties": {"street_name": "RUE DU PETIT BUISSON", "sales": 2, "sales_appt": 0, "sales_maison": 2, "median_price": 160000.0, "median_price_per_sqm": 1951.219512195122, "turnover_score": 9.1, "turnover_rank": 12, "first_year": 2024, "last_year": 2024, "years_active": 1}}, {"type": "Feature", "geometry": {"type": "Point", "coordinates": [2.9780445, 48.400886]}, "properties": {"street_name": "RUE DES HETRES", "sales": 2, "sales_appt": 0, "sales_maison": 2, "median_price": 207500.0, "median_price_per_sqm": 2098.4693877551017, "turnover_score": 9.1, "turnover_rank": 12, "first_year": 2023, "last_year": 2023, "years_active": 1}}, {"type": "Feature", "geometry": {"type": "Point", "coordinates": [3.005006, 48.415902]}, "properties": {"street_name": "LES THIBAUDES", "sales": 2, "sales_appt": 0, "sales_maison": 0, "median_price": 76000.0, "median_price_per_sqm": null, "turnover_score": 9.1, "turnover_rank": 12, "first_year": 2025, "last_year": 2025, "years_active": 1}}, {"type": "Feature", "geometry": {"type": "Point", "coordinates": [2.9835415000000003, 48.417243]}, "properties": {"street_name": "IMP DES HAUTS DE GARDELOUP", "sales": 2, "sales_appt": 0, "sales_maison": 2, "median_price": 174900.0, "median_price_per_sqm": 2120.8888888888887, "turnover_score": 9.1, "turnover_rank": 12, "first_year": 2021, "last_year": 2024, "years_active": 2}}, {"type": "Feature", "geometry": {"type": "Point", "coordinates": [2.980393, 48.407824000000005]}, "properties": {"street_name": "PLAINE DE MERLANGE", "sales": 2, "sales_appt": 0, "sales_maison": 0, "median_price": 290088.0, "median_price_per_sqm": null, "turnover_score": 9.1, "turnover_rank": 12, "first_year": 2022, "last_year": 2022, "years_active": 1}}, {"type": "Feature", "geometry": {"type": "Point", "coordinates": [2.989013, 48.401216]}, "properties": {"street_name": "ALL DES CAMELIAS", "sales": 1, "sales_appt": 0, "sales_maison": 1, "median_price": 282956.0, "median_price_per_sqm": 2210.59375, "turnover_score": 4.5, "turnover_rank": 13, "first_year": 2022, "last_year": 2022, "years_active": 1}}, {"type": "Feature", "geometry": {"type": "Point", "coordinates": [2.984586, 48.401049]}, "properties": {"street_name": "ALL DES JACINTHES", "sales": 1, "sales_appt": 0, "sales_maison": 1, "median_price": 218000.0, "median_price_per_sqm": 2449.438202247191, "turnover_score": 4.5, "turnover_rank": 13, "first_year": 2025, "last_year": 2025, "years_active": 1}}, {"type": "Feature", "geometry": {"type": "Point", "coordinates": [2.985296, 48.398275]}, "properties": {"street_name": "ALL DES MIMOSAS", "sales": 1, "sales_appt": 0, "sales_maison": 1, "median_price": 172000.0, "median_price_per_sqm": 2457.1428571428573, "turnover_score": 4.5, "turnover_rank": 13, "first_year": 2021, "last_year": 2021, "years_active": 1}}, {"type": "Feature", "geometry": {"type": "Point", "coordinates": [2.99001, 48.400042]}, "properties": {"street_name": "AV ANCIENNE EGLISE ST PIERRE", "sales": 1, "sales_appt": 0, "sales_maison": 0, "median_price": 225000.0, "median_price_per_sqm": null, "turnover_score": 4.5, "turnover_rank": 13, "first_year": 2022, "last_year": 2022, "years_active": 1}}, {"type": "Feature", "geometry": {"type": "Point", "coordinates": [2.982397, 48.398926]}, "properties": {"street_name": "ALL DES ROSES", "sales": 1, "sales_appt": 0, "sales_maison": 1, "median_price": 195000.0, "median_price_per_sqm": 2671.2328767123286, "turnover_score": 4.5, "turnover_rank": 13, "first_year": 2024, "last_year": 2024, "years_active": 1}}, {"type": "Feature", "geometry": {"type": "Point", "coordinates": [3.019419, 48.401773]}, "properties": {"street_name": "LES SABLES DE TRECHY", "sales": 1, "sales_appt": 0, "sales_maison": 0, "median_price": 20000.0, "median_price_per_sqm": null, "turnover_score": 4.5, "turnover_rank": 13, "first_year": 2024, "last_year": 2024, "years_active": 1}}, {"type": "Feature", "geometry": {"type": "Point", "coordinates": [3.001943, 48.41648]}, "properties": {"street_name": "LES BACHOTTES", "sales": 1, "sales_appt": 0, "sales_maison": 0, "median_price": 98759.03, "median_price_per_sqm": null, "turnover_score": 4.5, "turnover_rank": 13, "first_year": 2025, "last_year": 2025, "years_active": 1}}, {"type": "Feature", "geometry": {"type": "Point", "coordinates": [2.978366, 48.414128]}, "properties": {"street_name": "IMP DES EPERVIERS", "sales": 1, "sales_appt": 0, "sales_maison": 1, "median_price": 205000.0, "median_price_per_sqm": 2204.3010752688174, "turnover_score": 4.5, "turnover_rank": 13, "first_year": 2025, "last_year": 2025, "years_active": 1}}, {"type": "Feature", "geometry": {"type": "Point", "coordinates": [3.000712, 48.406766]}, "properties": {"street_name": "L ETANG", "sales": 1, "sales_appt": 0, "sales_maison": 0, "median_price": 18286.5, "median_price_per_sqm": null, "turnover_score": 4.5, "turnover_rank": 13, "first_year": 2022, "last_year": 2022, "years_active": 1}}, {"type": "Feature", "geometry": {"type": "Point", "coordinates": [3.004793, 48.415481]}, "properties": {"street_name": "LA CROIX CHUTE", "sales": 1, "sales_appt": 0, "sales_maison": 1, "median_price": 163000.0, "median_price_per_sqm": 2587.3015873015875, "turnover_score": 4.5, "turnover_rank": 13, "first_year": 2024, "last_year": 2024, "years_active": 1}}, {"type": "Feature", "geometry": {"type": "Point", "coordinates": [2.986248, 48.399684]}, "properties": {"street_name": "LA PIECE DE SAINT PIERRE", "sales": 1, "sales_appt": 0, "sales_maison": 0, "median_price": 195000.0, "median_price_per_sqm": null, "turnover_score": 4.5, "turnover_rank": 13, "first_year": 2024, "last_year": 2024, "years_active": 1}}, {"type": "Feature", "geometry": {"type": "Point", "coordinates": [2.998259, 48.398646]}, "properties": {"street_name": "CHE DE LA PRIEUREE", "sales": 1, "sales_appt": 0, "sales_maison": 0, "median_price": 393030.0, "median_price_per_sqm": null, "turnover_score": 4.5, "turnover_rank": 13, "first_year": 2022, "last_year": 2022, "years_active": 1}}, {"type": "Feature", "geometry": {"type": "Point", "coordinates": [3.005389, 48.415643]}, "properties": {"street_name": "CHE DE LA CROIX CHUTE", "sales": 1, "sales_appt": 0, "sales_maison": 0, "median_price": 76000.0, "median_price_per_sqm": null, "turnover_score": 4.5, "turnover_rank": 13, "first_year": 2025, "last_year": 2025, "years_active": 1}}, {"type": "Feature", "geometry": {"type": "Point", "coordinates": [3.01754, 48.404225]}, "properties": {"street_name": "LES FOURNIERES", "sales": 1, "sales_appt": 0, "sales_maison": 0, "median_price": 35245.0, "median_price_per_sqm": null, "turnover_score": 4.5, "turnover_rank": 13, "first_year": 2021, "last_year": 2021, "years_active": 1}}, {"type": "Feature", "geometry": {"type": "Point", "coordinates": [3.018088, 48.401503]}, "properties": {"street_name": "LES SABLES", "sales": 1, "sales_appt": 0, "sales_maison": 0, "median_price": 5500.0, "median_price_per_sqm": null, "turnover_score": 4.5, "turnover_rank": 13, "first_year": 2023, "last_year": 2023, "years_active": 1}}, {"type": "Feature", "geometry": {"type": "Point", "coordinates": [2.987858, 48.401451]}, "properties": {"street_name": "RUE DES ANEMONES", "sales": 1, "sales_appt": 0, "sales_maison": 1, "median_price": 165000.0, "median_price_per_sqm": 2200.0, "turnover_score": 4.5, "turnover_rank": 13, "first_year": 2024, "last_year": 2024, "years_active": 1}}, {"type": "Feature", "geometry": {"type": "Point", "coordinates": [3.01949, 48.405696]}, "properties": {"street_name": "RUE DU BOIS DE CHATILLON", "sales": 1, "sales_appt": 0, "sales_maison": 1, "median_price": 235000.0, "median_price_per_sqm": 2350.0, "turnover_score": 4.5, "turnover_rank": 13, "first_year": 2024, "last_year": 2024, "years_active": 1}}, {"type": "Feature", "geometry": {"type": "Point", "coordinates": [2.979205, 48.400644]}, "properties": {"street_name": "RUE DES PLATANES", "sales": 1, "sales_appt": 0, "sales_maison": 1, "median_price": 50000.0, "median_price_per_sqm": 724.6376811594203, "turnover_score": 4.5, "turnover_rank": 13, "first_year": 2023, "last_year": 2023, "years_active": 1}}, {"type": "Feature", "geometry": {"type": "Point", "coordinates": [2.980055, 48.41432]}, "properties": {"street_name": "RUE DES ROCHES", "sales": 1, "sales_appt": 0, "sales_maison": 1, "median_price": 244070.0, "median_price_per_sqm": 1584.8701298701299, "turnover_score": 4.5, "turnover_rank": 13, "first_year": 2021, "last_year": 2021, "years_active": 1}}]}