{"type": "FeatureCollection", "features": [{"type": "Feature", "geometry": {"type": "Polygon", "coordinates": [[[2.917705, 48.825201], [2.917513, 48.825622], [2.917354, 48.826158], [2.917302, 48.826391], [2.917155, 48.826732], [2.917065, 48.827038], [2.916924, 48.827289], [2.916757, 48.827922], [2.91699, 48.827968], [2.916806, 48.828599], [2.917035, 48.828624], [2.91683, 48.829437], [2.916734, 48.829865], [2.91716, 48.829899], [2.917481, 48.833286], [2.917754, 48.83402], [2.917895, 48.834349], [2.918073, 48.834699], [2.918463, 48.835335], [2.920286, 48.834503], [2.921408, 48.835462], [2.921618, 48.835631], [2.921684, 48.835313], [2.923074, 48.836414], [2.922832, 48.836568], [2.923281, 48.836799], [2.923839, 48.837127], [2.923776, 48.837179], [2.924242, 48.837694], [2.924583, 48.838176], [2.924964, 48.838656], [2.925916, 48.838373], [2.926799, 48.838144], [2.92792, 48.837878], [2.928011, 48.838101], [2.928195, 48.838445], [2.928276, 48.83867], [2.928503, 48.839032], [2.928681, 48.839274], [2.929165, 48.839169], [2.929526, 48.83915], [2.929989, 48.839243], [2.930478, 48.839382], [2.93081, 48.839418], [2.931482, 48.839386], [2.932009, 48.839341], [2.932951, 48.839283], [2.93372, 48.839249], [2.934238, 48.839212], [2.935404, 48.839176], [2.936129, 48.839166], [2.937067, 48.839117], [2.937665, 48.839123], [2.938024, 48.839146], [2.938424, 48.839201], [2.939165, 48.839366], [2.940446, 48.839574], [2.941306, 48.839723], [2.94208, 48.839807], [2.942965, 48.839875], [2.943411, 48.839893], [2.945054, 48.840049], [2.945902, 48.840122], [2.946135, 48.840121], [2.947578, 48.840176], [2.948935, 48.840236], [2.949506, 48.840253], [2.950792, 48.840204], [2.951291, 48.840106], [2.952517, 48.839754], [2.953526, 48.839455], [2.953969, 48.839368], [2.954259, 48.839338], [2.954814, 48.839331], [2.956162, 48.839404], [2.957388, 48.839511], [2.958401, 48.839524], [2.958394, 48.839624], [2.958236, 48.839721], [2.956999, 48.840699], [2.956916, 48.840778], [2.956769, 48.84104], [2.956661, 48.841294], [2.956576, 48.84165], [2.955345, 48.842138], [2.955879, 48.842331], [2.956924, 48.842935], [2.958012, 48.843656], [2.958359, 48.844045], [2.958917, 48.844885], [2.959292, 48.84549], [2.959627, 48.846166], [2.960285, 48.846113], [2.962111, 48.846089], [2.962752, 48.846075], [2.963755, 48.845983], [2.96529, 48.845861], [2.967153, 48.845892], [2.967213, 48.845904], [2.968343, 48.845893], [2.968678, 48.845904], [2.969156, 48.84595], [2.970125, 48.846069], [2.971617, 48.846231], [2.971925, 48.846293], [2.972726, 48.846351], [2.972972, 48.846347], [2.973442, 48.845553], [2.973939, 48.844957], [2.974858, 48.843966], [2.976333, 48.842434], [2.976656, 48.842167], [2.976916, 48.842013], [2.977226, 48.841895], [2.977618, 48.841793], [2.97836, 48.841649], [2.979575, 48.841382], [2.980444, 48.841206], [2.981492, 48.840971], [2.982713, 48.840765], [2.983302, 48.840629], [2.983845, 48.840459], [2.984247, 48.840303], [2.984908, 48.840025], [2.985295, 48.839891], [2.985444, 48.839761], [2.985632, 48.839427], [2.98605, 48.839], [2.986372, 48.838579], [2.986738, 48.83786], [2.987295, 48.836954], [2.987354, 48.836891], [2.988029, 48.835813], [2.988044, 48.835684], [2.988213, 48.835366], [2.988835, 48.834408], [2.989807, 48.833196], [2.989723, 48.833135], [2.989417, 48.832752], [2.988774, 48.831988], [2.988228, 48.831382], [2.987582, 48.830614], [2.98693, 48.829771], [2.986675, 48.829338], [2.986357, 48.828846], [2.986053, 48.828452], [2.985028, 48.827375], [2.984652, 48.826927], [2.984337, 48.826501], [2.984079, 48.826019], [2.983636, 48.824867], [2.98336, 48.824199], [2.983246, 48.824202], [2.982407, 48.823322], [2.982344, 48.823337], [2.980169, 48.823712], [2.97852, 48.824634], [2.977715, 48.824986], [2.977541, 48.825075], [2.976602, 48.82536], [2.975811, 48.825729], [2.975712, 48.825524], [2.97593, 48.825342], [2.975695, 48.825035], [2.975593, 48.824725], [2.975506, 48.82459], [2.975018, 48.82416], [2.97491, 48.823958], [2.97471, 48.823463], [2.974592, 48.823316], [2.973743, 48.822467], [2.973426, 48.822223], [2.973003, 48.821831], [2.972239, 48.820876], [2.972031, 48.820558], [2.971811, 48.820334], [2.971481, 48.820043], [2.971229, 48.819718], [2.971108, 48.819505], [2.970936, 48.818955], [2.970749, 48.818751], [2.96981, 48.818463], [2.96963, 48.818311], [2.969316, 48.817392], [2.969251, 48.817137], [2.969267, 48.81645], [2.969393, 48.815866], [2.969337, 48.815585], [2.968027, 48.815745], [2.967365, 48.815834], [2.965986, 48.815986], [2.966071, 48.81537], [2.966072, 48.815209], [2.966005, 48.815061], [2.965762, 48.814907], [2.965499, 48.814699], [2.965348, 48.814466], [2.965075, 48.813678], [2.964913, 48.813291], [2.964802, 48.812661], [2.964648, 48.812011], [2.964574, 48.811808], [2.964476, 48.811658], [2.964172, 48.811425], [2.963742, 48.811064], [2.963251, 48.810789], [2.961828, 48.810591], [2.962012, 48.810139], [2.962008, 48.809785], [2.96222, 48.809369], [2.962506, 48.809105], [2.962699, 48.809025], [2.962871, 48.808782], [2.96283, 48.808496], [2.962859, 48.808236], [2.962986, 48.808127], [2.963111, 48.807897], [2.963122, 48.807569], [2.963174, 48.80739], [2.963279, 48.807246], [2.963872, 48.806738], [2.964049, 48.806626], [2.963905, 48.8065], [2.963815, 48.806303], [2.963716, 48.806238], [2.963645, 48.806093], [2.963392, 48.8059], [2.963128, 48.805661], [2.96364, 48.805385], [2.963671, 48.805341], [2.963505, 48.805169], [2.962716, 48.804259], [2.963212, 48.804071], [2.963783, 48.803874], [2.963508, 48.803511], [2.963062, 48.802818], [2.962875, 48.802615], [2.962747, 48.802399], [2.962601, 48.802063], [2.962408, 48.801536], [2.96224, 48.801254], [2.962024, 48.801164], [2.960853, 48.801099], [2.960672, 48.801073], [2.960464, 48.800977], [2.960364, 48.800515], [2.96033, 48.799965], [2.960318, 48.79942], [2.960237, 48.798912], [2.960073, 48.798367], [2.959915, 48.798019], [2.959866, 48.797779], [2.959928, 48.797427], [2.960139, 48.797096], [2.96081, 48.796486], [2.960903, 48.796358], [2.960963, 48.796051], [2.961065, 48.795338], [2.961166, 48.794936], [2.961272, 48.794641], [2.961347, 48.794295], [2.961478, 48.793414], [2.961417, 48.793074], [2.961313, 48.792836], [2.961053, 48.792562], [2.960891, 48.792446], [2.960563, 48.792469], [2.958727, 48.792044], [2.95786, 48.791867], [2.956475, 48.791671], [2.956479, 48.791417], [2.956405, 48.790243], [2.95643, 48.78977], [2.95525, 48.789909], [2.954626, 48.790009], [2.953954, 48.790254], [2.953689, 48.790327], [2.952952, 48.790466], [2.952377, 48.790498], [2.951966, 48.79047], [2.952049, 48.790334], [2.952189, 48.789505], [2.952273, 48.787925], [2.952317, 48.787579], [2.952441, 48.787216], [2.95272, 48.786638], [2.952934, 48.786105], [2.953308, 48.784849], [2.953451, 48.784477], [2.953639, 48.784291], [2.954441, 48.783816], [2.955322, 48.783226], [2.95542, 48.783151], [2.955453, 48.783047], [2.954535, 48.782547], [2.953999, 48.782219], [2.953532, 48.7819], [2.95382, 48.781424], [2.953771, 48.781268], [2.953407, 48.780681], [2.952166, 48.780739], [2.951414, 48.780783], [2.951142, 48.780738], [2.950454, 48.781969], [2.948101, 48.781865], [2.947943, 48.781872], [2.94789, 48.781768], [2.947032, 48.780784], [2.946778, 48.780573], [2.946246, 48.780387], [2.945798, 48.780325], [2.942296, 48.779447], [2.941872, 48.779372], [2.940259, 48.779153], [2.940025, 48.779157], [2.939859, 48.779235], [2.939776, 48.779349], [2.939248, 48.780308], [2.93903, 48.78068], [2.93886, 48.780846], [2.938639, 48.780895], [2.938118, 48.78087], [2.937751, 48.780917], [2.93732, 48.781032], [2.936521, 48.7813], [2.936425, 48.781345], [2.935869, 48.781578], [2.935187, 48.781895], [2.934343, 48.782315], [2.934215, 48.782352], [2.934125, 48.782931], [2.933506, 48.785227], [2.933443, 48.785644], [2.933191, 48.787559], [2.933515, 48.787785], [2.933627, 48.788197], [2.93388, 48.789977], [2.934486, 48.791253], [2.934824, 48.79238], [2.934898, 48.792719], [2.935044, 48.793073], [2.935218, 48.794087], [2.935207, 48.794557], [2.93497, 48.795429], [2.93481, 48.795865], [2.934705, 48.796237], [2.934579, 48.796767], [2.93457, 48.797216], [2.934653, 48.798207], [2.934722, 48.798619], [2.934679, 48.799483], [2.93467, 48.800048], [2.934738, 48.800575], [2.9357, 48.802458], [2.935915, 48.803042], [2.936097, 48.804039], [2.935606, 48.803989], [2.934611, 48.803677], [2.934061, 48.803521], [2.933608, 48.803443], [2.932399, 48.803304], [2.931395, 48.803198], [2.931302, 48.803204], [2.930231, 48.803065], [2.929023, 48.805724], [2.928916, 48.805976], [2.929215, 48.806191], [2.929545, 48.80646], [2.929666, 48.806609], [2.929988, 48.807092], [2.930155, 48.807439], [2.930452, 48.807838], [2.930605, 48.808557], [2.930686, 48.809027], [2.93072, 48.80943], [2.930774, 48.809809], [2.930891, 48.810212], [2.931074, 48.810924], [2.931363, 48.811365], [2.931506, 48.811502], [2.931698, 48.81177], [2.931778, 48.81195], [2.931803, 48.81231], [2.931862, 48.812507], [2.932203, 48.813073], [2.932336, 48.813268], [2.932394, 48.813272], [2.932913, 48.813766], [2.933464, 48.814062], [2.933714, 48.814285], [2.933816, 48.814449], [2.933963, 48.814822], [2.934078, 48.815028], [2.933958, 48.815265], [2.933801, 48.815837], [2.933566, 48.816324], [2.933598, 48.816539], [2.933917, 48.817086], [2.933993, 48.817317], [2.933967, 48.81747], [2.933829, 48.817762], [2.933513, 48.818341], [2.933368, 48.818542], [2.932988, 48.818921], [2.932914, 48.819035], [2.932828, 48.819406], [2.932712, 48.819668], [2.932607, 48.819746], [2.932369, 48.820018], [2.931975, 48.820338], [2.932168, 48.82052], [2.931865, 48.820632], [2.931115, 48.820939], [2.930936, 48.821145], [2.930939, 48.821395], [2.931041, 48.821643], [2.931043, 48.821838], [2.930947, 48.82211], [2.930671, 48.822316], [2.930376, 48.822351], [2.929964, 48.822223], [2.929651, 48.822094], [2.929325, 48.82214], [2.92864, 48.822392], [2.927186, 48.82281], [2.926664, 48.823061], [2.926534, 48.823246], [2.926505, 48.823571], [2.926392, 48.823756], [2.926002, 48.824007], [2.925088, 48.824358], [2.924236, 48.824513], [2.922958, 48.82465], [2.92227, 48.824697], [2.921665, 48.824873], [2.921374, 48.825091], [2.921049, 48.825396], [2.920671, 48.825528], [2.920296, 48.82554], [2.919458, 48.825414], [2.918637, 48.825245], [2.917705, 48.825201]]]}, "properties": {"code_iris": "772190000", "nom_iris": "Guérard (commune entière)", "type_iris": "Z", "lat": 48.8128, "lng": 2.9533, "dvf_sales_total": 2696, "dvf_sales_appt": 0, "dvf_sales_maison": 0, "dvf_median_price": 107200.0, "dvf_median_ppsqm": 3016.586893203884, "dvf_by_year": "[{\"year\": 2021, \"sales\": 306, \"median_price\": 242578.0}, {\"year\": 2022, \"sales\": 322, \"median_price\": 280000.0}, {\"year\": 2023, \"sales\": 483, \"median_price\": 43535.0}, {\"year\": 2024, \"sales\": 1091, \"median_price\": 94952.0}, {\"year\": 2025, \"sales\": 494, \"median_price\": 134600.0}]", "population": 2688, "n_log": null, "n_rp": null, "pct_proprio": null, "pct_hlm": null, "pct_appart": null, "pct_cadres": null, "pct_bac5p": null, "pct_etrangers": null, "pct_0_14": null, "pct_65p": null, "bpe_total": null, "bpe_commerces": null, "bpe_enseignement": null, "bpe_sante": null, "dpe": null, "attractivity_score": null, "rank_attractivity_score": null, "rank_total_attractivity_score": 1, "commune_avg": null, "is_stub": true}}]}