{"type": "FeatureCollection", "features": [{"type": "Feature", "geometry": {"type": "Polygon", "coordinates": [[[2.826119, 48.477962], [2.826075, 48.478074], [2.8253, 48.478511], [2.824808, 48.478806], [2.824692, 48.478836], [2.822228, 48.479041], [2.821528, 48.479133], [2.82071, 48.479262], [2.819578, 48.479479], [2.819241, 48.479554], [2.819168, 48.479623], [2.819168, 48.479937], [2.819125, 48.479983], [2.818744, 48.480049], [2.818374, 48.480147], [2.818061, 48.480314], [2.816961, 48.480468], [2.816804, 48.4805], [2.816271, 48.480489], [2.815928, 48.480556], [2.815419, 48.480711], [2.81477, 48.480928], [2.814153, 48.481087], [2.814101, 48.481126], [2.813558, 48.481195], [2.813409, 48.481192], [2.810586, 48.480817], [2.809247, 48.480662], [2.806483, 48.480295], [2.805076, 48.480129], [2.803604, 48.479991], [2.8026, 48.479873], [2.802399, 48.47982], [2.801757, 48.479732], [2.800921, 48.479579], [2.798772, 48.479166], [2.797787, 48.479003], [2.796323, 48.478813], [2.795649, 48.478769], [2.793549, 48.47851], [2.793315, 48.478493], [2.791579, 48.478308], [2.791145, 48.478532], [2.789569, 48.479271], [2.788654, 48.478576], [2.788139, 48.478129], [2.787893, 48.478338], [2.787708, 48.478577], [2.787315, 48.479197], [2.786911, 48.479907], [2.786715, 48.480292], [2.786907, 48.480738], [2.786949, 48.480982], [2.786968, 48.481369], [2.787054, 48.482235], [2.787044, 48.482559], [2.786871, 48.483318], [2.786668, 48.483871], [2.786424, 48.484363], [2.786178, 48.484929], [2.785949, 48.485899], [2.785835, 48.486071], [2.785553, 48.486634], [2.785379, 48.487093], [2.785314, 48.487637], [2.785225, 48.488203], [2.785167, 48.488802], [2.785245, 48.48896], [2.785387, 48.489059], [2.786383, 48.489619], [2.784815, 48.492159], [2.784089, 48.493124], [2.783959, 48.492982], [2.783626, 48.492756], [2.783463, 48.492564], [2.783394, 48.492144], [2.78326, 48.491992], [2.782695, 48.491699], [2.782516, 48.491507], [2.782387, 48.491179], [2.782185, 48.49097], [2.781517, 48.490606], [2.780678, 48.490307], [2.779767, 48.490874], [2.779108, 48.490792], [2.778674, 48.49076], [2.778024, 48.49083], [2.77805, 48.490897], [2.77823, 48.49102], [2.778499, 48.491265], [2.777874, 48.491757], [2.777723, 48.491849], [2.777235, 48.492019], [2.777064, 48.491977], [2.776711, 48.491791], [2.776067, 48.491421], [2.775649, 48.491063], [2.775426, 48.490649], [2.775167, 48.490225], [2.775019, 48.490106], [2.77467, 48.489895], [2.774222, 48.489731], [2.773837, 48.489731], [2.773481, 48.489763], [2.773078, 48.489758], [2.772681, 48.489954], [2.772395, 48.490032], [2.772206, 48.490153], [2.771936, 48.490212], [2.77163, 48.490244], [2.771262, 48.490346], [2.770901, 48.490349], [2.771126, 48.491171], [2.77123, 48.491494], [2.771228, 48.491606], [2.771102, 48.492039], [2.771167, 48.492158], [2.771067, 48.492231], [2.771001, 48.49255], [2.770993, 48.492791], [2.770908, 48.4929], [2.770789, 48.493367], [2.770276, 48.493303], [2.767927, 48.493102], [2.767375, 48.493043], [2.765314, 48.492694], [2.765019, 48.492637], [2.764104, 48.492491], [2.764299, 48.493396], [2.76432, 48.493694], [2.764369, 48.493946], [2.764397, 48.494389], [2.764281, 48.495003], [2.764003, 48.495907], [2.76392, 48.49637], [2.76389, 48.49673], [2.763804, 48.497169], [2.763343, 48.498001], [2.762931, 48.49857], [2.762477, 48.499296], [2.762332, 48.499649], [2.7621, 48.500495], [2.761986, 48.500798], [2.761734, 48.501366], [2.761431, 48.501919], [2.761147, 48.502094], [2.761031, 48.502332], [2.760684, 48.502575], [2.760242, 48.502941], [2.760015, 48.50316], [2.759927, 48.503397], [2.759921, 48.503558], [2.760017, 48.503895], [2.759889, 48.504407], [2.760053, 48.504889], [2.76013, 48.505213], [2.760289, 48.505678], [2.760295, 48.50622], [2.760265, 48.506483], [2.760304, 48.506851], [2.760443, 48.507034], [2.760505, 48.507322], [2.760587, 48.507397], [2.761357, 48.5074], [2.761382, 48.507645], [2.761442, 48.507847], [2.761586, 48.508152], [2.761709, 48.508737], [2.761685, 48.509124], [2.761549, 48.509347], [2.761062, 48.509857], [2.760392, 48.5105], [2.760039, 48.510916], [2.759942, 48.511132], [2.759489, 48.512487], [2.759035, 48.512497], [2.759025, 48.512997], [2.759037, 48.513533], [2.759029, 48.514144], [2.759001, 48.514388], [2.758814, 48.51548], [2.758622, 48.51613], [2.758603, 48.516336], [2.758717, 48.516702], [2.758842, 48.516856], [2.759163, 48.517177], [2.75969, 48.517648], [2.759903, 48.517957], [2.759925, 48.518077], [2.760476, 48.518085], [2.76145, 48.518049], [2.761865, 48.51809], [2.762525, 48.518105], [2.762812, 48.518151], [2.763066, 48.518108], [2.764272, 48.517677], [2.764861, 48.517409], [2.765427, 48.51717], [2.76562, 48.517037], [2.766854, 48.516513], [2.766986, 48.516368], [2.767542, 48.516162], [2.768169, 48.515897], [2.769441, 48.515394], [2.769936, 48.515228], [2.77083, 48.514864], [2.771268, 48.514703], [2.771964, 48.514406], [2.772782, 48.514133], [2.773057, 48.514077], [2.77313, 48.514008], [2.773517, 48.513886], [2.773754, 48.513836], [2.774365, 48.513743], [2.775309, 48.513652], [2.775917, 48.513548], [2.777631, 48.513092], [2.778656, 48.512968], [2.778871, 48.512992], [2.779432, 48.513351], [2.779238, 48.513469], [2.779783, 48.513837], [2.78212, 48.5155], [2.782061, 48.515892], [2.781977, 48.51621], [2.781841, 48.516419], [2.781475, 48.516818], [2.780817, 48.517446], [2.780238, 48.518025], [2.779316, 48.518971], [2.778599, 48.519683], [2.77826, 48.519988], [2.778076, 48.520233], [2.778506, 48.521672], [2.778619, 48.522083], [2.780427, 48.521823], [2.781465, 48.521661], [2.782378, 48.521546], [2.782937, 48.521493], [2.782744, 48.523453], [2.782662, 48.524099], [2.782859, 48.524146], [2.783096, 48.524142], [2.783382, 48.524097], [2.784131, 48.524032], [2.784575, 48.524005], [2.78478, 48.523963], [2.78573, 48.523625], [2.786112, 48.523598], [2.786577, 48.523484], [2.786737, 48.523465], [2.787234, 48.523583], [2.787806, 48.523758], [2.788942, 48.524042], [2.789672, 48.524041], [2.789978, 48.524071], [2.79057, 48.524169], [2.791356, 48.524264], [2.791385, 48.524028], [2.791667, 48.524015], [2.791753, 48.523521], [2.792126, 48.523462], [2.792279, 48.522611], [2.792332, 48.522382], [2.794163, 48.522042], [2.794382, 48.521987], [2.795191, 48.521851], [2.795429, 48.521746], [2.796045, 48.521586], [2.797097, 48.52134], [2.797403, 48.52132], [2.797722, 48.521096], [2.798004, 48.521076], [2.798282, 48.521147], [2.798846, 48.521129], [2.79938, 48.521088], [2.800155, 48.520979], [2.800359, 48.520996], [2.800348, 48.521498], [2.800428, 48.522213], [2.800528, 48.522641], [2.800717, 48.523015], [2.801315, 48.52289], [2.801932, 48.522797], [2.802902, 48.522584], [2.803327, 48.522579], [2.804304, 48.522709], [2.804793, 48.522829], [2.805307, 48.523004], [2.805525, 48.523025], [2.805639, 48.523226], [2.805916, 48.52353], [2.806411, 48.524324], [2.806633, 48.524781], [2.80725, 48.524843], [2.807814, 48.52483], [2.808179, 48.524798], [2.809423, 48.52456], [2.80959, 48.524503], [2.809911, 48.524457], [2.810703, 48.52431], [2.810901, 48.524285], [2.811494, 48.524161], [2.81165, 48.524149], [2.812996, 48.523809], [2.813404, 48.523726], [2.81445, 48.523558], [2.816237, 48.523375], [2.81645, 48.523326], [2.816908, 48.523082], [2.81865, 48.522187], [2.819657, 48.521708], [2.820064, 48.521498], [2.821018, 48.521041], [2.824432, 48.519427], [2.825239, 48.519038], [2.826091, 48.518659], [2.826472, 48.518505], [2.827489, 48.518168], [2.830034, 48.517398], [2.830544, 48.517239], [2.831745, 48.516833], [2.832473, 48.516549], [2.833358, 48.516244], [2.833766, 48.516124], [2.834344, 48.516029], [2.834961, 48.515978], [2.835613, 48.515962], [2.838519, 48.515956], [2.838624, 48.515707], [2.83916, 48.514629], [2.838695, 48.514595], [2.838911, 48.51406], [2.838405, 48.513983], [2.840486, 48.511816], [2.840343, 48.511509], [2.840022, 48.510958], [2.839804, 48.510529], [2.839917, 48.51032], [2.840001, 48.510054], [2.840022, 48.50923], [2.839964, 48.508879], [2.83971, 48.508515], [2.839612, 48.508255], [2.839354, 48.508104], [2.839108, 48.507914], [2.839013, 48.507691], [2.838749, 48.507294], [2.83863, 48.507172], [2.838079, 48.50705], [2.837151, 48.506863], [2.836403, 48.506815], [2.836099, 48.507274], [2.835689, 48.507381], [2.835613, 48.507137], [2.835549, 48.507155], [2.835343, 48.506715], [2.835204, 48.506528], [2.834973, 48.50635], [2.834461, 48.506087], [2.833498, 48.505751], [2.833619, 48.505664], [2.833317, 48.505358], [2.832996, 48.504977], [2.832918, 48.504851], [2.83357, 48.504012], [2.834036, 48.503141], [2.833721, 48.503029], [2.833686, 48.502935], [2.832605, 48.502841], [2.831989, 48.502806], [2.831813, 48.502763], [2.831073, 48.502654], [2.830671, 48.502426], [2.829324, 48.501224], [2.828636, 48.500579], [2.828727, 48.500447], [2.829088, 48.500084], [2.829474, 48.499815], [2.829807, 48.49964], [2.830511, 48.499444], [2.830639, 48.499357], [2.830759, 48.4992], [2.831231, 48.49879], [2.831447, 48.498669], [2.83199, 48.498164], [2.832859, 48.497381], [2.833345, 48.496991], [2.83389, 48.496617], [2.834065, 48.496552], [2.834206, 48.496314], [2.834436, 48.495852], [2.834745, 48.495461], [2.834766, 48.495338], [2.834592, 48.494723], [2.834338, 48.494034], [2.835285, 48.493836], [2.835658, 48.493795], [2.83765, 48.493637], [2.838842, 48.493558], [2.839682, 48.493482], [2.841136, 48.49331], [2.8411, 48.49276], [2.841073, 48.492623], [2.840916, 48.490129], [2.840797, 48.488308], [2.842157, 48.488077], [2.842694, 48.487971], [2.842758, 48.488064], [2.842755, 48.488545], [2.843779, 48.488549], [2.844012, 48.488324], [2.84406, 48.488235], [2.843909, 48.487587], [2.843855, 48.487557], [2.843259, 48.487569], [2.843181, 48.48747], [2.843342, 48.486985], [2.843622, 48.485133], [2.843618, 48.485127], [2.843606, 48.485109], [2.843934, 48.484043], [2.844537, 48.483332], [2.843687, 48.482185], [2.843178, 48.481568], [2.843158, 48.481523], [2.84269, 48.481022], [2.842442, 48.480619], [2.842272, 48.480478], [2.841571, 48.480485], [2.841249, 48.480649], [2.840334, 48.481007], [2.833762, 48.483547], [2.833615, 48.483449], [2.832477, 48.482605], [2.832346, 48.482507], [2.831885, 48.482374], [2.830584, 48.48169], [2.829884, 48.481337], [2.829199, 48.481027], [2.828335, 48.480406], [2.828099, 48.48029], [2.82727, 48.480076], [2.82697, 48.479971], [2.826507, 48.47976], [2.826396, 48.479556], [2.826371, 48.47849], [2.826224, 48.478051], [2.826119, 48.477962]]]}, "properties": {"code_iris": "771000000", "nom_iris": "Le Châtelet-en-Brie (commune entière)", "type_iris": "Z", "lat": 48.5014, "lng": 2.8016, "dvf_sales_total": 634, "dvf_sales_appt": 0, "dvf_sales_maison": 0, "dvf_median_price": 245000.0, "dvf_median_ppsqm": 2869.918699186992, "dvf_by_year": "[{\"year\": 2021, \"sales\": 146, \"median_price\": 250000.0}, {\"year\": 2022, \"sales\": 121, \"median_price\": 275000.0}, {\"year\": 2023, \"sales\": 106, \"median_price\": 252000.0}, {\"year\": 2024, \"sales\": 110, \"median_price\": 219204.76}, {\"year\": 2025, \"sales\": 151, \"median_price\": 244999.0}]", "population": 4207, "n_log": null, "n_rp": null, "pct_proprio": null, "pct_hlm": null, "pct_appart": null, "pct_cadres": null, "pct_bac5p": null, "pct_etrangers": null, "pct_0_14": null, "pct_65p": null, "bpe_total": null, "bpe_commerces": null, "bpe_enseignement": null, "bpe_sante": null, "dpe": null, "attractivity_score": null, "rank_attractivity_score": null, "rank_total_attractivity_score": 1, "commune_avg": null, "is_stub": true}}]}