{"type": "FeatureCollection", "features": [{"type": "Feature", "geometry": {"type": "Polygon", "coordinates": [[[2.649232, 48.774767], [2.649113, 48.773869], [2.648949, 48.772289], [2.648938, 48.771988], [2.64888, 48.771694], [2.648478, 48.770952], [2.648415, 48.770659], [2.648187, 48.770678], [2.646804, 48.770946], [2.646235, 48.771017], [2.645523, 48.770927], [2.64532, 48.770879], [2.644771, 48.770807], [2.644485, 48.770795], [2.643289, 48.770643], [2.641223, 48.770201], [2.641087, 48.770165], [2.640397, 48.770153], [2.640286, 48.770087], [2.640314, 48.769972], [2.640603, 48.769619], [2.641483, 48.76929], [2.641209, 48.768965], [2.641136, 48.768802], [2.640912, 48.768842], [2.640163, 48.768981], [2.638688, 48.769234], [2.637806, 48.769401], [2.634958, 48.769887], [2.632235, 48.770323], [2.631213, 48.770482], [2.63132, 48.77036], [2.633375, 48.768352], [2.63306, 48.768319], [2.632126, 48.768155], [2.631003, 48.767993], [2.630502, 48.767929], [2.629313, 48.767759], [2.627881, 48.767569], [2.626881, 48.76742], [2.62634, 48.767356], [2.625554, 48.767138], [2.625273, 48.76681], [2.625004, 48.766425], [2.624158, 48.76544], [2.624043, 48.765241], [2.624046, 48.764719], [2.624081, 48.764568], [2.622368, 48.76398], [2.622102, 48.763879], [2.620788, 48.763307], [2.620232, 48.76305], [2.619665, 48.762836], [2.619235, 48.762638], [2.618618, 48.762221], [2.618098, 48.761855], [2.617808, 48.761712], [2.617314, 48.761557], [2.616843, 48.76139], [2.61636, 48.761264], [2.616157, 48.76125], [2.614835, 48.76111], [2.614862, 48.761251], [2.615433, 48.761874], [2.615566, 48.762058], [2.615647, 48.762246], [2.615682, 48.762451], [2.615648, 48.762778], [2.615512, 48.763145], [2.615105, 48.763941], [2.614811, 48.764292], [2.614332, 48.764749], [2.613785, 48.765237], [2.613445, 48.765569], [2.613258, 48.765679], [2.613111, 48.765835], [2.613009, 48.766012], [2.612858, 48.766387], [2.612782, 48.76671], [2.612751, 48.766975], [2.61288, 48.767319], [2.612795, 48.767547], [2.612479, 48.768167], [2.612379, 48.768439], [2.612237, 48.769231], [2.61218, 48.769447], [2.611941, 48.769892], [2.611684, 48.770218], [2.611451, 48.770443], [2.610908, 48.770861], [2.609212, 48.772024], [2.608642, 48.772422], [2.608231, 48.772766], [2.607906, 48.773119], [2.607665, 48.773438], [2.607166, 48.774474], [2.606982, 48.774586], [2.606695, 48.774678], [2.606147, 48.774804], [2.605427, 48.774711], [2.605216, 48.774655], [2.604964, 48.774546], [2.604634, 48.774329], [2.604412, 48.774334], [2.603535, 48.77444], [2.603182, 48.774436], [2.60205, 48.774223], [2.601321, 48.77415], [2.60085, 48.77408], [2.600022, 48.773838], [2.599572, 48.773695], [2.598654, 48.773461], [2.598396, 48.773365], [2.597966, 48.773238], [2.598052, 48.772643], [2.597492, 48.77243], [2.596805, 48.772265], [2.596281, 48.77222], [2.595535, 48.77226], [2.595318, 48.772214], [2.59478, 48.771943], [2.594207, 48.77177], [2.593521, 48.771611], [2.593346, 48.771515], [2.593162, 48.771345], [2.592171, 48.771073], [2.591757, 48.771157], [2.59137, 48.771262], [2.591058, 48.771426], [2.590416, 48.771592], [2.590191, 48.771533], [2.589674, 48.7713], [2.589455, 48.771118], [2.589087, 48.771581], [2.588889, 48.771795], [2.587752, 48.772735], [2.587428, 48.772965], [2.587025, 48.773344], [2.586647, 48.773824], [2.58643, 48.774254], [2.586065, 48.77577], [2.585909, 48.776079], [2.585662, 48.776483], [2.585511, 48.776896], [2.58547, 48.777068], [2.585439, 48.778007], [2.585453, 48.778865], [2.586311, 48.778781], [2.588099, 48.778494], [2.588694, 48.780474], [2.588674, 48.781602], [2.588712, 48.781656], [2.588304, 48.783021], [2.588534, 48.783031], [2.588954, 48.783137], [2.5896, 48.783173], [2.589828, 48.783392], [2.58991, 48.783535], [2.590106, 48.783663], [2.590348, 48.783723], [2.590664, 48.783737], [2.591187, 48.783694], [2.591482, 48.783538], [2.591731, 48.784001], [2.592094, 48.785278], [2.593667, 48.785075], [2.594549, 48.78497], [2.595092, 48.784895], [2.594358, 48.787672], [2.594089, 48.788212], [2.594822, 48.788409], [2.596698, 48.788926], [2.596811, 48.789027], [2.595831, 48.789807], [2.596695, 48.790396], [2.597749, 48.791137], [2.59877, 48.792561], [2.598983, 48.792821], [2.59933, 48.793612], [2.599565, 48.794362], [2.599889, 48.794994], [2.597807, 48.796041], [2.596018, 48.796887], [2.592905, 48.797502], [2.592823, 48.797358], [2.591455, 48.797374], [2.591636, 48.797871], [2.591889, 48.798666], [2.592194, 48.799526], [2.592546, 48.799762], [2.593196, 48.800163], [2.593723, 48.801096], [2.59423, 48.801916], [2.595076, 48.80335], [2.595679, 48.80435], [2.596458, 48.805662], [2.596429, 48.805873], [2.596222, 48.805915], [2.596039, 48.80601], [2.595464, 48.806249], [2.594827, 48.806487], [2.594272, 48.806659], [2.593453, 48.806774], [2.593032, 48.806866], [2.591923, 48.80719], [2.591775, 48.80725], [2.5926, 48.807553], [2.592863, 48.807663], [2.593181, 48.807874], [2.593306, 48.807997], [2.593601, 48.808183], [2.593794, 48.80827], [2.594313, 48.808563], [2.594699, 48.80885], [2.595362, 48.809315], [2.595874, 48.809751], [2.595965, 48.809945], [2.596042, 48.810279], [2.596208, 48.81065], [2.596325, 48.811102], [2.596128, 48.812177], [2.595978, 48.8128], [2.595888, 48.812987], [2.595652, 48.813629], [2.595632, 48.813854], [2.595793, 48.814142], [2.596319, 48.814258], [2.596901, 48.814429], [2.597324, 48.814476], [2.597703, 48.814485], [2.598004, 48.814536], [2.598381, 48.814635], [2.598848, 48.814812], [2.599594, 48.815021], [2.600152, 48.815416], [2.600427, 48.815573], [2.600685, 48.815779], [2.600808, 48.815962], [2.601722, 48.815695], [2.601816, 48.815572], [2.602228, 48.815155], [2.602392, 48.814942], [2.602539, 48.814812], [2.602836, 48.814713], [2.60295, 48.814612], [2.604276, 48.812564], [2.604526, 48.812208], [2.605008, 48.812417], [2.605793, 48.812715], [2.60608, 48.81303], [2.606805, 48.813748], [2.608627, 48.811695], [2.609248, 48.811008], [2.610154, 48.809985], [2.612354, 48.808858], [2.61591, 48.807041], [2.616967, 48.806484], [2.620142, 48.805161], [2.620483, 48.805036], [2.621107, 48.804903], [2.622038, 48.804687], [2.622456, 48.804577], [2.623885, 48.804071], [2.62622, 48.803307], [2.626629, 48.80318], [2.627459, 48.802894], [2.627423, 48.802831], [2.626764, 48.801982], [2.626616, 48.801748], [2.626372, 48.801244], [2.626166, 48.800754], [2.628226, 48.800308], [2.629554, 48.799997], [2.63001, 48.799875], [2.630381, 48.799744], [2.630997, 48.79945], [2.632362, 48.798674], [2.633092, 48.798367], [2.632948, 48.79798], [2.633101, 48.797935], [2.63322, 48.797439], [2.633502, 48.797331], [2.63399, 48.797111], [2.634625, 48.796804], [2.634815, 48.796631], [2.634872, 48.796493], [2.634965, 48.796102], [2.634997, 48.79561], [2.634973, 48.794977], [2.634864, 48.792774], [2.634826, 48.7918], [2.634839, 48.791688], [2.63509, 48.790921], [2.634416, 48.790521], [2.633454, 48.791049], [2.633124, 48.791257], [2.632916, 48.791323], [2.632291, 48.79146], [2.631979, 48.791557], [2.63144, 48.791667], [2.630212, 48.791595], [2.629306, 48.791613], [2.628615, 48.79159], [2.628125, 48.791555], [2.627456, 48.791454], [2.627119, 48.79145], [2.626767, 48.791513], [2.626071, 48.791717], [2.625678, 48.791774], [2.624722, 48.791791], [2.624088, 48.791765], [2.624288, 48.788497], [2.624417, 48.786675], [2.624756, 48.786721], [2.625214, 48.786704], [2.625548, 48.786477], [2.62576, 48.786419], [2.625936, 48.786427], [2.626306, 48.786317], [2.626601, 48.786337], [2.626961, 48.786314], [2.627117, 48.786361], [2.627334, 48.786524], [2.62744, 48.786526], [2.627635, 48.786423], [2.627947, 48.786528], [2.628205, 48.786533], [2.628502, 48.786212], [2.628639, 48.786139], [2.629073, 48.786003], [2.629189, 48.785942], [2.629965, 48.784791], [2.630164, 48.784519], [2.630743, 48.784033], [2.631239, 48.783824], [2.631342, 48.783809], [2.631773, 48.783872], [2.63262, 48.784043], [2.633764, 48.784302], [2.634197, 48.784027], [2.634343, 48.78387], [2.635397, 48.78241], [2.63601, 48.780391], [2.636154, 48.779996], [2.636346, 48.779639], [2.636576, 48.779139], [2.636935, 48.778706], [2.6372, 48.778459], [2.637278, 48.778421], [2.637355, 48.778146], [2.637729, 48.777994], [2.638734, 48.777691], [2.63904, 48.777561], [2.639366, 48.777532], [2.640641, 48.777031], [2.640477, 48.776674], [2.640785, 48.776698], [2.641143, 48.77677], [2.641477, 48.77707], [2.64159, 48.777092], [2.641973, 48.777057], [2.642229, 48.777081], [2.643155, 48.776876], [2.643299, 48.776828], [2.644604, 48.776588], [2.644852, 48.776585], [2.645245, 48.776501], [2.645942, 48.776156], [2.647446, 48.775909], [2.649172, 48.776256], [2.649233, 48.776259], [2.649205, 48.774768], [2.649232, 48.774767]]]}, "properties": {"code_iris": "773730000", "nom_iris": "Pontault-Combault (commune entière)", "type_iris": "Z", "lat": 48.7885, "lng": 2.6173, "dvf_sales_total": 5629, "dvf_sales_appt": 0, "dvf_sales_maison": 0, "dvf_median_price": 283500.0, "dvf_median_ppsqm": 4166.666666666667, "dvf_by_year": "[{\"year\": 2021, \"sales\": 1130, \"median_price\": 253000.0}, {\"year\": 2022, \"sales\": 1060, \"median_price\": 240000.0}, {\"year\": 2023, \"sales\": 1002, \"median_price\": 252000.0}, {\"year\": 2024, \"sales\": 1632, \"median_price\": 31500000.0}, {\"year\": 2025, \"sales\": 805, \"median_price\": 219000.0}]", "population": 39096, "n_log": null, "n_rp": null, "pct_proprio": null, "pct_hlm": null, "pct_appart": null, "pct_cadres": null, "pct_bac5p": null, "pct_etrangers": null, "pct_0_14": null, "pct_65p": null, "bpe_total": null, "bpe_commerces": null, "bpe_enseignement": null, "bpe_sante": null, "dpe": null, "attractivity_score": null, "rank_attractivity_score": null, "rank_total_attractivity_score": 1, "commune_avg": null, "is_stub": true}}]}