{"type": "FeatureCollection", "features": [{"type": "Feature", "geometry": {"type": "Point", "coordinates": [3.01886, 48.814436]}, "properties": {"street_name": "RUE PAUL NICLAUSSE", "sales": 75, "sales_appt": 6, "sales_maison": 26, "median_price": 200000.0, "median_price_per_sqm": 2478.0172413793102, "turnover_score": 100.0, "turnover_rank": 1, "first_year": 2021, "last_year": 2025, "years_active": 5}}, {"type": "Feature", "geometry": {"type": "Point", "coordinates": [3.002978, 48.817168]}, "properties": {"street_name": "RUE PASTEUR", "sales": 68, "sales_appt": 0, "sales_maison": 24, "median_price": 304750.0, "median_price_per_sqm": 2826.8150388936906, "turnover_score": 90.7, "turnover_rank": 2, "first_year": 2021, "last_year": 2025, "years_active": 5}}, {"type": "Feature", "geometry": {"type": "Point", "coordinates": [2.983424, 48.808389]}, "properties": {"street_name": "LE CHENE GRIS", "sales": 49, "sales_appt": 0, "sales_maison": 0, "median_price": 5822212.0, "median_price_per_sqm": null, "turnover_score": 65.3, "turnover_rank": 3, "first_year": 2021, "last_year": 2021, "years_active": 1}}, {"type": "Feature", "geometry": {"type": "Point", "coordinates": [2.9791, 48.811730499999996]}, "properties": {"street_name": "LE BERTRAND", "sales": 48, "sales_appt": 0, "sales_maison": 0, "median_price": 115000.0, "median_price_per_sqm": null, "turnover_score": 64.0, "turnover_rank": 4, "first_year": 2021, "last_year": 2025, "years_active": 5}}, {"type": "Feature", "geometry": {"type": "Point", "coordinates": [2.991901, 48.808182]}, "properties": {"street_name": "LES GODETS", "sales": 45, "sales_appt": 0, "sales_maison": 0, "median_price": 5822212.0, "median_price_per_sqm": 171.98511210232476, "turnover_score": 60.0, "turnover_rank": 5, "first_year": 2021, "last_year": 2022, "years_active": 2}}, {"type": "Feature", "geometry": {"type": "Point", "coordinates": [2.988997, 48.808821]}, "properties": {"street_name": "LA CLOSIERE", "sales": 33, "sales_appt": 0, "sales_maison": 0, "median_price": 5822212.0, "median_price_per_sqm": null, "turnover_score": 44.0, "turnover_rank": 6, "first_year": 2021, "last_year": 2024, "years_active": 2}}, {"type": "Feature", "geometry": {"type": "Point", "coordinates": [2.983827, 48.813087]}, "properties": {"street_name": "RUE FAVIER", "sales": 31, "sales_appt": 2, "sales_maison": 4, "median_price": 300000.0, "median_price_per_sqm": 6532.663316582914, "turnover_score": 41.3, "turnover_rank": 7, "first_year": 2022, "last_year": 2024, "years_active": 3}}, {"type": "Feature", "geometry": {"type": "Point", "coordinates": [2.989017, 48.816456]}, "properties": {"street_name": "RUE DE PARIS", "sales": 31, "sales_appt": 0, "sales_maison": 17, "median_price": 210000.0, "median_price_per_sqm": 2500.0, "turnover_score": 41.3, "turnover_rank": 7, "first_year": 2021, "last_year": 2025, "years_active": 5}}, {"type": "Feature", "geometry": {"type": "Point", "coordinates": [2.993117, 48.814731]}, "properties": {"street_name": "RUE DE LA VALLEE", "sales": 31, "sales_appt": 0, "sales_maison": 13, "median_price": 285000.0, "median_price_per_sqm": 2584.6875, "turnover_score": 41.3, "turnover_rank": 7, "first_year": 2021, "last_year": 2025, "years_active": 4}}, {"type": "Feature", "geometry": {"type": "Point", "coordinates": [3.0112, 48.8203035]}, "properties": {"street_name": "RUE FONTENY", "sales": 28, "sales_appt": 0, "sales_maison": 11, "median_price": 250000.0, "median_price_per_sqm": 3048.7804878048782, "turnover_score": 37.3, "turnover_rank": 8, "first_year": 2021, "last_year": 2025, "years_active": 5}}, {"type": "Feature", "geometry": {"type": "Point", "coordinates": [3.004618, 48.798936]}, "properties": {"street_name": "RUE DES CHARMES", "sales": 23, "sales_appt": 0, "sales_maison": 3, "median_price": 165000.0, "median_price_per_sqm": 5351.923076923077, "turnover_score": 30.7, "turnover_rank": 9, "first_year": 2023, "last_year": 2024, "years_active": 2}}, {"type": "Feature", "geometry": {"type": "Point", "coordinates": [3.018647, 48.82598]}, "properties": {"street_name": "CHE DE MONTRENARD", "sales": 21, "sales_appt": 0, "sales_maison": 13, "median_price": 281550.0, "median_price_per_sqm": 2760.294117647059, "turnover_score": 28.0, "turnover_rank": 10, "first_year": 2021, "last_year": 2024, "years_active": 4}}, {"type": "Feature", "geometry": {"type": "Point", "coordinates": [3.009933, 48.806928]}, "properties": {"street_name": "LES CHANOINES", "sales": 21, "sales_appt": 0, "sales_maison": 0, "median_price": 6000.0, "median_price_per_sqm": null, "turnover_score": 28.0, "turnover_rank": 10, "first_year": 2021, "last_year": 2025, "years_active": 4}}, {"type": "Feature", "geometry": {"type": "Point", "coordinates": [2.990493, 48.817737]}, "properties": {"street_name": "RUE DE LA CAVEE", "sales": 20, "sales_appt": 0, "sales_maison": 9, "median_price": 263500.0, "median_price_per_sqm": 3518.5185185185187, "turnover_score": 26.7, "turnover_rank": 11, "first_year": 2021, "last_year": 2024, "years_active": 3}}, {"type": "Feature", "geometry": {"type": "Point", "coordinates": [3.004814, 48.817268]}, "properties": {"street_name": "LA BOBEE", "sales": 20, "sales_appt": 0, "sales_maison": 2, "median_price": 120000.0, "median_price_per_sqm": 4032.2580645161293, "turnover_score": 26.7, "turnover_rank": 11, "first_year": 2021, "last_year": 2025, "years_active": 5}}, {"type": "Feature", "geometry": {"type": "Point", "coordinates": [2.993757, 48.80779]}, "properties": {"street_name": "AV DE LA GARE", "sales": 19, "sales_appt": 1, "sales_maison": 5, "median_price": 420000.0, "median_price_per_sqm": 3446.984363365599, "turnover_score": 25.3, "turnover_rank": 12, "first_year": 2021, "last_year": 2025, "years_active": 3}}, {"type": "Feature", "geometry": {"type": "Point", "coordinates": [2.998481, 48.819483]}, "properties": {"street_name": "LES ECHOS", "sales": 19, "sales_appt": 0, "sales_maison": 0, "median_price": 9950.0, "median_price_per_sqm": null, "turnover_score": 25.3, "turnover_rank": 12, "first_year": 2021, "last_year": 2024, "years_active": 4}}, {"type": "Feature", "geometry": {"type": "Point", "coordinates": [2.9901165, 48.821822499999996]}, "properties": {"street_name": "LA SAUSSOIS", "sales": 18, "sales_appt": 0, "sales_maison": 0, "median_price": 244350.0, "median_price_per_sqm": null, "turnover_score": 24.0, "turnover_rank": 13, "first_year": 2021, "last_year": 2024, "years_active": 4}}, {"type": "Feature", "geometry": {"type": "Point", "coordinates": [2.998609, 48.821937]}, "properties": {"street_name": "LE CHARNOIS", "sales": 18, "sales_appt": 0, "sales_maison": 0, "median_price": 109500.0, "median_price_per_sqm": null, "turnover_score": 24.0, "turnover_rank": 13, "first_year": 2021, "last_year": 2024, "years_active": 4}}, {"type": "Feature", "geometry": {"type": "Point", "coordinates": [3.015325, 48.815144]}, "properties": {"street_name": "AV DU GENERAL HUERNE", "sales": 18, "sales_appt": 2, "sales_maison": 6, "median_price": 310000.0, "median_price_per_sqm": 2689.625850340136, "turnover_score": 24.0, "turnover_rank": 13, "first_year": 2021, "last_year": 2024, "years_active": 4}}, {"type": "Feature", "geometry": {"type": "Point", "coordinates": [2.995234, 48.819975]}, "properties": {"street_name": "LE CHP DES GUIOTS", "sales": 17, "sales_appt": 0, "sales_maison": 0, "median_price": 43535.0, "median_price_per_sqm": null, "turnover_score": 22.7, "turnover_rank": 14, "first_year": 2021, "last_year": 2024, "years_active": 4}}, {"type": "Feature", "geometry": {"type": "Point", "coordinates": [2.996676, 48.82094]}, "properties": {"street_name": "RUE DES COTEAUX", "sales": 17, "sales_appt": 0, "sales_maison": 9, "median_price": 170000.0, "median_price_per_sqm": 2598.4251968503936, "turnover_score": 22.7, "turnover_rank": 14, "first_year": 2021, "last_year": 2025, "years_active": 4}}, {"type": "Feature", "geometry": {"type": "Point", "coordinates": [2.993433, 48.820099]}, "properties": {"street_name": "RUE DU ROTY", "sales": 17, "sales_appt": 0, "sales_maison": 11, "median_price": 230000.0, "median_price_per_sqm": 3658.5365853658536, "turnover_score": 22.7, "turnover_rank": 14, "first_year": 2021, "last_year": 2024, "years_active": 4}}, {"type": "Feature", "geometry": {"type": "Point", "coordinates": [2.994412, 48.814747999999994]}, "properties": {"street_name": "TRESMES", "sales": 16, "sales_appt": 0, "sales_maison": 0, "median_price": 231000.0, "median_price_per_sqm": null, "turnover_score": 21.3, "turnover_rank": 15, "first_year": 2021, "last_year": 2025, "years_active": 5}}, {"type": "Feature", "geometry": {"type": "Point", "coordinates": [2.9956389999999997, 48.81398]}, "properties": {"street_name": "RUE DES ECLUSES", "sales": 16, "sales_appt": 0, "sales_maison": 10, "median_price": 298200.0, "median_price_per_sqm": 2621.4285714285716, "turnover_score": 21.3, "turnover_rank": 15, "first_year": 2021, "last_year": 2025, "years_active": 4}}, {"type": "Feature", "geometry": {"type": "Point", "coordinates": [3.016601, 48.815514]}, "properties": {"street_name": "POMMEUSE OUEST", "sales": 15, "sales_appt": 0, "sales_maison": 0, "median_price": 175000.0, "median_price_per_sqm": null, "turnover_score": 20.0, "turnover_rank": 16, "first_year": 2021, "last_year": 2025, "years_active": 5}}, {"type": "Feature", "geometry": {"type": "Point", "coordinates": [2.979384, 48.81228]}, "properties": {"street_name": "RUE DES BERGES", "sales": 15, "sales_appt": 0, "sales_maison": 6, "median_price": 232000.0, "median_price_per_sqm": 2550.0, "turnover_score": 20.0, "turnover_rank": 16, "first_year": 2021, "last_year": 2024, "years_active": 4}}, {"type": "Feature", "geometry": {"type": "Point", "coordinates": [3.015259, 48.823885]}, "properties": {"street_name": "CHE DE MONTMARTIN", "sales": 14, "sales_appt": 0, "sales_maison": 8, "median_price": 324719.12, "median_price_per_sqm": 2754.031488381025, "turnover_score": 18.7, "turnover_rank": 17, "first_year": 2022, "last_year": 2024, "years_active": 3}}, {"type": "Feature", "geometry": {"type": "Point", "coordinates": [3.0210204999999997, 48.809966]}, "properties": {"street_name": "LA COTE AU CHENE", "sales": 14, "sales_appt": 0, "sales_maison": 3, "median_price": 428000.0, "median_price_per_sqm": 2250.0, "turnover_score": 18.7, "turnover_rank": 17, "first_year": 2025, "last_year": 2025, "years_active": 1}}, {"type": "Feature", "geometry": {"type": "Point", "coordinates": [3.017294, 48.79722]}, "properties": {"street_name": "RUE DES SAPINS", "sales": 14, "sales_appt": 0, "sales_maison": 4, "median_price": 694870.0, "median_price_per_sqm": 3321.0456273764257, "turnover_score": 18.7, "turnover_rank": 17, "first_year": 2021, "last_year": 2022, "years_active": 2}}, {"type": "Feature", "geometry": {"type": "Point", "coordinates": [2.992773, 48.813356]}, "properties": {"street_name": "PL VION", "sales": 14, "sales_appt": 4, "sales_maison": 2, "median_price": 112000.0, "median_price_per_sqm": 2822.6600985221676, "turnover_score": 18.7, "turnover_rank": 17, "first_year": 2021, "last_year": 2025, "years_active": 4}}, {"type": "Feature", "geometry": {"type": "Point", "coordinates": [3.00778, 48.81867]}, "properties": {"street_name": "VAUXPLEURS NORD EST", "sales": 14, "sales_appt": 0, "sales_maison": 0, "median_price": 428000.0, "median_price_per_sqm": null, "turnover_score": 18.7, "turnover_rank": 17, "first_year": 2023, "last_year": 2025, "years_active": 3}}, {"type": "Feature", "geometry": {"type": "Point", "coordinates": [2.9879085, 48.817142000000004]}, "properties": {"street_name": "RUE NEUVRAY", "sales": 14, "sales_appt": 0, "sales_maison": 10, "median_price": 287500.0, "median_price_per_sqm": 2875.0, "turnover_score": 18.7, "turnover_rank": 17, "first_year": 2021, "last_year": 2025, "years_active": 5}}, {"type": "Feature", "geometry": {"type": "Point", "coordinates": [2.98941, 48.822262]}, "properties": {"street_name": "RUE DES VIEILLES VIGNES", "sales": 14, "sales_appt": 0, "sales_maison": 4, "median_price": 488020.0, "median_price_per_sqm": 2477.258883248731, "turnover_score": 18.7, "turnover_rank": 17, "first_year": 2021, "last_year": 2021, "years_active": 1}}, {"type": "Feature", "geometry": {"type": "Point", "coordinates": [3.022798, 48.810389]}, "properties": {"street_name": "RUE DU VIEUX ST AUGUSTIN", "sales": 14, "sales_appt": 0, "sales_maison": 4, "median_price": 280000.0, "median_price_per_sqm": 1473.6842105263158, "turnover_score": 18.7, "turnover_rank": 17, "first_year": 2022, "last_year": 2024, "years_active": 2}}, {"type": "Feature", "geometry": {"type": "Point", "coordinates": [3.0019165, 48.818497]}, "properties": {"street_name": "LE BOIS BATAILLE", "sales": 14, "sales_appt": 0, "sales_maison": 0, "median_price": 43535.0, "median_price_per_sqm": null, "turnover_score": 18.7, "turnover_rank": 17, "first_year": 2021, "last_year": 2023, "years_active": 3}}, {"type": "Feature", "geometry": {"type": "Point", "coordinates": [3.018539, 48.823342]}, "properties": {"street_name": "CHE DE LA REPUBLIQUE", "sales": 13, "sales_appt": 0, "sales_maison": 6, "median_price": 60000.0, "median_price_per_sqm": 1569.9404761904761, "turnover_score": 17.3, "turnover_rank": 18, "first_year": 2022, "last_year": 2025, "years_active": 2}}, {"type": "Feature", "geometry": {"type": "Point", "coordinates": [2.984805, 48.816873]}, "properties": {"street_name": "RUE DES IRIS", "sales": 13, "sales_appt": 0, "sales_maison": 4, "median_price": 191900.0, "median_price_per_sqm": 2916.6666666666665, "turnover_score": 17.3, "turnover_rank": 18, "first_year": 2021, "last_year": 2023, "years_active": 3}}, {"type": "Feature", "geometry": {"type": "Point", "coordinates": [2.998225, 48.822884]}, "properties": {"street_name": "RUE DE L AERODROME", "sales": 13, "sales_appt": 0, "sales_maison": 7, "median_price": 275000.0, "median_price_per_sqm": 2304.566929133858, "turnover_score": 17.3, "turnover_rank": 18, "first_year": 2021, "last_year": 2024, "years_active": 4}}, {"type": "Feature", "geometry": {"type": "Point", "coordinates": [2.994775, 48.821136]}, "properties": {"street_name": "LE CHARNOIS SUD OUEST", "sales": 11, "sales_appt": 0, "sales_maison": 0, "median_price": 230000.0, "median_price_per_sqm": null, "turnover_score": 14.7, "turnover_rank": 19, "first_year": 2021, "last_year": 2025, "years_active": 4}}, {"type": "Feature", "geometry": {"type": "Point", "coordinates": [3.016327, 48.797613]}, "properties": {"street_name": "LE PONCET", "sales": 11, "sales_appt": 0, "sales_maison": 2, "median_price": 694870.0, "median_price_per_sqm": 2590.204081632653, "turnover_score": 14.7, "turnover_rank": 19, "first_year": 2021, "last_year": 2025, "years_active": 2}}, {"type": "Feature", "geometry": {"type": "Point", "coordinates": [2.978975, 48.81172]}, "properties": {"street_name": "IMP DES CITES", "sales": 11, "sales_appt": 0, "sales_maison": 7, "median_price": 140000.0, "median_price_per_sqm": 3523.809523809524, "turnover_score": 14.7, "turnover_rank": 19, "first_year": 2021, "last_year": 2025, "years_active": 4}}, {"type": "Feature", "geometry": {"type": "Point", "coordinates": [2.99641, 48.817382]}, "properties": {"street_name": "LA TERRE BARREE", "sales": 11, "sales_appt": 0, "sales_maison": 0, "median_price": 4500.0, "median_price_per_sqm": null, "turnover_score": 14.7, "turnover_rank": 19, "first_year": 2021, "last_year": 2024, "years_active": 4}}, {"type": "Feature", "geometry": {"type": "Point", "coordinates": [2.993093, 48.815963999999994]}, "properties": {"street_name": "RUE DU CORDON BLEU", "sales": 10, "sales_appt": 0, "sales_maison": 2, "median_price": 205000.0, "median_price_per_sqm": 2734.189723320158, "turnover_score": 13.3, "turnover_rank": 20, "first_year": 2023, "last_year": 2024, "years_active": 2}}, {"type": "Feature", "geometry": {"type": "Point", "coordinates": [2.9824285, 48.8095775]}, "properties": {"street_name": "SOUS LE CHENE GRIS", "sales": 10, "sales_appt": 0, "sales_maison": 0, "median_price": 5822212.0, "median_price_per_sqm": null, "turnover_score": 13.3, "turnover_rank": 20, "first_year": 2021, "last_year": 2021, "years_active": 1}}, {"type": "Feature", "geometry": {"type": "Point", "coordinates": [3.0032705, 48.819354]}, "properties": {"street_name": "LE CHP POTIER", "sales": 10, "sales_appt": 0, "sales_maison": 0, "median_price": 5930.0, "median_price_per_sqm": null, "turnover_score": 13.3, "turnover_rank": 20, "first_year": 2021, "last_year": 2025, "years_active": 4}}, {"type": "Feature", "geometry": {"type": "Point", "coordinates": [3.005608, 48.815777499999996]}, "properties": {"street_name": "LES NOETTES", "sales": 10, "sales_appt": 0, "sales_maison": 0, "median_price": 6500.0, "median_price_per_sqm": null, "turnover_score": 13.3, "turnover_rank": 20, "first_year": 2023, "last_year": 2025, "years_active": 3}}, {"type": "Feature", "geometry": {"type": "Point", "coordinates": [3.0194395, 48.803475500000005]}, "properties": {"street_name": "BISSET", "sales": 10, "sales_appt": 0, "sales_maison": 0, "median_price": 14000.0, "median_price_per_sqm": null, "turnover_score": 13.3, "turnover_rank": 20, "first_year": 2021, "last_year": 2025, "years_active": 3}}, {"type": "Feature", "geometry": {"type": "Point", "coordinates": [3.003381, 48.842413]}, "properties": {"street_name": "L ORMEE NORD", "sales": 10, "sales_appt": 0, "sales_maison": 0, "median_price": 2052000.0, "median_price_per_sqm": null, "turnover_score": 13.3, "turnover_rank": 20, "first_year": 2023, "last_year": 2023, "years_active": 1}}, {"type": "Feature", "geometry": {"type": "Point", "coordinates": [2.9855915, 48.813717499999996]}, "properties": {"street_name": "RUE ETIENNE MONTGOLFIER", "sales": 10, "sales_appt": 0, "sales_maison": 0, "median_price": 750000.0, "median_price_per_sqm": 403.4424136670109, "turnover_score": 13.3, "turnover_rank": 20, "first_year": 2021, "last_year": 2022, "years_active": 2}}, {"type": "Feature", "geometry": {"type": "Point", "coordinates": [3.005206, 48.79988]}, "properties": {"street_name": "RUE DE MAISONFLEUR", "sales": 10, "sales_appt": 0, "sales_maison": 3, "median_price": 536000.0, "median_price_per_sqm": 2477.2727272727275, "turnover_score": 13.3, "turnover_rank": 20, "first_year": 2021, "last_year": 2023, "years_active": 2}}, {"type": "Feature", "geometry": {"type": "Point", "coordinates": [3.010638, 48.821709]}, "properties": {"street_name": "LES BEAUX LIEUX", "sales": 9, "sales_appt": 0, "sales_maison": 0, "median_price": 5000.0, "median_price_per_sqm": null, "turnover_score": 12.0, "turnover_rank": 21, "first_year": 2021, "last_year": 2025, "years_active": 3}}, {"type": "Feature", "geometry": {"type": "Point", "coordinates": [3.005576, 48.800203]}, "properties": {"street_name": "MAISONFLEUR", "sales": 9, "sales_appt": 0, "sales_maison": 0, "median_price": 536000.0, "median_price_per_sqm": null, "turnover_score": 12.0, "turnover_rank": 21, "first_year": 2021, "last_year": 2023, "years_active": 2}}, {"type": "Feature", "geometry": {"type": "Point", "coordinates": [3.018239, 48.815457]}, "properties": {"street_name": "ALL DE LA FERME", "sales": 9, "sales_appt": 0, "sales_maison": 3, "median_price": 222000.0, "median_price_per_sqm": 2960.0, "turnover_score": 12.0, "turnover_rank": 21, "first_year": 2021, "last_year": 2025, "years_active": 3}}, {"type": "Feature", "geometry": {"type": "Point", "coordinates": [2.994157, 48.813381]}, "properties": {"street_name": "IMP DE LA RIVIERE", "sales": 9, "sales_appt": 0, "sales_maison": 3, "median_price": 340000.0, "median_price_per_sqm": 3119.266055045872, "turnover_score": 12.0, "turnover_rank": 21, "first_year": 2022, "last_year": 2023, "years_active": 2}}, {"type": "Feature", "geometry": {"type": "Point", "coordinates": [3.003781, 48.843652]}, "properties": {"street_name": "LE BOIS PICOT", "sales": 9, "sales_appt": 0, "sales_maison": 0, "median_price": 2052000.0, "median_price_per_sqm": null, "turnover_score": 12.0, "turnover_rank": 21, "first_year": 2023, "last_year": 2025, "years_active": 2}}, {"type": "Feature", "geometry": {"type": "Point", "coordinates": [3.0231195, 48.825655]}, "properties": {"street_name": "RUE CRICRI", "sales": 8, "sales_appt": 0, "sales_maison": 4, "median_price": 365000.0, "median_price_per_sqm": 3426.739926739927, "turnover_score": 10.7, "turnover_rank": 22, "first_year": 2022, "last_year": 2024, "years_active": 3}}, {"type": "Feature", "geometry": {"type": "Point", "coordinates": [2.984027, 48.813829]}, "properties": {"street_name": "RUE ETIENNE DE MONTGOLFIER", "sales": 8, "sales_appt": 0, "sales_maison": 0, "median_price": 105000.0, "median_price_per_sqm": 576.3157894736842, "turnover_score": 10.7, "turnover_rank": 22, "first_year": 2023, "last_year": 2025, "years_active": 3}}, {"type": "Feature", "geometry": {"type": "Point", "coordinates": [3.0016285, 48.8163675]}, "properties": {"street_name": "LES PARTAGES", "sales": 8, "sales_appt": 0, "sales_maison": 0, "median_price": 326900.0, "median_price_per_sqm": null, "turnover_score": 10.7, "turnover_rank": 22, "first_year": 2025, "last_year": 2025, "years_active": 1}}, {"type": "Feature", "geometry": {"type": "Point", "coordinates": [2.98439, 48.817738]}, "properties": {"street_name": "SEN DES JARDINS", "sales": 8, "sales_appt": 0, "sales_maison": 3, "median_price": 320000.0, "median_price_per_sqm": 1777.7777777777778, "turnover_score": 10.7, "turnover_rank": 22, "first_year": 2023, "last_year": 2025, "years_active": 3}}, {"type": "Feature", "geometry": {"type": "Point", "coordinates": [2.992937, 48.811837]}, "properties": {"street_name": "RUE DU STADE", "sales": 8, "sales_appt": 0, "sales_maison": 6, "median_price": 104000.0, "median_price_per_sqm": 1300.0, "turnover_score": 10.7, "turnover_rank": 22, "first_year": 2024, "last_year": 2025, "years_active": 2}}, {"type": "Feature", "geometry": {"type": "Point", "coordinates": [3.0133, 48.806883]}, "properties": {"street_name": "LE GUE BANAL", "sales": 7, "sales_appt": 0, "sales_maison": 2, "median_price": 6000.0, "median_price_per_sqm": 866.6666666666666, "turnover_score": 9.3, "turnover_rank": 23, "first_year": 2021, "last_year": 2025, "years_active": 4}}, {"type": "Feature", "geometry": {"type": "Point", "coordinates": [3.021571, 48.806353]}, "properties": {"street_name": "LES VAILLANTS", "sales": 7, "sales_appt": 0, "sales_maison": 0, "median_price": 68750.0, "median_price_per_sqm": null, "turnover_score": 9.3, "turnover_rank": 23, "first_year": 2022, "last_year": 2024, "years_active": 3}}, {"type": "Feature", "geometry": {"type": "Point", "coordinates": [2.995075, 48.808207]}, "properties": {"street_name": "RUE DES ACACIAS", "sales": 7, "sales_appt": 0, "sales_maison": 4, "median_price": 286000.0, "median_price_per_sqm": 2520.641025641026, "turnover_score": 9.3, "turnover_rank": 23, "first_year": 2021, "last_year": 2025, "years_active": 3}}, {"type": "Feature", "geometry": {"type": "Point", "coordinates": [2.984276, 48.818423]}, "properties": {"street_name": "RUE DU BOIS", "sales": 7, "sales_appt": 0, "sales_maison": 3, "median_price": 31000.0, "median_price_per_sqm": 4256.756756756757, "turnover_score": 9.3, "turnover_rank": 23, "first_year": 2021, "last_year": 2023, "years_active": 3}}, {"type": "Feature", "geometry": {"type": "Point", "coordinates": [2.993058, 48.806883]}, "properties": {"street_name": "RUE DES GODETS", "sales": 6, "sales_appt": 0, "sales_maison": 2, "median_price": 305000.0, "median_price_per_sqm": 2957.5046591085575, "turnover_score": 8.0, "turnover_rank": 24, "first_year": 2023, "last_year": 2025, "years_active": 2}}, {"type": "Feature", "geometry": {"type": "Point", "coordinates": [3.012814, 48.819464]}, "properties": {"street_name": "ALL JEANNE D ARC", "sales": 6, "sales_appt": 0, "sales_maison": 4, "median_price": 125000.0, "median_price_per_sqm": 2683.8802336903605, "turnover_score": 8.0, "turnover_rank": 24, "first_year": 2021, "last_year": 2023, "years_active": 2}}, {"type": "Feature", "geometry": {"type": "Point", "coordinates": [3.018939, 48.811302]}, "properties": {"street_name": "L HOTEL DIEU", "sales": 6, "sales_appt": 0, "sales_maison": 0, "median_price": 358900.0, "median_price_per_sqm": null, "turnover_score": 8.0, "turnover_rank": 24, "first_year": 2021, "last_year": 2025, "years_active": 2}}, {"type": "Feature", "geometry": {"type": "Point", "coordinates": [2.996438, 48.817721]}, "properties": {"street_name": "IMP DES COTEAUX", "sales": 6, "sales_appt": 0, "sales_maison": 1, "median_price": 14000.0, "median_price_per_sqm": 560.0, "turnover_score": 8.0, "turnover_rank": 24, "first_year": 2021, "last_year": 2021, "years_active": 1}}, {"type": "Feature", "geometry": {"type": "Point", "coordinates": [3.0166199999999996, 48.822049]}, "properties": {"street_name": "LE BOIS JENDENOT SUD", "sales": 6, "sales_appt": 0, "sales_maison": 0, "median_price": 60000.0, "median_price_per_sqm": null, "turnover_score": 8.0, "turnover_rank": 24, "first_year": 2022, "last_year": 2022, "years_active": 1}}, {"type": "Feature", "geometry": {"type": "Point", "coordinates": [2.9928875, 48.8174695]}, "properties": {"street_name": "LE CORDON BLEU", "sales": 6, "sales_appt": 0, "sales_maison": 0, "median_price": 5000.0, "median_price_per_sqm": null, "turnover_score": 8.0, "turnover_rank": 24, "first_year": 2024, "last_year": 2025, "years_active": 2}}, {"type": "Feature", "geometry": {"type": "Point", "coordinates": [2.9848185000000003, 48.817749]}, "properties": {"street_name": "LE MESNIL NORD", "sales": 6, "sales_appt": 0, "sales_maison": 0, "median_price": 7650.0, "median_price_per_sqm": null, "turnover_score": 8.0, "turnover_rank": 24, "first_year": 2021, "last_year": 2022, "years_active": 2}}, {"type": "Feature", "geometry": {"type": "Point", "coordinates": [3.010367, 48.797847]}, "properties": {"street_name": "RUE DE LA CASCADE", "sales": 5, "sales_appt": 0, "sales_maison": 4, "median_price": 340000.0, "median_price_per_sqm": 5323.232323232323, "turnover_score": 6.7, "turnover_rank": 25, "first_year": 2023, "last_year": 2025, "years_active": 2}}, {"type": "Feature", "geometry": {"type": "Point", "coordinates": [2.987712, 48.81268]}, "properties": {"street_name": "AV DESCLERCS", "sales": 5, "sales_appt": 0, "sales_maison": 2, "median_price": 26000.0, "median_price_per_sqm": 2615.3846153846152, "turnover_score": 6.7, "turnover_rank": 25, "first_year": 2023, "last_year": 2025, "years_active": 2}}, {"type": "Feature", "geometry": {"type": "Point", "coordinates": [3.014993, 48.808183]}, "properties": {"street_name": "RUE DU GUE PLAT", "sales": 5, "sales_appt": 0, "sales_maison": 2, "median_price": 120000.0, "median_price_per_sqm": 3529.4117647058824, "turnover_score": 6.7, "turnover_rank": 25, "first_year": 2023, "last_year": 2025, "years_active": 2}}, {"type": "Feature", "geometry": {"type": "Point", "coordinates": [3.009004, 48.818568]}, "properties": {"street_name": "RUE DES VIGNES DES DAMES", "sales": 5, "sales_appt": 0, "sales_maison": 2, "median_price": 32000.0, "median_price_per_sqm": 1425.0, "turnover_score": 6.7, "turnover_rank": 25, "first_year": 2023, "last_year": 2024, "years_active": 2}}, {"type": "Feature", "geometry": {"type": "Point", "coordinates": [3.023012, 48.82637]}, "properties": {"street_name": "FBG DE MONTMARTIN", "sales": 5, "sales_appt": 0, "sales_maison": 0, "median_price": 281550.0, "median_price_per_sqm": null, "turnover_score": 6.7, "turnover_rank": 25, "first_year": 2021, "last_year": 2022, "years_active": 2}}, {"type": "Feature", "geometry": {"type": "Point", "coordinates": [2.98542, 48.812328]}, "properties": {"street_name": "RUE DU CHENE GRIS", "sales": 5, "sales_appt": 0, "sales_maison": 1, "median_price": 86000.0, "median_price_per_sqm": 1482.7586206896551, "turnover_score": 6.7, "turnover_rank": 25, "first_year": 2021, "last_year": 2023, "years_active": 2}}, {"type": "Feature", "geometry": {"type": "Point", "coordinates": [3.018954, 48.825846]}, "properties": {"street_name": "LES FOSSES THOMASSE", "sales": 5, "sales_appt": 0, "sales_maison": 0, "median_price": 110000.0, "median_price_per_sqm": null, "turnover_score": 6.7, "turnover_rank": 25, "first_year": 2021, "last_year": 2023, "years_active": 3}}, {"type": "Feature", "geometry": {"type": "Point", "coordinates": [3.004765, 48.79908]}, "properties": {"street_name": "LES CHARMES", "sales": 5, "sales_appt": 0, "sales_maison": 1, "median_price": 244355.0, "median_price_per_sqm": 2656.032608695652, "turnover_score": 6.7, "turnover_rank": 25, "first_year": 2021, "last_year": 2025, "years_active": 3}}, {"type": "Feature", "geometry": {"type": "Point", "coordinates": [2.985509, 48.820753]}, "properties": {"street_name": "LES PARES DU ROTY", "sales": 5, "sales_appt": 0, "sales_maison": 0, "median_price": 3000.0, "median_price_per_sqm": null, "turnover_score": 6.7, "turnover_rank": 25, "first_year": 2022, "last_year": 2023, "years_active": 2}}, {"type": "Feature", "geometry": {"type": "Point", "coordinates": [3.014061, 48.805056]}, "properties": {"street_name": "LAVANDERIE", "sales": 5, "sales_appt": 0, "sales_maison": 0, "median_price": 12000.0, "median_price_per_sqm": null, "turnover_score": 6.7, "turnover_rank": 25, "first_year": 2022, "last_year": 2025, "years_active": 3}}, {"type": "Feature", "geometry": {"type": "Point", "coordinates": [2.989827, 48.819309]}, "properties": {"street_name": "LA POINTE DU ROTY", "sales": 5, "sales_appt": 0, "sales_maison": 0, "median_price": 95000.0, "median_price_per_sqm": null, "turnover_score": 6.7, "turnover_rank": 25, "first_year": 2021, "last_year": 2022, "years_active": 2}}, {"type": "Feature", "geometry": {"type": "Point", "coordinates": [3.0029545, 48.8138535]}, "properties": {"street_name": "LA PREE", "sales": 4, "sales_appt": 0, "sales_maison": 0, "median_price": 17637.6, "median_price_per_sqm": null, "turnover_score": 5.3, "turnover_rank": 26, "first_year": 2021, "last_year": 2023, "years_active": 2}}, {"type": "Feature", "geometry": {"type": "Point", "coordinates": [3.0074435, 48.8213885]}, "properties": {"street_name": "LA MONTAGNE", "sales": 4, "sales_appt": 0, "sales_maison": 2, "median_price": 89267.5, "median_price_per_sqm": 3375.0, "turnover_score": 5.3, "turnover_rank": 26, "first_year": 2021, "last_year": 2023, "years_active": 2}}, {"type": "Feature", "geometry": {"type": "Point", "coordinates": [2.995, 48.807373]}, "properties": {"street_name": "LA BIONNE", "sales": 4, "sales_appt": 0, "sales_maison": 0, "median_price": 420000.0, "median_price_per_sqm": null, "turnover_score": 5.3, "turnover_rank": 26, "first_year": 2022, "last_year": 2022, "years_active": 1}}, {"type": "Feature", "geometry": {"type": "Point", "coordinates": [2.9845544999999998, 48.811707]}, "properties": {"street_name": "COURTALIN", "sales": 4, "sales_appt": 0, "sales_maison": 0, "median_price": 1500.0, "median_price_per_sqm": null, "turnover_score": 5.3, "turnover_rank": 26, "first_year": 2023, "last_year": 2025, "years_active": 2}}, {"type": "Feature", "geometry": {"type": "Point", "coordinates": [3.0200085, 48.814391]}, "properties": {"street_name": "LA FOSSE AU LOUP", "sales": 4, "sales_appt": 0, "sales_maison": 0, "median_price": 5592797.5, "median_price_per_sqm": null, "turnover_score": 5.3, "turnover_rank": 26, "first_year": 2022, "last_year": 2022, "years_active": 1}}, {"type": "Feature", "geometry": {"type": "Point", "coordinates": [3.0157249999999998, 48.822732]}, "properties": {"street_name": "LES FONTENELLES", "sales": 4, "sales_appt": 0, "sales_maison": 0, "median_price": 250000.0, "median_price_per_sqm": null, "turnover_score": 5.3, "turnover_rank": 26, "first_year": 2025, "last_year": 2025, "years_active": 1}}, {"type": "Feature", "geometry": {"type": "Point", "coordinates": [3.0093285, 48.8205735]}, "properties": {"street_name": "LES BEAUX REGARDS", "sales": 4, "sales_appt": 0, "sales_maison": 0, "median_price": 300000.0, "median_price_per_sqm": null, "turnover_score": 5.3, "turnover_rank": 26, "first_year": 2022, "last_year": 2022, "years_active": 1}}, {"type": "Feature", "geometry": {"type": "Point", "coordinates": [2.992451, 48.818511]}, "properties": {"street_name": "LA RUE DE CHEVRE", "sales": 4, "sales_appt": 0, "sales_maison": 0, "median_price": 85097.0, "median_price_per_sqm": null, "turnover_score": 5.3, "turnover_rank": 26, "first_year": 2021, "last_year": 2025, "years_active": 4}}, {"type": "Feature", "geometry": {"type": "Point", "coordinates": [3.003045, 48.821813]}, "properties": {"street_name": "LE BAS ST MARTIN", "sales": 4, "sales_appt": 0, "sales_maison": 0, "median_price": 3000.0, "median_price_per_sqm": null, "turnover_score": 5.3, "turnover_rank": 26, "first_year": 2023, "last_year": 2023, "years_active": 1}}, {"type": "Feature", "geometry": {"type": "Point", "coordinates": [3.0112855, 48.8194705]}, "properties": {"street_name": "LA MALGAGNE", "sales": 4, "sales_appt": 0, "sales_maison": 0, "median_price": 75000.0, "median_price_per_sqm": null, "turnover_score": 5.3, "turnover_rank": 26, "first_year": 2021, "last_year": 2024, "years_active": 2}}, {"type": "Feature", "geometry": {"type": "Point", "coordinates": [3.020584, 48.814592]}, "properties": {"street_name": "LA FOSSE AU LOUP NORD", "sales": 4, "sales_appt": 0, "sales_maison": 0, "median_price": 1208400.0, "median_price_per_sqm": null, "turnover_score": 5.3, "turnover_rank": 26, "first_year": 2022, "last_year": 2022, "years_active": 1}}, {"type": "Feature", "geometry": {"type": "Point", "coordinates": [3.007123, 48.818001]}, "properties": {"street_name": "VC DES VERRETS", "sales": 4, "sales_appt": 0, "sales_maison": 2, "median_price": 170000.0, "median_price_per_sqm": 3090.686274509804, "turnover_score": 5.3, "turnover_rank": 26, "first_year": 2022, "last_year": 2025, "years_active": 3}}, {"type": "Feature", "geometry": {"type": "Point", "coordinates": [2.992452, 48.817548]}, "properties": {"street_name": "RUE DE CHEVRE", "sales": 4, "sales_appt": 0, "sales_maison": 4, "median_price": 86050.0, "median_price_per_sqm": 1206.401766004415, "turnover_score": 5.3, "turnover_rank": 26, "first_year": 2021, "last_year": 2024, "years_active": 2}}, {"type": "Feature", "geometry": {"type": "Point", "coordinates": [3.0183715, 48.82334]}, "properties": {"street_name": "LES TRAVERS NORD", "sales": 4, "sales_appt": 0, "sales_maison": 0, "median_price": 165000.0, "median_price_per_sqm": null, "turnover_score": 5.3, "turnover_rank": 26, "first_year": 2025, "last_year": 2025, "years_active": 1}}, {"type": "Feature", "geometry": {"type": "Point", "coordinates": [3.014063, 48.805332]}, "properties": {"street_name": "RUE DU PUITS", "sales": 4, "sales_appt": 0, "sales_maison": 2, "median_price": 370100.0, "median_price_per_sqm": 2782.7067669172934, "turnover_score": 5.3, "turnover_rank": 26, "first_year": 2023, "last_year": 2023, "years_active": 1}}, {"type": "Feature", "geometry": {"type": "Point", "coordinates": [3.006927, 48.81798]}, "properties": {"street_name": "VAUXPLEURS SUD OUEST", "sales": 4, "sales_appt": 0, "sales_maison": 0, "median_price": 177500.0, "median_price_per_sqm": null, "turnover_score": 5.3, "turnover_rank": 26, "first_year": 2022, "last_year": 2025, "years_active": 3}}, {"type": "Feature", "geometry": {"type": "Point", "coordinates": [3.0195085, 48.806993000000006]}, "properties": {"street_name": "LA FONTAINE DE MONDETOUR", "sales": 4, "sales_appt": 0, "sales_maison": 0, "median_price": 216000.0, "median_price_per_sqm": null, "turnover_score": 5.3, "turnover_rank": 26, "first_year": 2021, "last_year": 2023, "years_active": 2}}, {"type": "Feature", "geometry": {"type": "Point", "coordinates": [3.016908, 48.815162]}, "properties": {"street_name": "IMP PAUL NICLAUSSE", "sales": 4, "sales_appt": 0, "sales_maison": 0, "median_price": 166000.0, "median_price_per_sqm": null, "turnover_score": 5.3, "turnover_rank": 26, "first_year": 2021, "last_year": 2025, "years_active": 3}}, {"type": "Feature", "geometry": {"type": "Point", "coordinates": [3.0123585000000004, 48.7989805]}, "properties": {"street_name": "LES MALENDOS", "sales": 4, "sales_appt": 0, "sales_maison": 0, "median_price": 4500.0, "median_price_per_sqm": null, "turnover_score": 5.3, "turnover_rank": 26, "first_year": 2021, "last_year": 2022, "years_active": 2}}, {"type": "Feature", "geometry": {"type": "Point", "coordinates": [2.9983199999999997, 48.8170955]}, "properties": {"street_name": "LE GD CHAMP", "sales": 4, "sales_appt": 0, "sales_maison": 0, "median_price": 7750.0, "median_price_per_sqm": null, "turnover_score": 5.3, "turnover_rank": 26, "first_year": 2021, "last_year": 2022, "years_active": 2}}, {"type": "Feature", "geometry": {"type": "Point", "coordinates": [2.9884265, 48.8078535]}, "properties": {"street_name": "LE GIBET", "sales": 4, "sales_appt": 0, "sales_maison": 0, "median_price": 5822212.0, "median_price_per_sqm": null, "turnover_score": 5.3, "turnover_rank": 26, "first_year": 2021, "last_year": 2021, "years_active": 1}}, {"type": "Feature", "geometry": {"type": "Point", "coordinates": [2.989394, 48.811566]}, "properties": {"street_name": "RUE DESCLERS", "sales": 3, "sales_appt": 0, "sales_maison": 2, "median_price": 268000.0, "median_price_per_sqm": 3011.2359550561796, "turnover_score": 4.0, "turnover_rank": 27, "first_year": 2023, "last_year": 2024, "years_active": 2}}, {"type": "Feature", "geometry": {"type": "Point", "coordinates": [3.008653, 48.805883]}, "properties": {"street_name": "LE GD MONT", "sales": 3, "sales_appt": 0, "sales_maison": 0, "median_price": 2680.0, "median_price_per_sqm": null, "turnover_score": 4.0, "turnover_rank": 27, "first_year": 2024, "last_year": 2024, "years_active": 1}}, {"type": "Feature", "geometry": {"type": "Point", "coordinates": [2.994345, 48.814219]}, "properties": {"street_name": "RUE DU CHARNOIS", "sales": 3, "sales_appt": 0, "sales_maison": 3, "median_price": 249000.0, "median_price_per_sqm": 2490.0, "turnover_score": 4.0, "turnover_rank": 27, "first_year": 2022, "last_year": 2024, "years_active": 3}}, {"type": "Feature", "geometry": {"type": "Point", "coordinates": [3.009758, 48.817581]}, "properties": {"street_name": "LES JARDINETS", "sales": 3, "sales_appt": 0, "sales_maison": 0, "median_price": 265400.0, "median_price_per_sqm": null, "turnover_score": 4.0, "turnover_rank": 27, "first_year": 2025, "last_year": 2025, "years_active": 1}}, {"type": "Feature", "geometry": {"type": "Point", "coordinates": [3.009307, 48.832286]}, "properties": {"street_name": "LE CAS ROUGE", "sales": 3, "sales_appt": 0, "sales_maison": 1, "median_price": 540000.0, "median_price_per_sqm": 16030.534351145037, "turnover_score": 4.0, "turnover_rank": 27, "first_year": 2021, "last_year": 2021, "years_active": 1}}, {"type": "Feature", "geometry": {"type": "Point", "coordinates": [3.019886, 48.805826]}, "properties": {"street_name": "LE PRE COLIN", "sales": 3, "sales_appt": 0, "sales_maison": 0, "median_price": 72000.0, "median_price_per_sqm": null, "turnover_score": 4.0, "turnover_rank": 27, "first_year": 2025, "last_year": 2025, "years_active": 1}}, {"type": "Feature", "geometry": {"type": "Point", "coordinates": [3.015097, 48.821573]}, "properties": {"street_name": "LA BARBIERE", "sales": 3, "sales_appt": 0, "sales_maison": 0, "median_price": 35000.0, "median_price_per_sqm": null, "turnover_score": 4.0, "turnover_rank": 27, "first_year": 2024, "last_year": 2024, "years_active": 1}}, {"type": "Feature", "geometry": {"type": "Point", "coordinates": [3.008315, 48.817805]}, "properties": {"street_name": "COUR DES JARDINETS", "sales": 3, "sales_appt": 0, "sales_maison": 1, "median_price": 247000.0, "median_price_per_sqm": 2744.4444444444443, "turnover_score": 4.0, "turnover_rank": 27, "first_year": 2025, "last_year": 2025, "years_active": 1}}, {"type": "Feature", "geometry": {"type": "Point", "coordinates": [2.980197, 48.814065]}, "properties": {"street_name": "DERRIERE COURTALIN", "sales": 3, "sales_appt": 0, "sales_maison": 0, "median_price": 600000.0, "median_price_per_sqm": null, "turnover_score": 4.0, "turnover_rank": 27, "first_year": 2023, "last_year": 2023, "years_active": 1}}, {"type": "Feature", "geometry": {"type": "Point", "coordinates": [2.991044, 48.811183]}, "properties": {"street_name": "LA BILBAUDERIE OUEST", "sales": 3, "sales_appt": 0, "sales_maison": 0, "median_price": 235000.0, "median_price_per_sqm": null, "turnover_score": 4.0, "turnover_rank": 27, "first_year": 2024, "last_year": 2024, "years_active": 1}}, {"type": "Feature", "geometry": {"type": "Point", "coordinates": [2.99467, 48.808428]}, "properties": {"street_name": "AU BAS DE LA BIONNE", "sales": 3, "sales_appt": 0, "sales_maison": 0, "median_price": 250000.0, "median_price_per_sqm": null, "turnover_score": 4.0, "turnover_rank": 27, "first_year": 2024, "last_year": 2025, "years_active": 2}}, {"type": "Feature", "geometry": {"type": "Point", "coordinates": [3.01737, 48.799242]}, "properties": {"street_name": "LE CHP DU RU BOUTILLIER", "sales": 3, "sales_appt": 0, "sales_maison": 0, "median_price": 6000.0, "median_price_per_sqm": null, "turnover_score": 4.0, "turnover_rank": 27, "first_year": 2022, "last_year": 2024, "years_active": 2}}, {"type": "Feature", "geometry": {"type": "Point", "coordinates": [3.011163, 48.818077]}, "properties": {"street_name": "LA FOUCAUDE", "sales": 3, "sales_appt": 0, "sales_maison": 0, "median_price": 88000.0, "median_price_per_sqm": null, "turnover_score": 4.0, "turnover_rank": 27, "first_year": 2022, "last_year": 2022, "years_active": 1}}, {"type": "Feature", "geometry": {"type": "Point", "coordinates": [3.012782, 48.796829]}, "properties": {"street_name": "LA RAIE", "sales": 3, "sales_appt": 0, "sales_maison": 0, "median_price": 75000.0, "median_price_per_sqm": null, "turnover_score": 4.0, "turnover_rank": 27, "first_year": 2021, "last_year": 2024, "years_active": 3}}, {"type": "Feature", "geometry": {"type": "Point", "coordinates": [2.99631, 48.813502]}, "properties": {"street_name": "LES ECLUSES", "sales": 3, "sales_appt": 0, "sales_maison": 1, "median_price": 194000.0, "median_price_per_sqm": 1716.8141592920354, "turnover_score": 4.0, "turnover_rank": 27, "first_year": 2022, "last_year": 2023, "years_active": 2}}, {"type": "Feature", "geometry": {"type": "Point", "coordinates": [2.984611, 48.806402]}, "properties": {"street_name": "LES PRES DU GIBET", "sales": 3, "sales_appt": 0, "sales_maison": 0, "median_price": 9950.0, "median_price_per_sqm": null, "turnover_score": 4.0, "turnover_rank": 27, "first_year": 2023, "last_year": 2024, "years_active": 2}}, {"type": "Feature", "geometry": {"type": "Point", "coordinates": [3.01308, 48.818691]}, "properties": {"street_name": "RUE DE MEAUX", "sales": 3, "sales_appt": 0, "sales_maison": 3, "median_price": 174960.0, "median_price_per_sqm": 1682.3076923076924, "turnover_score": 4.0, "turnover_rank": 27, "first_year": 2023, "last_year": 2023, "years_active": 1}}, {"type": "Feature", "geometry": {"type": "Point", "coordinates": [2.991165, 48.817919]}, "properties": {"street_name": "LE CHP DU SEIGLE", "sales": 2, "sales_appt": 0, "sales_maison": 0, "median_price": 314000.0, "median_price_per_sqm": null, "turnover_score": 2.7, "turnover_rank": 28, "first_year": 2021, "last_year": 2021, "years_active": 1}}, {"type": "Feature", "geometry": {"type": "Point", "coordinates": [3.0231775, 48.826237]}, "properties": {"street_name": "FAUBOURG DE MONTMARTIN", "sales": 2, "sales_appt": 0, "sales_maison": 0, "median_price": 82500.0, "median_price_per_sqm": null, "turnover_score": 2.7, "turnover_rank": 28, "first_year": 2025, "last_year": 2025, "years_active": 1}}, {"type": "Feature", "geometry": {"type": "Point", "coordinates": [3.015157, 48.820625]}, "properties": {"street_name": "CHE DU MOULIN", "sales": 2, "sales_appt": 0, "sales_maison": 2, "median_price": 60000.0, "median_price_per_sqm": 1132.0754716981132, "turnover_score": 2.7, "turnover_rank": 28, "first_year": 2021, "last_year": 2021, "years_active": 1}}, {"type": "Feature", "geometry": {"type": "Point", "coordinates": [2.992351, 48.813957]}, "properties": {"street_name": "IMP VION", "sales": 2, "sales_appt": 0, "sales_maison": 1, "median_price": 125000.0, "median_price_per_sqm": 781.25, "turnover_score": 2.7, "turnover_rank": 28, "first_year": 2021, "last_year": 2021, "years_active": 1}}, {"type": "Feature", "geometry": {"type": "Point", "coordinates": [3.012728, 48.797327]}, "properties": {"street_name": "CHE DE LA PETITE RUE", "sales": 2, "sales_appt": 0, "sales_maison": 1, "median_price": 215000.0, "median_price_per_sqm": 2336.9565217391305, "turnover_score": 2.7, "turnover_rank": 28, "first_year": 2021, "last_year": 2021, "years_active": 1}}, {"type": "Feature", "geometry": {"type": "Point", "coordinates": [3.0181215000000003, 48.806455]}, "properties": {"street_name": "LE BOIS DE MONDETOUR", "sales": 2, "sales_appt": 0, "sales_maison": 0, "median_price": 3088.17, "median_price_per_sqm": null, "turnover_score": 2.7, "turnover_rank": 28, "first_year": 2022, "last_year": 2025, "years_active": 2}}, {"type": "Feature", "geometry": {"type": "Point", "coordinates": [2.998833, 48.822061]}, "properties": {"street_name": "RUE DES BLEUETS", "sales": 2, "sales_appt": 0, "sales_maison": 1, "median_price": 277000.0, "median_price_per_sqm": 3147.7272727272725, "turnover_score": 2.7, "turnover_rank": 28, "first_year": 2022, "last_year": 2022, "years_active": 1}}, {"type": "Feature", "geometry": {"type": "Point", "coordinates": [2.990076, 48.815406]}, "properties": {"street_name": "RUE DES ECOLES", "sales": 2, "sales_appt": 0, "sales_maison": 1, "median_price": 228000.0, "median_price_per_sqm": 1509.9337748344371, "turnover_score": 2.7, "turnover_rank": 28, "first_year": 2024, "last_year": 2024, "years_active": 1}}, {"type": "Feature", "geometry": {"type": "Point", "coordinates": [3.015423, 48.808069]}, "properties": {"street_name": "LES PRES DU GUE BANAL", "sales": 2, "sales_appt": 0, "sales_maison": 0, "median_price": 120000.0, "median_price_per_sqm": null, "turnover_score": 2.7, "turnover_rank": 28, "first_year": 2023, "last_year": 2023, "years_active": 1}}, {"type": "Feature", "geometry": {"type": "Point", "coordinates": [2.9983649999999997, 48.831520999999995]}, "properties": {"street_name": "LA FOSSE MALVOISINE", "sales": 2, "sales_appt": 0, "sales_maison": 0, "median_price": 300000.0, "median_price_per_sqm": null, "turnover_score": 2.7, "turnover_rank": 28, "first_year": 2022, "last_year": 2022, "years_active": 1}}, {"type": "Feature", "geometry": {"type": "Point", "coordinates": [3.0019085, 48.8081555]}, "properties": {"street_name": "LA NOISERIE NORD", "sales": 2, "sales_appt": 0, "sales_maison": 0, "median_price": 110000.0, "median_price_per_sqm": null, "turnover_score": 2.7, "turnover_rank": 28, "first_year": 2022, "last_year": 2022, "years_active": 1}}, {"type": "Feature", "geometry": {"type": "Point", "coordinates": [2.985885, 48.815753]}, "properties": {"street_name": "LA RANGEE", "sales": 2, "sales_appt": 0, "sales_maison": 0, "median_price": 26742.5, "median_price_per_sqm": null, "turnover_score": 2.7, "turnover_rank": 28, "first_year": 2023, "last_year": 2023, "years_active": 1}}, {"type": "Feature", "geometry": {"type": "Point", "coordinates": [3.002217, 48.8102135]}, "properties": {"street_name": "SOUS LA GARENNE", "sales": 2, "sales_appt": 0, "sales_maison": 0, "median_price": 32275.2, "median_price_per_sqm": null, "turnover_score": 2.7, "turnover_rank": 28, "first_year": 2021, "last_year": 2021, "years_active": 1}}, {"type": "Feature", "geometry": {"type": "Point", "coordinates": [3.008021, 48.818414]}, "properties": {"street_name": "RUE DU PRESSOIR", "sales": 2, "sales_appt": 0, "sales_maison": 1, "median_price": 428000.0, "median_price_per_sqm": 1528.5714285714287, "turnover_score": 2.7, "turnover_rank": 28, "first_year": 2025, "last_year": 2025, "years_active": 1}}, {"type": "Feature", "geometry": {"type": "Point", "coordinates": [3.007263, 48.818316]}, "properties": {"street_name": "VC DE LA SOURCE", "sales": 2, "sales_appt": 0, "sales_maison": 2, "median_price": 233750.0, "median_price_per_sqm": 2460.5263157894733, "turnover_score": 2.7, "turnover_rank": 28, "first_year": 2023, "last_year": 2024, "years_active": 2}}, {"type": "Feature", "geometry": {"type": "Point", "coordinates": [3.015469, 48.817]}, "properties": {"street_name": "RUE DU CHATEAU", "sales": 2, "sales_appt": 0, "sales_maison": 1, "median_price": 292000.0, "median_price_per_sqm": 1769.6969696969697, "turnover_score": 2.7, "turnover_rank": 28, "first_year": 2023, "last_year": 2023, "years_active": 1}}, {"type": "Feature", "geometry": {"type": "Point", "coordinates": [3.0199485, 48.824144000000004]}, "properties": {"street_name": "LES GDS CHAMPS NORD", "sales": 2, "sales_appt": 0, "sales_maison": 0, "median_price": 20000.0, "median_price_per_sqm": null, "turnover_score": 2.7, "turnover_rank": 28, "first_year": 2022, "last_year": 2022, "years_active": 1}}, {"type": "Feature", "geometry": {"type": "Point", "coordinates": [3.002083, 48.797433]}, "properties": {"street_name": "RUE BECOISEAU", "sales": 2, "sales_appt": 0, "sales_maison": 2, "median_price": 260000.0, "median_price_per_sqm": 3132.5301204819275, "turnover_score": 2.7, "turnover_rank": 28, "first_year": 2021, "last_year": 2021, "years_active": 1}}, {"type": "Feature", "geometry": {"type": "Point", "coordinates": [3.0146425, 48.805837499999996]}, "properties": {"street_name": "RUE BOULARDE", "sales": 2, "sales_appt": 0, "sales_maison": 1, "median_price": 162500.0, "median_price_per_sqm": 1250.0, "turnover_score": 2.7, "turnover_rank": 28, "first_year": 2025, "last_year": 2025, "years_active": 1}}, {"type": "Feature", "geometry": {"type": "Point", "coordinates": [2.990913, 48.811255]}, "properties": {"street_name": "RUE DE LA BILBAUDERIE", "sales": 2, "sales_appt": 0, "sales_maison": 2, "median_price": 235000.0, "median_price_per_sqm": 2373.7373737373737, "turnover_score": 2.7, "turnover_rank": 28, "first_year": 2024, "last_year": 2024, "years_active": 1}}, {"type": "Feature", "geometry": {"type": "Point", "coordinates": [2.998745, 48.817166]}, "properties": {"street_name": "RUE DES FOSSES", "sales": 2, "sales_appt": 0, "sales_maison": 2, "median_price": 280000.0, "median_price_per_sqm": 2641.509433962264, "turnover_score": 2.7, "turnover_rank": 28, "first_year": 2021, "last_year": 2021, "years_active": 1}}, {"type": "Feature", "geometry": {"type": "Point", "coordinates": [2.998391, 48.816007]}, "properties": {"street_name": "RUE DES TIERRY", "sales": 2, "sales_appt": 0, "sales_maison": 1, "median_price": 137500.0, "median_price_per_sqm": 2148.4375, "turnover_score": 2.7, "turnover_rank": 28, "first_year": 2025, "last_year": 2025, "years_active": 1}}, {"type": "Feature", "geometry": {"type": "Point", "coordinates": [2.982861, 48.8101]}, "properties": {"street_name": "RUE DU MONT", "sales": 2, "sales_appt": 0, "sales_maison": 2, "median_price": 115000.0, "median_price_per_sqm": 2395.8333333333335, "turnover_score": 2.7, "turnover_rank": 28, "first_year": 2022, "last_year": 2022, "years_active": 1}}, {"type": "Feature", "geometry": {"type": "Point", "coordinates": [3.0032735, 48.823845]}, "properties": {"street_name": "LE HT ST MARTIN", "sales": 2, "sales_appt": 0, "sales_maison": 0, "median_price": 20137.6, "median_price_per_sqm": null, "turnover_score": 2.7, "turnover_rank": 28, "first_year": 2021, "last_year": 2022, "years_active": 2}}, {"type": "Feature", "geometry": {"type": "Point", "coordinates": [3.0186469999999996, 48.800697]}, "properties": {"street_name": "LE GUE DES SAULES", "sales": 2, "sales_appt": 0, "sales_maison": 0, "median_price": 9500.0, "median_price_per_sqm": null, "turnover_score": 2.7, "turnover_rank": 28, "first_year": 2022, "last_year": 2023, "years_active": 2}}, {"type": "Feature", "geometry": {"type": "Point", "coordinates": [2.983752, 48.816839]}, "properties": {"street_name": "LE MESNIL SUD", "sales": 2, "sales_appt": 0, "sales_maison": 0, "median_price": 146000.0, "median_price_per_sqm": null, "turnover_score": 2.7, "turnover_rank": 28, "first_year": 2022, "last_year": 2023, "years_active": 2}}, {"type": "Feature", "geometry": {"type": "Point", "coordinates": [3.007108, 48.818096]}, "properties": {"street_name": "CRS DES VERRETS", "sales": 1, "sales_appt": 0, "sales_maison": 1, "median_price": 180000.0, "median_price_per_sqm": 3333.3333333333335, "turnover_score": 1.3, "turnover_rank": 29, "first_year": 2025, "last_year": 2025, "years_active": 1}}, {"type": "Feature", "geometry": {"type": "Point", "coordinates": [2.992862, 48.813897]}, "properties": {"street_name": "IMP DE LA VALLEE", "sales": 1, "sales_appt": 0, "sales_maison": 1, "median_price": 100000.0, "median_price_per_sqm": 2631.5789473684213, "turnover_score": 1.3, "turnover_rank": 29, "first_year": 2025, "last_year": 2025, "years_active": 1}}, {"type": "Feature", "geometry": {"type": "Point", "coordinates": [2.985309, 48.821178]}, "properties": {"street_name": "LA COTE AUX CHIENS", "sales": 1, "sales_appt": 0, "sales_maison": 0, "median_price": 170000.0, "median_price_per_sqm": null, "turnover_score": 1.3, "turnover_rank": 29, "first_year": 2023, "last_year": 2023, "years_active": 1}}, {"type": "Feature", "geometry": {"type": "Point", "coordinates": [3.017833, 48.80292]}, "properties": {"street_name": "LA BOUILLONNE", "sales": 1, "sales_appt": 0, "sales_maison": 0, "median_price": 5000.0, "median_price_per_sqm": null, "turnover_score": 1.3, "turnover_rank": 29, "first_year": 2024, "last_year": 2024, "years_active": 1}}, {"type": "Feature", "geometry": {"type": "Point", "coordinates": [2.998799, 48.822363]}, "properties": {"street_name": "IMP RONSIN", "sales": 1, "sales_appt": 0, "sales_maison": 1, "median_price": 279000.0, "median_price_per_sqm": 3032.608695652174, "turnover_score": 1.3, "turnover_rank": 29, "first_year": 2022, "last_year": 2022, "years_active": 1}}, {"type": "Feature", "geometry": {"type": "Point", "coordinates": [3.009921, 48.822371]}, "properties": {"street_name": "LES CHAUFFOURS", "sales": 1, "sales_appt": 0, "sales_maison": 0, "median_price": 5000.0, "median_price_per_sqm": null, "turnover_score": 1.3, "turnover_rank": 29, "first_year": 2022, "last_year": 2022, "years_active": 1}}, {"type": "Feature", "geometry": {"type": "Point", "coordinates": [2.986075, 48.810668]}, "properties": {"street_name": "LES MALANDONS", "sales": 1, "sales_appt": 0, "sales_maison": 0, "median_price": 600000.0, "median_price_per_sqm": null, "turnover_score": 1.3, "turnover_rank": 29, "first_year": 2023, "last_year": 2023, "years_active": 1}}, {"type": "Feature", "geometry": {"type": "Point", "coordinates": [2.996632, 48.819144]}, "properties": {"street_name": "LES CAILLOUX", "sales": 1, "sales_appt": 0, "sales_maison": 0, "median_price": 4000.0, "median_price_per_sqm": null, "turnover_score": 1.3, "turnover_rank": 29, "first_year": 2023, "last_year": 2023, "years_active": 1}}, {"type": "Feature", "geometry": {"type": "Point", "coordinates": [2.995681, 48.816515]}, "properties": {"street_name": "LES CLOSEAUX", "sales": 1, "sales_appt": 0, "sales_maison": 0, "median_price": 1500.0, "median_price_per_sqm": null, "turnover_score": 1.3, "turnover_rank": 29, "first_year": 2022, "last_year": 2022, "years_active": 1}}, {"type": "Feature", "geometry": {"type": "Point", "coordinates": [3.013356, 48.821394]}, "properties": {"street_name": "LE TRONCHET", "sales": 1, "sales_appt": 0, "sales_maison": 0, "median_price": 357800.0, "median_price_per_sqm": null, "turnover_score": 1.3, "turnover_rank": 29, "first_year": 2023, "last_year": 2023, "years_active": 1}}, {"type": "Feature", "geometry": {"type": "Point", "coordinates": [2.986336, 48.817755]}, "properties": {"street_name": "LA RUELLE NEUVRAY", "sales": 1, "sales_appt": 0, "sales_maison": 0, "median_price": 1500.0, "median_price_per_sqm": null, "turnover_score": 1.3, "turnover_rank": 29, "first_year": 2021, "last_year": 2021, "years_active": 1}}, {"type": "Feature", "geometry": {"type": "Point", "coordinates": [2.998933, 48.807987]}, "properties": {"street_name": "LA NOISERIE", "sales": 1, "sales_appt": 0, "sales_maison": 1, "median_price": 192500.0, "median_price_per_sqm": 2500.0, "turnover_score": 1.3, "turnover_rank": 29, "first_year": 2022, "last_year": 2022, "years_active": 1}}, {"type": "Feature", "geometry": {"type": "Point", "coordinates": [3.012817, 48.819319]}, "properties": {"street_name": "LE CALVAIRE", "sales": 1, "sales_appt": 0, "sales_maison": 0, "median_price": 125000.0, "median_price_per_sqm": null, "turnover_score": 1.3, "turnover_rank": 29, "first_year": 2023, "last_year": 2023, "years_active": 1}}, {"type": "Feature", "geometry": {"type": "Point", "coordinates": [2.99622, 48.826057]}, "properties": {"street_name": "LE CHP JOUAN", "sales": 1, "sales_appt": 0, "sales_maison": 0, "median_price": 32275.2, "median_price_per_sqm": null, "turnover_score": 1.3, "turnover_rank": 29, "first_year": 2021, "last_year": 2021, "years_active": 1}}, {"type": "Feature", "geometry": {"type": "Point", "coordinates": [2.985073, 48.819844]}, "properties": {"street_name": "LE JEU DE BOULES", "sales": 1, "sales_appt": 0, "sales_maison": 0, "median_price": 10000.0, "median_price_per_sqm": null, "turnover_score": 1.3, "turnover_rank": 29, "first_year": 2023, "last_year": 2023, "years_active": 1}}, {"type": "Feature", "geometry": {"type": "Point", "coordinates": [2.980706, 48.812093]}, "properties": {"street_name": "LE MIDI DE LA RUE DE LA CE", "sales": 1, "sales_appt": 0, "sales_maison": 0, "median_price": 38000.0, "median_price_per_sqm": null, "turnover_score": 1.3, "turnover_rank": 29, "first_year": 2025, "last_year": 2025, "years_active": 1}}, {"type": "Feature", "geometry": {"type": "Point", "coordinates": [3.014539, 48.810701]}, "properties": {"street_name": "LE MOULIN DU GUE PLAT", "sales": 1, "sales_appt": 0, "sales_maison": 0, "median_price": 13000.0, "median_price_per_sqm": null, "turnover_score": 1.3, "turnover_rank": 29, "first_year": 2021, "last_year": 2021, "years_active": 1}}, {"type": "Feature", "geometry": {"type": "Point", "coordinates": [3.015522, 48.797268]}, "properties": {"street_name": "RUE DU MOULIN JACQUOT", "sales": 1, "sales_appt": 0, "sales_maison": 1, "median_price": 348000.0, "median_price_per_sqm": 1933.3333333333333, "turnover_score": 1.3, "turnover_rank": 29, "first_year": 2021, "last_year": 2021, "years_active": 1}}]}