{"type": "FeatureCollection", "features": [{"type": "Feature", "geometry": {"type": "Polygon", "coordinates": [[[3.028918, 48.957357], [3.028744, 48.957342], [3.026488, 48.956906], [3.024131, 48.956269], [3.022528, 48.955789], [3.020926, 48.955373], [3.019425, 48.955047], [3.017373, 48.954587], [3.016964, 48.954511], [3.01613, 48.954425], [3.015503, 48.954257], [3.015084, 48.954186], [3.013193, 48.953929], [3.012303, 48.953838], [3.011467, 48.953694], [3.010919, 48.953845], [3.009727, 48.954124], [3.009195, 48.954266], [3.008763, 48.954458], [3.008357, 48.954696], [3.007894, 48.954943], [3.00763, 48.955277], [3.007195, 48.955932], [3.00677, 48.956619], [3.006407, 48.957092], [3.006257, 48.957477], [3.005986, 48.95753], [3.005431, 48.958342], [3.003944, 48.961028], [3.003272, 48.962196], [3.002212, 48.96323], [3.001367, 48.963673], [3.000998, 48.963866], [2.999988, 48.964288], [2.999517, 48.964814], [2.998847, 48.966519], [2.998507, 48.967849], [2.998509, 48.969136], [2.99872, 48.970618], [2.999052, 48.971746], [2.999755, 48.973253], [3.00091, 48.974395], [3.001869, 48.975326], [3.002735, 48.975748], [3.003698, 48.97634], [3.004886, 48.97718], [3.00591, 48.977743], [3.007121, 48.978137], [3.008028, 48.97815], [3.008746, 48.978097], [3.009482, 48.977834], [3.010769, 48.977294], [3.011428, 48.977072], [3.01192, 48.976858], [3.012425, 48.976665], [3.013173, 48.97647], [3.015157, 48.975929], [3.017664, 48.975053], [3.019043, 48.97472], [3.01999, 48.974549], [3.020893, 48.974323], [3.021704, 48.974095], [3.022738, 48.973945], [3.023443, 48.973928], [3.024096, 48.973961], [3.024947, 48.974093], [3.026642, 48.97433], [3.026906, 48.971795], [3.027638, 48.971901], [3.029637, 48.970454], [3.030788, 48.970896], [3.032715, 48.969576], [3.034991, 48.968], [3.035055, 48.967968], [3.035886, 48.968595], [3.036222, 48.968906], [3.037133, 48.969701], [3.037405, 48.969958], [3.037552, 48.970129], [3.037871, 48.970351], [3.038408, 48.970696], [3.038829, 48.970913], [3.039962, 48.971318], [3.041127, 48.971714], [3.041491, 48.971785], [3.042742, 48.971904], [3.045803, 48.972214], [3.045898, 48.972236], [3.046602, 48.972201], [3.047982, 48.973696], [3.048053, 48.973714], [3.050549, 48.973759], [3.053063, 48.973518], [3.053559, 48.973663], [3.054241, 48.97394], [3.054804, 48.9742], [3.055739, 48.974571], [3.057097, 48.974973], [3.057708, 48.975141], [3.057752, 48.97521], [3.0583, 48.975413], [3.05872, 48.975499], [3.059099, 48.975617], [3.059182, 48.975669], [3.059317, 48.975272], [3.059505, 48.974606], [3.059818, 48.973897], [3.059845, 48.973332], [3.059974, 48.973015], [3.060082, 48.972526], [3.060162, 48.972402], [3.060226, 48.972174], [3.060461, 48.971948], [3.060833, 48.971418], [3.061286, 48.97084], [3.061304, 48.970335], [3.060569, 48.970169], [3.059637, 48.969774], [3.059399, 48.969706], [3.058671, 48.969545], [3.058059, 48.969328], [3.057705, 48.969139], [3.057164, 48.969129], [3.056539, 48.969016], [3.056259, 48.968928], [3.055209, 48.968514], [3.054695, 48.968324], [3.053949, 48.967883], [3.053706, 48.967721], [3.05292, 48.967117], [3.052405, 48.966825], [3.052227, 48.966674], [3.051963, 48.966498], [3.051521, 48.965675], [3.051084, 48.965058], [3.0504, 48.964472], [3.049318, 48.964801], [3.048696, 48.964923], [3.048354, 48.964489], [3.04791, 48.963896], [3.047214, 48.963072], [3.046313, 48.962044], [3.045877, 48.961564], [3.045, 48.960548], [3.043328, 48.958571], [3.042628, 48.957752], [3.038992, 48.958333], [3.037218, 48.958621], [3.03685, 48.958673], [3.036194, 48.958711], [3.03449, 48.958843], [3.0341, 48.958847], [3.033017, 48.958835], [3.031943, 48.958795], [3.030634, 48.958694], [3.028782, 48.958442], [3.028918, 48.957357]]]}, "properties": {"code_iris": "770840000", "nom_iris": "Changis-sur-Marne (commune entière)", "type_iris": "Z", "lat": 48.9659, "lng": 3.0299, "dvf_sales_total": 414, "dvf_sales_appt": 0, "dvf_sales_maison": 0, "dvf_median_price": 267750.0, "dvf_median_ppsqm": 2786.8852459016393, "dvf_by_year": "[{\"year\": 2021, \"sales\": 49, \"median_price\": 267750.0}, {\"year\": 2022, \"sales\": 96, \"median_price\": 253007.45}, {\"year\": 2023, \"sales\": 108, \"median_price\": 258450.0}, {\"year\": 2024, \"sales\": 124, \"median_price\": 504665.0}, {\"year\": 2025, \"sales\": 37, \"median_price\": 215000.0}]", "population": 1335, "n_log": null, "n_rp": null, "pct_proprio": null, "pct_hlm": null, "pct_appart": null, "pct_cadres": null, "pct_bac5p": null, "pct_etrangers": null, "pct_0_14": null, "pct_65p": null, "bpe_total": null, "bpe_commerces": null, "bpe_enseignement": null, "bpe_sante": null, "dpe": null, "attractivity_score": null, "rank_attractivity_score": null, "rank_total_attractivity_score": 1, "commune_avg": null, "is_stub": true}}]}