{"type": "FeatureCollection", "features": [{"type": "Feature", "geometry": {"type": "Point", "coordinates": [2.918535, 48.267476]}, "properties": {"street_name": "LA BOULINIERE A L ANE", "sales": 63, "sales_appt": 0, "sales_maison": 0, "median_price": 45000.0, "median_price_per_sqm": null, "turnover_score": 100.0, "turnover_rank": 1, "first_year": 2021, "last_year": 2024, "years_active": 4}}, {"type": "Feature", "geometry": {"type": "Point", "coordinates": [2.906788, 48.235618]}, "properties": {"street_name": "RUE EMILE BRU", "sales": 50, "sales_appt": 8, "sales_maison": 16, "median_price": 286000.0, "median_price_per_sqm": 2600.0, "turnover_score": 79.4, "turnover_rank": 2, "first_year": 2021, "last_year": 2025, "years_active": 4}}, {"type": "Feature", "geometry": {"type": "Point", "coordinates": [2.9233105, 48.2661345]}, "properties": {"street_name": "LE GRAND BOULIN", "sales": 42, "sales_appt": 0, "sales_maison": 0, "median_price": 32031.0, "median_price_per_sqm": null, "turnover_score": 66.7, "turnover_rank": 3, "first_year": 2022, "last_year": 2024, "years_active": 3}}, {"type": "Feature", "geometry": {"type": "Point", "coordinates": [2.895964, 48.253059]}, "properties": {"street_name": "LE GRAND CREILLY", "sales": 30, "sales_appt": 0, "sales_maison": 9, "median_price": 240000.0, "median_price_per_sqm": 1920.0, "turnover_score": 47.6, "turnover_rank": 4, "first_year": 2021, "last_year": 2025, "years_active": 5}}, {"type": "Feature", "geometry": {"type": "Point", "coordinates": [2.878903, 48.239814]}, "properties": {"street_name": "LES PIERRIERES", "sales": 29, "sales_appt": 0, "sales_maison": 3, "median_price": 526000.0, "median_price_per_sqm": 3282.051282051282, "turnover_score": 46.0, "turnover_rank": 5, "first_year": 2022, "last_year": 2024, "years_active": 2}}, {"type": "Feature", "geometry": {"type": "Point", "coordinates": [2.925344, 48.261476]}, "properties": {"street_name": "LE BOIS DES VIGNES", "sales": 23, "sales_appt": 0, "sales_maison": 0, "median_price": 20605.0, "median_price_per_sqm": null, "turnover_score": 36.5, "turnover_rank": 6, "first_year": 2022, "last_year": 2025, "years_active": 4}}, {"type": "Feature", "geometry": {"type": "Point", "coordinates": [2.90038, 48.237906]}, "properties": {"street_name": "RUE DE L EGLISE", "sales": 19, "sales_appt": 4, "sales_maison": 2, "median_price": 290000.0, "median_price_per_sqm": 2848.3130904183536, "turnover_score": 30.2, "turnover_rank": 7, "first_year": 2021, "last_year": 2024, "years_active": 3}}, {"type": "Feature", "geometry": {"type": "Point", "coordinates": [2.924889, 48.272249]}, "properties": {"street_name": "LES VAUGODETS", "sales": 19, "sales_appt": 0, "sales_maison": 0, "median_price": 45103.0, "median_price_per_sqm": null, "turnover_score": 30.2, "turnover_rank": 7, "first_year": 2022, "last_year": 2024, "years_active": 3}}, {"type": "Feature", "geometry": {"type": "Point", "coordinates": [2.9177935, 48.234016499999996]}, "properties": {"street_name": "VILLENOUETTE", "sales": 18, "sales_appt": 0, "sales_maison": 4, "median_price": 275000.0, "median_price_per_sqm": 1874.0188383045524, "turnover_score": 28.6, "turnover_rank": 8, "first_year": 2021, "last_year": 2025, "years_active": 4}}, {"type": "Feature", "geometry": {"type": "Point", "coordinates": [2.902802, 48.235997]}, "properties": {"street_name": "AV DU GEN DE GAULLE", "sales": 17, "sales_appt": 0, "sales_maison": 7, "median_price": 153000.0, "median_price_per_sqm": 1681.3186813186812, "turnover_score": 27.0, "turnover_rank": 9, "first_year": 2023, "last_year": 2025, "years_active": 3}}, {"type": "Feature", "geometry": {"type": "Point", "coordinates": [2.9138390000000003, 48.2347805]}, "properties": {"street_name": "LA COTE DE VILLENOUETTE", "sales": 16, "sales_appt": 0, "sales_maison": 4, "median_price": 210000.0, "median_price_per_sqm": 1866.4437450826122, "turnover_score": 25.4, "turnover_rank": 10, "first_year": 2021, "last_year": 2022, "years_active": 2}}, {"type": "Feature", "geometry": {"type": "Point", "coordinates": [2.903883, 48.225637]}, "properties": {"street_name": "LES CHARRONS", "sales": 15, "sales_appt": 0, "sales_maison": 1, "median_price": 8570.0, "median_price_per_sqm": 5312.5, "turnover_score": 23.8, "turnover_rank": 11, "first_year": 2022, "last_year": 2023, "years_active": 2}}, {"type": "Feature", "geometry": {"type": "Point", "coordinates": [2.91294, 48.233514]}, "properties": {"street_name": "LA VALLEE DE VILLENOUETTE", "sales": 14, "sales_appt": 0, "sales_maison": 0, "median_price": 100584.0, "median_price_per_sqm": null, "turnover_score": 22.2, "turnover_rank": 12, "first_year": 2021, "last_year": 2025, "years_active": 3}}, {"type": "Feature", "geometry": {"type": "Point", "coordinates": [2.919201, 48.272444]}, "properties": {"street_name": "L ENFER", "sales": 13, "sales_appt": 0, "sales_maison": 0, "median_price": 20821.0, "median_price_per_sqm": null, "turnover_score": 20.6, "turnover_rank": 13, "first_year": 2022, "last_year": 2024, "years_active": 3}}, {"type": "Feature", "geometry": {"type": "Point", "coordinates": [2.901337, 48.238106]}, "properties": {"street_name": "RUE MATHURIN BERY", "sales": 13, "sales_appt": 4, "sales_maison": 4, "median_price": 155000.0, "median_price_per_sqm": 2808.9887640449438, "turnover_score": 20.6, "turnover_rank": 13, "first_year": 2022, "last_year": 2025, "years_active": 3}}, {"type": "Feature", "geometry": {"type": "Point", "coordinates": [2.909104, 48.2242825]}, "properties": {"street_name": "CHEMIN RURAL DES COCUS", "sales": 12, "sales_appt": 0, "sales_maison": 0, "median_price": 3000.0, "median_price_per_sqm": null, "turnover_score": 19.0, "turnover_rank": 14, "first_year": 2021, "last_year": 2025, "years_active": 3}}, {"type": "Feature", "geometry": {"type": "Point", "coordinates": [2.893352, 48.237807]}, "properties": {"street_name": "COTE DES FONTAINES", "sales": 11, "sales_appt": 0, "sales_maison": 0, "median_price": 165000.0, "median_price_per_sqm": null, "turnover_score": 17.5, "turnover_rank": 15, "first_year": 2021, "last_year": 2025, "years_active": 4}}, {"type": "Feature", "geometry": {"type": "Point", "coordinates": [2.9009, 48.23672]}, "properties": {"street_name": "RUE DE LA MOTTE", "sales": 11, "sales_appt": 0, "sales_maison": 6, "median_price": 100000.0, "median_price_per_sqm": 1679.8878205128206, "turnover_score": 17.5, "turnover_rank": 15, "first_year": 2021, "last_year": 2024, "years_active": 4}}, {"type": "Feature", "geometry": {"type": "Point", "coordinates": [2.9213649999999998, 48.261821]}, "properties": {"street_name": "LES FOURNEAUX", "sales": 10, "sales_appt": 0, "sales_maison": 0, "median_price": 45000.0, "median_price_per_sqm": null, "turnover_score": 15.9, "turnover_rank": 16, "first_year": 2022, "last_year": 2025, "years_active": 3}}, {"type": "Feature", "geometry": {"type": "Point", "coordinates": [2.877, 48.223738]}, "properties": {"street_name": "PREAUX", "sales": 9, "sales_appt": 0, "sales_maison": 3, "median_price": 25000.0, "median_price_per_sqm": 206.25, "turnover_score": 14.3, "turnover_rank": 17, "first_year": 2021, "last_year": 2025, "years_active": 4}}, {"type": "Feature", "geometry": {"type": "Point", "coordinates": [2.918117, 48.263817]}, "properties": {"street_name": "LES GRANDES LOGES", "sales": 9, "sales_appt": 0, "sales_maison": 0, "median_price": 45000.0, "median_price_per_sqm": null, "turnover_score": 14.3, "turnover_rank": 17, "first_year": 2022, "last_year": 2025, "years_active": 3}}, {"type": "Feature", "geometry": {"type": "Point", "coordinates": [2.906211, 48.235421]}, "properties": {"street_name": "AV DE LA GARE", "sales": 9, "sales_appt": 0, "sales_maison": 4, "median_price": 328000.0, "median_price_per_sqm": 1822.2222222222222, "turnover_score": 14.3, "turnover_rank": 17, "first_year": 2021, "last_year": 2025, "years_active": 2}}, {"type": "Feature", "geometry": {"type": "Point", "coordinates": [2.919992, 48.255702]}, "properties": {"street_name": "LE MARCHAIS DE LA CANE", "sales": 8, "sales_appt": 0, "sales_maison": 1, "median_price": 325000.0, "median_price_per_sqm": 2031.25, "turnover_score": 12.7, "turnover_rank": 18, "first_year": 2022, "last_year": 2022, "years_active": 1}}, {"type": "Feature", "geometry": {"type": "Point", "coordinates": [2.8926365, 48.237325999999996]}, "properties": {"street_name": "LE PONTCEAU", "sales": 8, "sales_appt": 0, "sales_maison": 4, "median_price": 168500.0, "median_price_per_sqm": 1709.6928149947935, "turnover_score": 12.7, "turnover_rank": 18, "first_year": 2021, "last_year": 2025, "years_active": 3}}, {"type": "Feature", "geometry": {"type": "Point", "coordinates": [2.8736555, 48.2383155]}, "properties": {"street_name": "LES CLOSEAUX", "sales": 8, "sales_appt": 0, "sales_maison": 0, "median_price": 280000.0, "median_price_per_sqm": null, "turnover_score": 12.7, "turnover_rank": 18, "first_year": 2021, "last_year": 2025, "years_active": 4}}, {"type": "Feature", "geometry": {"type": "Point", "coordinates": [2.922616, 48.2586795]}, "properties": {"street_name": "LES TESSONNIERES", "sales": 8, "sales_appt": 0, "sales_maison": 1, "median_price": 62920.25, "median_price_per_sqm": 1626.126126126126, "turnover_score": 12.7, "turnover_rank": 18, "first_year": 2021, "last_year": 2024, "years_active": 3}}, {"type": "Feature", "geometry": {"type": "Point", "coordinates": [2.8763015, 48.220836]}, "properties": {"street_name": "LES VIGNES DU VILLAGE", "sales": 8, "sales_appt": 0, "sales_maison": 3, "median_price": 181000.0, "median_price_per_sqm": 2450.0, "turnover_score": 12.7, "turnover_rank": 18, "first_year": 2023, "last_year": 2024, "years_active": 2}}, {"type": "Feature", "geometry": {"type": "Point", "coordinates": [2.903297, 48.238115]}, "properties": {"street_name": "RUE DE LA TOUR", "sales": 8, "sales_appt": 0, "sales_maison": 4, "median_price": 185000.0, "median_price_per_sqm": 2008.0645161290322, "turnover_score": 12.7, "turnover_rank": 18, "first_year": 2021, "last_year": 2025, "years_active": 4}}, {"type": "Feature", "geometry": {"type": "Point", "coordinates": [2.899908, 48.23711]}, "properties": {"street_name": "RUE DES FONTAINES", "sales": 7, "sales_appt": 0, "sales_maison": 5, "median_price": 210500.0, "median_price_per_sqm": 2043.6893203883494, "turnover_score": 11.1, "turnover_rank": 19, "first_year": 2022, "last_year": 2024, "years_active": 3}}, {"type": "Feature", "geometry": {"type": "Point", "coordinates": [2.873785, 48.222852]}, "properties": {"street_name": "RUE DE LA VALLEE", "sales": 7, "sales_appt": 0, "sales_maison": 5, "median_price": 194000.0, "median_price_per_sqm": 1883.495145631068, "turnover_score": 11.1, "turnover_rank": 19, "first_year": 2023, "last_year": 2025, "years_active": 3}}, {"type": "Feature", "geometry": {"type": "Point", "coordinates": [2.876093, 48.240273]}, "properties": {"street_name": "LE BEAU GAY", "sales": 7, "sales_appt": 0, "sales_maison": 3, "median_price": 526000.0, "median_price_per_sqm": 2504.7619047619046, "turnover_score": 11.1, "turnover_rank": 19, "first_year": 2022, "last_year": 2022, "years_active": 1}}, {"type": "Feature", "geometry": {"type": "Point", "coordinates": [2.914988, 48.266834]}, "properties": {"street_name": "LE POIRIER AUX LOUPS", "sales": 7, "sales_appt": 0, "sales_maison": 0, "median_price": 11773.0, "median_price_per_sqm": null, "turnover_score": 11.1, "turnover_rank": 19, "first_year": 2022, "last_year": 2023, "years_active": 2}}, {"type": "Feature", "geometry": {"type": "Point", "coordinates": [2.878162, 48.219131]}, "properties": {"street_name": "HAM DU PETIT NEMOURS", "sales": 6, "sales_appt": 0, "sales_maison": 1, "median_price": 342500.0, "median_price_per_sqm": 3494.8979591836733, "turnover_score": 9.5, "turnover_rank": 20, "first_year": 2021, "last_year": 2021, "years_active": 1}}, {"type": "Feature", "geometry": {"type": "Point", "coordinates": [2.9162615, 48.230365]}, "properties": {"street_name": "BOIS LANDRY", "sales": 6, "sales_appt": 0, "sales_maison": 0, "median_price": 23965.0, "median_price_per_sqm": null, "turnover_score": 9.5, "turnover_rank": 20, "first_year": 2021, "last_year": 2024, "years_active": 3}}, {"type": "Feature", "geometry": {"type": "Point", "coordinates": [2.902803, 48.24059]}, "properties": {"street_name": "LES GRANDES RUES", "sales": 6, "sales_appt": 0, "sales_maison": 0, "median_price": 63500.0, "median_price_per_sqm": null, "turnover_score": 9.5, "turnover_rank": 20, "first_year": 2021, "last_year": 2024, "years_active": 3}}, {"type": "Feature", "geometry": {"type": "Point", "coordinates": [2.9076440000000003, 48.22743]}, "properties": {"street_name": "PENTE DE DARDOU", "sales": 6, "sales_appt": 0, "sales_maison": 0, "median_price": 3000.0, "median_price_per_sqm": null, "turnover_score": 9.5, "turnover_rank": 20, "first_year": 2021, "last_year": 2025, "years_active": 3}}, {"type": "Feature", "geometry": {"type": "Point", "coordinates": [2.9025795, 48.241529]}, "properties": {"street_name": "LE BERCEAU", "sales": 6, "sales_appt": 0, "sales_maison": 0, "median_price": 90000.0, "median_price_per_sqm": 843.75, "turnover_score": 9.5, "turnover_rank": 20, "first_year": 2021, "last_year": 2025, "years_active": 3}}, {"type": "Feature", "geometry": {"type": "Point", "coordinates": [2.905031, 48.237097500000004]}, "properties": {"street_name": "LA PORTE DE VAUX", "sales": 6, "sales_appt": 0, "sales_maison": 0, "median_price": 121000.0, "median_price_per_sqm": null, "turnover_score": 9.5, "turnover_rank": 20, "first_year": 2024, "last_year": 2025, "years_active": 2}}, {"type": "Feature", "geometry": {"type": "Point", "coordinates": [2.867508, 48.227021]}, "properties": {"street_name": "LA RUE CHAUDE", "sales": 5, "sales_appt": 0, "sales_maison": 0, "median_price": 60000.0, "median_price_per_sqm": null, "turnover_score": 7.9, "turnover_rank": 21, "first_year": 2023, "last_year": 2025, "years_active": 2}}, {"type": "Feature", "geometry": {"type": "Point", "coordinates": [2.867294, 48.228654]}, "properties": {"street_name": "DEVANT LA RUE CHAUDE", "sales": 5, "sales_appt": 0, "sales_maison": 0, "median_price": 60000.0, "median_price_per_sqm": null, "turnover_score": 7.9, "turnover_rank": 21, "first_year": 2023, "last_year": 2025, "years_active": 2}}, {"type": "Feature", "geometry": {"type": "Point", "coordinates": [2.921959, 48.230204]}, "properties": {"street_name": "BOIS DE VILLENOUETTE", "sales": 5, "sales_appt": 0, "sales_maison": 0, "median_price": 275000.0, "median_price_per_sqm": null, "turnover_score": 7.9, "turnover_rank": 21, "first_year": 2021, "last_year": 2022, "years_active": 2}}, {"type": "Feature", "geometry": {"type": "Point", "coordinates": [2.875022, 48.245208]}, "properties": {"street_name": "MONTAGNE SAINTE ANNE", "sales": 5, "sales_appt": 0, "sales_maison": 0, "median_price": 45000.0, "median_price_per_sqm": null, "turnover_score": 7.9, "turnover_rank": 21, "first_year": 2021, "last_year": 2024, "years_active": 3}}, {"type": "Feature", "geometry": {"type": "Point", "coordinates": [2.86327, 48.215876]}, "properties": {"street_name": "LES MINES", "sales": 5, "sales_appt": 0, "sales_maison": 0, "median_price": 2307.0, "median_price_per_sqm": null, "turnover_score": 7.9, "turnover_rank": 21, "first_year": 2021, "last_year": 2024, "years_active": 2}}, {"type": "Feature", "geometry": {"type": "Point", "coordinates": [2.899042, 48.239194]}, "properties": {"street_name": "LE PRIEURE", "sales": 5, "sales_appt": 0, "sales_maison": 0, "median_price": 44000.0, "median_price_per_sqm": null, "turnover_score": 7.9, "turnover_rank": 21, "first_year": 2021, "last_year": 2022, "years_active": 2}}, {"type": "Feature", "geometry": {"type": "Point", "coordinates": [2.917207, 48.234999]}, "properties": {"street_name": "BOIS DE LA CAVE", "sales": 5, "sales_appt": 0, "sales_maison": 0, "median_price": 275000.0, "median_price_per_sqm": null, "turnover_score": 7.9, "turnover_rank": 21, "first_year": 2021, "last_year": 2025, "years_active": 3}}, {"type": "Feature", "geometry": {"type": "Point", "coordinates": [2.875162, 48.240891]}, "properties": {"street_name": "LES GROS ORMES", "sales": 5, "sales_appt": 0, "sales_maison": 4, "median_price": 268000.0, "median_price_per_sqm": 1921.4021208835884, "turnover_score": 7.9, "turnover_rank": 21, "first_year": 2021, "last_year": 2023, "years_active": 3}}, {"type": "Feature", "geometry": {"type": "Point", "coordinates": [2.905852, 48.235843]}, "properties": {"street_name": "LES PLANTES", "sales": 5, "sales_appt": 0, "sales_maison": 0, "median_price": 230000.0, "median_price_per_sqm": null, "turnover_score": 7.9, "turnover_rank": 21, "first_year": 2022, "last_year": 2024, "years_active": 2}}, {"type": "Feature", "geometry": {"type": "Point", "coordinates": [2.900388, 48.236663]}, "properties": {"street_name": "RUE DU GUICHET", "sales": 5, "sales_appt": 2, "sales_maison": 1, "median_price": 45000.0, "median_price_per_sqm": 1801.6746411483255, "turnover_score": 7.9, "turnover_rank": 21, "first_year": 2021, "last_year": 2024, "years_active": 2}}, {"type": "Feature", "geometry": {"type": "Point", "coordinates": [2.8590615, 48.222399499999995]}, "properties": {"street_name": "LE GATINAIS", "sales": 4, "sales_appt": 0, "sales_maison": 0, "median_price": 60000.0, "median_price_per_sqm": null, "turnover_score": 6.3, "turnover_rank": 22, "first_year": 2023, "last_year": 2025, "years_active": 2}}, {"type": "Feature", "geometry": {"type": "Point", "coordinates": [2.8738435, 48.233714500000005]}, "properties": {"street_name": "LA CAVE AUX RENARDS", "sales": 4, "sales_appt": 0, "sales_maison": 0, "median_price": 62500.0, "median_price_per_sqm": null, "turnover_score": 6.3, "turnover_rank": 22, "first_year": 2023, "last_year": 2025, "years_active": 2}}, {"type": "Feature", "geometry": {"type": "Point", "coordinates": [2.875482, 48.243436]}, "properties": {"street_name": "LA MONTAGNE SAINTE ANNE", "sales": 4, "sales_appt": 0, "sales_maison": 0, "median_price": 67609.0, "median_price_per_sqm": null, "turnover_score": 6.3, "turnover_rank": 22, "first_year": 2023, "last_year": 2023, "years_active": 1}}, {"type": "Feature", "geometry": {"type": "Point", "coordinates": [2.9074619999999998, 48.228594]}, "properties": {"street_name": "CHAUME", "sales": 4, "sales_appt": 0, "sales_maison": 0, "median_price": 3500.0, "median_price_per_sqm": null, "turnover_score": 6.3, "turnover_rank": 22, "first_year": 2021, "last_year": 2024, "years_active": 3}}, {"type": "Feature", "geometry": {"type": "Point", "coordinates": [2.893282, 48.251663]}, "properties": {"street_name": "RUE DES DIMES", "sales": 4, "sales_appt": 0, "sales_maison": 2, "median_price": 188500.0, "median_price_per_sqm": 2582.1917808219177, "turnover_score": 6.3, "turnover_rank": 22, "first_year": 2024, "last_year": 2024, "years_active": 1}}, {"type": "Feature", "geometry": {"type": "Point", "coordinates": [2.8659974999999998, 48.2219435]}, "properties": {"street_name": "LES GROUASSES", "sales": 4, "sales_appt": 0, "sales_maison": 0, "median_price": 60000.0, "median_price_per_sqm": null, "turnover_score": 6.3, "turnover_rank": 22, "first_year": 2023, "last_year": 2024, "years_active": 2}}, {"type": "Feature", "geometry": {"type": "Point", "coordinates": [2.9059714999999997, 48.2228845]}, "properties": {"street_name": "NORMANDIE", "sales": 4, "sales_appt": 0, "sales_maison": 0, "median_price": 30000.0, "median_price_per_sqm": null, "turnover_score": 6.3, "turnover_rank": 22, "first_year": 2022, "last_year": 2022, "years_active": 1}}, {"type": "Feature", "geometry": {"type": "Point", "coordinates": [2.870642, 48.240901]}, "properties": {"street_name": "RUE DE LORREZ", "sales": 4, "sales_appt": 0, "sales_maison": 2, "median_price": 130000.0, "median_price_per_sqm": 1940.2985074626865, "turnover_score": 6.3, "turnover_rank": 22, "first_year": 2021, "last_year": 2021, "years_active": 1}}, {"type": "Feature", "geometry": {"type": "Point", "coordinates": [2.905738, 48.223379]}, "properties": {"street_name": "RUE DE NORMANDIE", "sales": 4, "sales_appt": 0, "sales_maison": 2, "median_price": 105000.0, "median_price_per_sqm": 1202.127659574468, "turnover_score": 6.3, "turnover_rank": 22, "first_year": 2022, "last_year": 2023, "years_active": 2}}, {"type": "Feature", "geometry": {"type": "Point", "coordinates": [2.896038, 48.238803]}, "properties": {"street_name": "RUE DES JARDINS", "sales": 3, "sales_appt": 0, "sales_maison": 3, "median_price": 170000.0, "median_price_per_sqm": 1360.0, "turnover_score": 4.8, "turnover_rank": 23, "first_year": 2021, "last_year": 2023, "years_active": 2}}, {"type": "Feature", "geometry": {"type": "Point", "coordinates": [2.895718, 48.236885]}, "properties": {"street_name": "LES FONTAINES", "sales": 3, "sales_appt": 0, "sales_maison": 0, "median_price": 212000.0, "median_price_per_sqm": null, "turnover_score": 4.8, "turnover_rank": 23, "first_year": 2022, "last_year": 2022, "years_active": 1}}, {"type": "Feature", "geometry": {"type": "Point", "coordinates": [2.902962, 48.235143]}, "properties": {"street_name": "LES CHENEVIERES", "sales": 3, "sales_appt": 0, "sales_maison": 0, "median_price": 2500.0, "median_price_per_sqm": null, "turnover_score": 4.8, "turnover_rank": 23, "first_year": 2024, "last_year": 2024, "years_active": 1}}, {"type": "Feature", "geometry": {"type": "Point", "coordinates": [2.918147, 48.257009]}, "properties": {"street_name": "LES BASSES LOGES", "sales": 3, "sales_appt": 0, "sales_maison": 0, "median_price": 62920.25, "median_price_per_sqm": null, "turnover_score": 4.8, "turnover_rank": 23, "first_year": 2022, "last_year": 2022, "years_active": 1}}, {"type": "Feature", "geometry": {"type": "Point", "coordinates": [2.878031, 48.218915]}, "properties": {"street_name": "LA CHATAIGNERIE", "sales": 3, "sales_appt": 0, "sales_maison": 0, "median_price": 342500.0, "median_price_per_sqm": null, "turnover_score": 4.8, "turnover_rank": 23, "first_year": 2021, "last_year": 2025, "years_active": 2}}, {"type": "Feature", "geometry": {"type": "Point", "coordinates": [2.9203455, 48.248753]}, "properties": {"street_name": "LA MAISON BRAZEAU", "sales": 2, "sales_appt": 0, "sales_maison": 0, "median_price": 62920.25, "median_price_per_sqm": null, "turnover_score": 3.2, "turnover_rank": 24, "first_year": 2022, "last_year": 2022, "years_active": 1}}, {"type": "Feature", "geometry": {"type": "Point", "coordinates": [2.877091, 48.2210175]}, "properties": {"street_name": "LA GRANDE MAISON", "sales": 2, "sales_appt": 0, "sales_maison": 0, "median_price": 105000.0, "median_price_per_sqm": null, "turnover_score": 3.2, "turnover_rank": 24, "first_year": 2024, "last_year": 2024, "years_active": 1}}, {"type": "Feature", "geometry": {"type": "Point", "coordinates": [2.8796475, 48.23693]}, "properties": {"street_name": "LA CAVE AUX FEES", "sales": 2, "sales_appt": 0, "sales_maison": 0, "median_price": 167500.0, "median_price_per_sqm": null, "turnover_score": 3.2, "turnover_rank": 24, "first_year": 2021, "last_year": 2023, "years_active": 2}}, {"type": "Feature", "geometry": {"type": "Point", "coordinates": [2.9017075, 48.236740999999995]}, "properties": {"street_name": "LE BOURG", "sales": 2, "sales_appt": 0, "sales_maison": 0, "median_price": 266500.0, "median_price_per_sqm": null, "turnover_score": 3.2, "turnover_rank": 24, "first_year": 2022, "last_year": 2023, "years_active": 2}}, {"type": "Feature", "geometry": {"type": "Point", "coordinates": [2.873206, 48.236694]}, "properties": {"street_name": "RUE DES MOULINS", "sales": 2, "sales_appt": 0, "sales_maison": 2, "median_price": 280000.0, "median_price_per_sqm": 1917.8082191780823, "turnover_score": 3.2, "turnover_rank": 24, "first_year": 2025, "last_year": 2025, "years_active": 1}}, {"type": "Feature", "geometry": {"type": "Point", "coordinates": [2.9043419999999998, 48.235803000000004]}, "properties": {"street_name": "LES RUELLES", "sales": 2, "sales_appt": 0, "sales_maison": 0, "median_price": 230000.0, "median_price_per_sqm": null, "turnover_score": 3.2, "turnover_rank": 24, "first_year": 2024, "last_year": 2024, "years_active": 1}}, {"type": "Feature", "geometry": {"type": "Point", "coordinates": [2.909966, 48.2620165]}, "properties": {"street_name": "LES NEFLIERS", "sales": 2, "sales_appt": 0, "sales_maison": 0, "median_price": 45000.0, "median_price_per_sqm": null, "turnover_score": 3.2, "turnover_rank": 24, "first_year": 2024, "last_year": 2024, "years_active": 1}}, {"type": "Feature", "geometry": {"type": "Point", "coordinates": [2.890775, 48.249297]}, "properties": {"street_name": "LE PETIT CREILLY", "sales": 2, "sales_appt": 0, "sales_maison": 2, "median_price": 125000.0, "median_price_per_sqm": 1373.6263736263736, "turnover_score": 3.2, "turnover_rank": 24, "first_year": 2024, "last_year": 2024, "years_active": 1}}, {"type": "Feature", "geometry": {"type": "Point", "coordinates": [2.9089405, 48.244199]}, "properties": {"street_name": "LE CHEMIN DE MONTEREAU", "sales": 2, "sales_appt": 0, "sales_maison": 0, "median_price": 161500.0, "median_price_per_sqm": null, "turnover_score": 3.2, "turnover_rank": 24, "first_year": 2021, "last_year": 2023, "years_active": 2}}, {"type": "Feature", "geometry": {"type": "Point", "coordinates": [2.9203840000000003, 48.253027]}, "properties": {"street_name": "LE BOIS DE L EGLISE", "sales": 2, "sales_appt": 0, "sales_maison": 0, "median_price": 62920.25, "median_price_per_sqm": null, "turnover_score": 3.2, "turnover_rank": 24, "first_year": 2022, "last_year": 2022, "years_active": 1}}, {"type": "Feature", "geometry": {"type": "Point", "coordinates": [2.9107655, 48.255546]}, "properties": {"street_name": "LES FONTENOYS", "sales": 2, "sales_appt": 0, "sales_maison": 0, "median_price": 45000.0, "median_price_per_sqm": null, "turnover_score": 3.2, "turnover_rank": 24, "first_year": 2024, "last_year": 2024, "years_active": 1}}, {"type": "Feature", "geometry": {"type": "Point", "coordinates": [2.864395, 48.2283195]}, "properties": {"street_name": "LA TRIPERELLE", "sales": 2, "sales_appt": 0, "sales_maison": 0, "median_price": 1330.0, "median_price_per_sqm": null, "turnover_score": 3.2, "turnover_rank": 24, "first_year": 2022, "last_year": 2022, "years_active": 1}}, {"type": "Feature", "geometry": {"type": "Point", "coordinates": [2.872259, 48.219592]}, "properties": {"street_name": "LA GONINE", "sales": 2, "sales_appt": 0, "sales_maison": 0, "median_price": 83000.0, "median_price_per_sqm": null, "turnover_score": 3.2, "turnover_rank": 24, "first_year": 2021, "last_year": 2021, "years_active": 1}}, {"type": "Feature", "geometry": {"type": "Point", "coordinates": [2.886516, 48.22095]}, "properties": {"street_name": "CHAMPFOU", "sales": 2, "sales_appt": 0, "sales_maison": 0, "median_price": 72900.0, "median_price_per_sqm": null, "turnover_score": 3.2, "turnover_rank": 24, "first_year": 2025, "last_year": 2025, "years_active": 1}}, {"type": "Feature", "geometry": {"type": "Point", "coordinates": [2.910736, 48.228205]}, "properties": {"street_name": "FERME DE CHAUME", "sales": 2, "sales_appt": 0, "sales_maison": 1, "median_price": 158000.0, "median_price_per_sqm": 1837.2093023255813, "turnover_score": 3.2, "turnover_rank": 24, "first_year": 2021, "last_year": 2021, "years_active": 1}}, {"type": "Feature", "geometry": {"type": "Point", "coordinates": [2.881149, 48.23542]}, "properties": {"street_name": "BOIS DE LA CAVE AUX FEES", "sales": 1, "sales_appt": 0, "sales_maison": 0, "median_price": 4900.0, "median_price_per_sqm": null, "turnover_score": 1.6, "turnover_rank": 25, "first_year": 2024, "last_year": 2024, "years_active": 1}}, {"type": "Feature", "geometry": {"type": "Point", "coordinates": [2.916519, 48.252973]}, "properties": {"street_name": "ENTRE LES DEUX CHEMINS", "sales": 1, "sales_appt": 0, "sales_maison": 0, "median_price": 62920.25, "median_price_per_sqm": null, "turnover_score": 1.6, "turnover_rank": 25, "first_year": 2022, "last_year": 2022, "years_active": 1}}, {"type": "Feature", "geometry": {"type": "Point", "coordinates": [2.892544, 48.23708]}, "properties": {"street_name": "HAM DU PONTCEAU", "sales": 1, "sales_appt": 0, "sales_maison": 0, "median_price": 172000.0, "median_price_per_sqm": null, "turnover_score": 1.6, "turnover_rank": 25, "first_year": 2023, "last_year": 2023, "years_active": 1}}, {"type": "Feature", "geometry": {"type": "Point", "coordinates": [2.875374, 48.236792]}, "properties": {"street_name": "IMP DES MOULINS", "sales": 1, "sales_appt": 0, "sales_maison": 0, "median_price": 30000.0, "median_price_per_sqm": null, "turnover_score": 1.6, "turnover_rank": 25, "first_year": 2021, "last_year": 2021, "years_active": 1}}, {"type": "Feature", "geometry": {"type": "Point", "coordinates": [2.872307, 48.230612]}, "properties": {"street_name": "LA POMMELEE", "sales": 1, "sales_appt": 0, "sales_maison": 0, "median_price": 65000.0, "median_price_per_sqm": null, "turnover_score": 1.6, "turnover_rank": 25, "first_year": 2025, "last_year": 2025, "years_active": 1}}, {"type": "Feature", "geometry": {"type": "Point", "coordinates": [2.904148, 48.239882]}, "properties": {"street_name": "LA GIRAFE", "sales": 1, "sales_appt": 0, "sales_maison": 0, "median_price": 250000.0, "median_price_per_sqm": null, "turnover_score": 1.6, "turnover_rank": 25, "first_year": 2022, "last_year": 2022, "years_active": 1}}, {"type": "Feature", "geometry": {"type": "Point", "coordinates": [2.915876, 48.25729]}, "properties": {"street_name": "LA COGNARDE", "sales": 1, "sales_appt": 0, "sales_maison": 0, "median_price": 62920.25, "median_price_per_sqm": null, "turnover_score": 1.6, "turnover_rank": 25, "first_year": 2022, "last_year": 2022, "years_active": 1}}, {"type": "Feature", "geometry": {"type": "Point", "coordinates": [2.907176, 48.258527]}, "properties": {"street_name": "LA COUR A ROUX", "sales": 1, "sales_appt": 0, "sales_maison": 0, "median_price": 45000.0, "median_price_per_sqm": null, "turnover_score": 1.6, "turnover_rank": 25, "first_year": 2024, "last_year": 2024, "years_active": 1}}, {"type": "Feature", "geometry": {"type": "Point", "coordinates": [2.897728, 48.237805]}, "properties": {"street_name": "CHE DES VIGNES", "sales": 1, "sales_appt": 0, "sales_maison": 1, "median_price": 172000.0, "median_price_per_sqm": 2324.324324324324, "turnover_score": 1.6, "turnover_rank": 25, "first_year": 2024, "last_year": 2024, "years_active": 1}}, {"type": "Feature", "geometry": {"type": "Point", "coordinates": [2.879116, 48.211446]}, "properties": {"street_name": "LE BAS DE LA CHATAIGNERIE", "sales": 1, "sales_appt": 0, "sales_maison": 0, "median_price": 72900.0, "median_price_per_sqm": null, "turnover_score": 1.6, "turnover_rank": 25, "first_year": 2025, "last_year": 2025, "years_active": 1}}, {"type": "Feature", "geometry": {"type": "Point", "coordinates": [2.876584, 48.248275]}, "properties": {"street_name": "LE BOIS DE LA LATTE", "sales": 1, "sales_appt": 0, "sales_maison": 0, "median_price": 5000.0, "median_price_per_sqm": null, "turnover_score": 1.6, "turnover_rank": 25, "first_year": 2023, "last_year": 2023, "years_active": 1}}, {"type": "Feature", "geometry": {"type": "Point", "coordinates": [2.860581, 48.218388]}, "properties": {"street_name": "LA VALLEE DE LA CAGE", "sales": 1, "sales_appt": 0, "sales_maison": 0, "median_price": 9690.0, "median_price_per_sqm": null, "turnover_score": 1.6, "turnover_rank": 25, "first_year": 2021, "last_year": 2021, "years_active": 1}}, {"type": "Feature", "geometry": {"type": "Point", "coordinates": [2.868585, 48.214033]}, "properties": {"street_name": "LES GALACHES", "sales": 1, "sales_appt": 0, "sales_maison": 0, "median_price": 60000.0, "median_price_per_sqm": null, "turnover_score": 1.6, "turnover_rank": 25, "first_year": 2023, "last_year": 2023, "years_active": 1}}, {"type": "Feature", "geometry": {"type": "Point", "coordinates": [2.914299, 48.241944]}, "properties": {"street_name": "LE MOULIN A VENT", "sales": 1, "sales_appt": 0, "sales_maison": 0, "median_price": 68000.0, "median_price_per_sqm": null, "turnover_score": 1.6, "turnover_rank": 25, "first_year": 2021, "last_year": 2021, "years_active": 1}}, {"type": "Feature", "geometry": {"type": "Point", "coordinates": [2.896099, 48.239066]}, "properties": {"street_name": "LE CHAMP BAUDRY", "sales": 1, "sales_appt": 0, "sales_maison": 0, "median_price": 170000.0, "median_price_per_sqm": null, "turnover_score": 1.6, "turnover_rank": 25, "first_year": 2023, "last_year": 2023, "years_active": 1}}, {"type": "Feature", "geometry": {"type": "Point", "coordinates": [2.90225, 48.253034]}, "properties": {"street_name": "LA TREMBLIERE", "sales": 1, "sales_appt": 0, "sales_maison": 0, "median_price": 30000.0, "median_price_per_sqm": null, "turnover_score": 1.6, "turnover_rank": 25, "first_year": 2021, "last_year": 2021, "years_active": 1}}, {"type": "Feature", "geometry": {"type": "Point", "coordinates": [2.881339, 48.233819]}, "properties": {"street_name": "LES PIETROIS", "sales": 1, "sales_appt": 0, "sales_maison": 0, "median_price": 60000.0, "median_price_per_sqm": null, "turnover_score": 1.6, "turnover_rank": 25, "first_year": 2023, "last_year": 2023, "years_active": 1}}, {"type": "Feature", "geometry": {"type": "Point", "coordinates": [2.914382, 48.266079]}, "properties": {"street_name": "LES ROCHES A GONNAIN", "sales": 1, "sales_appt": 0, "sales_maison": 0, "median_price": 11773.0, "median_price_per_sqm": null, "turnover_score": 1.6, "turnover_rank": 25, "first_year": 2023, "last_year": 2023, "years_active": 1}}, {"type": "Feature", "geometry": {"type": "Point", "coordinates": [2.87697, 48.221008]}, "properties": {"street_name": "RUE DES PRES", "sales": 1, "sales_appt": 0, "sales_maison": 1, "median_price": 105000.0, "median_price_per_sqm": 729.1666666666666, "turnover_score": 1.6, "turnover_rank": 25, "first_year": 2024, "last_year": 2024, "years_active": 1}}, {"type": "Feature", "geometry": {"type": "Point", "coordinates": [2.899658, 48.237418]}, "properties": {"street_name": "RUE DU PUITS BRULE", "sales": 1, "sales_appt": 0, "sales_maison": 1, "median_price": 128000.0, "median_price_per_sqm": 1454.5454545454545, "turnover_score": 1.6, "turnover_rank": 25, "first_year": 2021, "last_year": 2021, "years_active": 1}}]}