{"type": "FeatureCollection", "features": [{"type": "Feature", "geometry": {"type": "Point", "coordinates": [3.133607, 49.101571]}, "properties": {"year": 2021, "valeur_fonciere": 250000.0, "type_local": "Maison", "surface_reelle_bati": 150.0, "nombre_pieces_principales": 6.0, "adresse_nom_voie": "RUE DES PRES", "price_per_sqm": 1666.6666666666667, "date_iso": "2021-01-22", "parcelle": "771290000E0237", "addr_num": "6"}}, {"type": "Feature", "geometry": {"type": "Point", "coordinates": [3.124041, 49.068497]}, "properties": {"year": 2021, "valeur_fonciere": 240000.0, "type_local": "Maison", "surface_reelle_bati": 15.0, "nombre_pieces_principales": 1.0, "adresse_nom_voie": "RUE DES MENETRIERS", "price_per_sqm": 16000.0, "date_iso": "2021-02-06", "parcelle": "771290000C0910", "addr_num": "8"}}, {"type": "Feature", "geometry": {"type": "Point", "coordinates": [3.124041, 49.068497]}, "properties": {"year": 2021, "valeur_fonciere": 240000.0, "type_local": "Maison", "surface_reelle_bati": 87.0, "nombre_pieces_principales": 4.0, "adresse_nom_voie": "RUE DES MENETRIERS", "price_per_sqm": 2758.6206896551726, "date_iso": "2021-02-06", "parcelle": "771290000C0910", "addr_num": "8"}}, {"type": "Feature", "geometry": {"type": "Point", "coordinates": [3.124041, 49.068497]}, "properties": {"year": 2021, "valeur_fonciere": 240000.0, "type_local": "Maison", "surface_reelle_bati": 87.0, "nombre_pieces_principales": 4.0, "adresse_nom_voie": "RUE DES MENETRIERS", "price_per_sqm": 2758.6206896551726, "date_iso": "2021-02-06", "parcelle": "771290000C0910", "addr_num": "8"}}, {"type": "Feature", "geometry": {"type": "Point", "coordinates": [3.124041, 49.068497]}, "properties": {"year": 2021, "valeur_fonciere": 240000.0, "type_local": "Maison", "surface_reelle_bati": 15.0, "nombre_pieces_principales": 1.0, "adresse_nom_voie": "RUE DES MENETRIERS", "price_per_sqm": 16000.0, "date_iso": "2021-02-06", "parcelle": "771290000C0910", "addr_num": "8"}}, {"type": "Feature", "geometry": {"type": "Point", "coordinates": [3.101548, 49.070863]}, "properties": {"year": 2021, "valeur_fonciere": 390000.0, "type_local": null, "surface_reelle_bati": null, "nombre_pieces_principales": null, "adresse_nom_voie": "CERTIGNY", "price_per_sqm": null, "date_iso": "2021-01-27", "parcelle": "771290000B0287", "addr_num": ""}}, {"type": "Feature", "geometry": {"type": "Point", "coordinates": [3.102014, 49.0711]}, "properties": {"year": 2021, "valeur_fonciere": 390000.0, "type_local": null, "surface_reelle_bati": null, "nombre_pieces_principales": null, "adresse_nom_voie": "CERTIGNY", "price_per_sqm": null, "date_iso": "2021-01-27", "parcelle": "771290000B0288", "addr_num": ""}}, {"type": "Feature", "geometry": {"type": "Point", "coordinates": [3.101691, 49.071303]}, "properties": {"year": 2021, "valeur_fonciere": 390000.0, "type_local": "Local industriel. commercial ou assimilé", "surface_reelle_bati": 303.0, "nombre_pieces_principales": 0.0, "adresse_nom_voie": "RUE DE L AMANDIERE", "price_per_sqm": 1287.1287128712872, "date_iso": "2021-01-27", "parcelle": "771290000B0610", "addr_num": "17"}}, {"type": "Feature", "geometry": {"type": "Point", "coordinates": [3.101691, 49.071303]}, "properties": {"year": 2021, "valeur_fonciere": 390000.0, "type_local": "Maison", "surface_reelle_bati": 200.0, "nombre_pieces_principales": 8.0, "adresse_nom_voie": "RUE DE L AMANDIERE", "price_per_sqm": 1950.0, "date_iso": "2021-01-27", "parcelle": "771290000B0610", "addr_num": "17"}}, {"type": "Feature", "geometry": {"type": "Point", "coordinates": [3.101691, 49.071303]}, "properties": {"year": 2021, "valeur_fonciere": 390000.0, "type_local": "Maison", "surface_reelle_bati": 50.0, "nombre_pieces_principales": 1.0, "adresse_nom_voie": "RUE DE L AMANDIERE", "price_per_sqm": 7800.0, "date_iso": "2021-01-27", "parcelle": "771290000B0610", "addr_num": "17"}}, {"type": "Feature", "geometry": {"type": "Point", "coordinates": [3.101503, 49.071421]}, "properties": {"year": 2021, "valeur_fonciere": 390000.0, "type_local": null, "surface_reelle_bati": null, "nombre_pieces_principales": null, "adresse_nom_voie": "BREMOISELLE", "price_per_sqm": null, "date_iso": "2021-01-27", "parcelle": "771290000B0684", "addr_num": ""}}, {"type": "Feature", "geometry": {"type": "Point", "coordinates": [3.101784, 49.071528]}, "properties": {"year": 2021, "valeur_fonciere": 390000.0, "type_local": null, "surface_reelle_bati": null, "nombre_pieces_principales": null, "adresse_nom_voie": "CERTIGNY", "price_per_sqm": null, "date_iso": "2021-01-27", "parcelle": "771290000B0686", "addr_num": ""}}, {"type": "Feature", "geometry": {"type": "Point", "coordinates": [3.127764, 49.105482]}, "properties": {"year": 2021, "valeur_fonciere": 1471.0, "type_local": null, "surface_reelle_bati": null, "nombre_pieces_principales": null, "adresse_nom_voie": "VASSET", "price_per_sqm": null, "date_iso": "2021-02-08", "parcelle": "771290000E0062", "addr_num": ""}}, {"type": "Feature", "geometry": {"type": "Point", "coordinates": [3.125321, 49.105411]}, "properties": {"year": 2021, "valeur_fonciere": 1471.0, "type_local": null, "surface_reelle_bati": null, "nombre_pieces_principales": null, "adresse_nom_voie": "VASSET", "price_per_sqm": null, "date_iso": "2021-02-08", "parcelle": "771290000E0077", "addr_num": ""}}, {"type": "Feature", "geometry": {"type": "Point", "coordinates": [3.1291, 49.105755]}, "properties": {"year": 2021, "valeur_fonciere": 1471.0, "type_local": null, "surface_reelle_bati": null, "nombre_pieces_principales": null, "adresse_nom_voie": "LA RECULEE", "price_per_sqm": null, "date_iso": "2021-02-08", "parcelle": "771290000E0092", "addr_num": ""}}, {"type": "Feature", "geometry": {"type": "Point", "coordinates": [3.137305, 49.104473]}, "properties": {"year": 2021, "valeur_fonciere": 1471.0, "type_local": null, "surface_reelle_bati": null, "nombre_pieces_principales": null, "adresse_nom_voie": "LA BRIDA", "price_per_sqm": null, "date_iso": "2021-02-08", "parcelle": "771290000E0167", "addr_num": ""}}, {"type": "Feature", "geometry": {"type": "Point", "coordinates": [3.138917, 49.103121]}, "properties": {"year": 2021, "valeur_fonciere": 1471.0, "type_local": null, "surface_reelle_bati": null, "nombre_pieces_principales": null, "adresse_nom_voie": "VAUX-SOUS-COULOMBS", "price_per_sqm": null, "date_iso": "2021-02-08", "parcelle": "771290000E0200", "addr_num": ""}}, {"type": "Feature", "geometry": {"type": "Point", "coordinates": [3.135345, 49.101787]}, "properties": {"year": 2021, "valeur_fonciere": 1471.0, "type_local": null, "surface_reelle_bati": null, "nombre_pieces_principales": null, "adresse_nom_voie": "VAUX-SOUS-COULOMBS", "price_per_sqm": null, "date_iso": "2021-02-08", "parcelle": "771290000E0266", "addr_num": ""}}, {"type": "Feature", "geometry": {"type": "Point", "coordinates": [3.135227, 49.101865]}, "properties": {"year": 2021, "valeur_fonciere": 1471.0, "type_local": null, "surface_reelle_bati": null, "nombre_pieces_principales": null, "adresse_nom_voie": "VAUX-SOUS-COULOMBS", "price_per_sqm": null, "date_iso": "2021-02-08", "parcelle": "771290000E0267", "addr_num": ""}}, {"type": "Feature", "geometry": {"type": "Point", "coordinates": [3.135201, 49.101603]}, "properties": {"year": 2021, "valeur_fonciere": 1471.0, "type_local": null, "surface_reelle_bati": null, "nombre_pieces_principales": null, "adresse_nom_voie": "VAUX-SOUS-COULOMBS", "price_per_sqm": null, "date_iso": "2021-02-08", "parcelle": "771290000E0278", "addr_num": ""}}, {"type": "Feature", "geometry": {"type": "Point", "coordinates": [3.113896, 49.076796]}, "properties": {"year": 2021, "valeur_fonciere": 2000.0, "type_local": null, "surface_reelle_bati": null, "nombre_pieces_principales": null, "adresse_nom_voie": "LUSANCY", "price_per_sqm": null, "date_iso": "2021-03-06", "parcelle": "771290000A0694", "addr_num": ""}}, {"type": "Feature", "geometry": {"type": "Point", "coordinates": [3.114127, 49.076712]}, "properties": {"year": 2021, "valeur_fonciere": 2000.0, "type_local": null, "surface_reelle_bati": null, "nombre_pieces_principales": null, "adresse_nom_voie": "LUSANCY", "price_per_sqm": null, "date_iso": "2021-03-06", "parcelle": "771290000A0695", "addr_num": ""}}, {"type": "Feature", "geometry": {"type": "Point", "coordinates": [3.133819, 49.103601]}, "properties": {"year": 2021, "valeur_fonciere": 235000.0, "type_local": null, "surface_reelle_bati": null, "nombre_pieces_principales": null, "adresse_nom_voie": "VAUX-SOUS-COULOMBS", "price_per_sqm": null, "date_iso": "2021-03-11", "parcelle": "771290000E0223", "addr_num": ""}}, {"type": "Feature", "geometry": {"type": "Point", "coordinates": [3.133839, 49.103103]}, "properties": {"year": 2021, "valeur_fonciere": 235000.0, "type_local": null, "surface_reelle_bati": null, "nombre_pieces_principales": null, "adresse_nom_voie": "VAUX-SOUS-COULOMBS", "price_per_sqm": null, "date_iso": "2021-03-11", "parcelle": "771290000E0224", "addr_num": ""}}, {"type": "Feature", "geometry": {"type": "Point", "coordinates": [3.133873, 49.102855]}, "properties": {"year": 2021, "valeur_fonciere": 235000.0, "type_local": "Maison", "surface_reelle_bati": 72.0, "nombre_pieces_principales": 4.0, "adresse_nom_voie": "CHE DE SAINT GUNIFORT", "price_per_sqm": 3263.8888888888887, "date_iso": "2021-03-11", "parcelle": "771290000E0295", "addr_num": "2"}}, {"type": "Feature", "geometry": {"type": "Point", "coordinates": [3.133884, 49.102655]}, "properties": {"year": 2021, "valeur_fonciere": 235000.0, "type_local": null, "surface_reelle_bati": null, "nombre_pieces_principales": null, "adresse_nom_voie": "CHE DE SAINT GUNIFORT", "price_per_sqm": null, "date_iso": "2021-03-11", "parcelle": "771290000E0297", "addr_num": ""}}, {"type": "Feature", "geometry": {"type": "Point", "coordinates": [3.12403, 49.072049]}, "properties": {"year": 2021, "valeur_fonciere": 213000.0, "type_local": null, "surface_reelle_bati": null, "nombre_pieces_principales": null, "adresse_nom_voie": "LE VILLAGE", "price_per_sqm": null, "date_iso": "2021-05-17", "parcelle": "771290000C0017", "addr_num": ""}}, {"type": "Feature", "geometry": {"type": "Point", "coordinates": [3.124016, 49.072182]}, "properties": {"year": 2021, "valeur_fonciere": 213000.0, "type_local": "Maison", "surface_reelle_bati": 88.0, "nombre_pieces_principales": 4.0, "adresse_nom_voie": "RUE DU PUITS D AMOUR", "price_per_sqm": 2420.4545454545455, "date_iso": "2021-05-17", "parcelle": "771290000C0859", "addr_num": "12"}}, {"type": "Feature", "geometry": {"type": "Point", "coordinates": [3.124115, 49.072023]}, "properties": {"year": 2021, "valeur_fonciere": 213000.0, "type_local": null, "surface_reelle_bati": null, "nombre_pieces_principales": null, "adresse_nom_voie": "RUE DU PUITS D AMOUR", "price_per_sqm": null, "date_iso": "2021-05-17", "parcelle": "771290000C0912", "addr_num": "12"}}, {"type": "Feature", "geometry": {"type": "Point", "coordinates": [3.13313, 49.10117]}, "properties": {"year": 2021, "valeur_fonciere": 322000.0, "type_local": "Dépendance", "surface_reelle_bati": null, "nombre_pieces_principales": 0.0, "adresse_nom_voie": "RUE DES PRES", "price_per_sqm": null, "date_iso": "2021-06-16", "parcelle": "771290000E0311", "addr_num": "2"}}, {"type": "Feature", "geometry": {"type": "Point", "coordinates": [3.13313, 49.10117]}, "properties": {"year": 2021, "valeur_fonciere": 322000.0, "type_local": "Maison", "surface_reelle_bati": 120.0, "nombre_pieces_principales": 3.0, "adresse_nom_voie": "RUE DES PRES", "price_per_sqm": 2683.3333333333335, "date_iso": "2021-06-16", "parcelle": "771290000E0311", "addr_num": "2"}}, {"type": "Feature", "geometry": {"type": "Point", "coordinates": [3.133318, 49.101417]}, "properties": {"year": 2021, "valeur_fonciere": 322000.0, "type_local": null, "surface_reelle_bati": null, "nombre_pieces_principales": null, "adresse_nom_voie": "RUE DES PRES", "price_per_sqm": null, "date_iso": "2021-06-16", "parcelle": "771290000E0312", "addr_num": "2"}}, {"type": "Feature", "geometry": {"type": "Point", "coordinates": [3.13328, 49.10089]}, "properties": {"year": 2021, "valeur_fonciere": 322000.0, "type_local": null, "surface_reelle_bati": null, "nombre_pieces_principales": null, "adresse_nom_voie": "RUE DES PRES", "price_per_sqm": null, "date_iso": "2021-06-16", "parcelle": "771290000E0313", "addr_num": "2"}}, {"type": "Feature", "geometry": {"type": "Point", "coordinates": [3.133205, 49.101155]}, "properties": {"year": 2021, "valeur_fonciere": 322000.0, "type_local": null, "surface_reelle_bati": null, "nombre_pieces_principales": null, "adresse_nom_voie": "RUE DES PRES", "price_per_sqm": null, "date_iso": "2021-06-16", "parcelle": "771290000E0314", "addr_num": "2"}}, {"type": "Feature", "geometry": {"type": "Point", "coordinates": [3.126229, 49.069832]}, "properties": {"year": 2021, "valeur_fonciere": 117000.0, "type_local": "Maison", "surface_reelle_bati": 89.0, "nombre_pieces_principales": 4.0, "adresse_nom_voie": "RUE SAINT GEORGES", "price_per_sqm": 1314.6067415730338, "date_iso": "2021-07-22", "parcelle": "771290000C0720", "addr_num": "1"}}, {"type": "Feature", "geometry": {"type": "Point", "coordinates": [3.126288, 49.069909]}, "properties": {"year": 2021, "valeur_fonciere": 117000.0, "type_local": null, "surface_reelle_bati": null, "nombre_pieces_principales": null, "adresse_nom_voie": "RUE SAINT GEORGES", "price_per_sqm": null, "date_iso": "2021-07-22", "parcelle": "771290000C0980", "addr_num": ""}}, {"type": "Feature", "geometry": {"type": "Point", "coordinates": [3.123963, 49.072781]}, "properties": {"year": 2021, "valeur_fonciere": 80000.0, "type_local": null, "surface_reelle_bati": null, "nombre_pieces_principales": null, "adresse_nom_voie": "CHE DES CANES", "price_per_sqm": null, "date_iso": "2021-08-05", "parcelle": "771290000C1102", "addr_num": "9"}}, {"type": "Feature", "geometry": {"type": "Point", "coordinates": [3.124152, 49.072758]}, "properties": {"year": 2021, "valeur_fonciere": 80000.0, "type_local": "Maison", "surface_reelle_bati": 90.0, "nombre_pieces_principales": 4.0, "adresse_nom_voie": "CHE DES CANES", "price_per_sqm": 888.8888888888889, "date_iso": "2021-08-05", "parcelle": "771290000C1104", "addr_num": "9"}}, {"type": "Feature", "geometry": {"type": "Point", "coordinates": [3.12532, 49.071019]}, "properties": {"year": 2021, "valeur_fonciere": 172000.0, "type_local": "Maison", "surface_reelle_bati": 77.0, "nombre_pieces_principales": 4.0, "adresse_nom_voie": "GR GRANDE RUE", "price_per_sqm": 2233.7662337662337, "date_iso": "2021-12-07", "parcelle": "771290000C0608", "addr_num": "57"}}, {"type": "Feature", "geometry": {"type": "Point", "coordinates": [3.12532, 49.071019]}, "properties": {"year": 2021, "valeur_fonciere": 172000.0, "type_local": "Dépendance", "surface_reelle_bati": null, "nombre_pieces_principales": 0.0, "adresse_nom_voie": "GR GRANDE RUE", "price_per_sqm": null, "date_iso": "2021-12-07", "parcelle": "771290000C0608", "addr_num": "57"}}, {"type": "Feature", "geometry": {"type": "Point", "coordinates": [3.111086, 49.080271]}, "properties": {"year": 2021, "valeur_fonciere": 19000.0, "type_local": "Maison", "surface_reelle_bati": 36.0, "nombre_pieces_principales": 1.0, "adresse_nom_voie": "RTE DE CROUY", "price_per_sqm": 527.7777777777778, "date_iso": "2021-12-30", "parcelle": "771290000A0046", "addr_num": "42"}}, {"type": "Feature", "geometry": {"type": "Point", "coordinates": [3.111086, 49.080271]}, "properties": {"year": 2021, "valeur_fonciere": 19000.0, "type_local": "Maison", "surface_reelle_bati": 36.0, "nombre_pieces_principales": 1.0, "adresse_nom_voie": "RTE DE CROUY", "price_per_sqm": 527.7777777777778, "date_iso": "2021-12-30", "parcelle": "771290000A0046", "addr_num": "42"}}, {"type": "Feature", "geometry": {"type": "Point", "coordinates": [3.127546, 49.070371]}, "properties": {"year": 2022, "valeur_fonciere": 227000.0, "type_local": null, "surface_reelle_bati": null, "nombre_pieces_principales": null, "adresse_nom_voie": "LE VILLAGE", "price_per_sqm": null, "date_iso": "2022-01-21", "parcelle": "771290000C0137", "addr_num": ""}}, {"type": "Feature", "geometry": {"type": "Point", "coordinates": [3.127325, 49.070296]}, "properties": {"year": 2022, "valeur_fonciere": 227000.0, "type_local": "Maison", "surface_reelle_bati": 140.0, "nombre_pieces_principales": 5.0, "adresse_nom_voie": "RUE SAINT GEORGES", "price_per_sqm": 1621.4285714285713, "date_iso": "2022-01-21", "parcelle": "771290000C0139", "addr_num": "10"}}, {"type": "Feature", "geometry": {"type": "Point", "coordinates": [3.127428, 49.070321]}, "properties": {"year": 2022, "valeur_fonciere": 227000.0, "type_local": null, "surface_reelle_bati": null, "nombre_pieces_principales": null, "adresse_nom_voie": "LE VILLAGE", "price_per_sqm": null, "date_iso": "2022-01-21", "parcelle": "771290000C0666", "addr_num": ""}}, {"type": "Feature", "geometry": {"type": "Point", "coordinates": [3.127202, 49.070247]}, "properties": {"year": 2022, "valeur_fonciere": 227000.0, "type_local": null, "surface_reelle_bati": null, "nombre_pieces_principales": null, "adresse_nom_voie": "LE VILLAGE", "price_per_sqm": null, "date_iso": "2022-01-21", "parcelle": "771290000C0672", "addr_num": ""}}, {"type": "Feature", "geometry": {"type": "Point", "coordinates": [3.12421, 49.067009]}, "properties": {"year": 2022, "valeur_fonciere": 159000.0, "type_local": "Dépendance", "surface_reelle_bati": null, "nombre_pieces_principales": 0.0, "adresse_nom_voie": "GR GRANDE RUE", "price_per_sqm": null, "date_iso": "2022-01-11", "parcelle": "771290000C0200", "addr_num": "8"}}, {"type": "Feature", "geometry": {"type": "Point", "coordinates": [3.12421, 49.067009]}, "properties": {"year": 2022, "valeur_fonciere": 159000.0, "type_local": "Dépendance", "surface_reelle_bati": null, "nombre_pieces_principales": 0.0, "adresse_nom_voie": "GR GRANDE RUE", "price_per_sqm": null, "date_iso": "2022-01-11", "parcelle": "771290000C0200", "addr_num": "8"}}, {"type": "Feature", "geometry": {"type": "Point", "coordinates": [3.12421, 49.067009]}, "properties": {"year": 2022, "valeur_fonciere": 159000.0, "type_local": "Maison", "surface_reelle_bati": 77.0, "nombre_pieces_principales": 4.0, "adresse_nom_voie": "GR GRANDE RUE", "price_per_sqm": 2064.935064935065, "date_iso": "2022-01-11", "parcelle": "771290000C0200", "addr_num": "8"}}, {"type": "Feature", "geometry": {"type": "Point", "coordinates": [3.124403, 49.066861]}, "properties": {"year": 2022, "valeur_fonciere": 159000.0, "type_local": null, "surface_reelle_bati": null, "nombre_pieces_principales": null, "adresse_nom_voie": "LE VILLAGE", "price_per_sqm": null, "date_iso": "2022-01-11", "parcelle": "771290000C0201", "addr_num": ""}}, {"type": "Feature", "geometry": {"type": "Point", "coordinates": [3.122236, 49.069661]}, "properties": {"year": 2022, "valeur_fonciere": 2000.0, "type_local": null, "surface_reelle_bati": null, "nombre_pieces_principales": null, "adresse_nom_voie": "LE VILLAGE", "price_per_sqm": null, "date_iso": "2022-03-05", "parcelle": "771290000C0281", "addr_num": ""}}, {"type": "Feature", "geometry": {"type": "Point", "coordinates": [3.155173, 49.096872]}, "properties": {"year": 2022, "valeur_fonciere": 50000.0, "type_local": null, "surface_reelle_bati": null, "nombre_pieces_principales": null, "adresse_nom_voie": "BREMOISELLE", "price_per_sqm": null, "date_iso": "2022-03-29", "parcelle": "771290000F0494", "addr_num": ""}}, {"type": "Feature", "geometry": {"type": "Point", "coordinates": [3.155629, 49.096941]}, "properties": {"year": 2022, "valeur_fonciere": 50000.0, "type_local": null, "surface_reelle_bati": null, "nombre_pieces_principales": null, "adresse_nom_voie": "BREMOISELLE", "price_per_sqm": null, "date_iso": "2022-03-29", "parcelle": "771290000F0495", "addr_num": ""}}, {"type": "Feature", "geometry": {"type": "Point", "coordinates": [3.125863, 49.068721]}, "properties": {"year": 2022, "valeur_fonciere": 199000.0, "type_local": "Dépendance", "surface_reelle_bati": null, "nombre_pieces_principales": 0.0, "adresse_nom_voie": "GR GRANDE RUE", "price_per_sqm": null, "date_iso": "2022-03-19", "parcelle": "771290000C0897", "addr_num": "26"}}, {"type": "Feature", "geometry": {"type": "Point", "coordinates": [3.125863, 49.068721]}, "properties": {"year": 2022, "valeur_fonciere": 199000.0, "type_local": "Maison", "surface_reelle_bati": 90.0, "nombre_pieces_principales": 4.0, "adresse_nom_voie": "GR GRANDE RUE", "price_per_sqm": 2211.1111111111113, "date_iso": "2022-03-19", "parcelle": "771290000C0897", "addr_num": "26"}}, {"type": "Feature", "geometry": {"type": "Point", "coordinates": [3.125863, 49.068721]}, "properties": {"year": 2022, "valeur_fonciere": 199000.0, "type_local": "Dépendance", "surface_reelle_bati": null, "nombre_pieces_principales": 0.0, "adresse_nom_voie": "GR GRANDE RUE", "price_per_sqm": null, "date_iso": "2022-03-19", "parcelle": "771290000C0897", "addr_num": "26"}}, {"type": "Feature", "geometry": {"type": "Point", "coordinates": [3.126061, 49.068435]}, "properties": {"year": 2022, "valeur_fonciere": 199000.0, "type_local": null, "surface_reelle_bati": null, "nombre_pieces_principales": null, "adresse_nom_voie": "GR GRANDE RUE", "price_per_sqm": null, "date_iso": "2022-03-19", "parcelle": "771290000C0898", "addr_num": ""}}, {"type": "Feature", "geometry": {"type": "Point", "coordinates": [3.124103, 49.068201]}, "properties": {"year": 2022, "valeur_fonciere": 254000.0, "type_local": "Dépendance", "surface_reelle_bati": null, "nombre_pieces_principales": 0.0, "adresse_nom_voie": "RUE DES MENETRIERS", "price_per_sqm": null, "date_iso": "2022-04-04", "parcelle": "771290000C0740", "addr_num": "6"}}, {"type": "Feature", "geometry": {"type": "Point", "coordinates": [3.124103, 49.068201]}, "properties": {"year": 2022, "valeur_fonciere": 254000.0, "type_local": "Maison", "surface_reelle_bati": 110.0, "nombre_pieces_principales": 5.0, "adresse_nom_voie": "RUE DES MENETRIERS", "price_per_sqm": 2309.090909090909, "date_iso": "2022-04-04", "parcelle": "771290000C0740", "addr_num": "6"}}, {"type": "Feature", "geometry": {"type": "Point", "coordinates": [3.124103, 49.068201]}, "properties": {"year": 2022, "valeur_fonciere": 254000.0, "type_local": "Dépendance", "surface_reelle_bati": null, "nombre_pieces_principales": 0.0, "adresse_nom_voie": "RUE DES MENETRIERS", "price_per_sqm": null, "date_iso": "2022-04-04", "parcelle": "771290000C0740", "addr_num": "6"}}, {"type": "Feature", "geometry": {"type": "Point", "coordinates": [3.124103, 49.068201]}, "properties": {"year": 2022, "valeur_fonciere": 254000.0, "type_local": "Maison", "surface_reelle_bati": 110.0, "nombre_pieces_principales": 5.0, "adresse_nom_voie": "RUE DES MENETRIERS", "price_per_sqm": 2309.090909090909, "date_iso": "2022-04-04", "parcelle": "771290000C0740", "addr_num": "6"}}, {"type": "Feature", "geometry": {"type": "Point", "coordinates": [3.149869, 49.085794]}, "properties": {"year": 2022, "valeur_fonciere": 20222.0, "type_local": null, "surface_reelle_bati": null, "nombre_pieces_principales": null, "adresse_nom_voie": "LE FOND DU BOUCHER", "price_per_sqm": null, "date_iso": "2022-03-10", "parcelle": "771290000A0513", "addr_num": ""}}, {"type": "Feature", "geometry": {"type": "Point", "coordinates": [3.162137, 49.099184]}, "properties": {"year": 2022, "valeur_fonciere": 20222.0, "type_local": null, "surface_reelle_bati": null, "nombre_pieces_principales": null, "adresse_nom_voie": "PRES FERMES", "price_per_sqm": null, "date_iso": "2022-03-10", "parcelle": "771290000F0352", "addr_num": ""}}, {"type": "Feature", "geometry": {"type": "Point", "coordinates": [3.149911, 49.086669]}, "properties": {"year": 2022, "valeur_fonciere": 20222.0, "type_local": null, "surface_reelle_bati": null, "nombre_pieces_principales": null, "adresse_nom_voie": "LE CRAPAUD", "price_per_sqm": null, "date_iso": "2022-03-10", "parcelle": "771290000F0518", "addr_num": ""}}, {"type": "Feature", "geometry": {"type": "Point", "coordinates": [3.152698, 49.087282]}, "properties": {"year": 2022, "valeur_fonciere": 20222.0, "type_local": null, "surface_reelle_bati": null, "nombre_pieces_principales": null, "adresse_nom_voie": "LE CRAPAUD", "price_per_sqm": null, "date_iso": "2022-03-10", "parcelle": "771290000F0522", "addr_num": ""}}, {"type": "Feature", "geometry": {"type": "Point", "coordinates": [3.153194, 49.087627]}, "properties": {"year": 2022, "valeur_fonciere": 20222.0, "type_local": null, "surface_reelle_bati": null, "nombre_pieces_principales": null, "adresse_nom_voie": "LE CRAPAUD", "price_per_sqm": null, "date_iso": "2022-03-10", "parcelle": "771290000F0523", "addr_num": ""}}, {"type": "Feature", "geometry": {"type": "Point", "coordinates": [3.149567, 49.08655]}, "properties": {"year": 2022, "valeur_fonciere": 20222.0, "type_local": null, "surface_reelle_bati": null, "nombre_pieces_principales": null, "adresse_nom_voie": "LE CRAPAUD", "price_per_sqm": null, "date_iso": "2022-03-10", "parcelle": "771290000F0630", "addr_num": ""}}, {"type": "Feature", "geometry": {"type": "Point", "coordinates": [3.157937, 49.094706]}, "properties": {"year": 2022, "valeur_fonciere": 20222.0, "type_local": null, "surface_reelle_bati": null, "nombre_pieces_principales": null, "adresse_nom_voie": "LA BONNE MINE", "price_per_sqm": null, "date_iso": "2022-03-10", "parcelle": "77129000ZC0007", "addr_num": ""}}, {"type": "Feature", "geometry": {"type": "Point", "coordinates": [3.127099, 49.070535]}, "properties": {"year": 2022, "valeur_fonciere": 293280.0, "type_local": "Maison", "surface_reelle_bati": 120.0, "nombre_pieces_principales": 4.0, "adresse_nom_voie": "RUE SAINT GEORGES", "price_per_sqm": 2444.0, "date_iso": "2022-04-21", "parcelle": "771290000C0129", "addr_num": "13"}}, {"type": "Feature", "geometry": {"type": "Point", "coordinates": [3.127099, 49.070535]}, "properties": {"year": 2022, "valeur_fonciere": 293280.0, "type_local": "Dépendance", "surface_reelle_bati": null, "nombre_pieces_principales": 0.0, "adresse_nom_voie": "RUE SAINT GEORGES", "price_per_sqm": null, "date_iso": "2022-04-21", "parcelle": "771290000C0129", "addr_num": "13"}}, {"type": "Feature", "geometry": {"type": "Point", "coordinates": [3.126834, 49.070701]}, "properties": {"year": 2022, "valeur_fonciere": 293280.0, "type_local": null, "surface_reelle_bati": null, "nombre_pieces_principales": null, "adresse_nom_voie": "RUE SAINT GEORGES", "price_per_sqm": null, "date_iso": "2022-04-21", "parcelle": "771290000C0988", "addr_num": "13"}}, {"type": "Feature", "geometry": {"type": "Point", "coordinates": [3.127114, 49.070638]}, "properties": {"year": 2022, "valeur_fonciere": 293280.0, "type_local": null, "surface_reelle_bati": null, "nombre_pieces_principales": null, "adresse_nom_voie": "RUE SAINT GEORGES", "price_per_sqm": null, "date_iso": "2022-04-21", "parcelle": "771290000C0990", "addr_num": "13"}}, {"type": "Feature", "geometry": {"type": "Point", "coordinates": [3.125937, 49.069692]}, "properties": {"year": 2022, "valeur_fonciere": 189000.0, "type_local": "Maison", "surface_reelle_bati": 80.0, "nombre_pieces_principales": 4.0, "adresse_nom_voie": "GR GRANDE RUE", "price_per_sqm": 2362.5, "date_iso": "2022-05-20", "parcelle": "771290000C0308", "addr_num": "41"}}, {"type": "Feature", "geometry": {"type": "Point", "coordinates": [3.104847, 49.070474]}, "properties": {"year": 2022, "valeur_fonciere": 200000.0, "type_local": null, "surface_reelle_bati": null, "nombre_pieces_principales": null, "adresse_nom_voie": "CERTIGNY", "price_per_sqm": null, "date_iso": "2022-05-28", "parcelle": "771290000B0251", "addr_num": ""}}, {"type": "Feature", "geometry": {"type": "Point", "coordinates": [3.104817, 49.070393]}, "properties": {"year": 2022, "valeur_fonciere": 200000.0, "type_local": null, "surface_reelle_bati": null, "nombre_pieces_principales": null, "adresse_nom_voie": "CERTIGNY", "price_per_sqm": null, "date_iso": "2022-05-28", "parcelle": "771290000B0252", "addr_num": ""}}, {"type": "Feature", "geometry": {"type": "Point", "coordinates": [3.1049, 49.070468]}, "properties": {"year": 2022, "valeur_fonciere": 200000.0, "type_local": "Maison", "surface_reelle_bati": 110.0, "nombre_pieces_principales": 2.0, "adresse_nom_voie": "RUE DE L AMANDIERE", "price_per_sqm": 1818.1818181818182, "date_iso": "2022-05-28", "parcelle": "771290000B0606", "addr_num": "1"}}, {"type": "Feature", "geometry": {"type": "Point", "coordinates": [3.104714, 49.070532]}, "properties": {"year": 2022, "valeur_fonciere": 200000.0, "type_local": null, "surface_reelle_bati": null, "nombre_pieces_principales": null, "adresse_nom_voie": "CERTIGNY", "price_per_sqm": null, "date_iso": "2022-05-28", "parcelle": "771290000B0607", "addr_num": ""}}, {"type": "Feature", "geometry": {"type": "Point", "coordinates": [3.126272, 49.072516]}, "properties": {"year": 2022, "valeur_fonciere": 200000.0, "type_local": "Dépendance", "surface_reelle_bati": null, "nombre_pieces_principales": 0.0, "adresse_nom_voie": "GR GRANDE RUE", "price_per_sqm": null, "date_iso": "2022-07-01", "parcelle": "771290000C1098", "addr_num": "88"}}, {"type": "Feature", "geometry": {"type": "Point", "coordinates": [3.126272, 49.072516]}, "properties": {"year": 2022, "valeur_fonciere": 200000.0, "type_local": "Maison", "surface_reelle_bati": 274.0, "nombre_pieces_principales": 7.0, "adresse_nom_voie": "GR GRANDE RUE", "price_per_sqm": 729.92700729927, "date_iso": "2022-07-01", "parcelle": "771290000C1098", "addr_num": "88"}}, {"type": "Feature", "geometry": {"type": "Point", "coordinates": [3.126272, 49.072516]}, "properties": {"year": 2022, "valeur_fonciere": 200000.0, "type_local": "Dépendance", "surface_reelle_bati": null, "nombre_pieces_principales": 0.0, "adresse_nom_voie": "GR GRANDE RUE", "price_per_sqm": null, "date_iso": "2022-07-01", "parcelle": "771290000C1098", "addr_num": "88"}}, {"type": "Feature", "geometry": {"type": "Point", "coordinates": [3.126272, 49.072516]}, "properties": {"year": 2022, "valeur_fonciere": 200000.0, "type_local": "Maison", "surface_reelle_bati": 274.0, "nombre_pieces_principales": 7.0, "adresse_nom_voie": "GR GRANDE RUE", "price_per_sqm": 729.92700729927, "date_iso": "2022-07-01", "parcelle": "771290000C1098", "addr_num": "88"}}, {"type": "Feature", "geometry": {"type": "Point", "coordinates": [3.127073, 49.069547]}, "properties": {"year": 2022, "valeur_fonciere": 245000.0, "type_local": "Maison", "surface_reelle_bati": 111.0, "nombre_pieces_principales": 5.0, "adresse_nom_voie": "RUE DES COPAINS", "price_per_sqm": 2207.2072072072074, "date_iso": "2022-08-23", "parcelle": "771290000C0799", "addr_num": "6"}}, {"type": "Feature", "geometry": {"type": "Point", "coordinates": [3.127052, 49.069453]}, "properties": {"year": 2022, "valeur_fonciere": 245000.0, "type_local": null, "surface_reelle_bati": null, "nombre_pieces_principales": null, "adresse_nom_voie": "RUE DES COPAINS", "price_per_sqm": null, "date_iso": "2022-08-23", "parcelle": "771290000C0800", "addr_num": "6"}}, {"type": "Feature", "geometry": {"type": "Point", "coordinates": [3.126967, 49.069371]}, "properties": {"year": 2022, "valeur_fonciere": 245000.0, "type_local": null, "surface_reelle_bati": null, "nombre_pieces_principales": null, "adresse_nom_voie": "RUE DES COPAINS", "price_per_sqm": null, "date_iso": "2022-08-23", "parcelle": "771290000C0803", "addr_num": "6"}}, {"type": "Feature", "geometry": {"type": "Point", "coordinates": [3.111086, 49.080271]}, "properties": {"year": 2022, "valeur_fonciere": 20000.0, "type_local": "Maison", "surface_reelle_bati": 36.0, "nombre_pieces_principales": 1.0, "adresse_nom_voie": "RTE DE CROUY", "price_per_sqm": 555.5555555555555, "date_iso": "2022-09-03", "parcelle": "771290000A0046", "addr_num": "42"}}, {"type": "Feature", "geometry": {"type": "Point", "coordinates": [3.111086, 49.080271]}, "properties": {"year": 2022, "valeur_fonciere": 20000.0, "type_local": "Maison", "surface_reelle_bati": 36.0, "nombre_pieces_principales": 1.0, "adresse_nom_voie": "RTE DE CROUY", "price_per_sqm": 555.5555555555555, "date_iso": "2022-09-03", "parcelle": "771290000A0046", "addr_num": "42"}}, {"type": "Feature", "geometry": {"type": "Point", "coordinates": [3.148318, 49.100628]}, "properties": {"year": 2022, "valeur_fonciere": 18618.0, "type_local": null, "surface_reelle_bati": null, "nombre_pieces_principales": null, "adresse_nom_voie": "FONTAINE TEIGNEUSE", "price_per_sqm": null, "date_iso": "2022-08-31", "parcelle": "771290000F0082", "addr_num": ""}}, {"type": "Feature", "geometry": {"type": "Point", "coordinates": [3.148555, 49.100533]}, "properties": {"year": 2022, "valeur_fonciere": 18618.0, "type_local": null, "surface_reelle_bati": null, "nombre_pieces_principales": null, "adresse_nom_voie": "FONTAINE TEIGNEUSE", "price_per_sqm": null, "date_iso": "2022-08-31", "parcelle": "771290000F0085", "addr_num": ""}}, {"type": "Feature", "geometry": {"type": "Point", "coordinates": [3.145849, 49.099688]}, "properties": {"year": 2022, "valeur_fonciere": 18618.0, "type_local": null, "surface_reelle_bati": null, "nombre_pieces_principales": null, "adresse_nom_voie": "LES MARSAULTS", "price_per_sqm": null, "date_iso": "2022-08-31", "parcelle": "771290000F0105", "addr_num": ""}}, {"type": "Feature", "geometry": {"type": "Point", "coordinates": [3.155393, 49.09961]}, "properties": {"year": 2022, "valeur_fonciere": 18618.0, "type_local": null, "surface_reelle_bati": null, "nombre_pieces_principales": null, "adresse_nom_voie": "LE FLANC", "price_per_sqm": null, "date_iso": "2022-08-31", "parcelle": "771290000F0302", "addr_num": ""}}, {"type": "Feature", "geometry": {"type": "Point", "coordinates": [3.155401, 49.099329]}, "properties": {"year": 2022, "valeur_fonciere": 18618.0, "type_local": null, "surface_reelle_bati": null, "nombre_pieces_principales": null, "adresse_nom_voie": "LE FLANC", "price_per_sqm": null, "date_iso": "2022-08-31", "parcelle": "771290000F0305", "addr_num": ""}}, {"type": "Feature", "geometry": {"type": "Point", "coordinates": [3.155007, 49.098862]}, "properties": {"year": 2022, "valeur_fonciere": 18618.0, "type_local": null, "surface_reelle_bati": null, "nombre_pieces_principales": null, "adresse_nom_voie": "LE FLANC", "price_per_sqm": null, "date_iso": "2022-08-31", "parcelle": "771290000F0308", "addr_num": ""}}, {"type": "Feature", "geometry": {"type": "Point", "coordinates": [3.154595, 49.098586]}, "properties": {"year": 2022, "valeur_fonciere": 18618.0, "type_local": null, "surface_reelle_bati": null, "nombre_pieces_principales": null, "adresse_nom_voie": "LE FLANC", "price_per_sqm": null, "date_iso": "2022-08-31", "parcelle": "771290000F0315", "addr_num": ""}}, {"type": "Feature", "geometry": {"type": "Point", "coordinates": [3.154769, 49.098488]}, "properties": {"year": 2022, "valeur_fonciere": 18618.0, "type_local": null, "surface_reelle_bati": null, "nombre_pieces_principales": null, "adresse_nom_voie": "LE FLANC", "price_per_sqm": null, "date_iso": "2022-08-31", "parcelle": "771290000F0316", "addr_num": ""}}, {"type": "Feature", "geometry": {"type": "Point", "coordinates": [3.155585, 49.098584]}, "properties": {"year": 2022, "valeur_fonciere": 18618.0, "type_local": null, "surface_reelle_bati": null, "nombre_pieces_principales": null, "adresse_nom_voie": "LE FLANC", "price_per_sqm": null, "date_iso": "2022-08-31", "parcelle": "771290000F0320", "addr_num": ""}}, {"type": "Feature", "geometry": {"type": "Point", "coordinates": [3.157823, 49.099497]}, "properties": {"year": 2022, "valeur_fonciere": 18618.0, "type_local": null, "surface_reelle_bati": null, "nombre_pieces_principales": null, "adresse_nom_voie": "PRES FERMES", "price_per_sqm": null, "date_iso": "2022-08-31", "parcelle": "771290000F0337", "addr_num": ""}}, {"type": "Feature", "geometry": {"type": "Point", "coordinates": [3.157643, 49.09923]}, "properties": {"year": 2022, "valeur_fonciere": 18618.0, "type_local": null, "surface_reelle_bati": null, "nombre_pieces_principales": null, "adresse_nom_voie": "PRES FERMES", "price_per_sqm": null, "date_iso": "2022-08-31", "parcelle": "771290000F0338", "addr_num": ""}}, {"type": "Feature", "geometry": {"type": "Point", "coordinates": [3.163951, 49.098581]}, "properties": {"year": 2022, "valeur_fonciere": 18618.0, "type_local": null, "surface_reelle_bati": null, "nombre_pieces_principales": null, "adresse_nom_voie": "PRES FERMES", "price_per_sqm": null, "date_iso": "2022-08-31", "parcelle": "771290000F0364", "addr_num": ""}}, {"type": "Feature", "geometry": {"type": "Point", "coordinates": [3.163881, 49.098686]}, "properties": {"year": 2022, "valeur_fonciere": 18618.0, "type_local": null, "surface_reelle_bati": null, "nombre_pieces_principales": null, "adresse_nom_voie": "PRES FERMES", "price_per_sqm": null, "date_iso": "2022-08-31", "parcelle": "771290000F0365", "addr_num": ""}}, {"type": "Feature", "geometry": {"type": "Point", "coordinates": [3.164103, 49.099236]}, "properties": {"year": 2022, "valeur_fonciere": 18618.0, "type_local": null, "surface_reelle_bati": null, "nombre_pieces_principales": null, "adresse_nom_voie": "PRES FERMES", "price_per_sqm": null, "date_iso": "2022-08-31", "parcelle": "771290000F0366", "addr_num": ""}}, {"type": "Feature", "geometry": {"type": "Point", "coordinates": [3.163425, 49.098772]}, "properties": {"year": 2022, "valeur_fonciere": 18618.0, "type_local": null, "surface_reelle_bati": null, "nombre_pieces_principales": null, "adresse_nom_voie": "PRES FERMES", "price_per_sqm": null, "date_iso": "2022-08-31", "parcelle": "771290000F0367", "addr_num": ""}}, {"type": "Feature", "geometry": {"type": "Point", "coordinates": [3.162961, 49.098916]}, "properties": {"year": 2022, "valeur_fonciere": 18618.0, "type_local": null, "surface_reelle_bati": null, "nombre_pieces_principales": null, "adresse_nom_voie": "PRES FERMES", "price_per_sqm": null, "date_iso": "2022-08-31", "parcelle": "771290000F0368", "addr_num": ""}}, {"type": "Feature", "geometry": {"type": "Point", "coordinates": [3.161936, 49.098473]}, "properties": {"year": 2022, "valeur_fonciere": 18618.0, "type_local": null, "surface_reelle_bati": null, "nombre_pieces_principales": null, "adresse_nom_voie": "PRES FERMES", "price_per_sqm": null, "date_iso": "2022-08-31", "parcelle": "771290000F0370", "addr_num": ""}}, {"type": "Feature", "geometry": {"type": "Point", "coordinates": [3.163944, 49.097546]}, "properties": {"year": 2022, "valeur_fonciere": 18618.0, "type_local": null, "surface_reelle_bati": null, "nombre_pieces_principales": null, "adresse_nom_voie": "PRES FERMES", "price_per_sqm": null, "date_iso": "2022-08-31", "parcelle": "771290000F0378", "addr_num": ""}}, {"type": "Feature", "geometry": {"type": "Point", "coordinates": [3.161449, 49.097224]}, "properties": {"year": 2022, "valeur_fonciere": 18618.0, "type_local": null, "surface_reelle_bati": null, "nombre_pieces_principales": null, "adresse_nom_voie": "PRAIRIE MILLETTE", "price_per_sqm": null, "date_iso": "2022-08-31", "parcelle": "771290000F0396", "addr_num": ""}}, {"type": "Feature", "geometry": {"type": "Point", "coordinates": [3.161074, 49.09764]}, "properties": {"year": 2022, "valeur_fonciere": 18618.0, "type_local": null, "surface_reelle_bati": null, "nombre_pieces_principales": null, "adresse_nom_voie": "PRAIRIE MILLETTE", "price_per_sqm": null, "date_iso": "2022-08-31", "parcelle": "771290000F0400", "addr_num": ""}}, {"type": "Feature", "geometry": {"type": "Point", "coordinates": [3.15833, 49.097842]}, "properties": {"year": 2022, "valeur_fonciere": 18618.0, "type_local": null, "surface_reelle_bati": null, "nombre_pieces_principales": null, "adresse_nom_voie": "PRAIRIE MILLETTE", "price_per_sqm": null, "date_iso": "2022-08-31", "parcelle": "771290000F0429", "addr_num": ""}}, {"type": "Feature", "geometry": {"type": "Point", "coordinates": [3.160198, 49.097546]}, "properties": {"year": 2022, "valeur_fonciere": 18618.0, "type_local": null, "surface_reelle_bati": null, "nombre_pieces_principales": null, "adresse_nom_voie": "PRAIRIE MILLETTE", "price_per_sqm": null, "date_iso": "2022-08-31", "parcelle": "771290000F0434", "addr_num": ""}}, {"type": "Feature", "geometry": {"type": "Point", "coordinates": [3.144975, 49.098979]}, "properties": {"year": 2022, "valeur_fonciere": 500.0, "type_local": null, "surface_reelle_bati": null, "nombre_pieces_principales": null, "adresse_nom_voie": "LES MARSAULTS", "price_per_sqm": null, "date_iso": "2022-09-03", "parcelle": "771290000F0108", "addr_num": ""}}, {"type": "Feature", "geometry": {"type": "Point", "coordinates": [3.127153, 49.069561]}, "properties": {"year": 2022, "valeur_fonciere": 280000.0, "type_local": null, "surface_reelle_bati": null, "nombre_pieces_principales": null, "adresse_nom_voie": "RUE DES COPAINS", "price_per_sqm": null, "date_iso": "2022-09-15", "parcelle": "771290000C0657", "addr_num": "8"}}, {"type": "Feature", "geometry": {"type": "Point", "coordinates": [3.127236, 49.069487]}, "properties": {"year": 2022, "valeur_fonciere": 280000.0, "type_local": null, "surface_reelle_bati": null, "nombre_pieces_principales": null, "adresse_nom_voie": "RUE DES COPAINS", "price_per_sqm": null, "date_iso": "2022-09-15", "parcelle": "771290000C0659", "addr_num": "8"}}, {"type": "Feature", "geometry": {"type": "Point", "coordinates": [3.12723, 49.069378]}, "properties": {"year": 2022, "valeur_fonciere": 280000.0, "type_local": "Maison", "surface_reelle_bati": 91.0, "nombre_pieces_principales": 5.0, "adresse_nom_voie": "RUE DES COPAINS", "price_per_sqm": 3076.923076923077, "date_iso": "2022-09-15", "parcelle": "771290000C0660", "addr_num": "8"}}, {"type": "Feature", "geometry": {"type": "Point", "coordinates": [3.100543, 49.072924]}, "properties": {"year": 2022, "valeur_fonciere": 54000.0, "type_local": null, "surface_reelle_bati": null, "nombre_pieces_principales": null, "adresse_nom_voie": "LE CLOS FOURNIER", "price_per_sqm": null, "date_iso": "2022-09-22", "parcelle": "771290000B0295", "addr_num": ""}}, {"type": "Feature", "geometry": {"type": "Point", "coordinates": [3.10055, 49.073215]}, "properties": {"year": 2022, "valeur_fonciere": 54000.0, "type_local": null, "surface_reelle_bati": null, "nombre_pieces_principales": null, "adresse_nom_voie": "RUE DE L AMANDIERE", "price_per_sqm": null, "date_iso": "2022-09-22", "parcelle": "771290000B0687", "addr_num": ""}}, {"type": "Feature", "geometry": {"type": "Point", "coordinates": [3.126332, 49.070993]}, "properties": {"year": 2022, "valeur_fonciere": 195000.0, "type_local": null, "surface_reelle_bati": null, "nombre_pieces_principales": null, "adresse_nom_voie": "LE VILLAGE", "price_per_sqm": null, "date_iso": "2022-10-28", "parcelle": "771290000C0104", "addr_num": ""}}, {"type": "Feature", "geometry": {"type": "Point", "coordinates": [3.126063, 49.07118]}, "properties": {"year": 2022, "valeur_fonciere": 195000.0, "type_local": "Maison", "surface_reelle_bati": 110.0, "nombre_pieces_principales": 6.0, "adresse_nom_voie": "SEN DE LA PORTE DES CHAMPS", "price_per_sqm": 1772.7272727272727, "date_iso": "2022-10-28", "parcelle": "771290000C0940", "addr_num": "1"}}, {"type": "Feature", "geometry": {"type": "Point", "coordinates": [3.126122, 49.07114]}, "properties": {"year": 2022, "valeur_fonciere": 195000.0, "type_local": null, "surface_reelle_bati": null, "nombre_pieces_principales": null, "adresse_nom_voie": "GR GRANDE RUE", "price_per_sqm": null, "date_iso": "2022-10-28", "parcelle": "771290000C0943", "addr_num": "68"}}, {"type": "Feature", "geometry": {"type": "Point", "coordinates": [3.106384, 49.070454]}, "properties": {"year": 2023, "valeur_fonciere": 450.0, "type_local": null, "surface_reelle_bati": null, "nombre_pieces_principales": null, "adresse_nom_voie": "CERTIGNY", "price_per_sqm": null, "date_iso": "2023-01-06", "parcelle": "771290000B0233", "addr_num": ""}}, {"type": "Feature", "geometry": {"type": "Point", "coordinates": [3.107523, 49.062232]}, "properties": {"year": 2023, "valeur_fonciere": 9000.0, "type_local": null, "surface_reelle_bati": null, "nombre_pieces_principales": null, "adresse_nom_voie": "LES LONGUES RAIES", "price_per_sqm": null, "date_iso": "2023-01-06", "parcelle": "771290000B0472", "addr_num": ""}}, {"type": "Feature", "geometry": {"type": "Point", "coordinates": [3.096039, 49.07321]}, "properties": {"year": 2023, "valeur_fonciere": 9000.0, "type_local": null, "surface_reelle_bati": null, "nombre_pieces_principales": null, "adresse_nom_voie": "LA VIGNE DE SAUSSOY", "price_per_sqm": null, "date_iso": "2023-01-06", "parcelle": "771290000B0489", "addr_num": ""}}, {"type": "Feature", "geometry": {"type": "Point", "coordinates": [3.10749, 49.061174]}, "properties": {"year": 2023, "valeur_fonciere": 9000.0, "type_local": null, "surface_reelle_bati": null, "nombre_pieces_principales": null, "adresse_nom_voie": "LE CHAMP BLANCHARD", "price_per_sqm": null, "date_iso": "2023-01-06", "parcelle": "771290000B0671", "addr_num": ""}}, {"type": "Feature", "geometry": {"type": "Point", "coordinates": [3.121293, 49.072841]}, "properties": {"year": 2023, "valeur_fonciere": 180000.0, "type_local": null, "surface_reelle_bati": null, "nombre_pieces_principales": null, "adresse_nom_voie": "RUE DU PUITS D AMOUR", "price_per_sqm": null, "date_iso": "2023-02-16", "parcelle": "771290000C0393", "addr_num": "34"}}, {"type": "Feature", "geometry": {"type": "Point", "coordinates": [3.12135, 49.07267]}, "properties": {"year": 2023, "valeur_fonciere": 180000.0, "type_local": "Dépendance", "surface_reelle_bati": null, "nombre_pieces_principales": 0.0, "adresse_nom_voie": "RUE DU PUITS D AMOUR", "price_per_sqm": null, "date_iso": "2023-02-16", "parcelle": "771290000C0810", "addr_num": "34"}}, {"type": "Feature", "geometry": {"type": "Point", "coordinates": [3.12135, 49.07267]}, "properties": {"year": 2023, "valeur_fonciere": 180000.0, "type_local": "Maison", "surface_reelle_bati": 110.0, "nombre_pieces_principales": 4.0, "adresse_nom_voie": "RUE DU PUITS D AMOUR", "price_per_sqm": 1636.3636363636363, "date_iso": "2023-02-16", "parcelle": "771290000C0810", "addr_num": "34"}}, {"type": "Feature", "geometry": {"type": "Point", "coordinates": [3.124275, 49.067538]}, "properties": {"year": 2023, "valeur_fonciere": 199500.0, "type_local": "Maison", "surface_reelle_bati": 66.0, "nombre_pieces_principales": 3.0, "adresse_nom_voie": "GR GRANDE RUE", "price_per_sqm": 3022.7272727272725, "date_iso": "2023-03-11", "parcelle": "771290000C1106", "addr_num": "9"}}, {"type": "Feature", "geometry": {"type": "Point", "coordinates": [3.124418, 49.067442]}, "properties": {"year": 2023, "valeur_fonciere": 199500.0, "type_local": null, "surface_reelle_bati": null, "nombre_pieces_principales": null, "adresse_nom_voie": "GR GRANDE RUE", "price_per_sqm": null, "date_iso": "2023-03-11", "parcelle": "771290000C1109", "addr_num": ""}}, {"type": "Feature", "geometry": {"type": "Point", "coordinates": [3.141291, 49.045262]}, "properties": {"year": 2023, "valeur_fonciere": 1150000.0, "type_local": null, "surface_reelle_bati": null, "nombre_pieces_principales": null, "adresse_nom_voie": "LES MARCHAIS", "price_per_sqm": null, "date_iso": "2023-05-25", "parcelle": "77129000YB0008", "addr_num": ""}}, {"type": "Feature", "geometry": {"type": "Point", "coordinates": [3.147639, 49.058459]}, "properties": {"year": 2023, "valeur_fonciere": 3400.0, "type_local": null, "surface_reelle_bati": null, "nombre_pieces_principales": null, "adresse_nom_voie": "BOYENVAL", "price_per_sqm": null, "date_iso": "2023-05-26", "parcelle": "771290000D0380", "addr_num": ""}}, {"type": "Feature", "geometry": {"type": "Point", "coordinates": [3.12408, 49.067299]}, "properties": {"year": 2023, "valeur_fonciere": 71000.0, "type_local": null, "surface_reelle_bati": null, "nombre_pieces_principales": null, "adresse_nom_voie": "GR GRANDE RUE", "price_per_sqm": null, "date_iso": "2023-10-07", "parcelle": "771290000C1107", "addr_num": "7"}}, {"type": "Feature", "geometry": {"type": "Point", "coordinates": [3.124167, 49.067253]}, "properties": {"year": 2023, "valeur_fonciere": 71000.0, "type_local": null, "surface_reelle_bati": null, "nombre_pieces_principales": null, "adresse_nom_voie": "GR GRANDE RUE", "price_per_sqm": null, "date_iso": "2023-10-07", "parcelle": "771290000C1108", "addr_num": ""}}, {"type": "Feature", "geometry": {"type": "Point", "coordinates": [3.145854, 49.058347]}, "properties": {"year": 2024, "valeur_fonciere": 276000.0, "type_local": null, "surface_reelle_bati": null, "nombre_pieces_principales": null, "adresse_nom_voie": "BOYENVAL", "price_per_sqm": null, "date_iso": "2024-01-17", "parcelle": "771290000D0182", "addr_num": ""}}, {"type": "Feature", "geometry": {"type": "Point", "coordinates": [3.145854, 49.058347]}, "properties": {"year": 2024, "valeur_fonciere": 276000.0, "type_local": null, "surface_reelle_bati": null, "nombre_pieces_principales": null, "adresse_nom_voie": "BOYENVAL", "price_per_sqm": null, "date_iso": "2024-01-17", "parcelle": "771290000D0182", "addr_num": ""}}, {"type": "Feature", "geometry": {"type": "Point", "coordinates": [3.145662, 49.057961]}, "properties": {"year": 2024, "valeur_fonciere": 276000.0, "type_local": null, "surface_reelle_bati": null, "nombre_pieces_principales": null, "adresse_nom_voie": "BOYENVAL", "price_per_sqm": null, "date_iso": "2024-01-17", "parcelle": "771290000D0183", "addr_num": ""}}, {"type": "Feature", "geometry": {"type": "Point", "coordinates": [3.145503, 49.058164]}, "properties": {"year": 2024, "valeur_fonciere": 276000.0, "type_local": "Maison", "surface_reelle_bati": 246.0, "nombre_pieces_principales": 11.0, "adresse_nom_voie": "BOYENVAL", "price_per_sqm": 1121.9512195121952, "date_iso": "2024-01-17", "parcelle": "771290000D0184", "addr_num": "1"}}, {"type": "Feature", "geometry": {"type": "Point", "coordinates": [3.144577, 49.058282]}, "properties": {"year": 2024, "valeur_fonciere": 276000.0, "type_local": null, "surface_reelle_bati": null, "nombre_pieces_principales": null, "adresse_nom_voie": "BOYENVAL", "price_per_sqm": null, "date_iso": "2024-01-17", "parcelle": "771290000D0185", "addr_num": ""}}, {"type": "Feature", "geometry": {"type": "Point", "coordinates": [3.144949, 49.058801]}, "properties": {"year": 2024, "valeur_fonciere": 276000.0, "type_local": null, "surface_reelle_bati": null, "nombre_pieces_principales": null, "adresse_nom_voie": "BOYENVAL", "price_per_sqm": null, "date_iso": "2024-01-17", "parcelle": "771290000D0382", "addr_num": ""}}, {"type": "Feature", "geometry": {"type": "Point", "coordinates": [3.095751, 49.075025]}, "properties": {"year": 2024, "valeur_fonciere": 22000.0, "type_local": null, "surface_reelle_bati": null, "nombre_pieces_principales": null, "adresse_nom_voie": "LA VALLEE MOREAU", "price_per_sqm": null, "date_iso": "2024-02-08", "parcelle": "771290000B0614", "addr_num": ""}}, {"type": "Feature", "geometry": {"type": "Point", "coordinates": [3.095751, 49.075025]}, "properties": {"year": 2024, "valeur_fonciere": 22000.0, "type_local": null, "surface_reelle_bati": null, "nombre_pieces_principales": null, "adresse_nom_voie": "LA VALLEE MOREAU", "price_per_sqm": null, "date_iso": "2024-02-08", "parcelle": "771290000B0614", "addr_num": ""}}, {"type": "Feature", "geometry": {"type": "Point", "coordinates": [3.12606, 49.070157]}, "properties": {"year": 2024, "valeur_fonciere": 180000.0, "type_local": "Maison", "surface_reelle_bati": 168.0, "nombre_pieces_principales": 5.0, "adresse_nom_voie": "GR GRANDE RUE", "price_per_sqm": 1071.4285714285713, "date_iso": "2024-05-07", "parcelle": "771290000C0116", "addr_num": "48"}}, {"type": "Feature", "geometry": {"type": "Point", "coordinates": [3.126191, 49.070209]}, "properties": {"year": 2024, "valeur_fonciere": 180000.0, "type_local": null, "surface_reelle_bati": null, "nombre_pieces_principales": null, "adresse_nom_voie": "LE VILLAGE", "price_per_sqm": null, "date_iso": "2024-05-07", "parcelle": "771290000C0555", "addr_num": ""}}, {"type": "Feature", "geometry": {"type": "Point", "coordinates": [3.126054, 49.07028]}, "properties": {"year": 2024, "valeur_fonciere": 180000.0, "type_local": null, "surface_reelle_bati": null, "nombre_pieces_principales": null, "adresse_nom_voie": "LE VILLAGE", "price_per_sqm": null, "date_iso": "2024-05-07", "parcelle": "771290000C0894", "addr_num": ""}}, {"type": "Feature", "geometry": {"type": "Point", "coordinates": [3.126143, 49.070146]}, "properties": {"year": 2024, "valeur_fonciere": 180000.0, "type_local": null, "surface_reelle_bati": null, "nombre_pieces_principales": null, "adresse_nom_voie": "LE VILLAGE", "price_per_sqm": null, "date_iso": "2024-05-07", "parcelle": "771290000C0895", "addr_num": ""}}, {"type": "Feature", "geometry": {"type": "Point", "coordinates": [3.128007, 49.069535]}, "properties": {"year": 2024, "valeur_fonciere": 2000.0, "type_local": null, "surface_reelle_bati": null, "nombre_pieces_principales": null, "adresse_nom_voie": "RUE DES COPAINS", "price_per_sqm": null, "date_iso": "2024-06-01", "parcelle": "771290000C0955", "addr_num": ""}}, {"type": "Feature", "geometry": {"type": "Point", "coordinates": [3.103069, 49.071997]}, "properties": {"year": 2024, "valeur_fonciere": 65000.0, "type_local": null, "surface_reelle_bati": null, "nombre_pieces_principales": null, "adresse_nom_voie": "CERTIGNY", "price_per_sqm": null, "date_iso": "2024-06-14", "parcelle": "771290000B0278", "addr_num": ""}}, {"type": "Feature", "geometry": {"type": "Point", "coordinates": [3.102789, 49.071636]}, "properties": {"year": 2024, "valeur_fonciere": 65000.0, "type_local": null, "surface_reelle_bati": null, "nombre_pieces_principales": null, "adresse_nom_voie": "CERTIGNY", "price_per_sqm": null, "date_iso": "2024-06-14", "parcelle": "771290000B0281", "addr_num": ""}}, {"type": "Feature", "geometry": {"type": "Point", "coordinates": [3.102612, 49.07167]}, "properties": {"year": 2024, "valeur_fonciere": 65000.0, "type_local": "Maison", "surface_reelle_bati": 43.0, "nombre_pieces_principales": 3.0, "adresse_nom_voie": "RUE DE L AMANDIERE", "price_per_sqm": 1511.6279069767443, "date_iso": "2024-06-14", "parcelle": "771290000B0608", "addr_num": "22"}}, {"type": "Feature", "geometry": {"type": "Point", "coordinates": [3.102845, 49.071675]}, "properties": {"year": 2024, "valeur_fonciere": 65000.0, "type_local": null, "surface_reelle_bati": null, "nombre_pieces_principales": null, "adresse_nom_voie": "RUE DE L AMANDIERE", "price_per_sqm": null, "date_iso": "2024-06-14", "parcelle": "771290000B0609", "addr_num": "22"}}, {"type": "Feature", "geometry": {"type": "Point", "coordinates": [3.127376, 49.071347]}, "properties": {"year": 2024, "valeur_fonciere": 293250.0, "type_local": "Dépendance", "surface_reelle_bati": null, "nombre_pieces_principales": 0.0, "adresse_nom_voie": "SEN DE LA PORTE DES CHAMPS", "price_per_sqm": null, "date_iso": "2024-07-02", "parcelle": "771290000C0702", "addr_num": "11"}}, {"type": "Feature", "geometry": {"type": "Point", "coordinates": [3.127376, 49.071347]}, "properties": {"year": 2024, "valeur_fonciere": 293250.0, "type_local": "Maison", "surface_reelle_bati": 166.0, "nombre_pieces_principales": 6.0, "adresse_nom_voie": "SEN DE LA PORTE DES CHAMPS", "price_per_sqm": 1766.566265060241, "date_iso": "2024-07-02", "parcelle": "771290000C0702", "addr_num": "11"}}, {"type": "Feature", "geometry": {"type": "Point", "coordinates": [3.127376, 49.071347]}, "properties": {"year": 2024, "valeur_fonciere": 293250.0, "type_local": "Dépendance", "surface_reelle_bati": null, "nombre_pieces_principales": 0.0, "adresse_nom_voie": "SEN DE LA PORTE DES CHAMPS", "price_per_sqm": null, "date_iso": "2024-07-02", "parcelle": "771290000C0702", "addr_num": "11"}}, {"type": "Feature", "geometry": {"type": "Point", "coordinates": [3.127376, 49.071347]}, "properties": {"year": 2024, "valeur_fonciere": 293250.0, "type_local": "Maison", "surface_reelle_bati": 166.0, "nombre_pieces_principales": 6.0, "adresse_nom_voie": "SEN DE LA PORTE DES CHAMPS", "price_per_sqm": 1766.566265060241, "date_iso": "2024-07-02", "parcelle": "771290000C0702", "addr_num": "11"}}, {"type": "Feature", "geometry": {"type": "Point", "coordinates": [3.125836, 49.069669]}, "properties": {"year": 2024, "valeur_fonciere": 180000.0, "type_local": "Dépendance", "surface_reelle_bati": null, "nombre_pieces_principales": 0.0, "adresse_nom_voie": "GR GRANDE RUE", "price_per_sqm": null, "date_iso": "2024-07-25", "parcelle": "771290000C0903", "addr_num": "41"}}, {"type": "Feature", "geometry": {"type": "Point", "coordinates": [3.125836, 49.069669]}, "properties": {"year": 2024, "valeur_fonciere": 180000.0, "type_local": "Maison", "surface_reelle_bati": 59.0, "nombre_pieces_principales": 3.0, "adresse_nom_voie": "GR GRANDE RUE", "price_per_sqm": 3050.8474576271187, "date_iso": "2024-07-25", "parcelle": "771290000C0903", "addr_num": "41"}}, {"type": "Feature", "geometry": {"type": "Point", "coordinates": [3.125621, 49.069712]}, "properties": {"year": 2024, "valeur_fonciere": 180000.0, "type_local": null, "surface_reelle_bati": null, "nombre_pieces_principales": null, "adresse_nom_voie": "RUE DE LA PISSOTTE", "price_per_sqm": null, "date_iso": "2024-07-25", "parcelle": "771290000C0998", "addr_num": "4"}}, {"type": "Feature", "geometry": {"type": "Point", "coordinates": [3.15276, 49.049669]}, "properties": {"year": 2024, "valeur_fonciere": 21664.61, "type_local": null, "surface_reelle_bati": null, "nombre_pieces_principales": null, "adresse_nom_voie": "LE SENTIER D HEURTEBISE", "price_per_sqm": null, "date_iso": "2024-08-06", "parcelle": "77129000YB0018", "addr_num": ""}}, {"type": "Feature", "geometry": {"type": "Point", "coordinates": [3.127188, 49.07018]}, "properties": {"year": 2024, "valeur_fonciere": 60000.0, "type_local": null, "surface_reelle_bati": null, "nombre_pieces_principales": null, "adresse_nom_voie": "LE VILLAGE", "price_per_sqm": null, "date_iso": "2024-08-28", "parcelle": "771290000C0669", "addr_num": ""}}, {"type": "Feature", "geometry": {"type": "Point", "coordinates": [3.127102, 49.070199]}, "properties": {"year": 2024, "valeur_fonciere": 60000.0, "type_local": null, "surface_reelle_bati": null, "nombre_pieces_principales": null, "adresse_nom_voie": "LE VILLAGE", "price_per_sqm": null, "date_iso": "2024-08-28", "parcelle": "771290000C0671", "addr_num": ""}}, {"type": "Feature", "geometry": {"type": "Point", "coordinates": [3.127428, 49.070227]}, "properties": {"year": 2024, "valeur_fonciere": 60000.0, "type_local": null, "surface_reelle_bati": null, "nombre_pieces_principales": null, "adresse_nom_voie": "RUE SAINT GEORGES", "price_per_sqm": null, "date_iso": "2024-08-28", "parcelle": "771290000C1113", "addr_num": "10"}}, {"type": "Feature", "geometry": {"type": "Point", "coordinates": [3.127313, 49.070191]}, "properties": {"year": 2024, "valeur_fonciere": 60000.0, "type_local": null, "surface_reelle_bati": null, "nombre_pieces_principales": null, "adresse_nom_voie": "LE VILLAGE", "price_per_sqm": null, "date_iso": "2024-08-28", "parcelle": "771290000C1114", "addr_num": ""}}, {"type": "Feature", "geometry": {"type": "Point", "coordinates": [3.10277, 49.071576]}, "properties": {"year": 2024, "valeur_fonciere": 500.0, "type_local": null, "surface_reelle_bati": null, "nombre_pieces_principales": null, "adresse_nom_voie": "RUE DE L AMANDIERE", "price_per_sqm": null, "date_iso": "2024-09-25", "parcelle": "771290000B0582", "addr_num": ""}}, {"type": "Feature", "geometry": {"type": "Point", "coordinates": [3.125738, 49.068412]}, "properties": {"year": 2024, "valeur_fonciere": 27000.0, "type_local": "Dépendance", "surface_reelle_bati": null, "nombre_pieces_principales": 0.0, "adresse_nom_voie": "RUE DE L EGLISE", "price_per_sqm": null, "date_iso": "2024-09-24", "parcelle": "771290000C0178", "addr_num": "5"}}, {"type": "Feature", "geometry": {"type": "Point", "coordinates": [3.125738, 49.068412]}, "properties": {"year": 2024, "valeur_fonciere": 27000.0, "type_local": "Maison", "surface_reelle_bati": 130.0, "nombre_pieces_principales": 6.0, "adresse_nom_voie": "RUE DE L EGLISE", "price_per_sqm": 207.69230769230768, "date_iso": "2024-09-24", "parcelle": "771290000C0178", "addr_num": "5"}}, {"type": "Feature", "geometry": {"type": "Point", "coordinates": [3.126099, 49.068509]}, "properties": {"year": 2024, "valeur_fonciere": 27000.0, "type_local": "Dépendance", "surface_reelle_bati": null, "nombre_pieces_principales": 0.0, "adresse_nom_voie": "RUE DE L EGLISE", "price_per_sqm": null, "date_iso": "2024-09-24", "parcelle": "771290000C0181", "addr_num": "1"}}, {"type": "Feature", "geometry": {"type": "Point", "coordinates": [3.122587, 49.071398]}, "properties": {"year": 2024, "valeur_fonciere": 5000.0, "type_local": null, "surface_reelle_bati": null, "nombre_pieces_principales": null, "adresse_nom_voie": "LE VILLAGE", "price_per_sqm": null, "date_iso": "2024-09-14", "parcelle": "771290000C0378", "addr_num": ""}}, {"type": "Feature", "geometry": {"type": "Point", "coordinates": [3.122035, 49.071891]}, "properties": {"year": 2024, "valeur_fonciere": 93333.34, "type_local": "Maison", "surface_reelle_bati": 66.0, "nombre_pieces_principales": 2.0, "adresse_nom_voie": "RUE DU PUITS D AMOUR", "price_per_sqm": 1414.141515151515, "date_iso": "2024-10-11", "parcelle": "771290000C0651", "addr_num": "21"}}, {"type": "Feature", "geometry": {"type": "Point", "coordinates": [3.125902, 49.071684]}, "properties": {"year": 2024, "valeur_fonciere": 158000.0, "type_local": null, "surface_reelle_bati": null, "nombre_pieces_principales": null, "adresse_nom_voie": "LE VILLAGE", "price_per_sqm": null, "date_iso": "2024-10-28", "parcelle": "771290000C0074", "addr_num": ""}}, {"type": "Feature", "geometry": {"type": "Point", "coordinates": [3.126012, 49.071715]}, "properties": {"year": 2024, "valeur_fonciere": 158000.0, "type_local": null, "surface_reelle_bati": null, "nombre_pieces_principales": null, "adresse_nom_voie": "LE VILLAGE", "price_per_sqm": null, "date_iso": "2024-10-28", "parcelle": "771290000C0075", "addr_num": ""}}, {"type": "Feature", "geometry": {"type": "Point", "coordinates": [3.125858, 49.071647]}, "properties": {"year": 2024, "valeur_fonciere": 158000.0, "type_local": "Maison", "surface_reelle_bati": 130.0, "nombre_pieces_principales": 3.0, "adresse_nom_voie": "GR GRANDE RUE", "price_per_sqm": 1215.3846153846155, "date_iso": "2024-10-28", "parcelle": "771290000C0885", "addr_num": "80"}}, {"type": "Feature", "geometry": {"type": "Point", "coordinates": [3.125858, 49.071647]}, "properties": {"year": 2024, "valeur_fonciere": 158000.0, "type_local": "Dépendance", "surface_reelle_bati": null, "nombre_pieces_principales": 0.0, "adresse_nom_voie": "GR GRANDE RUE", "price_per_sqm": null, "date_iso": "2024-10-28", "parcelle": "771290000C0885", "addr_num": "80"}}, {"type": "Feature", "geometry": {"type": "Point", "coordinates": [3.125956, 49.071699]}, "properties": {"year": 2024, "valeur_fonciere": 158000.0, "type_local": null, "surface_reelle_bati": null, "nombre_pieces_principales": null, "adresse_nom_voie": "GR GRANDE RUE", "price_per_sqm": null, "date_iso": "2024-10-28", "parcelle": "771290000C0886", "addr_num": ""}}, {"type": "Feature", "geometry": {"type": "Point", "coordinates": [3.126031, 49.071635]}, "properties": {"year": 2024, "valeur_fonciere": 158000.0, "type_local": null, "surface_reelle_bati": null, "nombre_pieces_principales": null, "adresse_nom_voie": "GR GRANDE RUE", "price_per_sqm": null, "date_iso": "2024-10-28", "parcelle": "771290000C1053", "addr_num": ""}}, {"type": "Feature", "geometry": {"type": "Point", "coordinates": [3.123675, 49.069769]}, "properties": {"year": 2025, "valeur_fonciere": 220000.0, "type_local": "Dépendance", "surface_reelle_bati": null, "nombre_pieces_principales": 0.0, "adresse_nom_voie": "RUE DE LA PISSOTTE", "price_per_sqm": null, "date_iso": "2025-01-10", "parcelle": "771290000C0639", "addr_num": "13"}}, {"type": "Feature", "geometry": {"type": "Point", "coordinates": [3.123675, 49.069769]}, "properties": {"year": 2025, "valeur_fonciere": 220000.0, "type_local": "Dépendance", "surface_reelle_bati": null, "nombre_pieces_principales": 0.0, "adresse_nom_voie": "RUE DE LA PISSOTTE", "price_per_sqm": null, "date_iso": "2025-01-10", "parcelle": "771290000C0639", "addr_num": "13"}}, {"type": "Feature", "geometry": {"type": "Point", "coordinates": [3.123675, 49.069769]}, "properties": {"year": 2025, "valeur_fonciere": 220000.0, "type_local": "Maison", "surface_reelle_bati": 146.0, "nombre_pieces_principales": 5.0, "adresse_nom_voie": "RUE DE LA PISSOTTE", "price_per_sqm": 1506.849315068493, "date_iso": "2025-01-10", "parcelle": "771290000C0639", "addr_num": "13"}}, {"type": "Feature", "geometry": {"type": "Point", "coordinates": [3.121293, 49.072841]}, "properties": {"year": 2025, "valeur_fonciere": 200000.0, "type_local": null, "surface_reelle_bati": null, "nombre_pieces_principales": null, "adresse_nom_voie": "RUE DU PUITS D AMOUR", "price_per_sqm": null, "date_iso": "2025-02-03", "parcelle": "771290000C0393", "addr_num": "34"}}, {"type": "Feature", "geometry": {"type": "Point", "coordinates": [3.12144, 49.072744]}, "properties": {"year": 2025, "valeur_fonciere": 200000.0, "type_local": null, "surface_reelle_bati": null, "nombre_pieces_principales": null, "adresse_nom_voie": "LE VILLAGE", "price_per_sqm": null, "date_iso": "2025-02-03", "parcelle": "771290000C0398", "addr_num": ""}}, {"type": "Feature", "geometry": {"type": "Point", "coordinates": [3.121578, 49.072737]}, "properties": {"year": 2025, "valeur_fonciere": 200000.0, "type_local": "Maison", "surface_reelle_bati": 160.0, "nombre_pieces_principales": 5.0, "adresse_nom_voie": "RUE DU PUITS D AMOUR", "price_per_sqm": 1250.0, "date_iso": "2025-02-03", "parcelle": "771290000C0694", "addr_num": "34"}}, {"type": "Feature", "geometry": {"type": "Point", "coordinates": [3.122314, 49.07311]}, "properties": {"year": 2025, "valeur_fonciere": 156610.5, "type_local": null, "surface_reelle_bati": null, "nombre_pieces_principales": null, "adresse_nom_voie": "LE VILLAGE", "price_per_sqm": null, "date_iso": "2025-01-31", "parcelle": "771290000C0414", "addr_num": ""}}, {"type": "Feature", "geometry": {"type": "Point", "coordinates": [3.121858, 49.072569]}, "properties": {"year": 2025, "valeur_fonciere": 156610.5, "type_local": "Maison", "surface_reelle_bati": 72.0, "nombre_pieces_principales": 4.0, "adresse_nom_voie": "RUE DU PUITS D AMOUR", "price_per_sqm": 2175.1458333333335, "date_iso": "2025-01-31", "parcelle": "771290000C0704", "addr_num": "26"}}, {"type": "Feature", "geometry": {"type": "Point", "coordinates": [3.122007, 49.072899]}, "properties": {"year": 2025, "valeur_fonciere": 156610.5, "type_local": null, "surface_reelle_bati": null, "nombre_pieces_principales": null, "adresse_nom_voie": "RUE DU PUITS D AMOUR", "price_per_sqm": null, "date_iso": "2025-01-31", "parcelle": "771290000C0829", "addr_num": "26"}}, {"type": "Feature", "geometry": {"type": "Point", "coordinates": [3.124041, 49.068497]}, "properties": {"year": 2025, "valeur_fonciere": 122500.0, "type_local": "Dépendance", "surface_reelle_bati": null, "nombre_pieces_principales": 0.0, "adresse_nom_voie": "RUE DES MENETRIERS", "price_per_sqm": null, "date_iso": "2025-01-28", "parcelle": "771290000C0910", "addr_num": "8"}}, {"type": "Feature", "geometry": {"type": "Point", "coordinates": [3.124041, 49.068497]}, "properties": {"year": 2025, "valeur_fonciere": 122500.0, "type_local": "Maison", "surface_reelle_bati": 147.0, "nombre_pieces_principales": 6.0, "adresse_nom_voie": "RUE DES MENETRIERS", "price_per_sqm": 833.3333333333334, "date_iso": "2025-01-28", "parcelle": "771290000C0910", "addr_num": "8"}}, {"type": "Feature", "geometry": {"type": "Point", "coordinates": [3.124041, 49.068497]}, "properties": {"year": 2025, "valeur_fonciere": 122500.0, "type_local": "Dépendance", "surface_reelle_bati": null, "nombre_pieces_principales": 0.0, "adresse_nom_voie": "RUE DES MENETRIERS", "price_per_sqm": null, "date_iso": "2025-01-28", "parcelle": "771290000C0910", "addr_num": "8"}}, {"type": "Feature", "geometry": {"type": "Point", "coordinates": [3.124041, 49.068497]}, "properties": {"year": 2025, "valeur_fonciere": 122500.0, "type_local": "Maison", "surface_reelle_bati": 147.0, "nombre_pieces_principales": 6.0, "adresse_nom_voie": "RUE DES MENETRIERS", "price_per_sqm": 833.3333333333334, "date_iso": "2025-01-28", "parcelle": "771290000C0910", "addr_num": "8"}}, {"type": "Feature", "geometry": {"type": "Point", "coordinates": [3.154957, 49.099547]}, "properties": {"year": 2025, "valeur_fonciere": 4600.0, "type_local": null, "surface_reelle_bati": null, "nombre_pieces_principales": null, "adresse_nom_voie": "LE FLANC", "price_per_sqm": null, "date_iso": "2025-02-13", "parcelle": "771290000F0300", "addr_num": ""}}, {"type": "Feature", "geometry": {"type": "Point", "coordinates": [3.155539, 49.099785]}, "properties": {"year": 2025, "valeur_fonciere": 4600.0, "type_local": null, "surface_reelle_bati": null, "nombre_pieces_principales": null, "adresse_nom_voie": "LE FLANC", "price_per_sqm": null, "date_iso": "2025-02-13", "parcelle": "771290000F0301", "addr_num": ""}}, {"type": "Feature", "geometry": {"type": "Point", "coordinates": [3.15501, 49.099347]}, "properties": {"year": 2025, "valeur_fonciere": 4600.0, "type_local": null, "surface_reelle_bati": null, "nombre_pieces_principales": null, "adresse_nom_voie": "LE FLANC", "price_per_sqm": null, "date_iso": "2025-02-13", "parcelle": "771290000F0303", "addr_num": ""}}, {"type": "Feature", "geometry": {"type": "Point", "coordinates": [3.160893, 49.097956]}, "properties": {"year": 2025, "valeur_fonciere": 4600.0, "type_local": null, "surface_reelle_bati": null, "nombre_pieces_principales": null, "adresse_nom_voie": "PRAIRIE MILLETTE", "price_per_sqm": null, "date_iso": "2025-02-13", "parcelle": "771290000F0402", "addr_num": ""}}, {"type": "Feature", "geometry": {"type": "Point", "coordinates": [3.160748, 49.091589]}, "properties": {"year": 2025, "valeur_fonciere": 4600.0, "type_local": null, "surface_reelle_bati": null, "nombre_pieces_principales": null, "adresse_nom_voie": "PATIS DE BREMOISELLE", "price_per_sqm": null, "date_iso": "2025-02-13", "parcelle": "771290000F0594", "addr_num": ""}}, {"type": "Feature", "geometry": {"type": "Point", "coordinates": [3.12644, 49.071555]}, "properties": {"year": 2025, "valeur_fonciere": 1300.0, "type_local": null, "surface_reelle_bati": null, "nombre_pieces_principales": null, "adresse_nom_voie": "LE VILLAGE", "price_per_sqm": null, "date_iso": "2025-05-24", "parcelle": "771290000C0597", "addr_num": ""}}, {"type": "Feature", "geometry": {"type": "Point", "coordinates": [3.126169, 49.071449]}, "properties": {"year": 2025, "valeur_fonciere": 1300.0, "type_local": null, "surface_reelle_bati": null, "nombre_pieces_principales": null, "adresse_nom_voie": "GRANDE RUE", "price_per_sqm": null, "date_iso": "2025-05-24", "parcelle": "771290000C0695", "addr_num": ""}}, {"type": "Feature", "geometry": {"type": "Point", "coordinates": [3.122815, 49.070006]}, "properties": {"year": 2025, "valeur_fonciere": 6000.0, "type_local": null, "surface_reelle_bati": null, "nombre_pieces_principales": null, "adresse_nom_voie": "COCHERIN", "price_per_sqm": null, "date_iso": "2025-06-30", "parcelle": "771290000C0531", "addr_num": ""}}, {"type": "Feature", "geometry": {"type": "Point", "coordinates": [3.116241, 49.079703]}, "properties": {"year": 2025, "valeur_fonciere": 2558.8, "type_local": null, "surface_reelle_bati": null, "nombre_pieces_principales": null, "adresse_nom_voie": "LA QUEUE DE VEAU", "price_per_sqm": null, "date_iso": "2025-07-01", "parcelle": "771290000A0301", "addr_num": ""}}, {"type": "Feature", "geometry": {"type": "Point", "coordinates": [3.10234, 49.076007]}, "properties": {"year": 2025, "valeur_fonciere": 2558.8, "type_local": null, "surface_reelle_bati": null, "nombre_pieces_principales": null, "adresse_nom_voie": "LA PENTE ROUGE", "price_per_sqm": null, "date_iso": "2025-07-01", "parcelle": "771290000B0088", "addr_num": ""}}, {"type": "Feature", "geometry": {"type": "Point", "coordinates": [3.097386, 49.077072]}, "properties": {"year": 2025, "valeur_fonciere": 2558.8, "type_local": null, "surface_reelle_bati": null, "nombre_pieces_principales": null, "adresse_nom_voie": "LA PENTE ROUGE", "price_per_sqm": null, "date_iso": "2025-07-01", "parcelle": "771290000B0099", "addr_num": ""}}, {"type": "Feature", "geometry": {"type": "Point", "coordinates": [3.097276, 49.077288]}, "properties": {"year": 2025, "valeur_fonciere": 2558.8, "type_local": null, "surface_reelle_bati": null, "nombre_pieces_principales": null, "adresse_nom_voie": "LA PENTE ROUGE", "price_per_sqm": null, "date_iso": "2025-07-01", "parcelle": "771290000B0100", "addr_num": ""}}, {"type": "Feature", "geometry": {"type": "Point", "coordinates": [3.102873, 49.076822]}, "properties": {"year": 2025, "valeur_fonciere": 2558.8, "type_local": null, "surface_reelle_bati": null, "nombre_pieces_principales": null, "adresse_nom_voie": "BONNIERE", "price_per_sqm": null, "date_iso": "2025-07-01", "parcelle": "771290000B0142", "addr_num": ""}}, {"type": "Feature", "geometry": {"type": "Point", "coordinates": [3.102183, 49.077043]}, "properties": {"year": 2025, "valeur_fonciere": 2558.8, "type_local": null, "surface_reelle_bati": null, "nombre_pieces_principales": null, "adresse_nom_voie": "BONNIERE", "price_per_sqm": null, "date_iso": "2025-07-01", "parcelle": "771290000B0143", "addr_num": ""}}, {"type": "Feature", "geometry": {"type": "Point", "coordinates": [3.101337, 49.074472]}, "properties": {"year": 2025, "valeur_fonciere": 2558.8, "type_local": null, "surface_reelle_bati": null, "nombre_pieces_principales": null, "adresse_nom_voie": "CROTIGNY", "price_per_sqm": null, "date_iso": "2025-07-01", "parcelle": "771290000B0314", "addr_num": ""}}, {"type": "Feature", "geometry": {"type": "Point", "coordinates": [3.149331, 49.083944]}, "properties": {"year": 2025, "valeur_fonciere": 975.6, "type_local": null, "surface_reelle_bati": null, "nombre_pieces_principales": null, "adresse_nom_voie": "LE BOIS DU VIVIER", "price_per_sqm": null, "date_iso": "2025-07-11", "parcelle": "771290000A0555", "addr_num": ""}}, {"type": "Feature", "geometry": {"type": "Point", "coordinates": [3.152366, 49.082765]}, "properties": {"year": 2025, "valeur_fonciere": 975.6, "type_local": null, "surface_reelle_bati": null, "nombre_pieces_principales": null, "adresse_nom_voie": "L AULNOY", "price_per_sqm": null, "date_iso": "2025-07-11", "parcelle": "771290000A0616", "addr_num": ""}}, {"type": "Feature", "geometry": {"type": "Point", "coordinates": [3.100047, 49.073506]}, "properties": {"year": 2025, "valeur_fonciere": 150.0, "type_local": null, "surface_reelle_bati": null, "nombre_pieces_principales": null, "adresse_nom_voie": "CROTIGNY", "price_per_sqm": null, "date_iso": "2025-07-29", "parcelle": "771290000B0553", "addr_num": ""}}, {"type": "Feature", "geometry": {"type": "Point", "coordinates": [3.100206, 49.073153]}, "properties": {"year": 2025, "valeur_fonciere": 150.0, "type_local": null, "surface_reelle_bati": null, "nombre_pieces_principales": null, "adresse_nom_voie": "CROTIGNY", "price_per_sqm": null, "date_iso": "2025-07-29", "parcelle": "771290000B0554", "addr_num": ""}}, {"type": "Feature", "geometry": {"type": "Point", "coordinates": [3.126173, 49.071613]}, "properties": {"year": 2025, "valeur_fonciere": 140000.0, "type_local": null, "surface_reelle_bati": null, "nombre_pieces_principales": null, "adresse_nom_voie": "LE VILLAGE", "price_per_sqm": null, "date_iso": "2025-10-01", "parcelle": "771290000C0563", "addr_num": ""}}, {"type": "Feature", "geometry": {"type": "Point", "coordinates": [3.126094, 49.071549]}, "properties": {"year": 2025, "valeur_fonciere": 140000.0, "type_local": "Dépendance", "surface_reelle_bati": null, "nombre_pieces_principales": 0.0, "adresse_nom_voie": "GRANDE RUE", "price_per_sqm": null, "date_iso": "2025-10-01", "parcelle": "771290000C0564", "addr_num": "76"}}, {"type": "Feature", "geometry": {"type": "Point", "coordinates": [3.126094, 49.071549]}, "properties": {"year": 2025, "valeur_fonciere": 140000.0, "type_local": "Maison", "surface_reelle_bati": 110.0, "nombre_pieces_principales": 4.0, "adresse_nom_voie": "GRANDE RUE", "price_per_sqm": 1272.7272727272727, "date_iso": "2025-10-01", "parcelle": "771290000C0564", "addr_num": "76"}}, {"type": "Feature", "geometry": {"type": "Point", "coordinates": [3.126128, 49.071605]}, "properties": {"year": 2025, "valeur_fonciere": 140000.0, "type_local": null, "surface_reelle_bati": null, "nombre_pieces_principales": null, "adresse_nom_voie": "LE VILLAGE", "price_per_sqm": null, "date_iso": "2025-10-01", "parcelle": "771290000C0565", "addr_num": ""}}, {"type": "Feature", "geometry": {"type": "Point", "coordinates": [3.126169, 49.071449]}, "properties": {"year": 2025, "valeur_fonciere": 140000.0, "type_local": null, "surface_reelle_bati": null, "nombre_pieces_principales": null, "adresse_nom_voie": "GRANDE RUE", "price_per_sqm": null, "date_iso": "2025-10-01", "parcelle": "771290000C0695", "addr_num": ""}}, {"type": "Feature", "geometry": {"type": "Point", "coordinates": [3.12604, 49.071561]}, "properties": {"year": 2025, "valeur_fonciere": 140000.0, "type_local": null, "surface_reelle_bati": null, "nombre_pieces_principales": null, "adresse_nom_voie": "GRANDE RUE", "price_per_sqm": null, "date_iso": "2025-10-01", "parcelle": "771290000C0887", "addr_num": ""}}, {"type": "Feature", "geometry": {"type": "Point", "coordinates": [3.126031, 49.071635]}, "properties": {"year": 2025, "valeur_fonciere": 140000.0, "type_local": null, "surface_reelle_bati": null, "nombre_pieces_principales": null, "adresse_nom_voie": "GRANDE RUE", "price_per_sqm": null, "date_iso": "2025-10-01", "parcelle": "771290000C1053", "addr_num": ""}}, {"type": "Feature", "geometry": {"type": "Point", "coordinates": [3.105054, 49.069822]}, "properties": {"year": 2025, "valeur_fonciere": 7000.0, "type_local": null, "surface_reelle_bati": null, "nombre_pieces_principales": null, "adresse_nom_voie": "CERTIGNY", "price_per_sqm": null, "date_iso": "2025-10-06", "parcelle": "771290000B0240", "addr_num": ""}}, {"type": "Feature", "geometry": {"type": "Point", "coordinates": [3.111436, 49.070135]}, "properties": {"year": 2025, "valeur_fonciere": 7000.0, "type_local": null, "surface_reelle_bati": null, "nombre_pieces_principales": null, "adresse_nom_voie": "LE BROCHET CALICE", "price_per_sqm": null, "date_iso": "2025-10-06", "parcelle": "771290000B0401", "addr_num": ""}}, {"type": "Feature", "geometry": {"type": "Point", "coordinates": [3.1119, 49.071294]}, "properties": {"year": 2025, "valeur_fonciere": 7000.0, "type_local": null, "surface_reelle_bati": null, "nombre_pieces_principales": null, "adresse_nom_voie": "LE BROCHET CALICE", "price_per_sqm": null, "date_iso": "2025-10-06", "parcelle": "771290000B0402", "addr_num": ""}}, {"type": "Feature", "geometry": {"type": "Point", "coordinates": [3.115291, 49.061831]}, "properties": {"year": 2025, "valeur_fonciere": 23000.0, "type_local": null, "surface_reelle_bati": null, "nombre_pieces_principales": null, "adresse_nom_voie": "LE THIOLET", "price_per_sqm": null, "date_iso": "2025-10-06", "parcelle": "77129000ZK0003", "addr_num": ""}}, {"type": "Feature", "geometry": {"type": "Point", "coordinates": [3.13711, 49.102946]}, "properties": {"year": 2025, "valeur_fonciere": 5041.0, "type_local": null, "surface_reelle_bati": null, "nombre_pieces_principales": null, "adresse_nom_voie": "VAUX-SOUS-COULOMBS", "price_per_sqm": null, "date_iso": "2025-10-10", "parcelle": "771290000E0209", "addr_num": ""}}, {"type": "Feature", "geometry": {"type": "Point", "coordinates": [3.142385, 49.102206]}, "properties": {"year": 2025, "valeur_fonciere": 5041.0, "type_local": null, "surface_reelle_bati": null, "nombre_pieces_principales": null, "adresse_nom_voie": "NOUE DU CHENET", "price_per_sqm": null, "date_iso": "2025-10-10", "parcelle": "771290000F0024", "addr_num": ""}}, {"type": "Feature", "geometry": {"type": "Point", "coordinates": [3.154901, 49.098357]}, "properties": {"year": 2025, "valeur_fonciere": 5041.0, "type_local": null, "surface_reelle_bati": null, "nombre_pieces_principales": null, "adresse_nom_voie": "LE FLANC", "price_per_sqm": null, "date_iso": "2025-10-10", "parcelle": "771290000F0317", "addr_num": ""}}, {"type": "Feature", "geometry": {"type": "Point", "coordinates": [3.15721, 49.099513]}, "properties": {"year": 2025, "valeur_fonciere": 270.04, "type_local": null, "surface_reelle_bati": null, "nombre_pieces_principales": null, "adresse_nom_voie": "LE FLANC", "price_per_sqm": null, "date_iso": "2025-10-14", "parcelle": "771290000F0336", "addr_num": ""}}, {"type": "Feature", "geometry": {"type": "Point", "coordinates": [3.12765, 49.105022]}, "properties": {"year": 2025, "valeur_fonciere": 6273.25, "type_local": null, "surface_reelle_bati": null, "nombre_pieces_principales": null, "adresse_nom_voie": "VASSET", "price_per_sqm": null, "date_iso": "2025-10-14", "parcelle": "771290000E0063", "addr_num": ""}}, {"type": "Feature", "geometry": {"type": "Point", "coordinates": [3.12892, 49.105723]}, "properties": {"year": 2025, "valeur_fonciere": 6273.25, "type_local": null, "surface_reelle_bati": null, "nombre_pieces_principales": null, "adresse_nom_voie": "LA RECULEE", "price_per_sqm": null, "date_iso": "2025-10-14", "parcelle": "771290000E0090", "addr_num": ""}}, {"type": "Feature", "geometry": {"type": "Point", "coordinates": [3.129001, 49.105763]}, "properties": {"year": 2025, "valeur_fonciere": 6273.25, "type_local": null, "surface_reelle_bati": null, "nombre_pieces_principales": null, "adresse_nom_voie": "LA RECULEE", "price_per_sqm": null, "date_iso": "2025-10-14", "parcelle": "771290000E0091", "addr_num": ""}}, {"type": "Feature", "geometry": {"type": "Point", "coordinates": [3.133967, 49.104821]}, "properties": {"year": 2025, "valeur_fonciere": 6273.25, "type_local": null, "surface_reelle_bati": null, "nombre_pieces_principales": null, "adresse_nom_voie": "LES AUNAIES DE VAUX", "price_per_sqm": null, "date_iso": "2025-10-14", "parcelle": "771290000E0109", "addr_num": ""}}, {"type": "Feature", "geometry": {"type": "Point", "coordinates": [3.134404, 49.104957]}, "properties": {"year": 2025, "valeur_fonciere": 6273.25, "type_local": null, "surface_reelle_bati": null, "nombre_pieces_principales": null, "adresse_nom_voie": "LES AUNAIES DE VAUX", "price_per_sqm": null, "date_iso": "2025-10-14", "parcelle": "771290000E0113", "addr_num": ""}}, {"type": "Feature", "geometry": {"type": "Point", "coordinates": [3.134569, 49.104932]}, "properties": {"year": 2025, "valeur_fonciere": 6273.25, "type_local": null, "surface_reelle_bati": null, "nombre_pieces_principales": null, "adresse_nom_voie": "LES AUNAIES DE VAUX", "price_per_sqm": null, "date_iso": "2025-10-14", "parcelle": "771290000E0114", "addr_num": ""}}, {"type": "Feature", "geometry": {"type": "Point", "coordinates": [3.134623, 49.10554]}, "properties": {"year": 2025, "valeur_fonciere": 6273.25, "type_local": null, "surface_reelle_bati": null, "nombre_pieces_principales": null, "adresse_nom_voie": "LES AUNAIES DE VAUX", "price_per_sqm": null, "date_iso": "2025-10-14", "parcelle": "771290000E0119", "addr_num": ""}}, {"type": "Feature", "geometry": {"type": "Point", "coordinates": [3.143192, 49.100226]}, "properties": {"year": 2025, "valeur_fonciere": 6273.25, "type_local": null, "surface_reelle_bati": null, "nombre_pieces_principales": null, "adresse_nom_voie": "NOUE DU CHENET", "price_per_sqm": null, "date_iso": "2025-10-14", "parcelle": "771290000F0021", "addr_num": ""}}, {"type": "Feature", "geometry": {"type": "Point", "coordinates": [3.142086, 49.102239]}, "properties": {"year": 2025, "valeur_fonciere": 6273.25, "type_local": null, "surface_reelle_bati": null, "nombre_pieces_principales": null, "adresse_nom_voie": "NOUE DU CHENET", "price_per_sqm": null, "date_iso": "2025-10-14", "parcelle": "771290000F0026", "addr_num": ""}}, {"type": "Feature", "geometry": {"type": "Point", "coordinates": [3.14363, 49.100967]}, "properties": {"year": 2025, "valeur_fonciere": 6273.25, "type_local": null, "surface_reelle_bati": null, "nombre_pieces_principales": null, "adresse_nom_voie": "NOUE DU CHENET", "price_per_sqm": null, "date_iso": "2025-10-14", "parcelle": "771290000F0052", "addr_num": ""}}, {"type": "Feature", "geometry": {"type": "Point", "coordinates": [3.114874, 49.096862]}, "properties": {"year": 2025, "valeur_fonciere": 6273.25, "type_local": null, "surface_reelle_bati": null, "nombre_pieces_principales": null, "adresse_nom_voie": "MIRET", "price_per_sqm": null, "date_iso": "2025-10-14", "parcelle": "771290000G0283", "addr_num": ""}}, {"type": "Feature", "geometry": {"type": "Point", "coordinates": [3.115421, 49.097136]}, "properties": {"year": 2025, "valeur_fonciere": 6273.25, "type_local": null, "surface_reelle_bati": null, "nombre_pieces_principales": null, "adresse_nom_voie": "MIRET", "price_per_sqm": null, "date_iso": "2025-10-14", "parcelle": "771290000G0285", "addr_num": ""}}, {"type": "Feature", "geometry": {"type": "Point", "coordinates": [3.114813, 49.096703]}, "properties": {"year": 2025, "valeur_fonciere": 6273.25, "type_local": null, "surface_reelle_bati": null, "nombre_pieces_principales": null, "adresse_nom_voie": "MIRET", "price_per_sqm": null, "date_iso": "2025-10-14", "parcelle": "771290000G0288", "addr_num": ""}}, {"type": "Feature", "geometry": {"type": "Point", "coordinates": [3.112745, 49.095674]}, "properties": {"year": 2025, "valeur_fonciere": 6273.25, "type_local": null, "surface_reelle_bati": null, "nombre_pieces_principales": null, "adresse_nom_voie": "MIRET", "price_per_sqm": null, "date_iso": "2025-10-14", "parcelle": "771290000G0300", "addr_num": ""}}, {"type": "Feature", "geometry": {"type": "Point", "coordinates": [3.112639, 49.09558]}, "properties": {"year": 2025, "valeur_fonciere": 6273.25, "type_local": null, "surface_reelle_bati": null, "nombre_pieces_principales": null, "adresse_nom_voie": "MIRET", "price_per_sqm": null, "date_iso": "2025-10-14", "parcelle": "771290000G0301", "addr_num": ""}}, {"type": "Feature", "geometry": {"type": "Point", "coordinates": [3.149869, 49.085794]}, "properties": {"year": 2025, "valeur_fonciere": 4559.28, "type_local": null, "surface_reelle_bati": null, "nombre_pieces_principales": null, "adresse_nom_voie": "LE FOND DU BOUCHER", "price_per_sqm": null, "date_iso": "2025-11-07", "parcelle": "771290000A0513", "addr_num": ""}}, {"type": "Feature", "geometry": {"type": "Point", "coordinates": [3.162137, 49.099184]}, "properties": {"year": 2025, "valeur_fonciere": 4559.28, "type_local": null, "surface_reelle_bati": null, "nombre_pieces_principales": null, "adresse_nom_voie": "PRES FERMES", "price_per_sqm": null, "date_iso": "2025-11-07", "parcelle": "771290000F0352", "addr_num": ""}}, {"type": "Feature", "geometry": {"type": "Point", "coordinates": [3.149911, 49.086669]}, "properties": {"year": 2025, "valeur_fonciere": 4559.28, "type_local": null, "surface_reelle_bati": null, "nombre_pieces_principales": null, "adresse_nom_voie": "LE CRAPAUD", "price_per_sqm": null, "date_iso": "2025-11-07", "parcelle": "771290000F0518", "addr_num": ""}}, {"type": "Feature", "geometry": {"type": "Point", "coordinates": [3.152698, 49.087282]}, "properties": {"year": 2025, "valeur_fonciere": 4559.28, "type_local": null, "surface_reelle_bati": null, "nombre_pieces_principales": null, "adresse_nom_voie": "LE CRAPAUD", "price_per_sqm": null, "date_iso": "2025-11-07", "parcelle": "771290000F0522", "addr_num": ""}}, {"type": "Feature", "geometry": {"type": "Point", "coordinates": [3.153194, 49.087627]}, "properties": {"year": 2025, "valeur_fonciere": 4559.28, "type_local": null, "surface_reelle_bati": null, "nombre_pieces_principales": null, "adresse_nom_voie": "LE CRAPAUD", "price_per_sqm": null, "date_iso": "2025-11-07", "parcelle": "771290000F0523", "addr_num": ""}}, {"type": "Feature", "geometry": {"type": "Point", "coordinates": [3.149567, 49.08655]}, "properties": {"year": 2025, "valeur_fonciere": 4559.28, "type_local": null, "surface_reelle_bati": null, "nombre_pieces_principales": null, "adresse_nom_voie": "LE CRAPAUD", "price_per_sqm": null, "date_iso": "2025-11-07", "parcelle": "771290000F0630", "addr_num": ""}}, {"type": "Feature", "geometry": {"type": "Point", "coordinates": [3.157937, 49.094706]}, "properties": {"year": 2025, "valeur_fonciere": 4559.28, "type_local": null, "surface_reelle_bati": null, "nombre_pieces_principales": null, "adresse_nom_voie": "LA BONNE MINE", "price_per_sqm": null, "date_iso": "2025-11-07", "parcelle": "77129000ZC0007", "addr_num": ""}}, {"type": "Feature", "geometry": {"type": "Point", "coordinates": [3.121373, 49.072063]}, "properties": {"year": 2025, "valeur_fonciere": 200000.0, "type_local": "Maison", "surface_reelle_bati": 130.0, "nombre_pieces_principales": 6.0, "adresse_nom_voie": "RUE DU PUITS D AMOUR", "price_per_sqm": 1538.4615384615386, "date_iso": "2025-12-30", "parcelle": "771290000C0607", "addr_num": "25"}}, {"type": "Feature", "geometry": {"type": "Point", "coordinates": [3.121373, 49.072063]}, "properties": {"year": 2025, "valeur_fonciere": 200000.0, "type_local": "Dépendance", "surface_reelle_bati": null, "nombre_pieces_principales": 0.0, "adresse_nom_voie": "RUE DU PUITS D AMOUR", "price_per_sqm": null, "date_iso": "2025-12-30", "parcelle": "771290000C0607", "addr_num": "25"}}]}