{"type": "FeatureCollection", "features": [{"type": "Feature", "geometry": {"type": "Point", "coordinates": [2.708847, 48.582378]}, "properties": {"year": 2021, "valeur_fonciere": 150000.0, "type_local": "Maison", "surface_reelle_bati": 154.0, "nombre_pieces_principales": 6.0, "adresse_nom_voie": "RUE DU LAVOIR", "price_per_sqm": 974.025974025974, "date_iso": "2021-01-29", "parcelle": "77410000AD0016", "addr_num": "43"}}, {"type": "Feature", "geometry": {"type": "Point", "coordinates": [2.708847, 48.582378]}, "properties": {"year": 2021, "valeur_fonciere": 150000.0, "type_local": "Local industriel. commercial ou assimilé", "surface_reelle_bati": 12.0, "nombre_pieces_principales": 0.0, "adresse_nom_voie": "RUE DU LAVOIR", "price_per_sqm": 12500.0, "date_iso": "2021-01-29", "parcelle": "77410000AD0016", "addr_num": "43"}}, {"type": "Feature", "geometry": {"type": "Point", "coordinates": [2.711226, 48.583081]}, "properties": {"year": 2021, "valeur_fonciere": 590000.0, "type_local": "Maison", "surface_reelle_bati": 90.0, "nombre_pieces_principales": 3.0, "adresse_nom_voie": "RUE DU LAVOIR", "price_per_sqm": 6555.555555555556, "date_iso": "2021-02-05", "parcelle": "77410000AD0039", "addr_num": "11"}}, {"type": "Feature", "geometry": {"type": "Point", "coordinates": [2.711226, 48.583081]}, "properties": {"year": 2021, "valeur_fonciere": 590000.0, "type_local": "Maison", "surface_reelle_bati": 90.0, "nombre_pieces_principales": 3.0, "adresse_nom_voie": "RUE DU LAVOIR", "price_per_sqm": 6555.555555555556, "date_iso": "2021-02-05", "parcelle": "77410000AD0039", "addr_num": "11"}}, {"type": "Feature", "geometry": {"type": "Point", "coordinates": [2.70856, 48.581385]}, "properties": {"year": 2021, "valeur_fonciere": 5000.0, "type_local": null, "surface_reelle_bati": null, "nombre_pieces_principales": null, "adresse_nom_voie": "RUE DE L EGLISE", "price_per_sqm": null, "date_iso": "2021-05-19", "parcelle": "77410000AC0049", "addr_num": "6"}}, {"type": "Feature", "geometry": {"type": "Point", "coordinates": [2.712429, 48.582839]}, "properties": {"year": 2021, "valeur_fonciere": 93000.0, "type_local": null, "surface_reelle_bati": null, "nombre_pieces_principales": null, "adresse_nom_voie": "RUE GRANDE", "price_per_sqm": null, "date_iso": "2021-05-28", "parcelle": "77410000AB0070", "addr_num": "2"}}, {"type": "Feature", "geometry": {"type": "Point", "coordinates": [2.716136, 48.580541]}, "properties": {"year": 2021, "valeur_fonciere": 430000.0, "type_local": "Maison", "surface_reelle_bati": 140.0, "nombre_pieces_principales": 5.0, "adresse_nom_voie": "RUE DU BOIS DE L AUNAIE", "price_per_sqm": 3071.4285714285716, "date_iso": "2021-05-19", "parcelle": "77410000ZL0167", "addr_num": "22"}}, {"type": "Feature", "geometry": {"type": "Point", "coordinates": [2.716136, 48.580541]}, "properties": {"year": 2021, "valeur_fonciere": 430000.0, "type_local": "Maison", "surface_reelle_bati": 140.0, "nombre_pieces_principales": 5.0, "adresse_nom_voie": "RUE DU BOIS DE L AUNAIE", "price_per_sqm": 3071.4285714285716, "date_iso": "2021-05-19", "parcelle": "77410000ZL0167", "addr_num": "22"}}, {"type": "Feature", "geometry": {"type": "Point", "coordinates": [2.710617, 48.582718]}, "properties": {"year": 2021, "valeur_fonciere": 169000.0, "type_local": "Maison", "surface_reelle_bati": 56.0, "nombre_pieces_principales": 2.0, "adresse_nom_voie": "RUE DU LAVOIR", "price_per_sqm": 3017.8571428571427, "date_iso": "2021-07-15", "parcelle": "77410000AD0035", "addr_num": "17"}}, {"type": "Feature", "geometry": {"type": "Point", "coordinates": [2.710757, 48.582081]}, "properties": {"year": 2021, "valeur_fonciere": 350000.0, "type_local": "Maison", "surface_reelle_bati": 120.0, "nombre_pieces_principales": 4.0, "adresse_nom_voie": "RUE GRANDE", "price_per_sqm": 2916.6666666666665, "date_iso": "2021-08-30", "parcelle": "77410000AB0026", "addr_num": "22"}}, {"type": "Feature", "geometry": {"type": "Point", "coordinates": [2.710757, 48.582081]}, "properties": {"year": 2021, "valeur_fonciere": 350000.0, "type_local": "Dépendance", "surface_reelle_bati": null, "nombre_pieces_principales": 0.0, "adresse_nom_voie": "RUE GRANDE", "price_per_sqm": null, "date_iso": "2021-08-30", "parcelle": "77410000AB0026", "addr_num": "22"}}, {"type": "Feature", "geometry": {"type": "Point", "coordinates": [2.710592, 48.582182]}, "properties": {"year": 2021, "valeur_fonciere": 350000.0, "type_local": null, "surface_reelle_bati": null, "nombre_pieces_principales": null, "adresse_nom_voie": "RUE GRANDE", "price_per_sqm": null, "date_iso": "2021-08-30", "parcelle": "77410000AB0028", "addr_num": "22"}}, {"type": "Feature", "geometry": {"type": "Point", "coordinates": [2.7134, 48.581908]}, "properties": {"year": 2021, "valeur_fonciere": 260000.0, "type_local": "Appartement", "surface_reelle_bati": 132.0, "nombre_pieces_principales": 4.0, "adresse_nom_voie": "RUE DE MEAUX", "price_per_sqm": 1969.6969696969697, "date_iso": "2021-08-24", "parcelle": "77410000AB0162", "addr_num": "18"}}, {"type": "Feature", "geometry": {"type": "Point", "coordinates": [2.713979, 48.581166]}, "properties": {"year": 2021, "valeur_fonciere": 398000.0, "type_local": "Maison", "surface_reelle_bati": 120.0, "nombre_pieces_principales": 4.0, "adresse_nom_voie": "PRES D ANDY", "price_per_sqm": 3316.6666666666665, "date_iso": "2021-10-12", "parcelle": "77410000AB0105", "addr_num": "12"}}, {"type": "Feature", "geometry": {"type": "Point", "coordinates": [2.713959, 48.581028]}, "properties": {"year": 2021, "valeur_fonciere": 398000.0, "type_local": null, "surface_reelle_bati": null, "nombre_pieces_principales": null, "adresse_nom_voie": "PRES D ANDY", "price_per_sqm": null, "date_iso": "2021-10-12", "parcelle": "77410000AB0164", "addr_num": ""}}, {"type": "Feature", "geometry": {"type": "Point", "coordinates": [2.718363, 48.584572]}, "properties": {"year": 2021, "valeur_fonciere": 59813.17, "type_local": null, "surface_reelle_bati": null, "nombre_pieces_principales": null, "adresse_nom_voie": "PRES D ANDY", "price_per_sqm": null, "date_iso": "2021-10-14", "parcelle": "77410000ZL0244", "addr_num": ""}}, {"type": "Feature", "geometry": {"type": "Point", "coordinates": [2.718315, 48.585084]}, "properties": {"year": 2021, "valeur_fonciere": 59985.87, "type_local": null, "surface_reelle_bati": null, "nombre_pieces_principales": null, "adresse_nom_voie": "PRES D ANDY", "price_per_sqm": null, "date_iso": "2021-11-18", "parcelle": "77410000ZL0280", "addr_num": ""}}, {"type": "Feature", "geometry": {"type": "Point", "coordinates": [2.718017, 48.585091]}, "properties": {"year": 2021, "valeur_fonciere": 59985.87, "type_local": null, "surface_reelle_bati": null, "nombre_pieces_principales": null, "adresse_nom_voie": "PRES D ANDY", "price_per_sqm": null, "date_iso": "2021-11-18", "parcelle": "77410000ZL0282", "addr_num": ""}}, {"type": "Feature", "geometry": {"type": "Point", "coordinates": [2.710154, 48.58267]}, "properties": {"year": 2021, "valeur_fonciere": 225000.0, "type_local": "Maison", "surface_reelle_bati": 90.0, "nombre_pieces_principales": 5.0, "adresse_nom_voie": "RUE DU LAVOIR", "price_per_sqm": 2500.0, "date_iso": "2021-12-22", "parcelle": "77410000AD0031", "addr_num": "5002"}}, {"type": "Feature", "geometry": {"type": "Point", "coordinates": [2.713067, 48.582935]}, "properties": {"year": 2022, "valeur_fonciere": 275000.0, "type_local": "Dépendance", "surface_reelle_bati": null, "nombre_pieces_principales": 0.0, "adresse_nom_voie": "RUE DE PRUNELAY", "price_per_sqm": null, "date_iso": "2022-04-01", "parcelle": "77410000AB0075", "addr_num": "11"}}, {"type": "Feature", "geometry": {"type": "Point", "coordinates": [2.713067, 48.582935]}, "properties": {"year": 2022, "valeur_fonciere": 275000.0, "type_local": "Maison", "surface_reelle_bati": 86.0, "nombre_pieces_principales": 3.0, "adresse_nom_voie": "RUE DE PRUNELAY", "price_per_sqm": 3197.6744186046512, "date_iso": "2022-04-01", "parcelle": "77410000AB0075", "addr_num": "11"}}, {"type": "Feature", "geometry": {"type": "Point", "coordinates": [2.710509, 48.582696]}, "properties": {"year": 2022, "valeur_fonciere": 137500.0, "type_local": "Maison", "surface_reelle_bati": 35.0, "nombre_pieces_principales": 2.0, "adresse_nom_voie": "RUE DU LAVOIR", "price_per_sqm": 3928.5714285714284, "date_iso": "2022-04-11", "parcelle": "77410000AD0055", "addr_num": "17"}}, {"type": "Feature", "geometry": {"type": "Point", "coordinates": [2.710552, 48.582707]}, "properties": {"year": 2022, "valeur_fonciere": 137500.0, "type_local": null, "surface_reelle_bati": null, "nombre_pieces_principales": null, "adresse_nom_voie": "RUE DU LAVOIR", "price_per_sqm": null, "date_iso": "2022-04-11", "parcelle": "77410000AD0056", "addr_num": "17"}}, {"type": "Feature", "geometry": {"type": "Point", "coordinates": [2.713702, 48.581238]}, "properties": {"year": 2022, "valeur_fonciere": 120000.0, "type_local": null, "surface_reelle_bati": null, "nombre_pieces_principales": null, "adresse_nom_voie": "RUE DE MEAUX", "price_per_sqm": null, "date_iso": "2022-05-31", "parcelle": "77410000AB0214", "addr_num": ""}}, {"type": "Feature", "geometry": {"type": "Point", "coordinates": [2.71238, 48.580581]}, "properties": {"year": 2022, "valeur_fonciere": 350000.0, "type_local": "Maison", "surface_reelle_bati": 140.0, "nombre_pieces_principales": 8.0, "adresse_nom_voie": "RES LES ESSARTS", "price_per_sqm": 2500.0, "date_iso": "2022-05-30", "parcelle": "77410000AB0081", "addr_num": "11"}}, {"type": "Feature", "geometry": {"type": "Point", "coordinates": [2.717851, 48.584959]}, "properties": {"year": 2022, "valeur_fonciere": 92857.21, "type_local": null, "surface_reelle_bati": null, "nombre_pieces_principales": null, "adresse_nom_voie": "PRES D ANDY", "price_per_sqm": null, "date_iso": "2022-06-08", "parcelle": "77410000ZL0283", "addr_num": ""}}, {"type": "Feature", "geometry": {"type": "Point", "coordinates": [2.717838, 48.584842]}, "properties": {"year": 2022, "valeur_fonciere": 92857.21, "type_local": null, "surface_reelle_bati": null, "nombre_pieces_principales": null, "adresse_nom_voie": "PRES D ANDY", "price_per_sqm": null, "date_iso": "2022-06-08", "parcelle": "77410000ZL0284", "addr_num": ""}}, {"type": "Feature", "geometry": {"type": "Point", "coordinates": [2.718956, 48.58419]}, "properties": {"year": 2022, "valeur_fonciere": 105637.3, "type_local": null, "surface_reelle_bati": null, "nombre_pieces_principales": null, "adresse_nom_voie": "PRES D ANDY", "price_per_sqm": null, "date_iso": "2022-06-24", "parcelle": "77410000ZL0250", "addr_num": ""}}, {"type": "Feature", "geometry": {"type": "Point", "coordinates": [2.718946, 48.583951]}, "properties": {"year": 2022, "valeur_fonciere": 105637.3, "type_local": null, "surface_reelle_bati": null, "nombre_pieces_principales": null, "adresse_nom_voie": "PRES D ANDY", "price_per_sqm": null, "date_iso": "2022-06-24", "parcelle": "77410000ZL0251", "addr_num": ""}}, {"type": "Feature", "geometry": {"type": "Point", "coordinates": [2.717461, 48.581457]}, "properties": {"year": 2022, "valeur_fonciere": 266000.0, "type_local": "Maison", "surface_reelle_bati": 76.0, "nombre_pieces_principales": 4.0, "adresse_nom_voie": "RUE DU BOIS DE L AUNAIE", "price_per_sqm": 3500.0, "date_iso": "2022-07-08", "parcelle": "77410000ZL0230", "addr_num": "38"}}, {"type": "Feature", "geometry": {"type": "Point", "coordinates": [2.717461, 48.581457]}, "properties": {"year": 2022, "valeur_fonciere": 266000.0, "type_local": "Dépendance", "surface_reelle_bati": null, "nombre_pieces_principales": 0.0, "adresse_nom_voie": "RUE DU BOIS DE L AUNAIE", "price_per_sqm": null, "date_iso": "2022-07-08", "parcelle": "77410000ZL0230", "addr_num": "38"}}, {"type": "Feature", "geometry": {"type": "Point", "coordinates": [2.710829, 48.580624]}, "properties": {"year": 2022, "valeur_fonciere": 340000.0, "type_local": "Maison", "surface_reelle_bati": 120.0, "nombre_pieces_principales": 5.0, "adresse_nom_voie": "RUE DE L EGLISE", "price_per_sqm": 2833.3333333333335, "date_iso": "2022-07-18", "parcelle": "77410000AB0001", "addr_num": "1"}}, {"type": "Feature", "geometry": {"type": "Point", "coordinates": [2.710829, 48.580624]}, "properties": {"year": 2022, "valeur_fonciere": 340000.0, "type_local": "Maison", "surface_reelle_bati": 120.0, "nombre_pieces_principales": 5.0, "adresse_nom_voie": "RUE DE L EGLISE", "price_per_sqm": 2833.3333333333335, "date_iso": "2022-07-18", "parcelle": "77410000AB0001", "addr_num": "1"}}, {"type": "Feature", "geometry": {"type": "Point", "coordinates": [2.7134, 48.581908]}, "properties": {"year": 2022, "valeur_fonciere": 289000.0, "type_local": "Appartement", "surface_reelle_bati": 132.0, "nombre_pieces_principales": 4.0, "adresse_nom_voie": "RUE DE MEAUX", "price_per_sqm": 2189.3939393939395, "date_iso": "2022-07-22", "parcelle": "77410000AB0162", "addr_num": "18"}}, {"type": "Feature", "geometry": {"type": "Point", "coordinates": [2.714667, 48.582736]}, "properties": {"year": 2022, "valeur_fonciere": 240000.0, "type_local": "Maison", "surface_reelle_bati": 68.0, "nombre_pieces_principales": 3.0, "adresse_nom_voie": "RUE DE MEAUX", "price_per_sqm": 3529.4117647058824, "date_iso": "2022-07-25", "parcelle": "77410000AB0177", "addr_num": "4"}}, {"type": "Feature", "geometry": {"type": "Point", "coordinates": [2.714833, 48.582646]}, "properties": {"year": 2022, "valeur_fonciere": 240000.0, "type_local": null, "surface_reelle_bati": null, "nombre_pieces_principales": null, "adresse_nom_voie": "RUE DE MEAUX", "price_per_sqm": null, "date_iso": "2022-07-25", "parcelle": "77410000AB0180", "addr_num": "2"}}, {"type": "Feature", "geometry": {"type": "Point", "coordinates": [2.714705, 48.58285]}, "properties": {"year": 2022, "valeur_fonciere": 240000.0, "type_local": null, "surface_reelle_bati": null, "nombre_pieces_principales": null, "adresse_nom_voie": "RUE DE MEAUX", "price_per_sqm": null, "date_iso": "2022-07-25", "parcelle": "77410000AB0181", "addr_num": "2"}}, {"type": "Feature", "geometry": {"type": "Point", "coordinates": [2.714525, 48.5829]}, "properties": {"year": 2022, "valeur_fonciere": 240000.0, "type_local": null, "surface_reelle_bati": null, "nombre_pieces_principales": null, "adresse_nom_voie": "RUE DE MEAUX", "price_per_sqm": null, "date_iso": "2022-07-25", "parcelle": "77410000AB0202", "addr_num": "2"}}, {"type": "Feature", "geometry": {"type": "Point", "coordinates": [2.716023, 48.580677]}, "properties": {"year": 2022, "valeur_fonciere": 454250.0, "type_local": "Dépendance", "surface_reelle_bati": null, "nombre_pieces_principales": 0.0, "adresse_nom_voie": "RUE DU BOIS DE L AUNAIE", "price_per_sqm": null, "date_iso": "2022-07-20", "parcelle": "77410000ZL0166", "addr_num": "20"}}, {"type": "Feature", "geometry": {"type": "Point", "coordinates": [2.716023, 48.580677]}, "properties": {"year": 2022, "valeur_fonciere": 454250.0, "type_local": "Maison", "surface_reelle_bati": 133.0, "nombre_pieces_principales": 6.0, "adresse_nom_voie": "RUE DU BOIS DE L AUNAIE", "price_per_sqm": 3415.4135338345864, "date_iso": "2022-07-20", "parcelle": "77410000ZL0166", "addr_num": "20"}}, {"type": "Feature", "geometry": {"type": "Point", "coordinates": [2.71642, 48.581307]}, "properties": {"year": 2022, "valeur_fonciere": 410000.0, "type_local": "Maison", "surface_reelle_bati": 155.0, "nombre_pieces_principales": 7.0, "adresse_nom_voie": "RUE DU BOIS DE L AUNAIE", "price_per_sqm": 2645.1612903225805, "date_iso": "2022-08-26", "parcelle": "77410000ZL0183", "addr_num": "13"}}, {"type": "Feature", "geometry": {"type": "Point", "coordinates": [2.708482, 48.582379]}, "properties": {"year": 2022, "valeur_fonciere": 229000.0, "type_local": "Maison", "surface_reelle_bati": 64.0, "nombre_pieces_principales": 3.0, "adresse_nom_voie": "RUE DE L EGLISE", "price_per_sqm": 3578.125, "date_iso": "2022-08-30", "parcelle": "77410000AD0015", "addr_num": "23"}}, {"type": "Feature", "geometry": {"type": "Point", "coordinates": [2.718937, 48.584638]}, "properties": {"year": 2022, "valeur_fonciere": 56257.69, "type_local": null, "surface_reelle_bati": null, "nombre_pieces_principales": null, "adresse_nom_voie": "PRES D ANDY", "price_per_sqm": null, "date_iso": "2022-09-28", "parcelle": "77410000ZL0248", "addr_num": ""}}, {"type": "Feature", "geometry": {"type": "Point", "coordinates": [2.710979, 48.583035]}, "properties": {"year": 2022, "valeur_fonciere": 424300.0, "type_local": "Maison", "surface_reelle_bati": 163.0, "nombre_pieces_principales": 6.0, "adresse_nom_voie": "RUE DU LAVOIR", "price_per_sqm": 2603.0674846625766, "date_iso": "2022-09-29", "parcelle": "77410000AD0038", "addr_num": "13"}}, {"type": "Feature", "geometry": {"type": "Point", "coordinates": [2.710979, 48.583035]}, "properties": {"year": 2022, "valeur_fonciere": 424300.0, "type_local": "Maison", "surface_reelle_bati": 163.0, "nombre_pieces_principales": 6.0, "adresse_nom_voie": "RUE DU LAVOIR", "price_per_sqm": 2603.0674846625766, "date_iso": "2022-09-29", "parcelle": "77410000AD0038", "addr_num": "13"}}, {"type": "Feature", "geometry": {"type": "Point", "coordinates": [2.712678, 48.582724]}, "properties": {"year": 2022, "valeur_fonciere": 197000.0, "type_local": "Maison", "surface_reelle_bati": 78.0, "nombre_pieces_principales": 3.0, "adresse_nom_voie": "RUE DE PRUNELAY", "price_per_sqm": 2525.641025641026, "date_iso": "2022-11-15", "parcelle": "77410000AB0068", "addr_num": "8"}}, {"type": "Feature", "geometry": {"type": "Point", "coordinates": [2.712678, 48.582724]}, "properties": {"year": 2022, "valeur_fonciere": 197000.0, "type_local": "Dépendance", "surface_reelle_bati": null, "nombre_pieces_principales": 0.0, "adresse_nom_voie": "RUE DE PRUNELAY", "price_per_sqm": null, "date_iso": "2022-11-15", "parcelle": "77410000AB0068", "addr_num": "8"}}, {"type": "Feature", "geometry": {"type": "Point", "coordinates": [2.717689, 48.584247]}, "properties": {"year": 2022, "valeur_fonciere": 169825.64, "type_local": null, "surface_reelle_bati": null, "nombre_pieces_principales": null, "adresse_nom_voie": "PRES D ANDY", "price_per_sqm": null, "date_iso": "2022-12-01", "parcelle": "77410000ZL0256", "addr_num": ""}}, {"type": "Feature", "geometry": {"type": "Point", "coordinates": [2.71238, 48.580581]}, "properties": {"year": 2022, "valeur_fonciere": 217000.0, "type_local": "Maison", "surface_reelle_bati": 83.0, "nombre_pieces_principales": 5.0, "adresse_nom_voie": "RES LES ESSARTS", "price_per_sqm": 2614.4578313253014, "date_iso": "2022-11-23", "parcelle": "77410000AB0081", "addr_num": "5"}}, {"type": "Feature", "geometry": {"type": "Point", "coordinates": [2.716319, 48.582021]}, "properties": {"year": 2022, "valeur_fonciere": 437000.0, "type_local": "Maison", "surface_reelle_bati": 145.0, "nombre_pieces_principales": 6.0, "adresse_nom_voie": "RUE DU BOIS DE L AUNAIE", "price_per_sqm": 3013.793103448276, "date_iso": "2022-12-20", "parcelle": "77410000ZL0187", "addr_num": "5"}}, {"type": "Feature", "geometry": {"type": "Point", "coordinates": [2.716319, 48.582021]}, "properties": {"year": 2022, "valeur_fonciere": 437000.0, "type_local": "Dépendance", "surface_reelle_bati": null, "nombre_pieces_principales": 0.0, "adresse_nom_voie": "RUE DU BOIS DE L AUNAIE", "price_per_sqm": null, "date_iso": "2022-12-20", "parcelle": "77410000ZL0187", "addr_num": "5"}}, {"type": "Feature", "geometry": {"type": "Point", "coordinates": [2.716319, 48.582021]}, "properties": {"year": 2022, "valeur_fonciere": 437000.0, "type_local": "Dépendance", "surface_reelle_bati": null, "nombre_pieces_principales": 0.0, "adresse_nom_voie": "RUE DU BOIS DE L AUNAIE", "price_per_sqm": null, "date_iso": "2022-12-20", "parcelle": "77410000ZL0187", "addr_num": "5"}}, {"type": "Feature", "geometry": {"type": "Point", "coordinates": [2.710484, 48.582262]}, "properties": {"year": 2023, "valeur_fonciere": 45000.0, "type_local": "Maison", "surface_reelle_bati": 45.0, "nombre_pieces_principales": 3.0, "adresse_nom_voie": "RUE GRANDE", "price_per_sqm": 1000.0, "date_iso": "2023-05-30", "parcelle": "77410000AB0034", "addr_num": "38"}}, {"type": "Feature", "geometry": {"type": "Point", "coordinates": [2.716369, 48.580954]}, "properties": {"year": 2023, "valeur_fonciere": 436000.0, "type_local": "Maison", "surface_reelle_bati": 140.0, "nombre_pieces_principales": 5.0, "adresse_nom_voie": "RUE DU BOIS DE L AUNAIE", "price_per_sqm": 3114.285714285714, "date_iso": "2023-06-12", "parcelle": "77410000ZL0181", "addr_num": "17"}}, {"type": "Feature", "geometry": {"type": "Point", "coordinates": [2.709113, 48.582471]}, "properties": {"year": 2023, "valeur_fonciere": 155000.0, "type_local": "Appartement", "surface_reelle_bati": 46.0, "nombre_pieces_principales": 2.0, "adresse_nom_voie": "RUE DU LAVOIR", "price_per_sqm": 3369.5652173913045, "date_iso": "2023-07-04", "parcelle": "77410000AD0018", "addr_num": "26"}}, {"type": "Feature", "geometry": {"type": "Point", "coordinates": [2.709113, 48.582471]}, "properties": {"year": 2023, "valeur_fonciere": 155000.0, "type_local": "Dépendance", "surface_reelle_bati": null, "nombre_pieces_principales": 0.0, "adresse_nom_voie": "RUE DU LAVOIR", "price_per_sqm": null, "date_iso": "2023-07-04", "parcelle": "77410000AD0018", "addr_num": "26"}}, {"type": "Feature", "geometry": {"type": "Point", "coordinates": [2.709113, 48.582471]}, "properties": {"year": 2023, "valeur_fonciere": 155000.0, "type_local": "Appartement", "surface_reelle_bati": 38.0, "nombre_pieces_principales": 2.0, "adresse_nom_voie": "RUE DU LAVOIR", "price_per_sqm": 4078.9473684210525, "date_iso": "2023-07-04", "parcelle": "77410000AD0018", "addr_num": "26"}}, {"type": "Feature", "geometry": {"type": "Point", "coordinates": [2.709113, 48.582471]}, "properties": {"year": 2023, "valeur_fonciere": 155000.0, "type_local": "Dépendance", "surface_reelle_bati": null, "nombre_pieces_principales": 0.0, "adresse_nom_voie": "RUE DU LAVOIR", "price_per_sqm": null, "date_iso": "2023-07-04", "parcelle": "77410000AD0018", "addr_num": "26"}}, {"type": "Feature", "geometry": {"type": "Point", "coordinates": [2.709113, 48.582471]}, "properties": {"year": 2023, "valeur_fonciere": 155000.0, "type_local": "Dépendance", "surface_reelle_bati": null, "nombre_pieces_principales": 0.0, "adresse_nom_voie": "RUE DU LAVOIR", "price_per_sqm": null, "date_iso": "2023-07-04", "parcelle": "77410000AD0018", "addr_num": "26"}}, {"type": "Feature", "geometry": {"type": "Point", "coordinates": [2.703837, 48.583996]}, "properties": {"year": 2023, "valeur_fonciere": 349150.0, "type_local": "Maison", "surface_reelle_bati": 78.0, "nombre_pieces_principales": 4.0, "adresse_nom_voie": "RES LE CLOS ST GERMAIN", "price_per_sqm": 4476.282051282052, "date_iso": "2023-09-01", "parcelle": "77410000AC0018", "addr_num": "1"}}, {"type": "Feature", "geometry": {"type": "Point", "coordinates": [2.715573, 48.609247]}, "properties": {"year": 2023, "valeur_fonciere": 10204.0, "type_local": null, "surface_reelle_bati": null, "nombre_pieces_principales": null, "adresse_nom_voie": "REMISE DE CHAMPDEUIL", "price_per_sqm": null, "date_iso": "2023-10-25", "parcelle": "77410000YC0005", "addr_num": ""}}, {"type": "Feature", "geometry": {"type": "Point", "coordinates": [2.715333, 48.58113]}, "properties": {"year": 2023, "valeur_fonciere": 436000.0, "type_local": "Maison", "surface_reelle_bati": 160.0, "nombre_pieces_principales": 8.0, "adresse_nom_voie": "PRES D ANDY", "price_per_sqm": 2725.0, "date_iso": "2023-12-11", "parcelle": "77410000AB0118", "addr_num": "27"}}, {"type": "Feature", "geometry": {"type": "Point", "coordinates": [2.715333, 48.58113]}, "properties": {"year": 2023, "valeur_fonciere": 436000.0, "type_local": "Dépendance", "surface_reelle_bati": null, "nombre_pieces_principales": 0.0, "adresse_nom_voie": "PRES D ANDY", "price_per_sqm": null, "date_iso": "2023-12-11", "parcelle": "77410000AB0118", "addr_num": "27"}}, {"type": "Feature", "geometry": {"type": "Point", "coordinates": [2.712076, 48.581667]}, "properties": {"year": 2023, "valeur_fonciere": 207600.0, "type_local": "Maison", "surface_reelle_bati": 66.0, "nombre_pieces_principales": 4.0, "adresse_nom_voie": "RUE DE MEAUX", "price_per_sqm": 3145.4545454545455, "date_iso": "2023-12-07", "parcelle": "77410000AB0216", "addr_num": "13"}}, {"type": "Feature", "geometry": {"type": "Point", "coordinates": [2.712076, 48.581667]}, "properties": {"year": 2023, "valeur_fonciere": 207600.0, "type_local": "Dépendance", "surface_reelle_bati": null, "nombre_pieces_principales": 0.0, "adresse_nom_voie": "RUE DE MEAUX", "price_per_sqm": null, "date_iso": "2023-12-07", "parcelle": "77410000AB0216", "addr_num": "13"}}, {"type": "Feature", "geometry": {"type": "Point", "coordinates": [2.712214, 48.581561]}, "properties": {"year": 2023, "valeur_fonciere": 207600.0, "type_local": null, "surface_reelle_bati": null, "nombre_pieces_principales": null, "adresse_nom_voie": "RUE DE MEAUX", "price_per_sqm": null, "date_iso": "2023-12-07", "parcelle": "77410000AB0218", "addr_num": "23"}}, {"type": "Feature", "geometry": {"type": "Point", "coordinates": [2.718245, 48.584045]}, "properties": {"year": 2024, "valeur_fonciere": 120662.56, "type_local": null, "surface_reelle_bati": null, "nombre_pieces_principales": null, "adresse_nom_voie": "PRES D ANDY", "price_per_sqm": null, "date_iso": "2024-02-01", "parcelle": "77410000ZL0242", "addr_num": ""}}, {"type": "Feature", "geometry": {"type": "Point", "coordinates": [2.718324, 48.5843]}, "properties": {"year": 2024, "valeur_fonciere": 120662.56, "type_local": null, "surface_reelle_bati": null, "nombre_pieces_principales": null, "adresse_nom_voie": "PRES D ANDY", "price_per_sqm": null, "date_iso": "2024-02-01", "parcelle": "77410000ZL0243", "addr_num": ""}}, {"type": "Feature", "geometry": {"type": "Point", "coordinates": [2.708783, 48.599875]}, "properties": {"year": 2024, "valeur_fonciere": 1000000.0, "type_local": "Maison", "surface_reelle_bati": 196.0, "nombre_pieces_principales": 6.0, "adresse_nom_voie": "FERME DE POUILLY GALLERAND", "price_per_sqm": 5102.040816326531, "date_iso": "2024-03-22", "parcelle": "77410000ZB0052", "addr_num": "1"}}, {"type": "Feature", "geometry": {"type": "Point", "coordinates": [2.708783, 48.599875]}, "properties": {"year": 2024, "valeur_fonciere": 1000000.0, "type_local": "Maison", "surface_reelle_bati": 196.0, "nombre_pieces_principales": 6.0, "adresse_nom_voie": "FERME DE POUILLY GALLERAND", "price_per_sqm": 5102.040816326531, "date_iso": "2024-03-22", "parcelle": "77410000ZB0052", "addr_num": "1"}}, {"type": "Feature", "geometry": {"type": "Point", "coordinates": [2.708783, 48.599875]}, "properties": {"year": 2024, "valeur_fonciere": 1000000.0, "type_local": "Maison", "surface_reelle_bati": 178.0, "nombre_pieces_principales": 5.0, "adresse_nom_voie": "FERME DE POUILLY GALLERAND", "price_per_sqm": 5617.9775280898875, "date_iso": "2024-03-22", "parcelle": "77410000ZB0052", "addr_num": "1"}}, {"type": "Feature", "geometry": {"type": "Point", "coordinates": [2.708783, 48.599875]}, "properties": {"year": 2024, "valeur_fonciere": 1000000.0, "type_local": "Maison", "surface_reelle_bati": 178.0, "nombre_pieces_principales": 5.0, "adresse_nom_voie": "FERME DE POUILLY GALLERAND", "price_per_sqm": 5617.9775280898875, "date_iso": "2024-03-22", "parcelle": "77410000ZB0052", "addr_num": "1"}}, {"type": "Feature", "geometry": {"type": "Point", "coordinates": [2.707973, 48.59923]}, "properties": {"year": 2024, "valeur_fonciere": 1000000.0, "type_local": null, "surface_reelle_bati": null, "nombre_pieces_principales": null, "adresse_nom_voie": "SEN DE POUILLY", "price_per_sqm": null, "date_iso": "2024-03-22", "parcelle": "77410000ZB0065", "addr_num": ""}}, {"type": "Feature", "geometry": {"type": "Point", "coordinates": [2.71197, 48.581735]}, "properties": {"year": 2024, "valeur_fonciere": 118000.0, "type_local": "Dépendance", "surface_reelle_bati": null, "nombre_pieces_principales": 0.0, "adresse_nom_voie": "RUE DE MEAUX", "price_per_sqm": null, "date_iso": "2024-04-05", "parcelle": "77410000AB0217", "addr_num": "23"}}, {"type": "Feature", "geometry": {"type": "Point", "coordinates": [2.71197, 48.581735]}, "properties": {"year": 2024, "valeur_fonciere": 118000.0, "type_local": "Dépendance", "surface_reelle_bati": null, "nombre_pieces_principales": 0.0, "adresse_nom_voie": "RUE DE MEAUX", "price_per_sqm": null, "date_iso": "2024-04-05", "parcelle": "77410000AB0217", "addr_num": "23"}}, {"type": "Feature", "geometry": {"type": "Point", "coordinates": [2.712214, 48.581561]}, "properties": {"year": 2024, "valeur_fonciere": 118000.0, "type_local": null, "surface_reelle_bati": null, "nombre_pieces_principales": null, "adresse_nom_voie": "RUE DE MEAUX", "price_per_sqm": null, "date_iso": "2024-04-05", "parcelle": "77410000AB0218", "addr_num": "23"}}, {"type": "Feature", "geometry": {"type": "Point", "coordinates": [2.713853, 48.597181]}, "properties": {"year": 2024, "valeur_fonciere": 764188.2, "type_local": null, "surface_reelle_bati": null, "nombre_pieces_principales": null, "adresse_nom_voie": "CHE DE CORBEIL", "price_per_sqm": null, "date_iso": "2024-07-30", "parcelle": "77410000YC0001", "addr_num": ""}}, {"type": "Feature", "geometry": {"type": "Point", "coordinates": [2.713853, 48.597181]}, "properties": {"year": 2024, "valeur_fonciere": 764188.2, "type_local": null, "surface_reelle_bati": null, "nombre_pieces_principales": null, "adresse_nom_voie": "CHE DE CORBEIL", "price_per_sqm": null, "date_iso": "2024-07-30", "parcelle": "77410000YC0001", "addr_num": ""}}, {"type": "Feature", "geometry": {"type": "Point", "coordinates": [2.713853, 48.597181]}, "properties": {"year": 2024, "valeur_fonciere": 764188.2, "type_local": null, "surface_reelle_bati": null, "nombre_pieces_principales": null, "adresse_nom_voie": "CHE DE CORBEIL", "price_per_sqm": null, "date_iso": "2024-07-30", "parcelle": "77410000YC0001", "addr_num": ""}}, {"type": "Feature", "geometry": {"type": "Point", "coordinates": [2.713663, 48.600821]}, "properties": {"year": 2024, "valeur_fonciere": 764188.2, "type_local": null, "surface_reelle_bati": null, "nombre_pieces_principales": null, "adresse_nom_voie": "LA BARBOTTERIE", "price_per_sqm": null, "date_iso": "2024-07-30", "parcelle": "77410000YC0008", "addr_num": ""}}, {"type": "Feature", "geometry": {"type": "Point", "coordinates": [2.711241, 48.599878]}, "properties": {"year": 2024, "valeur_fonciere": 764188.2, "type_local": null, "surface_reelle_bati": null, "nombre_pieces_principales": null, "adresse_nom_voie": "FERME DE POUILLY GALLERAND", "price_per_sqm": null, "date_iso": "2024-07-30", "parcelle": "77410000YC0027", "addr_num": ""}}, {"type": "Feature", "geometry": {"type": "Point", "coordinates": [2.706914, 48.603345]}, "properties": {"year": 2024, "valeur_fonciere": 764188.2, "type_local": null, "surface_reelle_bati": null, "nombre_pieces_principales": null, "adresse_nom_voie": "LA MARE AUX SANGSUES", "price_per_sqm": null, "date_iso": "2024-07-30", "parcelle": "77410000ZB0016", "addr_num": ""}}, {"type": "Feature", "geometry": {"type": "Point", "coordinates": [2.704938, 48.605424]}, "properties": {"year": 2024, "valeur_fonciere": 764188.2, "type_local": null, "surface_reelle_bati": null, "nombre_pieces_principales": null, "adresse_nom_voie": "LA MARE AUX SANGSUES", "price_per_sqm": null, "date_iso": "2024-07-30", "parcelle": "77410000ZB0021", "addr_num": ""}}, {"type": "Feature", "geometry": {"type": "Point", "coordinates": [2.7089, 48.605825]}, "properties": {"year": 2024, "valeur_fonciere": 764188.2, "type_local": null, "surface_reelle_bati": null, "nombre_pieces_principales": null, "adresse_nom_voie": "LA MARE AUX SANGSUES", "price_per_sqm": null, "date_iso": "2024-07-30", "parcelle": "77410000ZB0022", "addr_num": ""}}, {"type": "Feature", "geometry": {"type": "Point", "coordinates": [2.712812, 48.607254]}, "properties": {"year": 2024, "valeur_fonciere": 764188.2, "type_local": null, "surface_reelle_bati": null, "nombre_pieces_principales": null, "adresse_nom_voie": "LA MARE AUX SANGSUES", "price_per_sqm": null, "date_iso": "2024-07-30", "parcelle": "77410000ZB0023", "addr_num": ""}}, {"type": "Feature", "geometry": {"type": "Point", "coordinates": [2.712812, 48.607254]}, "properties": {"year": 2024, "valeur_fonciere": 764188.2, "type_local": null, "surface_reelle_bati": null, "nombre_pieces_principales": null, "adresse_nom_voie": "LA MARE AUX SANGSUES", "price_per_sqm": null, "date_iso": "2024-07-30", "parcelle": "77410000ZB0023", "addr_num": ""}}, {"type": "Feature", "geometry": {"type": "Point", "coordinates": [2.709067, 48.59661]}, "properties": {"year": 2024, "valeur_fonciere": 764188.2, "type_local": null, "surface_reelle_bati": null, "nombre_pieces_principales": null, "adresse_nom_voie": "BOIS DE L AUNOY", "price_per_sqm": null, "date_iso": "2024-07-30", "parcelle": "77410000ZB0075", "addr_num": ""}}, {"type": "Feature", "geometry": {"type": "Point", "coordinates": [2.718136, 48.583281]}, "properties": {"year": 2025, "valeur_fonciere": 258250.11, "type_local": null, "surface_reelle_bati": null, "nombre_pieces_principales": null, "adresse_nom_voie": "PRES D ANDY", "price_per_sqm": null, "date_iso": "2025-02-11", "parcelle": "77410000ZL0254", "addr_num": ""}}, {"type": "Feature", "geometry": {"type": "Point", "coordinates": [2.717592, 48.583394]}, "properties": {"year": 2025, "valeur_fonciere": 258250.11, "type_local": null, "surface_reelle_bati": null, "nombre_pieces_principales": null, "adresse_nom_voie": "PRES D ANDY", "price_per_sqm": null, "date_iso": "2025-02-11", "parcelle": "77410000ZL0255", "addr_num": ""}}, {"type": "Feature", "geometry": {"type": "Point", "coordinates": [2.718722, 48.583165]}, "properties": {"year": 2025, "valeur_fonciere": 152230.11, "type_local": null, "surface_reelle_bati": null, "nombre_pieces_principales": null, "adresse_nom_voie": "PRES D ANDY", "price_per_sqm": null, "date_iso": "2025-02-11", "parcelle": "77410000ZL0253", "addr_num": ""}}, {"type": "Feature", "geometry": {"type": "Point", "coordinates": [2.707508, 48.599728]}, "properties": {"year": 2025, "valeur_fonciere": 240000.0, "type_local": null, "surface_reelle_bati": null, "nombre_pieces_principales": null, "adresse_nom_voie": "SEN DE POUILLY", "price_per_sqm": null, "date_iso": "2025-04-07", "parcelle": "77410000ZB0067", "addr_num": ""}}, {"type": "Feature", "geometry": {"type": "Point", "coordinates": [2.718956, 48.58419]}, "properties": {"year": 2025, "valeur_fonciere": 1628400.0, "type_local": null, "surface_reelle_bati": null, "nombre_pieces_principales": null, "adresse_nom_voie": "PRES D ANDY", "price_per_sqm": null, "date_iso": "2025-04-16", "parcelle": "77410000ZL0250", "addr_num": ""}}, {"type": "Feature", "geometry": {"type": "Point", "coordinates": [2.718946, 48.583951]}, "properties": {"year": 2025, "valeur_fonciere": 1628400.0, "type_local": null, "surface_reelle_bati": null, "nombre_pieces_principales": null, "adresse_nom_voie": "PRES D ANDY", "price_per_sqm": null, "date_iso": "2025-04-16", "parcelle": "77410000ZL0251", "addr_num": ""}}, {"type": "Feature", "geometry": {"type": "Point", "coordinates": [2.713513, 48.582741]}, "properties": {"year": 2025, "valeur_fonciere": 150000.0, "type_local": "Maison", "surface_reelle_bati": 90.0, "nombre_pieces_principales": 4.0, "adresse_nom_voie": "RUE DE MEAUX", "price_per_sqm": 1666.6666666666667, "date_iso": "2025-06-30", "parcelle": "77410000AB0188", "addr_num": "13"}}, {"type": "Feature", "geometry": {"type": "Point", "coordinates": [2.711733, 48.583251]}, "properties": {"year": 2025, "valeur_fonciere": 248000.0, "type_local": "Dépendance", "surface_reelle_bati": null, "nombre_pieces_principales": 0.0, "adresse_nom_voie": "RUE DU LAVOIR", "price_per_sqm": null, "date_iso": "2025-07-08", "parcelle": "77410000AD0041", "addr_num": "7"}}, {"type": "Feature", "geometry": {"type": "Point", "coordinates": [2.711733, 48.583251]}, "properties": {"year": 2025, "valeur_fonciere": 248000.0, "type_local": "Maison", "surface_reelle_bati": 88.0, "nombre_pieces_principales": 5.0, "adresse_nom_voie": "RUE DU LAVOIR", "price_per_sqm": 2818.181818181818, "date_iso": "2025-07-08", "parcelle": "77410000AD0041", "addr_num": "7"}}, {"type": "Feature", "geometry": {"type": "Point", "coordinates": [2.711733, 48.583251]}, "properties": {"year": 2025, "valeur_fonciere": 248000.0, "type_local": "Maison", "surface_reelle_bati": 88.0, "nombre_pieces_principales": 5.0, "adresse_nom_voie": "RUE DU LAVOIR", "price_per_sqm": 2818.181818181818, "date_iso": "2025-07-08", "parcelle": "77410000AD0041", "addr_num": "7"}}, {"type": "Feature", "geometry": {"type": "Point", "coordinates": [2.711733, 48.583251]}, "properties": {"year": 2025, "valeur_fonciere": 248000.0, "type_local": "Dépendance", "surface_reelle_bati": null, "nombre_pieces_principales": 0.0, "adresse_nom_voie": "RUE DU LAVOIR", "price_per_sqm": null, "date_iso": "2025-07-08", "parcelle": "77410000AD0041", "addr_num": "7"}}, {"type": "Feature", "geometry": {"type": "Point", "coordinates": [2.712395, 48.582131]}, "properties": {"year": 2025, "valeur_fonciere": 260000.0, "type_local": "Dépendance", "surface_reelle_bati": null, "nombre_pieces_principales": 0.0, "adresse_nom_voie": "RUE DE MEAUX", "price_per_sqm": null, "date_iso": "2025-07-23", "parcelle": "77410000AB0062", "addr_num": "17"}}, {"type": "Feature", "geometry": {"type": "Point", "coordinates": [2.712395, 48.582131]}, "properties": {"year": 2025, "valeur_fonciere": 260000.0, "type_local": "Maison", "surface_reelle_bati": 90.0, "nombre_pieces_principales": 4.0, "adresse_nom_voie": "RUE DE MEAUX", "price_per_sqm": 2888.8888888888887, "date_iso": "2025-07-23", "parcelle": "77410000AB0062", "addr_num": "17"}}, {"type": "Feature", "geometry": {"type": "Point", "coordinates": [2.712878, 48.582673]}, "properties": {"year": 2025, "valeur_fonciere": 250.0, "type_local": null, "surface_reelle_bati": null, "nombre_pieces_principales": null, "adresse_nom_voie": "RUE DE PRUNELAY", "price_per_sqm": null, "date_iso": "2025-08-21", "parcelle": "77410000AB0228", "addr_num": "3"}}, {"type": "Feature", "geometry": {"type": "Point", "coordinates": [2.718987, 48.584407]}, "properties": {"year": 2025, "valeur_fonciere": 55939.85, "type_local": null, "surface_reelle_bati": null, "nombre_pieces_principales": null, "adresse_nom_voie": "PRES D ANDY", "price_per_sqm": null, "date_iso": "2025-10-21", "parcelle": "77410000ZL0249", "addr_num": ""}}, {"type": "Feature", "geometry": {"type": "Point", "coordinates": [2.717716, 48.583799]}, "properties": {"year": 2025, "valeur_fonciere": 62932.33, "type_local": null, "surface_reelle_bati": null, "nombre_pieces_principales": null, "adresse_nom_voie": "PRES D ANDY", "price_per_sqm": null, "date_iso": "2025-12-15", "parcelle": "77410000ZL0240", "addr_num": ""}}]}