{"type": "FeatureCollection", "features": [{"type": "Feature", "geometry": {"type": "Polygon", "coordinates": [[[2.327165, 48.883455], [2.327423, 48.883508], [2.327875, 48.883598], [2.328121, 48.883707], [2.329541, 48.88459], [2.330915, 48.884204], [2.33259, 48.883793], [2.3374, 48.882386], [2.339802, 48.882024], [2.34285, 48.882619], [2.346909, 48.883414], [2.347242, 48.883451], [2.349465, 48.883725], [2.349476, 48.883615], [2.3496, 48.88348], [2.349683, 48.882422], [2.349836, 48.881097], [2.349853, 48.880643], [2.34953, 48.87969], [2.3493, 48.879103], [2.349201, 48.878589], [2.349145, 48.877886], [2.349135, 48.877529], [2.348999, 48.877278], [2.348996, 48.877208], [2.348352, 48.876083], [2.348227, 48.875785], [2.34816, 48.875484], [2.347901, 48.874019], [2.347884, 48.872474], [2.347897, 48.871322], [2.347918, 48.870688], [2.347029, 48.870826], [2.341876, 48.871679], [2.340041, 48.871972], [2.338312, 48.871692], [2.335927, 48.871286], [2.334763, 48.871071], [2.332522, 48.870692], [2.332079, 48.870626], [2.329973, 48.870265], [2.329007, 48.87009], [2.327999, 48.869921], [2.325888, 48.869577], [2.325971, 48.870089], [2.326089, 48.870563], [2.326614, 48.872598], [2.326608, 48.872697], [2.32647, 48.872762], [2.326911, 48.873427], [2.327025, 48.873781], [2.326937, 48.874179], [2.326746, 48.874827], [2.326637, 48.875355], [2.326666, 48.875544], [2.326852, 48.875873], [2.326876, 48.876184], [2.326914, 48.877112], [2.326964, 48.877848], [2.326981, 48.878716], [2.327009, 48.879651], [2.327055, 48.880438], [2.327061, 48.880801], [2.327165, 48.883455]]]}, "properties": {"code_iris": "751090000", "nom_iris": "Paris 9e Arrondissement (commune entière)", "type_iris": "Z", "lat": 48.8771, "lng": 2.3379, "dvf_sales_total": 16034, "dvf_sales_appt": 0, "dvf_sales_maison": 0, "dvf_median_price": 660000.0, "dvf_median_ppsqm": 11932.159090909092, "dvf_by_year": "[{\"year\": 2021, \"sales\": 3177, \"median_price\": 640000.0}, {\"year\": 2022, \"sales\": 3517, \"median_price\": 664000.0}, {\"year\": 2023, \"sales\": 3318, \"median_price\": 810000.0}, {\"year\": 2024, \"sales\": 2633, \"median_price\": 550000.0}, {\"year\": 2025, \"sales\": 3389, \"median_price\": 682000.0}]", "population": 57271, "n_log": null, "n_rp": null, "pct_proprio": null, "pct_hlm": null, "pct_appart": null, "pct_cadres": null, "pct_bac5p": null, "pct_etrangers": null, "pct_0_14": null, "pct_65p": null, "bpe_total": null, "bpe_commerces": null, "bpe_enseignement": null, "bpe_sante": null, "dpe": null, "attractivity_score": null, "rank_attractivity_score": null, "rank_total_attractivity_score": 1, "commune_avg": null, "is_stub": true}}]}