{"type": "FeatureCollection", "features": [{"type": "Feature", "geometry": {"type": "Point", "coordinates": [3.010847, 48.225984]}, "properties": {"id_parcelle": "770350000F0549", "address": "5091 VILLENEUVE LES ORMES", "sales": 10, "median_price": 735750.0, "median_price_per_sqm": 2412.2950819672133, "median_rooms": 0.0, "first_sale": "2025-02-24", "last_sale": "2025-02-24"}}, {"type": "Feature", "geometry": {"type": "Point", "coordinates": [3.011588, 48.24851]}, "properties": {"id_parcelle": "770350000D1045", "address": "5143 VILLOISEAU", "sales": 8, "median_price": 75000.0, "median_price_per_sqm": 1315.7894736842104, "median_rooms": 1.5, "first_sale": "2021-06-22", "last_sale": "2022-03-23"}}, {"type": "Feature", "geometry": {"type": "Point", "coordinates": [3.011654, 48.248594]}, "properties": {"id_parcelle": "770350000D1046", "address": "33 RUE STE GENEVIEVE", "sales": 8, "median_price": 135000.0, "median_price_per_sqm": 1956.521739130435, "median_rooms": 2.0, "first_sale": "2022-05-12", "last_sale": "2024-02-23"}}, {"type": "Feature", "geometry": {"type": "Point", "coordinates": [3.014066, 48.252531]}, "properties": {"id_parcelle": "770350000D0765", "address": "8 RUE STE GENEVIEVE", "sales": 6, "median_price": 335000.0, "median_price_per_sqm": 2093.75, "median_rooms": 0.0, "first_sale": "2024-02-15", "last_sale": "2024-02-15"}}, {"type": "Feature", "geometry": {"type": "Point", "coordinates": [3.005283, 48.266225]}, "properties": {"id_parcelle": "770350000C0132", "address": "22 RUE DU CHEVAL BLANC", "sales": 4, "median_price": 253000.0, "median_price_per_sqm": 2480.392156862745, "median_rooms": 0.0, "first_sale": "2024-05-17", "last_sale": "2024-05-17"}}, {"type": "Feature", "geometry": {"type": "Point", "coordinates": [3.022501, 48.258788]}, "properties": {"id_parcelle": "770350000C0447", "address": "5020 BLENNES", "sales": 4, "median_price": 325000.0, "median_price_per_sqm": 1625.0, "median_rooms": 3.0, "first_sale": "2022-07-21", "last_sale": "2022-07-21"}}, {"type": "Feature", "geometry": {"type": "Point", "coordinates": [3.027362, 48.252143]}, "properties": {"id_parcelle": "770350000D1105", "address": "3 RUE DE LA PLAINE", "sales": 4, "median_price": 110000.0, "median_price_per_sqm": 1486.4864864864865, "median_rooms": 2.0, "first_sale": "2025-10-24", "last_sale": "2025-10-24"}}, {"type": "Feature", "geometry": {"type": "Point", "coordinates": [3.003874, 48.266392]}, "properties": {"id_parcelle": "770350000C1225", "address": "3 RUE DU GOLFE", "sales": 4, "median_price": 238000.0, "median_price_per_sqm": 1966.9421487603306, "median_rooms": 2.5, "first_sale": "2023-09-08", "last_sale": "2023-09-08"}}, {"type": "Feature", "geometry": {"type": "Point", "coordinates": [2.999943, 48.222339]}, "properties": {"id_parcelle": "770350000F0166", "address": "4 HAM DE MAUREPAS", "sales": 4, "median_price": 55550.0, "median_price_per_sqm": 730.921052631579, "median_rooms": 1.0, "first_sale": "2024-01-20", "last_sale": "2024-01-20"}}, {"type": "Feature", "geometry": {"type": "Point", "coordinates": [2.990941, 48.234515]}, "properties": {"id_parcelle": "770350000F0537", "address": "16 RUE DE LA CROIX SAINT VICTOR", "sales": 4, "median_price": 150000.0, "median_price_per_sqm": 1000.0, "median_rooms": 2.5, "first_sale": "2025-07-07", "last_sale": "2025-07-07"}}, {"type": "Feature", "geometry": {"type": "Point", "coordinates": [3.006642, 48.266513]}, "properties": {"id_parcelle": "770350000C0086", "address": "19 RUE DU CHEVAL BLANC", "sales": 3, "median_price": 137500.0, "median_price_per_sqm": 1909.7222222222222, "median_rooms": 0.0, "first_sale": "2021-11-05", "last_sale": "2021-11-05"}}, {"type": "Feature", "geometry": {"type": "Point", "coordinates": [3.022385, 48.258555]}, "properties": {"id_parcelle": "770350000C0444", "address": "5 RUE DES BRANDONS", "sales": 3, "median_price": 135000.0, "median_price_per_sqm": 1776.3157894736842, "median_rooms": 0.0, "first_sale": "2022-07-22", "last_sale": "2022-07-22"}}, {"type": "Feature", "geometry": {"type": "Point", "coordinates": [3.024947, 48.256886]}, "properties": {"id_parcelle": "770350000C0470", "address": "1 IMP DU FORGERON", "sales": 3, "median_price": 390000.0, "median_price_per_sqm": 2727.2727272727275, "median_rooms": 0.0, "first_sale": "2025-12-01", "last_sale": "2025-12-01"}}, {"type": "Feature", "geometry": {"type": "Point", "coordinates": [3.022744, 48.257088]}, "properties": {"id_parcelle": "770350000C0484", "address": "4 RUE GRANDE", "sales": 3, "median_price": 201290.23, "median_price_per_sqm": 774.1931923076924, "median_rooms": 0.0, "first_sale": "2021-07-28", "last_sale": "2021-07-28"}}, {"type": "Feature", "geometry": {"type": "Point", "coordinates": [3.020601, 48.253433]}, "properties": {"id_parcelle": "770350000D0846", "address": "5 RUE DU CHATEAU BRULE", "sales": 3, "median_price": 130000.0, "median_price_per_sqm": 2031.25, "median_rooms": 0.0, "first_sale": "2021-09-30", "last_sale": "2021-09-30"}}, {"type": "Feature", "geometry": {"type": "Point", "coordinates": [3.014274, 48.251872]}, "properties": {"id_parcelle": "770350000D0775", "address": "5179 HAM DU BOULOY", "sales": 3, "median_price": 364500.0, "median_price_per_sqm": 2278.125, "median_rooms": 0.0, "first_sale": "2022-04-30", "last_sale": "2022-04-30"}}, {"type": "Feature", "geometry": {"type": "Point", "coordinates": [3.02287, 48.258081]}, "properties": {"id_parcelle": "770350000C0451", "address": "1 RUE CHAUDE", "sales": 2, "median_price": 137000.0, "median_price_per_sqm": 1304.7619047619048, "median_rooms": 2.0, "first_sale": "2024-07-27", "last_sale": "2024-07-27"}}, {"type": "Feature", "geometry": {"type": "Point", "coordinates": [3.005102, 48.266099]}, "properties": {"id_parcelle": "770350000C0131", "address": "7 RUE DU GOLFE", "sales": 2, "median_price": 253000.0, "median_price_per_sqm": 2200.0, "median_rooms": 1.5, "first_sale": "2024-05-17", "last_sale": "2024-05-17"}}, {"type": "Feature", "geometry": {"type": "Point", "coordinates": [3.045471, 48.268791]}, "properties": {"id_parcelle": "770350000A0024", "address": "20 RUE DES MARCHAIS", "sales": 2, "median_price": 130000.0, "median_price_per_sqm": 1192.6605504587155, "median_rooms": 3.0, "first_sale": "2024-04-12", "last_sale": "2024-04-12"}}, {"type": "Feature", "geometry": {"type": "Point", "coordinates": [3.045159, 48.269929]}, "properties": {"id_parcelle": "770350000A0769", "address": "5284 RUE DES MARCHAIS", "sales": 2, "median_price": 132075.0, "median_price_per_sqm": 1553.8235294117646, "median_rooms": 2.0, "first_sale": "2024-03-22", "last_sale": "2024-03-22"}}, {"type": "Feature", "geometry": {"type": "Point", "coordinates": [3.005537, 48.266551]}, "properties": {"id_parcelle": "770350000C0090", "address": "13 RUE DU CHEVAL BLANC", "sales": 2, "median_price": 135000.0, "median_price_per_sqm": 931.0344827586207, "median_rooms": 2.5, "first_sale": "2022-12-13", "last_sale": "2022-12-13"}}, {"type": "Feature", "geometry": {"type": "Point", "coordinates": [3.005007, 48.26667]}, "properties": {"id_parcelle": "770350000C0104", "address": "9 RUE DU CHEVAL BLANC", "sales": 2, "median_price": 80000.0, "median_price_per_sqm": 1025.6410256410256, "median_rooms": 1.5, "first_sale": "2021-12-17", "last_sale": "2021-12-17"}}, {"type": "Feature", "geometry": {"type": "Point", "coordinates": [3.004675, 48.266466]}, "properties": {"id_parcelle": "770350000C0127", "address": "18 RUE DU CHEVAL BLANC", "sales": 2, "median_price": 195000.0, "median_price_per_sqm": 1805.5555555555557, "median_rooms": 2.0, "first_sale": "2021-07-05", "last_sale": "2021-07-05"}}, {"type": "Feature", "geometry": {"type": "Point", "coordinates": [3.045863, 48.268496]}, "properties": {"id_parcelle": "770350000A0026", "address": "20 RUE DES MARCHAIS", "sales": 2, "median_price": 130000.0, "median_price_per_sqm": null, "median_rooms": 0.0, "first_sale": "2024-04-12", "last_sale": "2024-04-12"}}, {"type": "Feature", "geometry": {"type": "Point", "coordinates": [3.007905, 48.266316]}, "properties": {"id_parcelle": "770350000C0176", "address": "1 MOULIN DE LAUNOY", "sales": 2, "median_price": 231000.0, "median_price_per_sqm": 1650.0, "median_rooms": 2.0, "first_sale": "2022-03-08", "last_sale": "2022-03-08"}}, {"type": "Feature", "geometry": {"type": "Point", "coordinates": [3.009595, 48.255555]}, "properties": {"id_parcelle": "770350000D0499", "address": "2 CHE DES SABLES", "sales": 2, "median_price": 335000.0, "median_price_per_sqm": 2042.6829268292681, "median_rooms": 5.0, "first_sale": "2022-07-06", "last_sale": "2025-02-28"}}, {"type": "Feature", "geometry": {"type": "Point", "coordinates": [3.01669, 48.254767]}, "properties": {"id_parcelle": "770350000C1121", "address": "7 LA RAIE CREUSE", "sales": 2, "median_price": 140000.0, "median_price_per_sqm": 927.1523178807947, "median_rooms": 6.0, "first_sale": "2025-07-04", "last_sale": "2025-07-04"}}, {"type": "Feature", "geometry": {"type": "Point", "coordinates": [3.019349, 48.260402]}, "properties": {"id_parcelle": "770350000C1026", "address": "5012 LE MOULIN DES MOINES", "sales": 2, "median_price": 120000.0, "median_price_per_sqm": 1538.4615384615386, "median_rooms": 4.0, "first_sale": "2021-01-11", "last_sale": "2021-01-11"}}, {"type": "Feature", "geometry": {"type": "Point", "coordinates": [3.007188, 48.264953]}, "properties": {"id_parcelle": "770350000D0109", "address": "2 LA MARNIERE AUX MOUCHES", "sales": 2, "median_price": 250000.0, "median_price_per_sqm": 1666.6666666666667, "median_rooms": 2.0, "first_sale": "2023-11-30", "last_sale": "2023-11-30"}}, {"type": "Feature", "geometry": {"type": "Point", "coordinates": [3.003894, 48.266636]}, "properties": {"id_parcelle": "770350000C1235", "address": "16 RUE DU CHEVAL BLANC", "sales": 2, "median_price": 59300.0, "median_price_per_sqm": 705.952380952381, "median_rooms": 2.5, "first_sale": "2021-10-15", "last_sale": "2021-10-15"}}, {"type": "Feature", "geometry": {"type": "Point", "coordinates": [3.045908, 48.254662]}, "properties": {"id_parcelle": "770350000C0947", "address": "5065 LES BERGERIES", "sales": 2, "median_price": 170000.0, "median_price_per_sqm": 1650.485436893204, "median_rooms": 2.0, "first_sale": "2022-03-07", "last_sale": "2022-03-07"}}, {"type": "Feature", "geometry": {"type": "Point", "coordinates": [3.009762, 48.245968]}, "properties": {"id_parcelle": "770350000D1079", "address": "2 LE CHEMIN DE LA GRANDE BRA", "sales": 2, "median_price": 274000.0, "median_price_per_sqm": 1826.6666666666667, "median_rooms": 2.5, "first_sale": "2021-12-11", "last_sale": "2021-12-11"}}, {"type": "Feature", "geometry": {"type": "Point", "coordinates": [3.020136, 48.253462]}, "properties": {"id_parcelle": "770350000D0831", "address": "5202 HAM DES SORINS", "sales": 2, "median_price": 252000.0, "median_price_per_sqm": 1150.6849315068494, "median_rooms": 7.0, "first_sale": "2021-05-07", "last_sale": "2021-05-07"}}, {"type": "Feature", "geometry": {"type": "Point", "coordinates": [3.007048, 48.26683]}, "properties": {"id_parcelle": "770350000C1033", "address": "HAM DE LAUNOY", "sales": 2, "median_price": 130000.0, "median_price_per_sqm": null, "median_rooms": null, "first_sale": "2021-04-16", "last_sale": "2021-04-16"}}, {"type": "Feature", "geometry": {"type": "Point", "coordinates": [3.011421, 48.247966]}, "properties": {"id_parcelle": "770350000D1127", "address": "VILLOISEAU", "sales": 2, "median_price": 24250.0, "median_price_per_sqm": null, "median_rooms": null, "first_sale": "2024-10-30", "last_sale": "2025-08-30"}}, {"type": "Feature", "geometry": {"type": "Point", "coordinates": [2.990205, 48.234344]}, "properties": {"id_parcelle": "770350000F0030", "address": "10 RUE SAINT VICTOR", "sales": 2, "median_price": 161000.0, "median_price_per_sqm": 1183.8235294117646, "median_rooms": 2.5, "first_sale": "2025-09-09", "last_sale": "2025-09-09"}}, {"type": "Feature", "geometry": {"type": "Point", "coordinates": [2.989977, 48.234449]}, "properties": {"id_parcelle": "770350000F0029", "address": "12 RUE SAINT VICTOR", "sales": 2, "median_price": 179000.0, "median_price_per_sqm": 1226.027397260274, "median_rooms": 2.5, "first_sale": "2024-10-14", "last_sale": "2024-10-14"}}, {"type": "Feature", "geometry": {"type": "Point", "coordinates": [2.99165, 48.2371]}, "properties": {"id_parcelle": "770350000F0092", "address": "29 RUE SAINT VICTOR", "sales": 2, "median_price": 328750.0, "median_price_per_sqm": 2824.437684365782, "median_rooms": 1.5, "first_sale": "2021-08-27", "last_sale": "2021-08-27"}}, {"type": "Feature", "geometry": {"type": "Point", "coordinates": [2.991796, 48.235166]}, "properties": {"id_parcelle": "770350000F0019", "address": "VILLEMAUGIS", "sales": 2, "median_price": 46112.5, "median_price_per_sqm": null, "median_rooms": null, "first_sale": "2021-04-23", "last_sale": "2023-06-08"}}, {"type": "Feature", "geometry": {"type": "Point", "coordinates": [2.990016, 48.234233]}, "properties": {"id_parcelle": "770350000F0031", "address": "HAM DE VILLEMAUGIS", "sales": 2, "median_price": 161000.0, "median_price_per_sqm": null, "median_rooms": null, "first_sale": "2025-09-09", "last_sale": "2025-09-09"}}, {"type": "Feature", "geometry": {"type": "Point", "coordinates": [2.991086, 48.234996]}, "properties": {"id_parcelle": "770350000F0538", "address": "4 RUE DE LA JUSTICE", "sales": 2, "median_price": 138300.0, "median_price_per_sqm": 2064.179104477612, "median_rooms": 3.0, "first_sale": "2022-05-02", "last_sale": "2022-05-02"}}, {"type": "Feature", "geometry": {"type": "Point", "coordinates": [2.991692, 48.235105]}, "properties": {"id_parcelle": "770350000F0541", "address": "6 RUE DE LA JUSTICE", "sales": 2, "median_price": 46112.5, "median_price_per_sqm": 823.4375, "median_rooms": 1.0, "first_sale": "2021-04-23", "last_sale": "2023-06-08"}}, {"type": "Feature", "geometry": {"type": "Point", "coordinates": [2.991479, 48.234939]}, "properties": {"id_parcelle": "770350000F0539", "address": "SUR VILLEMAUGIS", "sales": 2, "median_price": 46112.5, "median_price_per_sqm": null, "median_rooms": null, "first_sale": "2021-04-23", "last_sale": "2023-06-08"}}, {"type": "Feature", "geometry": {"type": "Point", "coordinates": [2.99155, 48.235218]}, "properties": {"id_parcelle": "770350000F0544", "address": "SUR VILLEMAUGIS", "sales": 2, "median_price": 46112.5, "median_price_per_sqm": null, "median_rooms": null, "first_sale": "2021-04-23", "last_sale": "2023-06-08"}}, {"type": "Feature", "geometry": {"type": "Point", "coordinates": [2.991535, 48.236312]}, "properties": {"id_parcelle": "770350000F0620", "address": "VILLEMAUGIS", "sales": 2, "median_price": 292500.0, "median_price_per_sqm": null, "median_rooms": null, "first_sale": "2022-07-26", "last_sale": "2025-09-24"}}, {"type": "Feature", "geometry": {"type": "Point", "coordinates": [2.991301, 48.236661]}, "properties": {"id_parcelle": "770350000F0622", "address": "27 RUE SAINT VICTOR", "sales": 2, "median_price": 420000.0, "median_price_per_sqm": null, "median_rooms": 0.0, "first_sale": "2025-09-24", "last_sale": "2025-09-24"}}, {"type": "Feature", "geometry": {"type": "Point", "coordinates": [2.991516, 48.236282]}, "properties": {"id_parcelle": "770350000F0623", "address": "VILLEMAUGIS", "sales": 2, "median_price": 292500.0, "median_price_per_sqm": null, "median_rooms": null, "first_sale": "2022-07-26", "last_sale": "2025-09-24"}}]}