{"type": "FeatureCollection", "features": [{"type": "Feature", "geometry": {"type": "Point", "coordinates": [3.267792, 48.921118]}, "properties": {"year": 2021, "valeur_fonciere": 50000.0, "type_local": null, "surface_reelle_bati": null, "nombre_pieces_principales": null, "adresse_nom_voie": "LA BELLE IDEE", "price_per_sqm": null, "date_iso": "2021-02-02", "parcelle": "77024000YC0068", "addr_num": ""}}, {"type": "Feature", "geometry": {"type": "Point", "coordinates": [3.262959, 48.931115]}, "properties": {"year": 2021, "valeur_fonciere": 367000.0, "type_local": null, "surface_reelle_bati": null, "nombre_pieces_principales": null, "adresse_nom_voie": "LES PRES DE L EGLISE", "price_per_sqm": null, "date_iso": "2021-03-25", "parcelle": "77024000YA0046", "addr_num": ""}}, {"type": "Feature", "geometry": {"type": "Point", "coordinates": [3.262959, 48.931115]}, "properties": {"year": 2021, "valeur_fonciere": 367000.0, "type_local": null, "surface_reelle_bati": null, "nombre_pieces_principales": null, "adresse_nom_voie": "LES PRES DE L EGLISE", "price_per_sqm": null, "date_iso": "2021-03-25", "parcelle": "77024000YA0046", "addr_num": ""}}, {"type": "Feature", "geometry": {"type": "Point", "coordinates": [3.262959, 48.931115]}, "properties": {"year": 2021, "valeur_fonciere": 367000.0, "type_local": null, "surface_reelle_bati": null, "nombre_pieces_principales": null, "adresse_nom_voie": "LES PRES DE L EGLISE", "price_per_sqm": null, "date_iso": "2021-03-25", "parcelle": "77024000YA0046", "addr_num": ""}}, {"type": "Feature", "geometry": {"type": "Point", "coordinates": [3.263341, 48.93019]}, "properties": {"year": 2021, "valeur_fonciere": 367000.0, "type_local": null, "surface_reelle_bati": null, "nombre_pieces_principales": null, "adresse_nom_voie": "LA FOSSE ARBOIS", "price_per_sqm": null, "date_iso": "2021-03-25", "parcelle": "77024000YC0048", "addr_num": ""}}, {"type": "Feature", "geometry": {"type": "Point", "coordinates": [3.262934, 48.930435]}, "properties": {"year": 2021, "valeur_fonciere": 367000.0, "type_local": null, "surface_reelle_bati": null, "nombre_pieces_principales": null, "adresse_nom_voie": "LA FOSSE ARBOIS", "price_per_sqm": null, "date_iso": "2021-03-25", "parcelle": "77024000YC0051", "addr_num": ""}}, {"type": "Feature", "geometry": {"type": "Point", "coordinates": [3.26261, 48.930655]}, "properties": {"year": 2021, "valeur_fonciere": 367000.0, "type_local": null, "surface_reelle_bati": null, "nombre_pieces_principales": null, "adresse_nom_voie": "LA FOSSE ARBOIS", "price_per_sqm": null, "date_iso": "2021-03-25", "parcelle": "77024000YC0054", "addr_num": ""}}, {"type": "Feature", "geometry": {"type": "Point", "coordinates": [3.26309, 48.930657]}, "properties": {"year": 2021, "valeur_fonciere": 367000.0, "type_local": "Maison", "surface_reelle_bati": 120.0, "nombre_pieces_principales": 5.0, "adresse_nom_voie": "LA FOSSE ARBOIS", "price_per_sqm": 3058.3333333333335, "date_iso": "2021-03-25", "parcelle": "77024000YC0055", "addr_num": "5044"}}, {"type": "Feature", "geometry": {"type": "Point", "coordinates": [3.263265, 48.930424]}, "properties": {"year": 2021, "valeur_fonciere": 367000.0, "type_local": null, "surface_reelle_bati": null, "nombre_pieces_principales": null, "adresse_nom_voie": "LA FOSSE ARBOIS", "price_per_sqm": null, "date_iso": "2021-03-25", "parcelle": "77024000YC0056", "addr_num": ""}}, {"type": "Feature", "geometry": {"type": "Point", "coordinates": [3.263288, 48.930393]}, "properties": {"year": 2021, "valeur_fonciere": 367000.0, "type_local": null, "surface_reelle_bati": null, "nombre_pieces_principales": null, "adresse_nom_voie": "LA FOSSE ARBOIS", "price_per_sqm": null, "date_iso": "2021-03-25", "parcelle": "77024000YC0057", "addr_num": ""}}, {"type": "Feature", "geometry": {"type": "Point", "coordinates": [3.294911, 48.93142]}, "properties": {"year": 2021, "valeur_fonciere": 10317.0, "type_local": null, "surface_reelle_bati": null, "nombre_pieces_principales": null, "adresse_nom_voie": "PIECE DU BOIS LONG", "price_per_sqm": null, "date_iso": "2021-05-18", "parcelle": "770240000B0315", "addr_num": ""}}, {"type": "Feature", "geometry": {"type": "Point", "coordinates": [3.294911, 48.93142]}, "properties": {"year": 2021, "valeur_fonciere": 10317.0, "type_local": null, "surface_reelle_bati": null, "nombre_pieces_principales": null, "adresse_nom_voie": "PIECE DU BOIS LONG", "price_per_sqm": null, "date_iso": "2021-05-18", "parcelle": "770240000B0315", "addr_num": ""}}, {"type": "Feature", "geometry": {"type": "Point", "coordinates": [3.296806, 48.932492]}, "properties": {"year": 2021, "valeur_fonciere": 10317.0, "type_local": null, "surface_reelle_bati": null, "nombre_pieces_principales": null, "adresse_nom_voie": "PIECE DU BOIS LONG", "price_per_sqm": null, "date_iso": "2021-05-18", "parcelle": "770240000B0317", "addr_num": ""}}, {"type": "Feature", "geometry": {"type": "Point", "coordinates": [3.250217, 48.913773]}, "properties": {"year": 2021, "valeur_fonciere": 370.0, "type_local": null, "surface_reelle_bati": null, "nombre_pieces_principales": null, "adresse_nom_voie": "LA COUR DES HAUTS BOIS", "price_per_sqm": null, "date_iso": "2021-08-06", "parcelle": "770240000D0401", "addr_num": ""}}, {"type": "Feature", "geometry": {"type": "Point", "coordinates": [3.287389, 48.927098]}, "properties": {"year": 2021, "valeur_fonciere": 4000.0, "type_local": null, "surface_reelle_bati": null, "nombre_pieces_principales": null, "adresse_nom_voie": "BASSEVELLE", "price_per_sqm": null, "date_iso": "2021-11-12", "parcelle": "770240000B0237", "addr_num": ""}}, {"type": "Feature", "geometry": {"type": "Point", "coordinates": [3.273502, 48.91766]}, "properties": {"year": 2022, "valeur_fonciere": 69000.0, "type_local": null, "surface_reelle_bati": null, "nombre_pieces_principales": null, "adresse_nom_voie": "LES PEAULIERS", "price_per_sqm": null, "date_iso": "2022-02-24", "parcelle": "77024000YD0117", "addr_num": ""}}, {"type": "Feature", "geometry": {"type": "Point", "coordinates": [3.273353, 48.917782]}, "properties": {"year": 2022, "valeur_fonciere": 69000.0, "type_local": null, "surface_reelle_bati": null, "nombre_pieces_principales": null, "adresse_nom_voie": "LES PEAULIERS", "price_per_sqm": null, "date_iso": "2022-02-24", "parcelle": "77024000YD0120", "addr_num": ""}}, {"type": "Feature", "geometry": {"type": "Point", "coordinates": [3.273005, 48.917935]}, "properties": {"year": 2022, "valeur_fonciere": 265000.0, "type_local": null, "surface_reelle_bati": null, "nombre_pieces_principales": null, "adresse_nom_voie": "LES PEAULIERS", "price_per_sqm": null, "date_iso": "2022-06-09", "parcelle": "77024000YD0064", "addr_num": ""}}, {"type": "Feature", "geometry": {"type": "Point", "coordinates": [3.273696, 48.917955]}, "properties": {"year": 2022, "valeur_fonciere": 265000.0, "type_local": "Maison", "surface_reelle_bati": 140.0, "nombre_pieces_principales": 4.0, "adresse_nom_voie": "LES PEAULIERS", "price_per_sqm": 1892.857142857143, "date_iso": "2022-06-09", "parcelle": "77024000YD0065", "addr_num": "5107"}}, {"type": "Feature", "geometry": {"type": "Point", "coordinates": [3.273696, 48.917955]}, "properties": {"year": 2022, "valeur_fonciere": 265000.0, "type_local": "Maison", "surface_reelle_bati": 140.0, "nombre_pieces_principales": 4.0, "adresse_nom_voie": "LES PEAULIERS", "price_per_sqm": 1892.857142857143, "date_iso": "2022-06-09", "parcelle": "77024000YD0065", "addr_num": "5107"}}, {"type": "Feature", "geometry": {"type": "Point", "coordinates": [3.273949, 48.91778]}, "properties": {"year": 2022, "valeur_fonciere": 265000.0, "type_local": null, "surface_reelle_bati": null, "nombre_pieces_principales": null, "adresse_nom_voie": "LES PEAULIERS", "price_per_sqm": null, "date_iso": "2022-06-09", "parcelle": "77024000YD0114", "addr_num": ""}}, {"type": "Feature", "geometry": {"type": "Point", "coordinates": [3.267367, 48.921265]}, "properties": {"year": 2022, "valeur_fonciere": 214390.0, "type_local": "Maison", "surface_reelle_bati": 68.0, "nombre_pieces_principales": 3.0, "adresse_nom_voie": "LA BELLE IDEE", "price_per_sqm": 3152.794117647059, "date_iso": "2022-06-30", "parcelle": "77024000YC0077", "addr_num": "48"}}, {"type": "Feature", "geometry": {"type": "Point", "coordinates": [3.310509, 48.930907]}, "properties": {"year": 2022, "valeur_fonciere": 24885.25, "type_local": null, "surface_reelle_bati": null, "nombre_pieces_principales": null, "adresse_nom_voie": "LA GARENNE", "price_per_sqm": null, "date_iso": "2022-05-18", "parcelle": "770240000B0148", "addr_num": ""}}, {"type": "Feature", "geometry": {"type": "Point", "coordinates": [3.277199, 48.92532]}, "properties": {"year": 2022, "valeur_fonciere": 233000.0, "type_local": "Maison", "surface_reelle_bati": 87.0, "nombre_pieces_principales": 4.0, "adresse_nom_voie": "RUE DE LA MAIRIE", "price_per_sqm": 2678.1609195402298, "date_iso": "2022-07-29", "parcelle": "77024000YB0123", "addr_num": "857"}}, {"type": "Feature", "geometry": {"type": "Point", "coordinates": [3.277199, 48.92532]}, "properties": {"year": 2022, "valeur_fonciere": 233000.0, "type_local": "Maison", "surface_reelle_bati": 87.0, "nombre_pieces_principales": 4.0, "adresse_nom_voie": "RUE DE LA MAIRIE", "price_per_sqm": 2678.1609195402298, "date_iso": "2022-07-29", "parcelle": "77024000YB0123", "addr_num": "857"}}, {"type": "Feature", "geometry": {"type": "Point", "coordinates": [3.259958, 48.914826]}, "properties": {"year": 2022, "valeur_fonciere": 390000.0, "type_local": "Maison", "surface_reelle_bati": 192.0, "nombre_pieces_principales": 5.0, "adresse_nom_voie": "LE PETIT VILLIERS", "price_per_sqm": 2031.25, "date_iso": "2022-09-02", "parcelle": "770240000D0143", "addr_num": "5074"}}, {"type": "Feature", "geometry": {"type": "Point", "coordinates": [3.259958, 48.914826]}, "properties": {"year": 2022, "valeur_fonciere": 390000.0, "type_local": "Dépendance", "surface_reelle_bati": null, "nombre_pieces_principales": 0.0, "adresse_nom_voie": "LE PETIT VILLIERS", "price_per_sqm": null, "date_iso": "2022-09-02", "parcelle": "770240000D0143", "addr_num": "5074"}}, {"type": "Feature", "geometry": {"type": "Point", "coordinates": [3.259688, 48.914877]}, "properties": {"year": 2022, "valeur_fonciere": 390000.0, "type_local": null, "surface_reelle_bati": null, "nombre_pieces_principales": null, "adresse_nom_voie": "LE PETIT VILLIERS", "price_per_sqm": null, "date_iso": "2022-09-02", "parcelle": "770240000D0461", "addr_num": ""}}, {"type": "Feature", "geometry": {"type": "Point", "coordinates": [3.259829, 48.914944]}, "properties": {"year": 2022, "valeur_fonciere": 390000.0, "type_local": null, "surface_reelle_bati": null, "nombre_pieces_principales": null, "adresse_nom_voie": "RUE DE LA CROIX BLANCHOT", "price_per_sqm": null, "date_iso": "2022-09-02", "parcelle": "770240000D0492", "addr_num": ""}}, {"type": "Feature", "geometry": {"type": "Point", "coordinates": [3.261607, 48.922695]}, "properties": {"year": 2022, "valeur_fonciere": 109000.0, "type_local": null, "surface_reelle_bati": null, "nombre_pieces_principales": null, "adresse_nom_voie": "L HOTEL DES BOIS", "price_per_sqm": null, "date_iso": "2022-09-20", "parcelle": "77024000YC0018", "addr_num": ""}}, {"type": "Feature", "geometry": {"type": "Point", "coordinates": [3.261865, 48.922652]}, "properties": {"year": 2022, "valeur_fonciere": 109000.0, "type_local": "Maison", "surface_reelle_bati": 72.0, "nombre_pieces_principales": 6.0, "adresse_nom_voie": "L HOTEL DES BOIS", "price_per_sqm": 1513.888888888889, "date_iso": "2022-09-20", "parcelle": "77024000YC0019", "addr_num": "5045"}}, {"type": "Feature", "geometry": {"type": "Point", "coordinates": [3.261865, 48.922652]}, "properties": {"year": 2022, "valeur_fonciere": 109000.0, "type_local": "Maison", "surface_reelle_bati": 72.0, "nombre_pieces_principales": 6.0, "adresse_nom_voie": "L HOTEL DES BOIS", "price_per_sqm": 1513.888888888889, "date_iso": "2022-09-20", "parcelle": "77024000YC0019", "addr_num": "5045"}}, {"type": "Feature", "geometry": {"type": "Point", "coordinates": [3.257668, 48.934602]}, "properties": {"year": 2022, "valeur_fonciere": 129540.0, "type_local": null, "surface_reelle_bati": null, "nombre_pieces_principales": null, "adresse_nom_voie": "LE BOIS ABBE", "price_per_sqm": null, "date_iso": "2022-10-21", "parcelle": "77024000YA0005", "addr_num": ""}}, {"type": "Feature", "geometry": {"type": "Point", "coordinates": [3.257668, 48.934602]}, "properties": {"year": 2022, "valeur_fonciere": 129540.0, "type_local": null, "surface_reelle_bati": null, "nombre_pieces_principales": null, "adresse_nom_voie": "LE BOIS ABBE", "price_per_sqm": null, "date_iso": "2022-10-21", "parcelle": "77024000YA0005", "addr_num": ""}}, {"type": "Feature", "geometry": {"type": "Point", "coordinates": [3.27503, 48.932527]}, "properties": {"year": 2022, "valeur_fonciere": 129540.0, "type_local": null, "surface_reelle_bati": null, "nombre_pieces_principales": null, "adresse_nom_voie": "LES CORDES", "price_per_sqm": null, "date_iso": "2022-10-21", "parcelle": "77024000YL0018", "addr_num": ""}}, {"type": "Feature", "geometry": {"type": "Point", "coordinates": [3.258371, 48.916992]}, "properties": {"year": 2022, "valeur_fonciere": 5000.0, "type_local": null, "surface_reelle_bati": null, "nombre_pieces_principales": null, "adresse_nom_voie": "LES HALLIERS", "price_per_sqm": null, "date_iso": "2022-10-17", "parcelle": "770240000D0047", "addr_num": ""}}, {"type": "Feature", "geometry": {"type": "Point", "coordinates": [3.256558, 48.918282]}, "properties": {"year": 2022, "valeur_fonciere": 5000.0, "type_local": null, "surface_reelle_bati": null, "nombre_pieces_principales": null, "adresse_nom_voie": "LES HALLIERS", "price_per_sqm": null, "date_iso": "2022-10-17", "parcelle": "770240000D0080", "addr_num": ""}}, {"type": "Feature", "geometry": {"type": "Point", "coordinates": [3.243682, 48.908321]}, "properties": {"year": 2022, "valeur_fonciere": 5000.0, "type_local": null, "surface_reelle_bati": null, "nombre_pieces_principales": null, "adresse_nom_voie": "LA FOUDRIE", "price_per_sqm": null, "date_iso": "2022-10-17", "parcelle": "770240000D0261", "addr_num": ""}}, {"type": "Feature", "geometry": {"type": "Point", "coordinates": [3.276475, 48.925606]}, "properties": {"year": 2022, "valeur_fonciere": 247000.0, "type_local": "Dépendance", "surface_reelle_bati": null, "nombre_pieces_principales": 0.0, "adresse_nom_voie": "RUE DU FOYER", "price_per_sqm": null, "date_iso": "2022-12-02", "parcelle": "77024000YB0121", "addr_num": "115"}}, {"type": "Feature", "geometry": {"type": "Point", "coordinates": [3.276475, 48.925606]}, "properties": {"year": 2022, "valeur_fonciere": 247000.0, "type_local": "Dépendance", "surface_reelle_bati": null, "nombre_pieces_principales": 0.0, "adresse_nom_voie": "RUE DU FOYER", "price_per_sqm": null, "date_iso": "2022-12-02", "parcelle": "77024000YB0121", "addr_num": "115"}}, {"type": "Feature", "geometry": {"type": "Point", "coordinates": [3.276475, 48.925606]}, "properties": {"year": 2022, "valeur_fonciere": 247000.0, "type_local": "Dépendance", "surface_reelle_bati": null, "nombre_pieces_principales": 0.0, "adresse_nom_voie": "RUE DU FOYER", "price_per_sqm": null, "date_iso": "2022-12-02", "parcelle": "77024000YB0121", "addr_num": "115"}}, {"type": "Feature", "geometry": {"type": "Point", "coordinates": [3.276475, 48.925606]}, "properties": {"year": 2022, "valeur_fonciere": 247000.0, "type_local": "Maison", "surface_reelle_bati": 148.0, "nombre_pieces_principales": 7.0, "adresse_nom_voie": "RUE DU FOYER", "price_per_sqm": 1668.918918918919, "date_iso": "2022-12-02", "parcelle": "77024000YB0121", "addr_num": "115"}}, {"type": "Feature", "geometry": {"type": "Point", "coordinates": [3.276475, 48.925606]}, "properties": {"year": 2022, "valeur_fonciere": 247000.0, "type_local": "Maison", "surface_reelle_bati": 148.0, "nombre_pieces_principales": 7.0, "adresse_nom_voie": "RUE DU FOYER", "price_per_sqm": 1668.918918918919, "date_iso": "2022-12-02", "parcelle": "77024000YB0121", "addr_num": "115"}}, {"type": "Feature", "geometry": {"type": "Point", "coordinates": [3.276475, 48.925606]}, "properties": {"year": 2022, "valeur_fonciere": 247000.0, "type_local": "Dépendance", "surface_reelle_bati": null, "nombre_pieces_principales": 0.0, "adresse_nom_voie": "RUE DU FOYER", "price_per_sqm": null, "date_iso": "2022-12-02", "parcelle": "77024000YB0121", "addr_num": "115"}}, {"type": "Feature", "geometry": {"type": "Point", "coordinates": [3.27278, 48.917151]}, "properties": {"year": 2023, "valeur_fonciere": 350000.0, "type_local": null, "surface_reelle_bati": null, "nombre_pieces_principales": null, "adresse_nom_voie": "LES PEAULIERS", "price_per_sqm": null, "date_iso": "2023-01-06", "parcelle": "77024000YD0050", "addr_num": ""}}, {"type": "Feature", "geometry": {"type": "Point", "coordinates": [3.272711, 48.917316]}, "properties": {"year": 2023, "valeur_fonciere": 350000.0, "type_local": null, "surface_reelle_bati": null, "nombre_pieces_principales": null, "adresse_nom_voie": "LES PEAULIERS", "price_per_sqm": null, "date_iso": "2023-01-06", "parcelle": "77024000YD0051", "addr_num": ""}}, {"type": "Feature", "geometry": {"type": "Point", "coordinates": [3.272873, 48.917406]}, "properties": {"year": 2023, "valeur_fonciere": 350000.0, "type_local": null, "surface_reelle_bati": null, "nombre_pieces_principales": null, "adresse_nom_voie": "LES PEAULIERS", "price_per_sqm": null, "date_iso": "2023-01-06", "parcelle": "77024000YD0052", "addr_num": ""}}, {"type": "Feature", "geometry": {"type": "Point", "coordinates": [3.272581, 48.917688]}, "properties": {"year": 2023, "valeur_fonciere": 350000.0, "type_local": null, "surface_reelle_bati": null, "nombre_pieces_principales": null, "adresse_nom_voie": "LES PEAULIERS", "price_per_sqm": null, "date_iso": "2023-01-06", "parcelle": "77024000YD0053", "addr_num": ""}}, {"type": "Feature", "geometry": {"type": "Point", "coordinates": [3.27245, 48.917643]}, "properties": {"year": 2023, "valeur_fonciere": 350000.0, "type_local": null, "surface_reelle_bati": null, "nombre_pieces_principales": null, "adresse_nom_voie": "LES PEAULIERS", "price_per_sqm": null, "date_iso": "2023-01-06", "parcelle": "77024000YD0087", "addr_num": ""}}, {"type": "Feature", "geometry": {"type": "Point", "coordinates": [3.272432, 48.917418]}, "properties": {"year": 2023, "valeur_fonciere": 350000.0, "type_local": "Dépendance", "surface_reelle_bati": null, "nombre_pieces_principales": 0.0, "adresse_nom_voie": "LES PEAULIERS", "price_per_sqm": null, "date_iso": "2023-01-06", "parcelle": "77024000YD0088", "addr_num": "5106"}}, {"type": "Feature", "geometry": {"type": "Point", "coordinates": [3.272432, 48.917418]}, "properties": {"year": 2023, "valeur_fonciere": 350000.0, "type_local": "Maison", "surface_reelle_bati": 250.0, "nombre_pieces_principales": 5.0, "adresse_nom_voie": "LES PEAULIERS", "price_per_sqm": 1400.0, "date_iso": "2023-01-06", "parcelle": "77024000YD0088", "addr_num": "5106"}}, {"type": "Feature", "geometry": {"type": "Point", "coordinates": [3.272432, 48.917418]}, "properties": {"year": 2023, "valeur_fonciere": 350000.0, "type_local": "Dépendance", "surface_reelle_bati": null, "nombre_pieces_principales": 0.0, "adresse_nom_voie": "LES PEAULIERS", "price_per_sqm": null, "date_iso": "2023-01-06", "parcelle": "77024000YD0088", "addr_num": "5106"}}, {"type": "Feature", "geometry": {"type": "Point", "coordinates": [3.272448, 48.91721]}, "properties": {"year": 2023, "valeur_fonciere": 350000.0, "type_local": null, "surface_reelle_bati": null, "nombre_pieces_principales": null, "adresse_nom_voie": "LES PEAULIERS", "price_per_sqm": null, "date_iso": "2023-01-06", "parcelle": "77024000YD0090", "addr_num": ""}}, {"type": "Feature", "geometry": {"type": "Point", "coordinates": [3.296528, 48.904704]}, "properties": {"year": 2023, "valeur_fonciere": 446183.66, "type_local": null, "surface_reelle_bati": null, "nombre_pieces_principales": null, "adresse_nom_voie": "LE MESNIL", "price_per_sqm": null, "date_iso": "2023-04-11", "parcelle": "77024000YK0011", "addr_num": ""}}, {"type": "Feature", "geometry": {"type": "Point", "coordinates": [3.295078, 48.906489]}, "properties": {"year": 2023, "valeur_fonciere": 446183.66, "type_local": null, "surface_reelle_bati": null, "nombre_pieces_principales": null, "adresse_nom_voie": "LE MESNIL", "price_per_sqm": null, "date_iso": "2023-04-11", "parcelle": "77024000YK0014", "addr_num": ""}}, {"type": "Feature", "geometry": {"type": "Point", "coordinates": [3.281587, 48.925549]}, "properties": {"year": 2023, "valeur_fonciere": 28280.0, "type_local": null, "surface_reelle_bati": null, "nombre_pieces_principales": null, "adresse_nom_voie": "LA RIGOLE", "price_per_sqm": null, "date_iso": "2023-06-03", "parcelle": "77024000YB0040", "addr_num": ""}}, {"type": "Feature", "geometry": {"type": "Point", "coordinates": [3.281587, 48.925549]}, "properties": {"year": 2023, "valeur_fonciere": 28280.0, "type_local": null, "surface_reelle_bati": null, "nombre_pieces_principales": null, "adresse_nom_voie": "LA RIGOLE", "price_per_sqm": null, "date_iso": "2023-06-03", "parcelle": "77024000YB0040", "addr_num": ""}}, {"type": "Feature", "geometry": {"type": "Point", "coordinates": [3.277168, 48.925815]}, "properties": {"year": 2023, "valeur_fonciere": 60000.0, "type_local": null, "surface_reelle_bati": null, "nombre_pieces_principales": null, "adresse_nom_voie": "LE PETIT BASSEVELLE", "price_per_sqm": null, "date_iso": "2023-09-20", "parcelle": "77024000YB0186", "addr_num": ""}}, {"type": "Feature", "geometry": {"type": "Point", "coordinates": [3.277117, 48.92567]}, "properties": {"year": 2023, "valeur_fonciere": 50000.0, "type_local": null, "surface_reelle_bati": null, "nombre_pieces_principales": null, "adresse_nom_voie": "LE PETIT BASSEVELLE", "price_per_sqm": null, "date_iso": "2023-09-30", "parcelle": "77024000YB0187", "addr_num": ""}}, {"type": "Feature", "geometry": {"type": "Point", "coordinates": [3.27638, 48.926002]}, "properties": {"year": 2024, "valeur_fonciere": 2000.0, "type_local": null, "surface_reelle_bati": null, "nombre_pieces_principales": null, "adresse_nom_voie": "RUE DU FOYER", "price_per_sqm": null, "date_iso": "2024-04-09", "parcelle": "77024000YB0184", "addr_num": ""}}, {"type": "Feature", "geometry": {"type": "Point", "coordinates": [3.276454, 48.926066]}, "properties": {"year": 2024, "valeur_fonciere": 2000.0, "type_local": null, "surface_reelle_bati": null, "nombre_pieces_principales": null, "adresse_nom_voie": "RUE DU FOYER", "price_per_sqm": null, "date_iso": "2024-04-09", "parcelle": "77024000YB0189", "addr_num": ""}}, {"type": "Feature", "geometry": {"type": "Point", "coordinates": [3.270341, 48.936034]}, "properties": {"year": 2024, "valeur_fonciere": 345.0, "type_local": null, "surface_reelle_bati": null, "nombre_pieces_principales": null, "adresse_nom_voie": "L ORME DE LA NOUE", "price_per_sqm": null, "date_iso": "2024-03-28", "parcelle": "77024000YL0034", "addr_num": ""}}, {"type": "Feature", "geometry": {"type": "Point", "coordinates": [3.277688, 48.926224]}, "properties": {"year": 2024, "valeur_fonciere": 260000.0, "type_local": null, "surface_reelle_bati": null, "nombre_pieces_principales": null, "adresse_nom_voie": "LES BOUVIERS", "price_per_sqm": null, "date_iso": "2024-06-28", "parcelle": "77024000YB0022", "addr_num": ""}}, {"type": "Feature", "geometry": {"type": "Point", "coordinates": [3.277879, 48.926392]}, "properties": {"year": 2024, "valeur_fonciere": 260000.0, "type_local": null, "surface_reelle_bati": null, "nombre_pieces_principales": null, "adresse_nom_voie": "LES BOUVIERS", "price_per_sqm": null, "date_iso": "2024-06-28", "parcelle": "77024000YB0051", "addr_num": ""}}, {"type": "Feature", "geometry": {"type": "Point", "coordinates": [3.278154, 48.926188]}, "properties": {"year": 2024, "valeur_fonciere": 260000.0, "type_local": "Dépendance", "surface_reelle_bati": null, "nombre_pieces_principales": 0.0, "adresse_nom_voie": "RUE DU FOYER", "price_per_sqm": null, "date_iso": "2024-06-28", "parcelle": "77024000YB0095", "addr_num": "217"}}, {"type": "Feature", "geometry": {"type": "Point", "coordinates": [3.278154, 48.926188]}, "properties": {"year": 2024, "valeur_fonciere": 260000.0, "type_local": "Dépendance", "surface_reelle_bati": null, "nombre_pieces_principales": 0.0, "adresse_nom_voie": "RUE DU FOYER", "price_per_sqm": null, "date_iso": "2024-06-28", "parcelle": "77024000YB0095", "addr_num": "217"}}, {"type": "Feature", "geometry": {"type": "Point", "coordinates": [3.278154, 48.926188]}, "properties": {"year": 2024, "valeur_fonciere": 260000.0, "type_local": "Dépendance", "surface_reelle_bati": null, "nombre_pieces_principales": 0.0, "adresse_nom_voie": "RUE DU FOYER", "price_per_sqm": null, "date_iso": "2024-06-28", "parcelle": "77024000YB0095", "addr_num": "217"}}, {"type": "Feature", "geometry": {"type": "Point", "coordinates": [3.278154, 48.926188]}, "properties": {"year": 2024, "valeur_fonciere": 260000.0, "type_local": "Dépendance", "surface_reelle_bati": null, "nombre_pieces_principales": 0.0, "adresse_nom_voie": "RUE DU FOYER", "price_per_sqm": null, "date_iso": "2024-06-28", "parcelle": "77024000YB0095", "addr_num": "217"}}, {"type": "Feature", "geometry": {"type": "Point", "coordinates": [3.278154, 48.926188]}, "properties": {"year": 2024, "valeur_fonciere": 260000.0, "type_local": "Dépendance", "surface_reelle_bati": null, "nombre_pieces_principales": 0.0, "adresse_nom_voie": "RUE DU FOYER", "price_per_sqm": null, "date_iso": "2024-06-28", "parcelle": "77024000YB0095", "addr_num": "217"}}, {"type": "Feature", "geometry": {"type": "Point", "coordinates": [3.278154, 48.926188]}, "properties": {"year": 2024, "valeur_fonciere": 260000.0, "type_local": "Maison", "surface_reelle_bati": 268.0, "nombre_pieces_principales": 6.0, "adresse_nom_voie": "RUE DU FOYER", "price_per_sqm": 970.1492537313433, "date_iso": "2024-06-28", "parcelle": "77024000YB0095", "addr_num": "217"}}, {"type": "Feature", "geometry": {"type": "Point", "coordinates": [3.278154, 48.926188]}, "properties": {"year": 2024, "valeur_fonciere": 260000.0, "type_local": "Maison", "surface_reelle_bati": 268.0, "nombre_pieces_principales": 6.0, "adresse_nom_voie": "RUE DU FOYER", "price_per_sqm": 970.1492537313433, "date_iso": "2024-06-28", "parcelle": "77024000YB0095", "addr_num": "217"}}, {"type": "Feature", "geometry": {"type": "Point", "coordinates": [3.278154, 48.926188]}, "properties": {"year": 2024, "valeur_fonciere": 260000.0, "type_local": "Dépendance", "surface_reelle_bati": null, "nombre_pieces_principales": 0.0, "adresse_nom_voie": "RUE DU FOYER", "price_per_sqm": null, "date_iso": "2024-06-28", "parcelle": "77024000YB0095", "addr_num": "217"}}, {"type": "Feature", "geometry": {"type": "Point", "coordinates": [3.275777, 48.925551]}, "properties": {"year": 2024, "valeur_fonciere": 10000.0, "type_local": null, "surface_reelle_bati": null, "nombre_pieces_principales": null, "adresse_nom_voie": "LE PETIT BASSEVELLE", "price_per_sqm": null, "date_iso": "2024-10-07", "parcelle": "77024000YB0122", "addr_num": ""}}, {"type": "Feature", "geometry": {"type": "Point", "coordinates": [3.268762, 48.922316]}, "properties": {"year": 2024, "valeur_fonciere": 500.0, "type_local": null, "surface_reelle_bati": null, "nombre_pieces_principales": null, "adresse_nom_voie": "LES FORGES", "price_per_sqm": null, "date_iso": "2024-10-04", "parcelle": "77024000YC0009", "addr_num": ""}}, {"type": "Feature", "geometry": {"type": "Point", "coordinates": [3.268762, 48.922316]}, "properties": {"year": 2024, "valeur_fonciere": 500.0, "type_local": null, "surface_reelle_bati": null, "nombre_pieces_principales": null, "adresse_nom_voie": "LES FORGES", "price_per_sqm": null, "date_iso": "2024-10-04", "parcelle": "77024000YC0009", "addr_num": ""}}, {"type": "Feature", "geometry": {"type": "Point", "coordinates": [3.274521, 48.918688]}, "properties": {"year": 2024, "valeur_fonciere": 10.0, "type_local": null, "surface_reelle_bati": null, "nombre_pieces_principales": null, "adresse_nom_voie": "RTE DE MONTMIRAIL", "price_per_sqm": null, "date_iso": "2024-10-15", "parcelle": "77024000YD0121", "addr_num": ""}}, {"type": "Feature", "geometry": {"type": "Point", "coordinates": [3.296871, 48.93314]}, "properties": {"year": 2024, "valeur_fonciere": 4930.0, "type_local": null, "surface_reelle_bati": null, "nombre_pieces_principales": null, "adresse_nom_voie": "LES MOUSSEAUX", "price_per_sqm": null, "date_iso": "2024-11-05", "parcelle": "770240000B0300", "addr_num": ""}}, {"type": "Feature", "geometry": {"type": "Point", "coordinates": [3.246601, 48.905915]}, "properties": {"year": 2024, "valeur_fonciere": 25000.0, "type_local": null, "surface_reelle_bati": null, "nombre_pieces_principales": null, "adresse_nom_voie": "LE CHENE MADAME", "price_per_sqm": null, "date_iso": "2024-12-18", "parcelle": "770240000D0338", "addr_num": ""}}, {"type": "Feature", "geometry": {"type": "Point", "coordinates": [3.24612, 48.906642]}, "properties": {"year": 2024, "valeur_fonciere": 25000.0, "type_local": null, "surface_reelle_bati": null, "nombre_pieces_principales": null, "adresse_nom_voie": "SOUS LE CHENE MADAME", "price_per_sqm": null, "date_iso": "2024-12-18", "parcelle": "770240000D0378", "addr_num": ""}}, {"type": "Feature", "geometry": {"type": "Point", "coordinates": [3.2898, 48.935699]}, "properties": {"year": 2025, "valeur_fonciere": 10000.0, "type_local": null, "surface_reelle_bati": null, "nombre_pieces_principales": null, "adresse_nom_voie": "FROMENTIERES", "price_per_sqm": null, "date_iso": "2025-02-27", "parcelle": "770240000B0320", "addr_num": ""}}, {"type": "Feature", "geometry": {"type": "Point", "coordinates": [3.289884, 48.936249]}, "properties": {"year": 2025, "valeur_fonciere": 10000.0, "type_local": null, "surface_reelle_bati": null, "nombre_pieces_principales": null, "adresse_nom_voie": "FROMENTIERES", "price_per_sqm": null, "date_iso": "2025-02-27", "parcelle": "770240000B0322", "addr_num": ""}}, {"type": "Feature", "geometry": {"type": "Point", "coordinates": [3.289831, 48.936514]}, "properties": {"year": 2025, "valeur_fonciere": 10000.0, "type_local": null, "surface_reelle_bati": null, "nombre_pieces_principales": null, "adresse_nom_voie": "FROMENTIERES", "price_per_sqm": null, "date_iso": "2025-02-27", "parcelle": "770240000B0324", "addr_num": ""}}, {"type": "Feature", "geometry": {"type": "Point", "coordinates": [3.277353, 48.918766]}, "properties": {"year": 2025, "valeur_fonciere": 2220.0, "type_local": null, "surface_reelle_bati": null, "nombre_pieces_principales": null, "adresse_nom_voie": "MONTPLAISIR", "price_per_sqm": null, "date_iso": "2025-04-17", "parcelle": "770240000A0451", "addr_num": ""}}, {"type": "Feature", "geometry": {"type": "Point", "coordinates": [3.251693, 48.913038]}, "properties": {"year": 2025, "valeur_fonciere": 2205.0, "type_local": null, "surface_reelle_bati": null, "nombre_pieces_principales": null, "adresse_nom_voie": "LA COUR DES HAUTS BOIS", "price_per_sqm": null, "date_iso": "2025-06-18", "parcelle": "770240000D0311", "addr_num": ""}}, {"type": "Feature", "geometry": {"type": "Point", "coordinates": [3.287061, 48.926583]}, "properties": {"year": 2025, "valeur_fonciere": 275000.0, "type_local": "Dépendance", "surface_reelle_bati": null, "nombre_pieces_principales": 0.0, "adresse_nom_voie": "RUE DE NOGENT L ARTAUD", "price_per_sqm": null, "date_iso": "2025-06-18", "parcelle": "770240000B0280", "addr_num": "677"}}, {"type": "Feature", "geometry": {"type": "Point", "coordinates": [3.287061, 48.926583]}, "properties": {"year": 2025, "valeur_fonciere": 275000.0, "type_local": "Maison", "surface_reelle_bati": 126.0, "nombre_pieces_principales": 5.0, "adresse_nom_voie": "RUE DE NOGENT L ARTAUD", "price_per_sqm": 2182.5396825396824, "date_iso": "2025-06-18", "parcelle": "770240000B0280", "addr_num": "677"}}, {"type": "Feature", "geometry": {"type": "Point", "coordinates": [3.287061, 48.926583]}, "properties": {"year": 2025, "valeur_fonciere": 275000.0, "type_local": "Dépendance", "surface_reelle_bati": null, "nombre_pieces_principales": 0.0, "adresse_nom_voie": "RUE DE NOGENT L ARTAUD", "price_per_sqm": null, "date_iso": "2025-06-18", "parcelle": "770240000B0280", "addr_num": "677"}}, {"type": "Feature", "geometry": {"type": "Point", "coordinates": [3.287061, 48.926583]}, "properties": {"year": 2025, "valeur_fonciere": 275000.0, "type_local": "Dépendance", "surface_reelle_bati": null, "nombre_pieces_principales": 0.0, "adresse_nom_voie": "RUE DE NOGENT L ARTAUD", "price_per_sqm": null, "date_iso": "2025-06-18", "parcelle": "770240000B0280", "addr_num": "677"}}, {"type": "Feature", "geometry": {"type": "Point", "coordinates": [3.287061, 48.926583]}, "properties": {"year": 2025, "valeur_fonciere": 275000.0, "type_local": "Dépendance", "surface_reelle_bati": null, "nombre_pieces_principales": 0.0, "adresse_nom_voie": "RUE DE NOGENT L ARTAUD", "price_per_sqm": null, "date_iso": "2025-06-18", "parcelle": "770240000B0280", "addr_num": "677"}}, {"type": "Feature", "geometry": {"type": "Point", "coordinates": [3.287061, 48.926583]}, "properties": {"year": 2025, "valeur_fonciere": 275000.0, "type_local": "Maison", "surface_reelle_bati": 126.0, "nombre_pieces_principales": 5.0, "adresse_nom_voie": "RUE DE NOGENT L ARTAUD", "price_per_sqm": 2182.5396825396824, "date_iso": "2025-06-18", "parcelle": "770240000B0280", "addr_num": "677"}}, {"type": "Feature", "geometry": {"type": "Point", "coordinates": [3.287061, 48.926583]}, "properties": {"year": 2025, "valeur_fonciere": 275000.0, "type_local": "Dépendance", "surface_reelle_bati": null, "nombre_pieces_principales": 0.0, "adresse_nom_voie": "RUE DE NOGENT L ARTAUD", "price_per_sqm": null, "date_iso": "2025-06-18", "parcelle": "770240000B0280", "addr_num": "677"}}, {"type": "Feature", "geometry": {"type": "Point", "coordinates": [3.287061, 48.926583]}, "properties": {"year": 2025, "valeur_fonciere": 275000.0, "type_local": "Dépendance", "surface_reelle_bati": null, "nombre_pieces_principales": 0.0, "adresse_nom_voie": "RUE DE NOGENT L ARTAUD", "price_per_sqm": null, "date_iso": "2025-06-18", "parcelle": "770240000B0280", "addr_num": "677"}}, {"type": "Feature", "geometry": {"type": "Point", "coordinates": [3.276284, 48.925937]}, "properties": {"year": 2025, "valeur_fonciere": 50000.0, "type_local": null, "surface_reelle_bati": null, "nombre_pieces_principales": null, "adresse_nom_voie": "RUE DU FOYER", "price_per_sqm": null, "date_iso": "2025-07-09", "parcelle": "77024000YB0182", "addr_num": ""}}, {"type": "Feature", "geometry": {"type": "Point", "coordinates": [3.27638, 48.926002]}, "properties": {"year": 2025, "valeur_fonciere": 50000.0, "type_local": null, "surface_reelle_bati": null, "nombre_pieces_principales": null, "adresse_nom_voie": "RUE DU FOYER", "price_per_sqm": null, "date_iso": "2025-07-09", "parcelle": "77024000YB0184", "addr_num": ""}}]}