{"type": "FeatureCollection", "features": [{"type": "Feature", "geometry": {"type": "Point", "coordinates": [2.970833, 48.509095]}, "properties": {"year": 2021, "valeur_fonciere": 332000.0, "type_local": "Maison", "surface_reelle_bati": 132.0, "nombre_pieces_principales": 4.0, "adresse_nom_voie": "RUE DU MINOTIER", "price_per_sqm": 2515.151515151515, "date_iso": "2021-09-17", "parcelle": "77089000ZD0079", "addr_num": "11"}}, {"type": "Feature", "geometry": {"type": "Point", "coordinates": [2.970833, 48.509095]}, "properties": {"year": 2021, "valeur_fonciere": 332000.0, "type_local": "Maison", "surface_reelle_bati": 132.0, "nombre_pieces_principales": 4.0, "adresse_nom_voie": "RUE DU MINOTIER", "price_per_sqm": 2515.151515151515, "date_iso": "2021-09-17", "parcelle": "77089000ZD0079", "addr_num": "11"}}, {"type": "Feature", "geometry": {"type": "Point", "coordinates": [2.973639, 48.510428]}, "properties": {"year": 2021, "valeur_fonciere": 90000.0, "type_local": null, "surface_reelle_bati": null, "nombre_pieces_principales": null, "adresse_nom_voie": "LA CHAPELLE", "price_per_sqm": null, "date_iso": "2021-09-27", "parcelle": "770890000B0333", "addr_num": ""}}, {"type": "Feature", "geometry": {"type": "Point", "coordinates": [2.972983, 48.510245]}, "properties": {"year": 2021, "valeur_fonciere": 90000.0, "type_local": null, "surface_reelle_bati": null, "nombre_pieces_principales": null, "adresse_nom_voie": "LA CHAPELLE", "price_per_sqm": null, "date_iso": "2021-09-27", "parcelle": "770890000B0334", "addr_num": ""}}, {"type": "Feature", "geometry": {"type": "Point", "coordinates": [2.9699, 48.507754]}, "properties": {"year": 2021, "valeur_fonciere": 3000.0, "type_local": null, "surface_reelle_bati": null, "nombre_pieces_principales": null, "adresse_nom_voie": "LE MOULIN A VENT", "price_per_sqm": null, "date_iso": "2021-11-22", "parcelle": "77089000ZD0012", "addr_num": ""}}, {"type": "Feature", "geometry": {"type": "Point", "coordinates": [2.9699, 48.507754]}, "properties": {"year": 2021, "valeur_fonciere": 3000.0, "type_local": null, "surface_reelle_bati": null, "nombre_pieces_principales": null, "adresse_nom_voie": "LE MOULIN A VENT", "price_per_sqm": null, "date_iso": "2021-11-22", "parcelle": "77089000ZD0012", "addr_num": ""}}, {"type": "Feature", "geometry": {"type": "Point", "coordinates": [2.9699, 48.507754]}, "properties": {"year": 2021, "valeur_fonciere": 3000.0, "type_local": null, "surface_reelle_bati": null, "nombre_pieces_principales": null, "adresse_nom_voie": "LE MOULIN A VENT", "price_per_sqm": null, "date_iso": "2021-11-22", "parcelle": "77089000ZD0012", "addr_num": ""}}, {"type": "Feature", "geometry": {"type": "Point", "coordinates": [2.972412, 48.512557]}, "properties": {"year": 2021, "valeur_fonciere": 225000.0, "type_local": "Maison", "surface_reelle_bati": 87.0, "nombre_pieces_principales": 5.0, "adresse_nom_voie": "RUE DES MOULINEAUX", "price_per_sqm": 2586.206896551724, "date_iso": "2021-11-23", "parcelle": "770890000B0332", "addr_num": "4"}}, {"type": "Feature", "geometry": {"type": "Point", "coordinates": [2.972412, 48.512557]}, "properties": {"year": 2021, "valeur_fonciere": 225000.0, "type_local": "Maison", "surface_reelle_bati": 87.0, "nombre_pieces_principales": 5.0, "adresse_nom_voie": "RUE DES MOULINEAUX", "price_per_sqm": 2586.206896551724, "date_iso": "2021-11-23", "parcelle": "770890000B0332", "addr_num": "4"}}, {"type": "Feature", "geometry": {"type": "Point", "coordinates": [2.972412, 48.512557]}, "properties": {"year": 2021, "valeur_fonciere": 225000.0, "type_local": "Dépendance", "surface_reelle_bati": null, "nombre_pieces_principales": 0.0, "adresse_nom_voie": "RUE DES MOULINEAUX", "price_per_sqm": null, "date_iso": "2021-11-23", "parcelle": "770890000B0332", "addr_num": "4"}}, {"type": "Feature", "geometry": {"type": "Point", "coordinates": [2.972412, 48.512557]}, "properties": {"year": 2021, "valeur_fonciere": 225000.0, "type_local": "Dépendance", "surface_reelle_bati": null, "nombre_pieces_principales": 0.0, "adresse_nom_voie": "RUE DES MOULINEAUX", "price_per_sqm": null, "date_iso": "2021-11-23", "parcelle": "770890000B0332", "addr_num": "4"}}, {"type": "Feature", "geometry": {"type": "Point", "coordinates": [2.973071, 48.512583]}, "properties": {"year": 2021, "valeur_fonciere": 225000.0, "type_local": null, "surface_reelle_bati": null, "nombre_pieces_principales": null, "adresse_nom_voie": "LES HALLES", "price_per_sqm": null, "date_iso": "2021-11-23", "parcelle": "77089000ZD0035", "addr_num": ""}}, {"type": "Feature", "geometry": {"type": "Point", "coordinates": [2.972412, 48.512557]}, "properties": {"year": 2021, "valeur_fonciere": 105000.0, "type_local": "Maison", "surface_reelle_bati": 87.0, "nombre_pieces_principales": 5.0, "adresse_nom_voie": "RUE DES MOULINEAUX", "price_per_sqm": 1206.896551724138, "date_iso": "2021-11-23", "parcelle": "770890000B0332", "addr_num": "4"}}, {"type": "Feature", "geometry": {"type": "Point", "coordinates": [2.972412, 48.512557]}, "properties": {"year": 2021, "valeur_fonciere": 105000.0, "type_local": "Dépendance", "surface_reelle_bati": null, "nombre_pieces_principales": 0.0, "adresse_nom_voie": "RUE DES MOULINEAUX", "price_per_sqm": null, "date_iso": "2021-11-23", "parcelle": "770890000B0332", "addr_num": "4"}}, {"type": "Feature", "geometry": {"type": "Point", "coordinates": [2.972412, 48.512557]}, "properties": {"year": 2021, "valeur_fonciere": 105000.0, "type_local": "Dépendance", "surface_reelle_bati": null, "nombre_pieces_principales": 0.0, "adresse_nom_voie": "RUE DES MOULINEAUX", "price_per_sqm": null, "date_iso": "2021-11-23", "parcelle": "770890000B0332", "addr_num": "4"}}, {"type": "Feature", "geometry": {"type": "Point", "coordinates": [2.972412, 48.512557]}, "properties": {"year": 2021, "valeur_fonciere": 105000.0, "type_local": "Maison", "surface_reelle_bati": 87.0, "nombre_pieces_principales": 5.0, "adresse_nom_voie": "RUE DES MOULINEAUX", "price_per_sqm": 1206.896551724138, "date_iso": "2021-11-23", "parcelle": "770890000B0332", "addr_num": "4"}}, {"type": "Feature", "geometry": {"type": "Point", "coordinates": [2.973071, 48.512583]}, "properties": {"year": 2021, "valeur_fonciere": 105000.0, "type_local": null, "surface_reelle_bati": null, "nombre_pieces_principales": null, "adresse_nom_voie": "LES HALLES", "price_per_sqm": null, "date_iso": "2021-11-23", "parcelle": "77089000ZD0035", "addr_num": ""}}, {"type": "Feature", "geometry": {"type": "Point", "coordinates": [2.940289, 48.509971]}, "properties": {"year": 2021, "valeur_fonciere": 215000.0, "type_local": "Maison", "surface_reelle_bati": 152.0, "nombre_pieces_principales": 4.0, "adresse_nom_voie": "RUE DU BOIS CHAPELLE", "price_per_sqm": 1414.4736842105262, "date_iso": "2021-12-03", "parcelle": "770890000A0264", "addr_num": "54"}}, {"type": "Feature", "geometry": {"type": "Point", "coordinates": [2.940283, 48.510088]}, "properties": {"year": 2021, "valeur_fonciere": 215000.0, "type_local": null, "surface_reelle_bati": null, "nombre_pieces_principales": null, "adresse_nom_voie": "LES MONTILS", "price_per_sqm": null, "date_iso": "2021-12-03", "parcelle": "770890000A0579", "addr_num": ""}}, {"type": "Feature", "geometry": {"type": "Point", "coordinates": [2.938097, 48.511543]}, "properties": {"year": 2021, "valeur_fonciere": 178000.0, "type_local": "Maison", "surface_reelle_bati": 89.0, "nombre_pieces_principales": 4.0, "adresse_nom_voie": "RUE DU BOIS CHAPELLE", "price_per_sqm": 2000.0, "date_iso": "2021-12-16", "parcelle": "77089000ZA0070", "addr_num": "74"}}, {"type": "Feature", "geometry": {"type": "Point", "coordinates": [2.937865, 48.51151]}, "properties": {"year": 2021, "valeur_fonciere": 178000.0, "type_local": null, "surface_reelle_bati": null, "nombre_pieces_principales": null, "adresse_nom_voie": "LA FONTAINE DU TONNEAU", "price_per_sqm": null, "date_iso": "2021-12-16", "parcelle": "77089000ZA0072", "addr_num": ""}}, {"type": "Feature", "geometry": {"type": "Point", "coordinates": [2.972596, 48.509323]}, "properties": {"year": 2021, "valeur_fonciere": 130000.0, "type_local": "Maison", "surface_reelle_bati": 50.0, "nombre_pieces_principales": 3.0, "adresse_nom_voie": "RTE DE COUTENCON", "price_per_sqm": 2600.0, "date_iso": "2021-12-07", "parcelle": "770890000B0268", "addr_num": "9"}}, {"type": "Feature", "geometry": {"type": "Point", "coordinates": [2.972596, 48.509323]}, "properties": {"year": 2021, "valeur_fonciere": 130000.0, "type_local": "Maison", "surface_reelle_bati": 50.0, "nombre_pieces_principales": 3.0, "adresse_nom_voie": "RTE DE COUTENCON", "price_per_sqm": 2600.0, "date_iso": "2021-12-07", "parcelle": "770890000B0268", "addr_num": "9"}}, {"type": "Feature", "geometry": {"type": "Point", "coordinates": [2.948824, 48.508171]}, "properties": {"year": 2021, "valeur_fonciere": 150000.0, "type_local": null, "surface_reelle_bati": null, "nombre_pieces_principales": null, "adresse_nom_voie": "LES MONTILS", "price_per_sqm": null, "date_iso": "2021-03-29", "parcelle": "770890000A0338", "addr_num": ""}}, {"type": "Feature", "geometry": {"type": "Point", "coordinates": [2.94885, 48.508072]}, "properties": {"year": 2021, "valeur_fonciere": 150000.0, "type_local": null, "surface_reelle_bati": null, "nombre_pieces_principales": null, "adresse_nom_voie": "LES MONTILS", "price_per_sqm": null, "date_iso": "2021-03-29", "parcelle": "770890000A0394", "addr_num": ""}}, {"type": "Feature", "geometry": {"type": "Point", "coordinates": [2.94886, 48.507979]}, "properties": {"year": 2021, "valeur_fonciere": 150000.0, "type_local": "Maison", "surface_reelle_bati": 63.0, "nombre_pieces_principales": 3.0, "adresse_nom_voie": "RUE DES VIEUX PRES", "price_per_sqm": 2380.9523809523807, "date_iso": "2021-03-29", "parcelle": "770890000A0625", "addr_num": "17"}}, {"type": "Feature", "geometry": {"type": "Point", "coordinates": [2.94879, 48.508011]}, "properties": {"year": 2021, "valeur_fonciere": 150000.0, "type_local": null, "surface_reelle_bati": null, "nombre_pieces_principales": null, "adresse_nom_voie": "LES MONTILS", "price_per_sqm": null, "date_iso": "2021-03-29", "parcelle": "770890000A0626", "addr_num": ""}}, {"type": "Feature", "geometry": {"type": "Point", "coordinates": [2.94889, 48.508025]}, "properties": {"year": 2021, "valeur_fonciere": 150000.0, "type_local": null, "surface_reelle_bati": null, "nombre_pieces_principales": null, "adresse_nom_voie": "LES MONTILS", "price_per_sqm": null, "date_iso": "2021-03-29", "parcelle": "770890000A0628", "addr_num": ""}}, {"type": "Feature", "geometry": {"type": "Point", "coordinates": [2.950807, 48.508527]}, "properties": {"year": 2021, "valeur_fonciere": 14990.0, "type_local": null, "surface_reelle_bati": null, "nombre_pieces_principales": null, "adresse_nom_voie": "SUR LES MONTILS", "price_per_sqm": null, "date_iso": "2021-04-12", "parcelle": "77089000ZB0006", "addr_num": ""}}, {"type": "Feature", "geometry": {"type": "Point", "coordinates": [2.970163, 48.509861]}, "properties": {"year": 2021, "valeur_fonciere": 316000.0, "type_local": "Maison", "surface_reelle_bati": 150.0, "nombre_pieces_principales": 7.0, "adresse_nom_voie": "RUE DU BOIS DE L ILE", "price_per_sqm": 2106.6666666666665, "date_iso": "2021-05-19", "parcelle": "770890000B0250", "addr_num": "3"}}, {"type": "Feature", "geometry": {"type": "Point", "coordinates": [2.970163, 48.509861]}, "properties": {"year": 2021, "valeur_fonciere": 316000.0, "type_local": "Dépendance", "surface_reelle_bati": null, "nombre_pieces_principales": 0.0, "adresse_nom_voie": "RUE DU BOIS DE L ILE", "price_per_sqm": null, "date_iso": "2021-05-19", "parcelle": "770890000B0250", "addr_num": "3"}}, {"type": "Feature", "geometry": {"type": "Point", "coordinates": [2.970163, 48.509861]}, "properties": {"year": 2021, "valeur_fonciere": 316000.0, "type_local": "Maison", "surface_reelle_bati": 150.0, "nombre_pieces_principales": 7.0, "adresse_nom_voie": "RUE DU BOIS DE L ILE", "price_per_sqm": 2106.6666666666665, "date_iso": "2021-05-19", "parcelle": "770890000B0250", "addr_num": "3"}}, {"type": "Feature", "geometry": {"type": "Point", "coordinates": [2.970163, 48.509861]}, "properties": {"year": 2021, "valeur_fonciere": 316000.0, "type_local": "Dépendance", "surface_reelle_bati": null, "nombre_pieces_principales": 0.0, "adresse_nom_voie": "RUE DU BOIS DE L ILE", "price_per_sqm": null, "date_iso": "2021-05-19", "parcelle": "770890000B0250", "addr_num": "3"}}, {"type": "Feature", "geometry": {"type": "Point", "coordinates": [2.970163, 48.509861]}, "properties": {"year": 2021, "valeur_fonciere": 316000.0, "type_local": "Dépendance", "surface_reelle_bati": null, "nombre_pieces_principales": 0.0, "adresse_nom_voie": "RUE DU BOIS DE L ILE", "price_per_sqm": null, "date_iso": "2021-05-19", "parcelle": "770890000B0250", "addr_num": "3"}}, {"type": "Feature", "geometry": {"type": "Point", "coordinates": [2.970163, 48.509861]}, "properties": {"year": 2021, "valeur_fonciere": 316000.0, "type_local": "Dépendance", "surface_reelle_bati": null, "nombre_pieces_principales": 0.0, "adresse_nom_voie": "RUE DU BOIS DE L ILE", "price_per_sqm": null, "date_iso": "2021-05-19", "parcelle": "770890000B0250", "addr_num": "3"}}, {"type": "Feature", "geometry": {"type": "Point", "coordinates": [2.970695, 48.510935]}, "properties": {"year": 2021, "valeur_fonciere": 78500.0, "type_local": "Maison", "surface_reelle_bati": 86.0, "nombre_pieces_principales": 3.0, "adresse_nom_voie": "RUE DU RELAIS", "price_per_sqm": 912.7906976744187, "date_iso": "2021-07-02", "parcelle": "770890000B0575", "addr_num": "10"}}, {"type": "Feature", "geometry": {"type": "Point", "coordinates": [2.971361, 48.509137]}, "properties": {"year": 2021, "valeur_fonciere": 212000.0, "type_local": "Dépendance", "surface_reelle_bati": null, "nombre_pieces_principales": 0.0, "adresse_nom_voie": "RTE DE COUTENCON", "price_per_sqm": null, "date_iso": "2021-07-09", "parcelle": "77089000ZD0007", "addr_num": "10"}}, {"type": "Feature", "geometry": {"type": "Point", "coordinates": [2.971361, 48.509137]}, "properties": {"year": 2021, "valeur_fonciere": 212000.0, "type_local": "Maison", "surface_reelle_bati": 85.0, "nombre_pieces_principales": 4.0, "adresse_nom_voie": "RTE DE COUTENCON", "price_per_sqm": 2494.1176470588234, "date_iso": "2021-07-09", "parcelle": "77089000ZD0007", "addr_num": "10"}}, {"type": "Feature", "geometry": {"type": "Point", "coordinates": [2.971361, 48.509137]}, "properties": {"year": 2021, "valeur_fonciere": 212000.0, "type_local": "Dépendance", "surface_reelle_bati": null, "nombre_pieces_principales": 0.0, "adresse_nom_voie": "RTE DE COUTENCON", "price_per_sqm": null, "date_iso": "2021-07-09", "parcelle": "77089000ZD0007", "addr_num": "10"}}, {"type": "Feature", "geometry": {"type": "Point", "coordinates": [2.971361, 48.509137]}, "properties": {"year": 2021, "valeur_fonciere": 212000.0, "type_local": "Maison", "surface_reelle_bati": 85.0, "nombre_pieces_principales": 4.0, "adresse_nom_voie": "RTE DE COUTENCON", "price_per_sqm": 2494.1176470588234, "date_iso": "2021-07-09", "parcelle": "77089000ZD0007", "addr_num": "10"}}, {"type": "Feature", "geometry": {"type": "Point", "coordinates": [2.948645, 48.508096]}, "properties": {"year": 2021, "valeur_fonciere": 196000.0, "type_local": null, "surface_reelle_bati": null, "nombre_pieces_principales": null, "adresse_nom_voie": "LES MONTILS", "price_per_sqm": null, "date_iso": "2021-07-09", "parcelle": "770890000A0332", "addr_num": ""}}, {"type": "Feature", "geometry": {"type": "Point", "coordinates": [2.94875, 48.507977]}, "properties": {"year": 2021, "valeur_fonciere": 196000.0, "type_local": "Maison", "surface_reelle_bati": 84.0, "nombre_pieces_principales": 3.0, "adresse_nom_voie": "RUE DES VIEUX PRES", "price_per_sqm": 2333.3333333333335, "date_iso": "2021-07-09", "parcelle": "770890000A0335", "addr_num": "15"}}, {"type": "Feature", "geometry": {"type": "Point", "coordinates": [2.948532, 48.508101]}, "properties": {"year": 2021, "valeur_fonciere": 196000.0, "type_local": "Dépendance", "surface_reelle_bati": null, "nombre_pieces_principales": 0.0, "adresse_nom_voie": "RUE DES VIEUX PRES", "price_per_sqm": null, "date_iso": "2021-07-09", "parcelle": "770890000A0393", "addr_num": "15"}}, {"type": "Feature", "geometry": {"type": "Point", "coordinates": [2.94847, 48.508018]}, "properties": {"year": 2021, "valeur_fonciere": 196000.0, "type_local": null, "surface_reelle_bati": null, "nombre_pieces_principales": null, "adresse_nom_voie": "LES MONTILS", "price_per_sqm": null, "date_iso": "2021-07-09", "parcelle": "770890000A0541", "addr_num": ""}}, {"type": "Feature", "geometry": {"type": "Point", "coordinates": [2.94877, 48.508021]}, "properties": {"year": 2021, "valeur_fonciere": 196000.0, "type_local": null, "surface_reelle_bati": null, "nombre_pieces_principales": null, "adresse_nom_voie": "LES MONTILS", "price_per_sqm": null, "date_iso": "2021-07-09", "parcelle": "770890000A0629", "addr_num": ""}}, {"type": "Feature", "geometry": {"type": "Point", "coordinates": [2.966288, 48.511966]}, "properties": {"year": 2021, "valeur_fonciere": 223000.0, "type_local": "Maison", "surface_reelle_bati": 138.0, "nombre_pieces_principales": 7.0, "adresse_nom_voie": "RUE DE LA CHAUDRONNERIE", "price_per_sqm": 1615.9420289855072, "date_iso": "2021-07-23", "parcelle": "77089000ZB0134", "addr_num": "6"}}, {"type": "Feature", "geometry": {"type": "Point", "coordinates": [2.966288, 48.511966]}, "properties": {"year": 2021, "valeur_fonciere": 223000.0, "type_local": "Dépendance", "surface_reelle_bati": null, "nombre_pieces_principales": 0.0, "adresse_nom_voie": "RUE DE LA CHAUDRONNERIE", "price_per_sqm": null, "date_iso": "2021-07-23", "parcelle": "77089000ZB0134", "addr_num": "6"}}, {"type": "Feature", "geometry": {"type": "Point", "coordinates": [2.966288, 48.511966]}, "properties": {"year": 2021, "valeur_fonciere": 223000.0, "type_local": "Dépendance", "surface_reelle_bati": null, "nombre_pieces_principales": 0.0, "adresse_nom_voie": "RUE DE LA CHAUDRONNERIE", "price_per_sqm": null, "date_iso": "2021-07-23", "parcelle": "77089000ZB0134", "addr_num": "6"}}, {"type": "Feature", "geometry": {"type": "Point", "coordinates": [2.966288, 48.511966]}, "properties": {"year": 2021, "valeur_fonciere": 223000.0, "type_local": "Maison", "surface_reelle_bati": 138.0, "nombre_pieces_principales": 7.0, "adresse_nom_voie": "RUE DE LA CHAUDRONNERIE", "price_per_sqm": 1615.9420289855072, "date_iso": "2021-07-23", "parcelle": "77089000ZB0134", "addr_num": "6"}}, {"type": "Feature", "geometry": {"type": "Point", "coordinates": [2.969462, 48.511305]}, "properties": {"year": 2021, "valeur_fonciere": 87000.0, "type_local": null, "surface_reelle_bati": null, "nombre_pieces_principales": null, "adresse_nom_voie": "LA CHAPELLE", "price_per_sqm": null, "date_iso": "2021-08-31", "parcelle": "770890000B0441", "addr_num": ""}}, {"type": "Feature", "geometry": {"type": "Point", "coordinates": [2.969403, 48.511365]}, "properties": {"year": 2021, "valeur_fonciere": 87000.0, "type_local": null, "surface_reelle_bati": null, "nombre_pieces_principales": null, "adresse_nom_voie": "LA CHAPELLE", "price_per_sqm": null, "date_iso": "2021-08-31", "parcelle": "770890000B0443", "addr_num": ""}}, {"type": "Feature", "geometry": {"type": "Point", "coordinates": [2.966723, 48.512153]}, "properties": {"year": 2022, "valeur_fonciere": 269000.0, "type_local": "Maison", "surface_reelle_bati": 134.0, "nombre_pieces_principales": 5.0, "adresse_nom_voie": "RUE DE LA CHAUDRONNERIE", "price_per_sqm": 2007.4626865671642, "date_iso": "2022-01-08", "parcelle": "77089000ZB0132", "addr_num": "2"}}, {"type": "Feature", "geometry": {"type": "Point", "coordinates": [2.966723, 48.512153]}, "properties": {"year": 2022, "valeur_fonciere": 269000.0, "type_local": "Maison", "surface_reelle_bati": 134.0, "nombre_pieces_principales": 5.0, "adresse_nom_voie": "RUE DE LA CHAUDRONNERIE", "price_per_sqm": 2007.4626865671642, "date_iso": "2022-01-08", "parcelle": "77089000ZB0132", "addr_num": "2"}}, {"type": "Feature", "geometry": {"type": "Point", "coordinates": [2.967547, 48.508453]}, "properties": {"year": 2022, "valeur_fonciere": 335000.0, "type_local": "Dépendance", "surface_reelle_bati": null, "nombre_pieces_principales": 0.0, "adresse_nom_voie": "RUE AUX GRAINS", "price_per_sqm": null, "date_iso": "2022-01-26", "parcelle": "77089000ZD0053", "addr_num": "16"}}, {"type": "Feature", "geometry": {"type": "Point", "coordinates": [2.967547, 48.508453]}, "properties": {"year": 2022, "valeur_fonciere": 335000.0, "type_local": "Maison", "surface_reelle_bati": 144.0, "nombre_pieces_principales": 7.0, "adresse_nom_voie": "RUE AUX GRAINS", "price_per_sqm": 2326.3888888888887, "date_iso": "2022-01-26", "parcelle": "77089000ZD0053", "addr_num": "16"}}, {"type": "Feature", "geometry": {"type": "Point", "coordinates": [2.967547, 48.508453]}, "properties": {"year": 2022, "valeur_fonciere": 335000.0, "type_local": "Dépendance", "surface_reelle_bati": null, "nombre_pieces_principales": 0.0, "adresse_nom_voie": "RUE AUX GRAINS", "price_per_sqm": null, "date_iso": "2022-01-26", "parcelle": "77089000ZD0053", "addr_num": "16"}}, {"type": "Feature", "geometry": {"type": "Point", "coordinates": [2.967547, 48.508453]}, "properties": {"year": 2022, "valeur_fonciere": 335000.0, "type_local": "Maison", "surface_reelle_bati": 144.0, "nombre_pieces_principales": 7.0, "adresse_nom_voie": "RUE AUX GRAINS", "price_per_sqm": 2326.3888888888887, "date_iso": "2022-01-26", "parcelle": "77089000ZD0053", "addr_num": "16"}}, {"type": "Feature", "geometry": {"type": "Point", "coordinates": [2.968844, 48.51292]}, "properties": {"year": 2022, "valeur_fonciere": 75000.0, "type_local": null, "surface_reelle_bati": null, "nombre_pieces_principales": null, "adresse_nom_voie": "RUE DE LA MARE A LA CANE", "price_per_sqm": null, "date_iso": "2022-04-06", "parcelle": "770890000B0581", "addr_num": ""}}, {"type": "Feature", "geometry": {"type": "Point", "coordinates": [2.948209, 48.496567]}, "properties": {"year": 2022, "valeur_fonciere": 2786.0, "type_local": null, "surface_reelle_bati": null, "nombre_pieces_principales": null, "adresse_nom_voie": "TOURNEBOEUF", "price_per_sqm": null, "date_iso": "2022-04-29", "parcelle": "770890000C0245", "addr_num": ""}}, {"type": "Feature", "geometry": {"type": "Point", "coordinates": [2.947812, 48.496234]}, "properties": {"year": 2022, "valeur_fonciere": 2786.0, "type_local": null, "surface_reelle_bati": null, "nombre_pieces_principales": null, "adresse_nom_voie": "TOURNEBOEUF", "price_per_sqm": null, "date_iso": "2022-04-29", "parcelle": "770890000C0247", "addr_num": ""}}, {"type": "Feature", "geometry": {"type": "Point", "coordinates": [2.971136, 48.508822]}, "properties": {"year": 2022, "valeur_fonciere": 140000.0, "type_local": "Dépendance", "surface_reelle_bati": null, "nombre_pieces_principales": 0.0, "adresse_nom_voie": "RTE DE COUTENCON", "price_per_sqm": null, "date_iso": "2022-04-22", "parcelle": "77089000ZD0008", "addr_num": "12"}}, {"type": "Feature", "geometry": {"type": "Point", "coordinates": [2.971136, 48.508822]}, "properties": {"year": 2022, "valeur_fonciere": 140000.0, "type_local": "Maison", "surface_reelle_bati": 54.0, "nombre_pieces_principales": 2.0, "adresse_nom_voie": "RTE DE COUTENCON", "price_per_sqm": 2592.5925925925926, "date_iso": "2022-04-22", "parcelle": "77089000ZD0008", "addr_num": "12"}}, {"type": "Feature", "geometry": {"type": "Point", "coordinates": [2.971136, 48.508822]}, "properties": {"year": 2022, "valeur_fonciere": 140000.0, "type_local": "Dépendance", "surface_reelle_bati": null, "nombre_pieces_principales": 0.0, "adresse_nom_voie": "RTE DE COUTENCON", "price_per_sqm": null, "date_iso": "2022-04-22", "parcelle": "77089000ZD0008", "addr_num": "12"}}, {"type": "Feature", "geometry": {"type": "Point", "coordinates": [2.971136, 48.508822]}, "properties": {"year": 2022, "valeur_fonciere": 140000.0, "type_local": "Maison", "surface_reelle_bati": 54.0, "nombre_pieces_principales": 2.0, "adresse_nom_voie": "RTE DE COUTENCON", "price_per_sqm": 2592.5925925925926, "date_iso": "2022-04-22", "parcelle": "77089000ZD0008", "addr_num": "12"}}, {"type": "Feature", "geometry": {"type": "Point", "coordinates": [2.942404, 48.509424]}, "properties": {"year": 2022, "valeur_fonciere": 205000.0, "type_local": "Maison", "surface_reelle_bati": 223.0, "nombre_pieces_principales": 7.0, "adresse_nom_voie": "RUE DU BOIS CHAPELLE", "price_per_sqm": 919.2825112107623, "date_iso": "2022-05-19", "parcelle": "770890000A0415", "addr_num": "28"}}, {"type": "Feature", "geometry": {"type": "Point", "coordinates": [2.942334, 48.509437]}, "properties": {"year": 2022, "valeur_fonciere": 205000.0, "type_local": null, "surface_reelle_bati": null, "nombre_pieces_principales": null, "adresse_nom_voie": "LES MONTILS", "price_per_sqm": null, "date_iso": "2022-05-19", "parcelle": "770890000A0513", "addr_num": ""}}, {"type": "Feature", "geometry": {"type": "Point", "coordinates": [2.946687, 48.50824]}, "properties": {"year": 2022, "valeur_fonciere": 160000.0, "type_local": "Maison", "surface_reelle_bati": 50.0, "nombre_pieces_principales": 2.0, "adresse_nom_voie": "RUE DES VIEUX PRES", "price_per_sqm": 3200.0, "date_iso": "2022-06-15", "parcelle": "770890000A0419", "addr_num": "4"}}, {"type": "Feature", "geometry": {"type": "Point", "coordinates": [2.946687, 48.50824]}, "properties": {"year": 2022, "valeur_fonciere": 160000.0, "type_local": "Dépendance", "surface_reelle_bati": null, "nombre_pieces_principales": 0.0, "adresse_nom_voie": "RUE DES VIEUX PRES", "price_per_sqm": null, "date_iso": "2022-06-15", "parcelle": "770890000A0419", "addr_num": "4"}}, {"type": "Feature", "geometry": {"type": "Point", "coordinates": [2.946695, 48.508137]}, "properties": {"year": 2022, "valeur_fonciere": 160000.0, "type_local": null, "surface_reelle_bati": null, "nombre_pieces_principales": null, "adresse_nom_voie": "LES MONTILS", "price_per_sqm": null, "date_iso": "2022-06-15", "parcelle": "770890000A0420", "addr_num": ""}}, {"type": "Feature", "geometry": {"type": "Point", "coordinates": [2.939434, 48.503237]}, "properties": {"year": 2022, "valeur_fonciere": 12500.0, "type_local": null, "surface_reelle_bati": null, "nombre_pieces_principales": null, "adresse_nom_voie": "LA PIERRE DU COMPAS", "price_per_sqm": null, "date_iso": "2022-06-02", "parcelle": "77089000ZA0091", "addr_num": ""}}, {"type": "Feature", "geometry": {"type": "Point", "coordinates": [2.941792, 48.50944]}, "properties": {"year": 2022, "valeur_fonciere": 109000.0, "type_local": "Dépendance", "surface_reelle_bati": null, "nombre_pieces_principales": 0.0, "adresse_nom_voie": "RUE DU BOIS CHAPELLE", "price_per_sqm": null, "date_iso": "2022-07-05", "parcelle": "770890000A0280", "addr_num": "36"}}, {"type": "Feature", "geometry": {"type": "Point", "coordinates": [2.941792, 48.50944]}, "properties": {"year": 2022, "valeur_fonciere": 109000.0, "type_local": "Maison", "surface_reelle_bati": 40.0, "nombre_pieces_principales": 3.0, "adresse_nom_voie": "RUE DU BOIS CHAPELLE", "price_per_sqm": 2725.0, "date_iso": "2022-07-05", "parcelle": "770890000A0280", "addr_num": "36"}}, {"type": "Feature", "geometry": {"type": "Point", "coordinates": [2.941948, 48.509606]}, "properties": {"year": 2022, "valeur_fonciere": 109000.0, "type_local": null, "surface_reelle_bati": null, "nombre_pieces_principales": null, "adresse_nom_voie": "LES MONTILS", "price_per_sqm": null, "date_iso": "2022-07-05", "parcelle": "770890000A0498", "addr_num": ""}}, {"type": "Feature", "geometry": {"type": "Point", "coordinates": [2.941794, 48.509538]}, "properties": {"year": 2022, "valeur_fonciere": 109000.0, "type_local": null, "surface_reelle_bati": null, "nombre_pieces_principales": null, "adresse_nom_voie": "LES MONTILS", "price_per_sqm": null, "date_iso": "2022-07-05", "parcelle": "770890000A0499", "addr_num": ""}}, {"type": "Feature", "geometry": {"type": "Point", "coordinates": [2.942974, 48.509252]}, "properties": {"year": 2022, "valeur_fonciere": 110000.0, "type_local": "Maison", "surface_reelle_bati": 56.0, "nombre_pieces_principales": 3.0, "adresse_nom_voie": "RUE DU BOIS CHAPELLE", "price_per_sqm": 1964.2857142857142, "date_iso": "2022-07-28", "parcelle": "770890000A0288", "addr_num": "22"}}, {"type": "Feature", "geometry": {"type": "Point", "coordinates": [2.943085, 48.509444]}, "properties": {"year": 2022, "valeur_fonciere": 110000.0, "type_local": null, "surface_reelle_bati": null, "nombre_pieces_principales": null, "adresse_nom_voie": "LES MONTILS", "price_per_sqm": null, "date_iso": "2022-07-28", "parcelle": "770890000A0511", "addr_num": ""}}, {"type": "Feature", "geometry": {"type": "Point", "coordinates": [2.969219, 48.509862]}, "properties": {"year": 2022, "valeur_fonciere": 334000.0, "type_local": "Maison", "surface_reelle_bati": 169.0, "nombre_pieces_principales": 6.0, "adresse_nom_voie": "RUE AUX GRAINS", "price_per_sqm": 1976.3313609467455, "date_iso": "2022-09-15", "parcelle": "77089000ZD0060", "addr_num": "2"}}, {"type": "Feature", "geometry": {"type": "Point", "coordinates": [2.969219, 48.509862]}, "properties": {"year": 2022, "valeur_fonciere": 334000.0, "type_local": "Maison", "surface_reelle_bati": 169.0, "nombre_pieces_principales": 6.0, "adresse_nom_voie": "RUE AUX GRAINS", "price_per_sqm": 1976.3313609467455, "date_iso": "2022-09-15", "parcelle": "77089000ZD0060", "addr_num": "2"}}, {"type": "Feature", "geometry": {"type": "Point", "coordinates": [2.965923, 48.511949]}, "properties": {"year": 2022, "valeur_fonciere": 275000.0, "type_local": "Dépendance", "surface_reelle_bati": null, "nombre_pieces_principales": 0.0, "adresse_nom_voie": "RUE DE LA CHAUDRONNERIE", "price_per_sqm": null, "date_iso": "2022-09-16", "parcelle": "77089000ZB0135", "addr_num": "8"}}, {"type": "Feature", "geometry": {"type": "Point", "coordinates": [2.965923, 48.511949]}, "properties": {"year": 2022, "valeur_fonciere": 275000.0, "type_local": "Maison", "surface_reelle_bati": 128.0, "nombre_pieces_principales": 6.0, "adresse_nom_voie": "RUE DE LA CHAUDRONNERIE", "price_per_sqm": 2148.4375, "date_iso": "2022-09-16", "parcelle": "77089000ZB0135", "addr_num": "8"}}, {"type": "Feature", "geometry": {"type": "Point", "coordinates": [2.965923, 48.511949]}, "properties": {"year": 2022, "valeur_fonciere": 275000.0, "type_local": "Dépendance", "surface_reelle_bati": null, "nombre_pieces_principales": 0.0, "adresse_nom_voie": "RUE DE LA CHAUDRONNERIE", "price_per_sqm": null, "date_iso": "2022-09-16", "parcelle": "77089000ZB0135", "addr_num": "8"}}, {"type": "Feature", "geometry": {"type": "Point", "coordinates": [2.965923, 48.511949]}, "properties": {"year": 2022, "valeur_fonciere": 275000.0, "type_local": "Dépendance", "surface_reelle_bati": null, "nombre_pieces_principales": 0.0, "adresse_nom_voie": "RUE DE LA CHAUDRONNERIE", "price_per_sqm": null, "date_iso": "2022-09-16", "parcelle": "77089000ZB0135", "addr_num": "8"}}, {"type": "Feature", "geometry": {"type": "Point", "coordinates": [2.965923, 48.511949]}, "properties": {"year": 2022, "valeur_fonciere": 275000.0, "type_local": "Dépendance", "surface_reelle_bati": null, "nombre_pieces_principales": 0.0, "adresse_nom_voie": "RUE DE LA CHAUDRONNERIE", "price_per_sqm": null, "date_iso": "2022-09-16", "parcelle": "77089000ZB0135", "addr_num": "8"}}, {"type": "Feature", "geometry": {"type": "Point", "coordinates": [2.965923, 48.511949]}, "properties": {"year": 2022, "valeur_fonciere": 275000.0, "type_local": "Maison", "surface_reelle_bati": 128.0, "nombre_pieces_principales": 6.0, "adresse_nom_voie": "RUE DE LA CHAUDRONNERIE", "price_per_sqm": 2148.4375, "date_iso": "2022-09-16", "parcelle": "77089000ZB0135", "addr_num": "8"}}, {"type": "Feature", "geometry": {"type": "Point", "coordinates": [2.965923, 48.511949]}, "properties": {"year": 2022, "valeur_fonciere": 275000.0, "type_local": "Dépendance", "surface_reelle_bati": null, "nombre_pieces_principales": 0.0, "adresse_nom_voie": "RUE DE LA CHAUDRONNERIE", "price_per_sqm": null, "date_iso": "2022-09-16", "parcelle": "77089000ZB0135", "addr_num": "8"}}, {"type": "Feature", "geometry": {"type": "Point", "coordinates": [2.965923, 48.511949]}, "properties": {"year": 2022, "valeur_fonciere": 275000.0, "type_local": "Dépendance", "surface_reelle_bati": null, "nombre_pieces_principales": 0.0, "adresse_nom_voie": "RUE DE LA CHAUDRONNERIE", "price_per_sqm": null, "date_iso": "2022-09-16", "parcelle": "77089000ZB0135", "addr_num": "8"}}, {"type": "Feature", "geometry": {"type": "Point", "coordinates": [2.965641, 48.512008]}, "properties": {"year": 2022, "valeur_fonciere": 275000.0, "type_local": null, "surface_reelle_bati": null, "nombre_pieces_principales": null, "adresse_nom_voie": "LA MARE A LA CANNE", "price_per_sqm": null, "date_iso": "2022-09-16", "parcelle": "77089000ZB0162", "addr_num": ""}}, {"type": "Feature", "geometry": {"type": "Point", "coordinates": [2.965654, 48.512683]}, "properties": {"year": 2022, "valeur_fonciere": 260000.0, "type_local": "Maison", "surface_reelle_bati": 110.0, "nombre_pieces_principales": 4.0, "adresse_nom_voie": "RUE DU BUISSON", "price_per_sqm": 2363.6363636363635, "date_iso": "2022-09-23", "parcelle": "77089000ZB0146", "addr_num": "12"}}, {"type": "Feature", "geometry": {"type": "Point", "coordinates": [2.973503, 48.510749]}, "properties": {"year": 2022, "valeur_fonciere": 9000.0, "type_local": null, "surface_reelle_bati": null, "nombre_pieces_principales": null, "adresse_nom_voie": "RUE DES CLOS", "price_per_sqm": null, "date_iso": "2022-11-16", "parcelle": "770890000B0586", "addr_num": "12"}}, {"type": "Feature", "geometry": {"type": "Point", "coordinates": [2.97332, 48.51071]}, "properties": {"year": 2022, "valeur_fonciere": 9000.0, "type_local": null, "surface_reelle_bati": null, "nombre_pieces_principales": null, "adresse_nom_voie": "RUE DES CLOS", "price_per_sqm": null, "date_iso": "2022-11-16", "parcelle": "770890000B0588", "addr_num": "12"}}, {"type": "Feature", "geometry": {"type": "Point", "coordinates": [2.971039, 48.509533]}, "properties": {"year": 2022, "valeur_fonciere": 3000.0, "type_local": null, "surface_reelle_bati": null, "nombre_pieces_principales": null, "adresse_nom_voie": "RTE DE COUTENCON", "price_per_sqm": null, "date_iso": "2022-11-28", "parcelle": "77089000ZD0101", "addr_num": "4"}}, {"type": "Feature", "geometry": {"type": "Point", "coordinates": [2.970163, 48.509861]}, "properties": {"year": 2022, "valeur_fonciere": 335000.0, "type_local": "Dépendance", "surface_reelle_bati": null, "nombre_pieces_principales": 0.0, "adresse_nom_voie": "RUE DU BOIS DE L ILE", "price_per_sqm": null, "date_iso": "2022-12-28", "parcelle": "770890000B0250", "addr_num": "3"}}, {"type": "Feature", "geometry": {"type": "Point", "coordinates": [2.970163, 48.509861]}, "properties": {"year": 2022, "valeur_fonciere": 335000.0, "type_local": "Maison", "surface_reelle_bati": 150.0, "nombre_pieces_principales": 7.0, "adresse_nom_voie": "RUE DU BOIS DE L ILE", "price_per_sqm": 2233.3333333333335, "date_iso": "2022-12-28", "parcelle": "770890000B0250", "addr_num": "3"}}, {"type": "Feature", "geometry": {"type": "Point", "coordinates": [2.970163, 48.509861]}, "properties": {"year": 2022, "valeur_fonciere": 335000.0, "type_local": "Dépendance", "surface_reelle_bati": null, "nombre_pieces_principales": 0.0, "adresse_nom_voie": "RUE DU BOIS DE L ILE", "price_per_sqm": null, "date_iso": "2022-12-28", "parcelle": "770890000B0250", "addr_num": "3"}}, {"type": "Feature", "geometry": {"type": "Point", "coordinates": [2.970163, 48.509861]}, "properties": {"year": 2022, "valeur_fonciere": 335000.0, "type_local": "Dépendance", "surface_reelle_bati": null, "nombre_pieces_principales": 0.0, "adresse_nom_voie": "RUE DU BOIS DE L ILE", "price_per_sqm": null, "date_iso": "2022-12-28", "parcelle": "770890000B0250", "addr_num": "3"}}, {"type": "Feature", "geometry": {"type": "Point", "coordinates": [2.970163, 48.509861]}, "properties": {"year": 2022, "valeur_fonciere": 335000.0, "type_local": "Dépendance", "surface_reelle_bati": null, "nombre_pieces_principales": 0.0, "adresse_nom_voie": "RUE DU BOIS DE L ILE", "price_per_sqm": null, "date_iso": "2022-12-28", "parcelle": "770890000B0250", "addr_num": "3"}}, {"type": "Feature", "geometry": {"type": "Point", "coordinates": [2.970163, 48.509861]}, "properties": {"year": 2022, "valeur_fonciere": 335000.0, "type_local": "Maison", "surface_reelle_bati": 150.0, "nombre_pieces_principales": 7.0, "adresse_nom_voie": "RUE DU BOIS DE L ILE", "price_per_sqm": 2233.3333333333335, "date_iso": "2022-12-28", "parcelle": "770890000B0250", "addr_num": "3"}}, {"type": "Feature", "geometry": {"type": "Point", "coordinates": [2.936456, 48.511066]}, "properties": {"year": 2023, "valeur_fonciere": 264000.0, "type_local": "Dépendance", "surface_reelle_bati": null, "nombre_pieces_principales": 0.0, "adresse_nom_voie": "RUE DU BOIS CHAPELLE", "price_per_sqm": null, "date_iso": "2023-02-21", "parcelle": "770890000A0433", "addr_num": "65"}}, {"type": "Feature", "geometry": {"type": "Point", "coordinates": [2.936456, 48.511066]}, "properties": {"year": 2023, "valeur_fonciere": 264000.0, "type_local": "Maison", "surface_reelle_bati": 140.0, "nombre_pieces_principales": 5.0, "adresse_nom_voie": "RUE DU BOIS CHAPELLE", "price_per_sqm": 1885.7142857142858, "date_iso": "2023-02-21", "parcelle": "770890000A0433", "addr_num": "65"}}, {"type": "Feature", "geometry": {"type": "Point", "coordinates": [2.936456, 48.511066]}, "properties": {"year": 2023, "valeur_fonciere": 264000.0, "type_local": "Dépendance", "surface_reelle_bati": null, "nombre_pieces_principales": 0.0, "adresse_nom_voie": "RUE DU BOIS CHAPELLE", "price_per_sqm": null, "date_iso": "2023-02-21", "parcelle": "770890000A0433", "addr_num": "65"}}, {"type": "Feature", "geometry": {"type": "Point", "coordinates": [2.936357, 48.510922]}, "properties": {"year": 2023, "valeur_fonciere": 264000.0, "type_local": null, "surface_reelle_bati": null, "nombre_pieces_principales": null, "adresse_nom_voie": "LES MONTILS", "price_per_sqm": null, "date_iso": "2023-02-21", "parcelle": "770890000A0507", "addr_num": ""}}, {"type": "Feature", "geometry": {"type": "Point", "coordinates": [2.937643, 48.51141]}, "properties": {"year": 2023, "valeur_fonciere": 245000.0, "type_local": "Maison", "surface_reelle_bati": 117.0, "nombre_pieces_principales": 6.0, "adresse_nom_voie": "RUE DU BOIS CHAPELLE", "price_per_sqm": 2094.017094017094, "date_iso": "2023-03-02", "parcelle": "77089000ZA0067", "addr_num": "76"}}, {"type": "Feature", "geometry": {"type": "Point", "coordinates": [2.937643, 48.51141]}, "properties": {"year": 2023, "valeur_fonciere": 245000.0, "type_local": "Maison", "surface_reelle_bati": 117.0, "nombre_pieces_principales": 6.0, "adresse_nom_voie": "RUE DU BOIS CHAPELLE", "price_per_sqm": 2094.017094017094, "date_iso": "2023-03-02", "parcelle": "77089000ZA0067", "addr_num": "76"}}, {"type": "Feature", "geometry": {"type": "Point", "coordinates": [2.940653, 48.509834]}, "properties": {"year": 2023, "valeur_fonciere": 265000.0, "type_local": "Dépendance", "surface_reelle_bati": null, "nombre_pieces_principales": 0.0, "adresse_nom_voie": "RUE DU BOIS CHAPELLE", "price_per_sqm": null, "date_iso": "2023-05-17", "parcelle": "770890000A0273", "addr_num": "50"}}, {"type": "Feature", "geometry": {"type": "Point", "coordinates": [2.940653, 48.509834]}, "properties": {"year": 2023, "valeur_fonciere": 265000.0, "type_local": "Maison", "surface_reelle_bati": 106.0, "nombre_pieces_principales": 6.0, "adresse_nom_voie": "RUE DU BOIS CHAPELLE", "price_per_sqm": 2500.0, "date_iso": "2023-05-17", "parcelle": "770890000A0273", "addr_num": "50"}}, {"type": "Feature", "geometry": {"type": "Point", "coordinates": [2.940653, 48.509834]}, "properties": {"year": 2023, "valeur_fonciere": 265000.0, "type_local": "Dépendance", "surface_reelle_bati": null, "nombre_pieces_principales": 0.0, "adresse_nom_voie": "RUE DU BOIS CHAPELLE", "price_per_sqm": null, "date_iso": "2023-05-17", "parcelle": "770890000A0273", "addr_num": "50"}}, {"type": "Feature", "geometry": {"type": "Point", "coordinates": [2.957809, 48.513721]}, "properties": {"year": 2023, "valeur_fonciere": 13054.33, "type_local": null, "surface_reelle_bati": null, "nombre_pieces_principales": null, "adresse_nom_voie": "LE CHEMIN BLANC", "price_per_sqm": null, "date_iso": "2023-05-25", "parcelle": "77089000ZB0012", "addr_num": ""}}, {"type": "Feature", "geometry": {"type": "Point", "coordinates": [2.958885, 48.51339]}, "properties": {"year": 2023, "valeur_fonciere": 11945.67, "type_local": null, "surface_reelle_bati": null, "nombre_pieces_principales": null, "adresse_nom_voie": "LE CHEMIN BLANC", "price_per_sqm": null, "date_iso": "2023-05-25", "parcelle": "77089000ZB0013", "addr_num": ""}}, {"type": "Feature", "geometry": {"type": "Point", "coordinates": [2.958885, 48.51339]}, "properties": {"year": 2023, "valeur_fonciere": 11945.67, "type_local": null, "surface_reelle_bati": null, "nombre_pieces_principales": null, "adresse_nom_voie": "LE CHEMIN BLANC", "price_per_sqm": null, "date_iso": "2023-05-25", "parcelle": "77089000ZB0013", "addr_num": ""}}, {"type": "Feature", "geometry": {"type": "Point", "coordinates": [2.959465, 48.513429]}, "properties": {"year": 2023, "valeur_fonciere": 11945.67, "type_local": null, "surface_reelle_bati": null, "nombre_pieces_principales": null, "adresse_nom_voie": "LE CHEMIN BLANC", "price_per_sqm": null, "date_iso": "2023-05-25", "parcelle": "77089000ZB0014", "addr_num": ""}}, {"type": "Feature", "geometry": {"type": "Point", "coordinates": [2.975103, 48.50329]}, "properties": {"year": 2023, "valeur_fonciere": 5450.0, "type_local": null, "surface_reelle_bati": null, "nombre_pieces_principales": null, "adresse_nom_voie": "LES CARDINAUX", "price_per_sqm": null, "date_iso": "2023-05-25", "parcelle": "77089000ZD0020", "addr_num": ""}}, {"type": "Feature", "geometry": {"type": "Point", "coordinates": [2.969394, 48.512449]}, "properties": {"year": 2023, "valeur_fonciere": 300155.0, "type_local": "Dépendance", "surface_reelle_bati": null, "nombre_pieces_principales": 0.0, "adresse_nom_voie": "RUE DE LA MARE A LA CANE", "price_per_sqm": null, "date_iso": "2023-07-26", "parcelle": "77089000ZB0144", "addr_num": "5"}}, {"type": "Feature", "geometry": {"type": "Point", "coordinates": [2.969394, 48.512449]}, "properties": {"year": 2023, "valeur_fonciere": 300155.0, "type_local": "Maison", "surface_reelle_bati": 129.0, "nombre_pieces_principales": 5.0, "adresse_nom_voie": "RUE DE LA MARE A LA CANE", "price_per_sqm": 2326.782945736434, "date_iso": "2023-07-26", "parcelle": "77089000ZB0144", "addr_num": "5"}}, {"type": "Feature", "geometry": {"type": "Point", "coordinates": [2.969394, 48.512449]}, "properties": {"year": 2023, "valeur_fonciere": 300155.0, "type_local": "Dépendance", "surface_reelle_bati": null, "nombre_pieces_principales": 0.0, "adresse_nom_voie": "RUE DE LA MARE A LA CANE", "price_per_sqm": null, "date_iso": "2023-07-26", "parcelle": "77089000ZB0144", "addr_num": "5"}}, {"type": "Feature", "geometry": {"type": "Point", "coordinates": [2.969394, 48.512449]}, "properties": {"year": 2023, "valeur_fonciere": 300155.0, "type_local": "Maison", "surface_reelle_bati": 129.0, "nombre_pieces_principales": 5.0, "adresse_nom_voie": "RUE DE LA MARE A LA CANE", "price_per_sqm": 2326.782945736434, "date_iso": "2023-07-26", "parcelle": "77089000ZB0144", "addr_num": "5"}}, {"type": "Feature", "geometry": {"type": "Point", "coordinates": [2.969532, 48.5121]}, "properties": {"year": 2023, "valeur_fonciere": 300155.0, "type_local": null, "surface_reelle_bati": null, "nombre_pieces_principales": null, "adresse_nom_voie": "LA MARE A LA CANNE", "price_per_sqm": null, "date_iso": "2023-07-26", "parcelle": "77089000ZB0175", "addr_num": ""}}, {"type": "Feature", "geometry": {"type": "Point", "coordinates": [2.946485, 48.508597]}, "properties": {"year": 2023, "valeur_fonciere": 155000.0, "type_local": "Maison", "surface_reelle_bati": 140.0, "nombre_pieces_principales": 4.0, "adresse_nom_voie": "RUE DES VIEUX PRES", "price_per_sqm": 1107.142857142857, "date_iso": "2023-07-25", "parcelle": "770890000A0635", "addr_num": "1"}}, {"type": "Feature", "geometry": {"type": "Point", "coordinates": [2.946485, 48.508597]}, "properties": {"year": 2023, "valeur_fonciere": 155000.0, "type_local": "Dépendance", "surface_reelle_bati": null, "nombre_pieces_principales": 0.0, "adresse_nom_voie": "RUE DES VIEUX PRES", "price_per_sqm": null, "date_iso": "2023-07-25", "parcelle": "770890000A0635", "addr_num": "1"}}, {"type": "Feature", "geometry": {"type": "Point", "coordinates": [2.971196, 48.509737]}, "properties": {"year": 2023, "valeur_fonciere": 161965.0, "type_local": "Maison", "surface_reelle_bati": 69.0, "nombre_pieces_principales": 3.0, "adresse_nom_voie": "RTE DE COUTENCON", "price_per_sqm": 2347.31884057971, "date_iso": "2023-10-24", "parcelle": "77089000ZD0096", "addr_num": "6"}}, {"type": "Feature", "geometry": {"type": "Point", "coordinates": [2.96825, 48.512716]}, "properties": {"year": 2023, "valeur_fonciere": 269000.0, "type_local": "Maison", "surface_reelle_bati": 106.0, "nombre_pieces_principales": 4.0, "adresse_nom_voie": "IMP DU CHENE SEC", "price_per_sqm": 2537.735849056604, "date_iso": "2023-11-04", "parcelle": "77089000ZB0095", "addr_num": "2"}}, {"type": "Feature", "geometry": {"type": "Point", "coordinates": [2.96825, 48.512716]}, "properties": {"year": 2023, "valeur_fonciere": 269000.0, "type_local": "Maison", "surface_reelle_bati": 106.0, "nombre_pieces_principales": 4.0, "adresse_nom_voie": "IMP DU CHENE SEC", "price_per_sqm": 2537.735849056604, "date_iso": "2023-11-04", "parcelle": "77089000ZB0095", "addr_num": "2"}}, {"type": "Feature", "geometry": {"type": "Point", "coordinates": [2.968852, 48.508739]}, "properties": {"year": 2023, "valeur_fonciere": 130000.0, "type_local": "Maison", "surface_reelle_bati": 108.0, "nombre_pieces_principales": 5.0, "adresse_nom_voie": "RUE DES QUATRE VENTS", "price_per_sqm": 1203.7037037037037, "date_iso": "2023-12-07", "parcelle": "77089000ZD0073", "addr_num": "3"}}, {"type": "Feature", "geometry": {"type": "Point", "coordinates": [2.968852, 48.508739]}, "properties": {"year": 2023, "valeur_fonciere": 130000.0, "type_local": "Maison", "surface_reelle_bati": 108.0, "nombre_pieces_principales": 5.0, "adresse_nom_voie": "RUE DES QUATRE VENTS", "price_per_sqm": 1203.7037037037037, "date_iso": "2023-12-07", "parcelle": "77089000ZD0073", "addr_num": "3"}}, {"type": "Feature", "geometry": {"type": "Point", "coordinates": [2.95527, 48.508691]}, "properties": {"year": 2024, "valeur_fonciere": 385000.0, "type_local": "Maison", "surface_reelle_bati": 130.0, "nombre_pieces_principales": 5.0, "adresse_nom_voie": "RUE DES VIEUX PRES", "price_per_sqm": 2961.5384615384614, "date_iso": "2024-01-11", "parcelle": "77089000ZB0171", "addr_num": "49"}}, {"type": "Feature", "geometry": {"type": "Point", "coordinates": [2.95527, 48.508691]}, "properties": {"year": 2024, "valeur_fonciere": 385000.0, "type_local": "Maison", "surface_reelle_bati": 130.0, "nombre_pieces_principales": 5.0, "adresse_nom_voie": "RUE DES VIEUX PRES", "price_per_sqm": 2961.5384615384614, "date_iso": "2024-01-11", "parcelle": "77089000ZB0171", "addr_num": "49"}}, {"type": "Feature", "geometry": {"type": "Point", "coordinates": [2.954761, 48.508291]}, "properties": {"year": 2024, "valeur_fonciere": 385000.0, "type_local": null, "surface_reelle_bati": null, "nombre_pieces_principales": null, "adresse_nom_voie": "LES VIEUX PRES", "price_per_sqm": null, "date_iso": "2024-01-11", "parcelle": "77089000ZB0172", "addr_num": ""}}, {"type": "Feature", "geometry": {"type": "Point", "coordinates": [2.948824, 48.508171]}, "properties": {"year": 2024, "valeur_fonciere": 160000.0, "type_local": null, "surface_reelle_bati": null, "nombre_pieces_principales": null, "adresse_nom_voie": "LES MONTILS", "price_per_sqm": null, "date_iso": "2024-02-13", "parcelle": "770890000A0338", "addr_num": ""}}, {"type": "Feature", "geometry": {"type": "Point", "coordinates": [2.94885, 48.508072]}, "properties": {"year": 2024, "valeur_fonciere": 160000.0, "type_local": null, "surface_reelle_bati": null, "nombre_pieces_principales": null, "adresse_nom_voie": "LES MONTILS", "price_per_sqm": null, "date_iso": "2024-02-13", "parcelle": "770890000A0394", "addr_num": ""}}, {"type": "Feature", "geometry": {"type": "Point", "coordinates": [2.94886, 48.507979]}, "properties": {"year": 2024, "valeur_fonciere": 160000.0, "type_local": "Maison", "surface_reelle_bati": 63.0, "nombre_pieces_principales": 3.0, "adresse_nom_voie": "RUE DES VIEUX PRES", "price_per_sqm": 2539.6825396825398, "date_iso": "2024-02-13", "parcelle": "770890000A0625", "addr_num": "17"}}, {"type": "Feature", "geometry": {"type": "Point", "coordinates": [2.94879, 48.508011]}, "properties": {"year": 2024, "valeur_fonciere": 160000.0, "type_local": null, "surface_reelle_bati": null, "nombre_pieces_principales": null, "adresse_nom_voie": "LES MONTILS", "price_per_sqm": null, "date_iso": "2024-02-13", "parcelle": "770890000A0626", "addr_num": ""}}, {"type": "Feature", "geometry": {"type": "Point", "coordinates": [2.94889, 48.508025]}, "properties": {"year": 2024, "valeur_fonciere": 160000.0, "type_local": null, "surface_reelle_bati": null, "nombre_pieces_principales": null, "adresse_nom_voie": "LES MONTILS", "price_per_sqm": null, "date_iso": "2024-02-13", "parcelle": "770890000A0628", "addr_num": ""}}, {"type": "Feature", "geometry": {"type": "Point", "coordinates": [2.947761, 48.508264]}, "properties": {"year": 2024, "valeur_fonciere": 113000.0, "type_local": "Maison", "surface_reelle_bati": 64.0, "nombre_pieces_principales": 3.0, "adresse_nom_voie": "RUE DES VIEUX PRES", "price_per_sqm": 1765.625, "date_iso": "2024-03-18", "parcelle": "770890000A0327", "addr_num": "9"}}, {"type": "Feature", "geometry": {"type": "Point", "coordinates": [2.947761, 48.508264]}, "properties": {"year": 2024, "valeur_fonciere": 113000.0, "type_local": "Maison", "surface_reelle_bati": 25.0, "nombre_pieces_principales": 1.0, "adresse_nom_voie": "RUE DES VIEUX PRES", "price_per_sqm": 4520.0, "date_iso": "2024-03-18", "parcelle": "770890000A0327", "addr_num": "9"}}, {"type": "Feature", "geometry": {"type": "Point", "coordinates": [2.970128, 48.511276]}, "properties": {"year": 2024, "valeur_fonciere": 260000.0, "type_local": "Maison", "surface_reelle_bati": 103.0, "nombre_pieces_principales": 6.0, "adresse_nom_voie": "RLE CANTRIS", "price_per_sqm": 2524.2718446601943, "date_iso": "2024-03-22", "parcelle": "770890000B0323", "addr_num": "2"}}, {"type": "Feature", "geometry": {"type": "Point", "coordinates": [2.970128, 48.511276]}, "properties": {"year": 2024, "valeur_fonciere": 260000.0, "type_local": "Maison", "surface_reelle_bati": 103.0, "nombre_pieces_principales": 6.0, "adresse_nom_voie": "RLE CANTRIS", "price_per_sqm": 2524.2718446601943, "date_iso": "2024-03-22", "parcelle": "770890000B0323", "addr_num": "2"}}, {"type": "Feature", "geometry": {"type": "Point", "coordinates": [2.970713, 48.508476]}, "properties": {"year": 2024, "valeur_fonciere": 241900.0, "type_local": "Maison", "surface_reelle_bati": 104.0, "nombre_pieces_principales": 4.0, "adresse_nom_voie": "RUE DU MINOTIER", "price_per_sqm": 2325.9615384615386, "date_iso": "2024-04-30", "parcelle": "77089000ZD0077", "addr_num": "15"}}, {"type": "Feature", "geometry": {"type": "Point", "coordinates": [2.970713, 48.508476]}, "properties": {"year": 2024, "valeur_fonciere": 241900.0, "type_local": "Maison", "surface_reelle_bati": 104.0, "nombre_pieces_principales": 4.0, "adresse_nom_voie": "RUE DU MINOTIER", "price_per_sqm": 2325.9615384615386, "date_iso": "2024-04-30", "parcelle": "77089000ZD0077", "addr_num": "15"}}, {"type": "Feature", "geometry": {"type": "Point", "coordinates": [2.970164, 48.510731]}, "properties": {"year": 2024, "valeur_fonciere": 263000.0, "type_local": "Maison", "surface_reelle_bati": 104.0, "nombre_pieces_principales": 2.0, "adresse_nom_voie": "RUE DU BOIS DE L ILE", "price_per_sqm": 2528.846153846154, "date_iso": "2024-05-27", "parcelle": "770890000B0338", "addr_num": "4"}}, {"type": "Feature", "geometry": {"type": "Point", "coordinates": [2.970164, 48.510731]}, "properties": {"year": 2024, "valeur_fonciere": 263000.0, "type_local": "Maison", "surface_reelle_bati": 104.0, "nombre_pieces_principales": 2.0, "adresse_nom_voie": "RUE DU BOIS DE L ILE", "price_per_sqm": 2528.846153846154, "date_iso": "2024-05-27", "parcelle": "770890000B0338", "addr_num": "4"}}, {"type": "Feature", "geometry": {"type": "Point", "coordinates": [2.948645, 48.508096]}, "properties": {"year": 2024, "valeur_fonciere": 203000.0, "type_local": null, "surface_reelle_bati": null, "nombre_pieces_principales": null, "adresse_nom_voie": "LES MONTILS", "price_per_sqm": null, "date_iso": "2024-06-14", "parcelle": "770890000A0332", "addr_num": ""}}, {"type": "Feature", "geometry": {"type": "Point", "coordinates": [2.94875, 48.507977]}, "properties": {"year": 2024, "valeur_fonciere": 203000.0, "type_local": "Maison", "surface_reelle_bati": 84.0, "nombre_pieces_principales": 3.0, "adresse_nom_voie": "RUE DES VIEUX PRES", "price_per_sqm": 2416.6666666666665, "date_iso": "2024-06-14", "parcelle": "770890000A0335", "addr_num": "15"}}, {"type": "Feature", "geometry": {"type": "Point", "coordinates": [2.948532, 48.508101]}, "properties": {"year": 2024, "valeur_fonciere": 203000.0, "type_local": "Dépendance", "surface_reelle_bati": null, "nombre_pieces_principales": 0.0, "adresse_nom_voie": "RUE DES VIEUX PRES", "price_per_sqm": null, "date_iso": "2024-06-14", "parcelle": "770890000A0393", "addr_num": "15"}}, {"type": "Feature", "geometry": {"type": "Point", "coordinates": [2.94847, 48.508018]}, "properties": {"year": 2024, "valeur_fonciere": 203000.0, "type_local": null, "surface_reelle_bati": null, "nombre_pieces_principales": null, "adresse_nom_voie": "LES MONTILS", "price_per_sqm": null, "date_iso": "2024-06-14", "parcelle": "770890000A0541", "addr_num": ""}}, {"type": "Feature", "geometry": {"type": "Point", "coordinates": [2.94877, 48.508021]}, "properties": {"year": 2024, "valeur_fonciere": 203000.0, "type_local": null, "surface_reelle_bati": null, "nombre_pieces_principales": null, "adresse_nom_voie": "LES MONTILS", "price_per_sqm": null, "date_iso": "2024-06-14", "parcelle": "770890000A0629", "addr_num": ""}}, {"type": "Feature", "geometry": {"type": "Point", "coordinates": [2.937278, 48.510969]}, "properties": {"year": 2024, "valeur_fonciere": 243000.0, "type_local": null, "surface_reelle_bati": null, "nombre_pieces_principales": null, "adresse_nom_voie": "LES MONTILS", "price_per_sqm": null, "date_iso": "2024-06-26", "parcelle": "770890000A0234", "addr_num": ""}}, {"type": "Feature", "geometry": {"type": "Point", "coordinates": [2.937228, 48.511126]}, "properties": {"year": 2024, "valeur_fonciere": 243000.0, "type_local": "Maison", "surface_reelle_bati": 89.0, "nombre_pieces_principales": 2.0, "adresse_nom_voie": "RUE DU BOIS CHAPELLE", "price_per_sqm": 2730.3370786516853, "date_iso": "2024-06-26", "parcelle": "770890000A0613", "addr_num": "57"}}, {"type": "Feature", "geometry": {"type": "Point", "coordinates": [2.966637, 48.512779]}, "properties": {"year": 2024, "valeur_fonciere": 196600.0, "type_local": "Maison", "surface_reelle_bati": 88.0, "nombre_pieces_principales": 5.0, "adresse_nom_voie": "RUE DU BUISSON", "price_per_sqm": 2234.090909090909, "date_iso": "2024-08-21", "parcelle": "77089000ZB0150", "addr_num": "4"}}, {"type": "Feature", "geometry": {"type": "Point", "coordinates": [2.93989, 48.510099]}, "properties": {"year": 2024, "valeur_fonciere": 254000.0, "type_local": "Maison", "surface_reelle_bati": 125.0, "nombre_pieces_principales": 4.0, "adresse_nom_voie": "RUE DU BOIS CHAPELLE", "price_per_sqm": 2032.0, "date_iso": "2024-10-22", "parcelle": "770890000A0606", "addr_num": "56"}}, {"type": "Feature", "geometry": {"type": "Point", "coordinates": [2.93989, 48.510099]}, "properties": {"year": 2024, "valeur_fonciere": 254000.0, "type_local": "Maison", "surface_reelle_bati": 125.0, "nombre_pieces_principales": 4.0, "adresse_nom_voie": "RUE DU BOIS CHAPELLE", "price_per_sqm": 2032.0, "date_iso": "2024-10-22", "parcelle": "770890000A0606", "addr_num": "56"}}, {"type": "Feature", "geometry": {"type": "Point", "coordinates": [2.968198, 48.50955]}, "properties": {"year": 2024, "valeur_fonciere": 280000.0, "type_local": "Maison", "surface_reelle_bati": 110.0, "nombre_pieces_principales": 4.0, "adresse_nom_voie": "RUE AUX GRAINS", "price_per_sqm": 2545.4545454545455, "date_iso": "2024-10-30", "parcelle": "77089000ZD0057", "addr_num": "8"}}, {"type": "Feature", "geometry": {"type": "Point", "coordinates": [2.968198, 48.50955]}, "properties": {"year": 2024, "valeur_fonciere": 280000.0, "type_local": "Maison", "surface_reelle_bati": 110.0, "nombre_pieces_principales": 4.0, "adresse_nom_voie": "RUE AUX GRAINS", "price_per_sqm": 2545.4545454545455, "date_iso": "2024-10-30", "parcelle": "77089000ZD0057", "addr_num": "8"}}, {"type": "Feature", "geometry": {"type": "Point", "coordinates": [2.970558, 48.509435]}, "properties": {"year": 2024, "valeur_fonciere": 265000.0, "type_local": "Maison", "surface_reelle_bati": 113.0, "nombre_pieces_principales": 7.0, "adresse_nom_voie": "RUE DU MINOTIER", "price_per_sqm": 2345.1327433628317, "date_iso": "2024-11-29", "parcelle": "77089000ZD0081", "addr_num": "7"}}, {"type": "Feature", "geometry": {"type": "Point", "coordinates": [2.970558, 48.509435]}, "properties": {"year": 2024, "valeur_fonciere": 265000.0, "type_local": "Maison", "surface_reelle_bati": 113.0, "nombre_pieces_principales": 7.0, "adresse_nom_voie": "RUE DU MINOTIER", "price_per_sqm": 2345.1327433628317, "date_iso": "2024-11-29", "parcelle": "77089000ZD0081", "addr_num": "7"}}, {"type": "Feature", "geometry": {"type": "Point", "coordinates": [2.972898, 48.509504]}, "properties": {"year": 2024, "valeur_fonciere": 270000.0, "type_local": null, "surface_reelle_bati": null, "nombre_pieces_principales": null, "adresse_nom_voie": "LA CHAPELLE", "price_per_sqm": null, "date_iso": "2024-12-13", "parcelle": "770890000B0558", "addr_num": ""}}, {"type": "Feature", "geometry": {"type": "Point", "coordinates": [2.972879, 48.509695]}, "properties": {"year": 2024, "valeur_fonciere": 270000.0, "type_local": "Maison", "surface_reelle_bati": 71.0, "nombre_pieces_principales": 3.0, "adresse_nom_voie": "RLE DE LA TUCHONNERIE", "price_per_sqm": 3802.8169014084506, "date_iso": "2024-12-13", "parcelle": "770890000B0559", "addr_num": "2"}}, {"type": "Feature", "geometry": {"type": "Point", "coordinates": [2.937278, 48.510969]}, "properties": {"year": 2024, "valeur_fonciere": 212000.0, "type_local": null, "surface_reelle_bati": null, "nombre_pieces_principales": null, "adresse_nom_voie": "LES MONTILS", "price_per_sqm": null, "date_iso": "2024-12-27", "parcelle": "770890000A0234", "addr_num": ""}}, {"type": "Feature", "geometry": {"type": "Point", "coordinates": [2.937476, 48.511066]}, "properties": {"year": 2024, "valeur_fonciere": 212000.0, "type_local": "Maison", "surface_reelle_bati": 100.0, "nombre_pieces_principales": 2.0, "adresse_nom_voie": "RUE DU BOIS CHAPELLE", "price_per_sqm": 2120.0, "date_iso": "2024-12-27", "parcelle": "770890000A0615", "addr_num": "55"}}, {"type": "Feature", "geometry": {"type": "Point", "coordinates": [2.937476, 48.511066]}, "properties": {"year": 2024, "valeur_fonciere": 212000.0, "type_local": "Dépendance", "surface_reelle_bati": null, "nombre_pieces_principales": 0.0, "adresse_nom_voie": "RUE DU BOIS CHAPELLE", "price_per_sqm": null, "date_iso": "2024-12-27", "parcelle": "770890000A0615", "addr_num": "55"}}, {"type": "Feature", "geometry": {"type": "Point", "coordinates": [2.937379, 48.511145]}, "properties": {"year": 2024, "valeur_fonciere": 212000.0, "type_local": null, "surface_reelle_bati": null, "nombre_pieces_principales": null, "adresse_nom_voie": "RUE DU BOIS CHAPELLE", "price_per_sqm": null, "date_iso": "2024-12-27", "parcelle": "770890000A0637", "addr_num": ""}}, {"type": "Feature", "geometry": {"type": "Point", "coordinates": [2.958456, 48.503995]}, "properties": {"year": 2024, "valeur_fonciere": 4680000.0, "type_local": null, "surface_reelle_bati": null, "nombre_pieces_principales": null, "adresse_nom_voie": "LES SABLES", "price_per_sqm": null, "date_iso": "2024-12-30", "parcelle": "770890000C0004", "addr_num": ""}}, {"type": "Feature", "geometry": {"type": "Point", "coordinates": [2.96059, 48.50407]}, "properties": {"year": 2024, "valeur_fonciere": 4680000.0, "type_local": "Dépendance", "surface_reelle_bati": null, "nombre_pieces_principales": 0.0, "adresse_nom_voie": "LES SABLES", "price_per_sqm": null, "date_iso": "2024-12-30", "parcelle": "770890000C0005", "addr_num": "5070"}}, {"type": "Feature", "geometry": {"type": "Point", "coordinates": [2.96059, 48.50407]}, "properties": {"year": 2024, "valeur_fonciere": 4680000.0, "type_local": "Maison", "surface_reelle_bati": 112.0, "nombre_pieces_principales": 3.0, "adresse_nom_voie": "LES SABLES", "price_per_sqm": 41785.71428571428, "date_iso": "2024-12-30", "parcelle": "770890000C0005", "addr_num": "5070"}}, {"type": "Feature", "geometry": {"type": "Point", "coordinates": [2.96059, 48.50407]}, "properties": {"year": 2024, "valeur_fonciere": 4680000.0, "type_local": "Dépendance", "surface_reelle_bati": null, "nombre_pieces_principales": 0.0, "adresse_nom_voie": "LES SABLES", "price_per_sqm": null, "date_iso": "2024-12-30", "parcelle": "770890000C0005", "addr_num": "5070"}}, {"type": "Feature", "geometry": {"type": "Point", "coordinates": [2.960279, 48.503987]}, "properties": {"year": 2024, "valeur_fonciere": 4680000.0, "type_local": null, "surface_reelle_bati": null, "nombre_pieces_principales": null, "adresse_nom_voie": "LES SABLES", "price_per_sqm": null, "date_iso": "2024-12-30", "parcelle": "770890000C0006", "addr_num": ""}}, {"type": "Feature", "geometry": {"type": "Point", "coordinates": [2.95873, 48.50389]}, "properties": {"year": 2024, "valeur_fonciere": 4680000.0, "type_local": null, "surface_reelle_bati": null, "nombre_pieces_principales": null, "adresse_nom_voie": "LES SABLES", "price_per_sqm": null, "date_iso": "2024-12-30", "parcelle": "770890000C0123", "addr_num": ""}}, {"type": "Feature", "geometry": {"type": "Point", "coordinates": [2.960729, 48.503756]}, "properties": {"year": 2024, "valeur_fonciere": 4680000.0, "type_local": null, "surface_reelle_bati": null, "nombre_pieces_principales": null, "adresse_nom_voie": "TRENEL", "price_per_sqm": null, "date_iso": "2024-12-30", "parcelle": "770890000C0130", "addr_num": ""}}, {"type": "Feature", "geometry": {"type": "Point", "coordinates": [2.960584, 48.502445]}, "properties": {"year": 2024, "valeur_fonciere": 4680000.0, "type_local": null, "surface_reelle_bati": null, "nombre_pieces_principales": null, "adresse_nom_voie": "TRENEL", "price_per_sqm": null, "date_iso": "2024-12-30", "parcelle": "770890000C0131", "addr_num": ""}}, {"type": "Feature", "geometry": {"type": "Point", "coordinates": [2.961515, 48.505816]}, "properties": {"year": 2024, "valeur_fonciere": 4680000.0, "type_local": "Local industriel. commercial ou assimilé", "surface_reelle_bati": null, "nombre_pieces_principales": 0.0, "adresse_nom_voie": "LES MOYEUX", "price_per_sqm": null, "date_iso": "2024-12-30", "parcelle": "770890000C0189", "addr_num": "5071"}}, {"type": "Feature", "geometry": {"type": "Point", "coordinates": [2.961515, 48.505816]}, "properties": {"year": 2024, "valeur_fonciere": 4680000.0, "type_local": "Dépendance", "surface_reelle_bati": null, "nombre_pieces_principales": 0.0, "adresse_nom_voie": "LES MOYEUX", "price_per_sqm": null, "date_iso": "2024-12-30", "parcelle": "770890000C0189", "addr_num": "5071"}}, {"type": "Feature", "geometry": {"type": "Point", "coordinates": [2.961515, 48.505816]}, "properties": {"year": 2024, "valeur_fonciere": 4680000.0, "type_local": "Local industriel. commercial ou assimilé", "surface_reelle_bati": 96.0, "nombre_pieces_principales": 0.0, "adresse_nom_voie": "LES MOYEUX", "price_per_sqm": 48750.0, "date_iso": "2024-12-30", "parcelle": "770890000C0189", "addr_num": "5071"}}, {"type": "Feature", "geometry": {"type": "Point", "coordinates": [2.961515, 48.505816]}, "properties": {"year": 2024, "valeur_fonciere": 4680000.0, "type_local": "Maison", "surface_reelle_bati": 60.0, "nombre_pieces_principales": 2.0, "adresse_nom_voie": "LES MOYEUX", "price_per_sqm": 78000.0, "date_iso": "2024-12-30", "parcelle": "770890000C0189", "addr_num": "5071"}}, {"type": "Feature", "geometry": {"type": "Point", "coordinates": [2.961515, 48.505816]}, "properties": {"year": 2024, "valeur_fonciere": 4680000.0, "type_local": "Local industriel. commercial ou assimilé", "surface_reelle_bati": null, "nombre_pieces_principales": 0.0, "adresse_nom_voie": "LES MOYEUX", "price_per_sqm": null, "date_iso": "2024-12-30", "parcelle": "770890000C0189", "addr_num": "5071"}}, {"type": "Feature", "geometry": {"type": "Point", "coordinates": [2.961515, 48.505816]}, "properties": {"year": 2024, "valeur_fonciere": 4680000.0, "type_local": "Local industriel. commercial ou assimilé", "surface_reelle_bati": null, "nombre_pieces_principales": 0.0, "adresse_nom_voie": "LES MOYEUX", "price_per_sqm": null, "date_iso": "2024-12-30", "parcelle": "770890000C0189", "addr_num": "5071"}}, {"type": "Feature", "geometry": {"type": "Point", "coordinates": [2.961515, 48.505816]}, "properties": {"year": 2024, "valeur_fonciere": 4680000.0, "type_local": "Maison", "surface_reelle_bati": 60.0, "nombre_pieces_principales": 2.0, "adresse_nom_voie": "LES MOYEUX", "price_per_sqm": 78000.0, "date_iso": "2024-12-30", "parcelle": "770890000C0189", "addr_num": "5071"}}, {"type": "Feature", "geometry": {"type": "Point", "coordinates": [2.961515, 48.505816]}, "properties": {"year": 2024, "valeur_fonciere": 4680000.0, "type_local": "Local industriel. commercial ou assimilé", "surface_reelle_bati": null, "nombre_pieces_principales": 0.0, "adresse_nom_voie": "LES MOYEUX", "price_per_sqm": null, "date_iso": "2024-12-30", "parcelle": "770890000C0189", "addr_num": "5071"}}, {"type": "Feature", "geometry": {"type": "Point", "coordinates": [2.961515, 48.505816]}, "properties": {"year": 2024, "valeur_fonciere": 4680000.0, "type_local": "Local industriel. commercial ou assimilé", "surface_reelle_bati": null, "nombre_pieces_principales": 0.0, "adresse_nom_voie": "LES MOYEUX", "price_per_sqm": null, "date_iso": "2024-12-30", "parcelle": "770890000C0189", "addr_num": "5071"}}, {"type": "Feature", "geometry": {"type": "Point", "coordinates": [2.961515, 48.505816]}, "properties": {"year": 2024, "valeur_fonciere": 4680000.0, "type_local": "Local industriel. commercial ou assimilé", "surface_reelle_bati": null, "nombre_pieces_principales": 0.0, "adresse_nom_voie": "LES MOYEUX", "price_per_sqm": null, "date_iso": "2024-12-30", "parcelle": "770890000C0189", "addr_num": "5071"}}, {"type": "Feature", "geometry": {"type": "Point", "coordinates": [2.961515, 48.505816]}, "properties": {"year": 2024, "valeur_fonciere": 4680000.0, "type_local": "Dépendance", "surface_reelle_bati": null, "nombre_pieces_principales": 0.0, "adresse_nom_voie": "LES MOYEUX", "price_per_sqm": null, "date_iso": "2024-12-30", "parcelle": "770890000C0189", "addr_num": "5071"}}, {"type": "Feature", "geometry": {"type": "Point", "coordinates": [2.961515, 48.505816]}, "properties": {"year": 2024, "valeur_fonciere": 4680000.0, "type_local": "Local industriel. commercial ou assimilé", "surface_reelle_bati": 96.0, "nombre_pieces_principales": 0.0, "adresse_nom_voie": "LES MOYEUX", "price_per_sqm": 48750.0, "date_iso": "2024-12-30", "parcelle": "770890000C0189", "addr_num": "5071"}}, {"type": "Feature", "geometry": {"type": "Point", "coordinates": [2.961515, 48.505816]}, "properties": {"year": 2024, "valeur_fonciere": 4680000.0, "type_local": "Maison", "surface_reelle_bati": 60.0, "nombre_pieces_principales": 2.0, "adresse_nom_voie": "LES MOYEUX", "price_per_sqm": 78000.0, "date_iso": "2024-12-30", "parcelle": "770890000C0189", "addr_num": "5071"}}, {"type": "Feature", "geometry": {"type": "Point", "coordinates": [2.961515, 48.505816]}, "properties": {"year": 2024, "valeur_fonciere": 4680000.0, "type_local": "Local industriel. commercial ou assimilé", "surface_reelle_bati": null, "nombre_pieces_principales": 0.0, "adresse_nom_voie": "LES MOYEUX", "price_per_sqm": null, "date_iso": "2024-12-30", "parcelle": "770890000C0189", "addr_num": "5071"}}, {"type": "Feature", "geometry": {"type": "Point", "coordinates": [2.961515, 48.505816]}, "properties": {"year": 2024, "valeur_fonciere": 4680000.0, "type_local": "Local industriel. commercial ou assimilé", "surface_reelle_bati": null, "nombre_pieces_principales": 0.0, "adresse_nom_voie": "LES MOYEUX", "price_per_sqm": null, "date_iso": "2024-12-30", "parcelle": "770890000C0189", "addr_num": "5071"}}, {"type": "Feature", "geometry": {"type": "Point", "coordinates": [2.961515, 48.505816]}, "properties": {"year": 2024, "valeur_fonciere": 4680000.0, "type_local": "Local industriel. commercial ou assimilé", "surface_reelle_bati": null, "nombre_pieces_principales": 0.0, "adresse_nom_voie": "LES MOYEUX", "price_per_sqm": null, "date_iso": "2024-12-30", "parcelle": "770890000C0189", "addr_num": "5071"}}, {"type": "Feature", "geometry": {"type": "Point", "coordinates": [2.961515, 48.505816]}, "properties": {"year": 2024, "valeur_fonciere": 4680000.0, "type_local": "Local industriel. commercial ou assimilé", "surface_reelle_bati": null, "nombre_pieces_principales": 0.0, "adresse_nom_voie": "LES MOYEUX", "price_per_sqm": null, "date_iso": "2024-12-30", "parcelle": "770890000C0189", "addr_num": "5071"}}, {"type": "Feature", "geometry": {"type": "Point", "coordinates": [2.961515, 48.505816]}, "properties": {"year": 2024, "valeur_fonciere": 4680000.0, "type_local": "Local industriel. commercial ou assimilé", "surface_reelle_bati": null, "nombre_pieces_principales": 0.0, "adresse_nom_voie": "LES MOYEUX", "price_per_sqm": null, "date_iso": "2024-12-30", "parcelle": "770890000C0189", "addr_num": "5071"}}, {"type": "Feature", "geometry": {"type": "Point", "coordinates": [2.961515, 48.505816]}, "properties": {"year": 2024, "valeur_fonciere": 4680000.0, "type_local": "Maison", "surface_reelle_bati": 60.0, "nombre_pieces_principales": 2.0, "adresse_nom_voie": "LES MOYEUX", "price_per_sqm": 78000.0, "date_iso": "2024-12-30", "parcelle": "770890000C0189", "addr_num": "5071"}}, {"type": "Feature", "geometry": {"type": "Point", "coordinates": [2.961515, 48.505816]}, "properties": {"year": 2024, "valeur_fonciere": 4680000.0, "type_local": "Local industriel. commercial ou assimilé", "surface_reelle_bati": null, "nombre_pieces_principales": 0.0, "adresse_nom_voie": "LES MOYEUX", "price_per_sqm": null, "date_iso": "2024-12-30", "parcelle": "770890000C0189", "addr_num": "5071"}}, {"type": "Feature", "geometry": {"type": "Point", "coordinates": [2.961515, 48.505816]}, "properties": {"year": 2024, "valeur_fonciere": 4680000.0, "type_local": "Local industriel. commercial ou assimilé", "surface_reelle_bati": 96.0, "nombre_pieces_principales": 0.0, "adresse_nom_voie": "LES MOYEUX", "price_per_sqm": 48750.0, "date_iso": "2024-12-30", "parcelle": "770890000C0189", "addr_num": "5071"}}, {"type": "Feature", "geometry": {"type": "Point", "coordinates": [2.961515, 48.505816]}, "properties": {"year": 2024, "valeur_fonciere": 4680000.0, "type_local": "Dépendance", "surface_reelle_bati": null, "nombre_pieces_principales": 0.0, "adresse_nom_voie": "LES MOYEUX", "price_per_sqm": null, "date_iso": "2024-12-30", "parcelle": "770890000C0189", "addr_num": "5071"}}, {"type": "Feature", "geometry": {"type": "Point", "coordinates": [2.961515, 48.505816]}, "properties": {"year": 2024, "valeur_fonciere": 4680000.0, "type_local": "Dépendance", "surface_reelle_bati": null, "nombre_pieces_principales": 0.0, "adresse_nom_voie": "LES MOYEUX", "price_per_sqm": null, "date_iso": "2024-12-30", "parcelle": "770890000C0189", "addr_num": "5071"}}, {"type": "Feature", "geometry": {"type": "Point", "coordinates": [2.961515, 48.505816]}, "properties": {"year": 2024, "valeur_fonciere": 4680000.0, "type_local": "Local industriel. commercial ou assimilé", "surface_reelle_bati": 96.0, "nombre_pieces_principales": 0.0, "adresse_nom_voie": "LES MOYEUX", "price_per_sqm": 48750.0, "date_iso": "2024-12-30", "parcelle": "770890000C0189", "addr_num": "5071"}}, {"type": "Feature", "geometry": {"type": "Point", "coordinates": [2.961515, 48.505816]}, "properties": {"year": 2024, "valeur_fonciere": 4680000.0, "type_local": "Maison", "surface_reelle_bati": 60.0, "nombre_pieces_principales": 2.0, "adresse_nom_voie": "LES MOYEUX", "price_per_sqm": 78000.0, "date_iso": "2024-12-30", "parcelle": "770890000C0189", "addr_num": "5071"}}, {"type": "Feature", "geometry": {"type": "Point", "coordinates": [2.961515, 48.505816]}, "properties": {"year": 2024, "valeur_fonciere": 4680000.0, "type_local": "Local industriel. commercial ou assimilé", "surface_reelle_bati": null, "nombre_pieces_principales": 0.0, "adresse_nom_voie": "LES MOYEUX", "price_per_sqm": null, "date_iso": "2024-12-30", "parcelle": "770890000C0189", "addr_num": "5071"}}, {"type": "Feature", "geometry": {"type": "Point", "coordinates": [2.961515, 48.505816]}, "properties": {"year": 2024, "valeur_fonciere": 4680000.0, "type_local": "Local industriel. commercial ou assimilé", "surface_reelle_bati": null, "nombre_pieces_principales": 0.0, "adresse_nom_voie": "LES MOYEUX", "price_per_sqm": null, "date_iso": "2024-12-30", "parcelle": "770890000C0189", "addr_num": "5071"}}, {"type": "Feature", "geometry": {"type": "Point", "coordinates": [2.961515, 48.505816]}, "properties": {"year": 2024, "valeur_fonciere": 4680000.0, "type_local": "Local industriel. commercial ou assimilé", "surface_reelle_bati": null, "nombre_pieces_principales": 0.0, "adresse_nom_voie": "LES MOYEUX", "price_per_sqm": null, "date_iso": "2024-12-30", "parcelle": "770890000C0189", "addr_num": "5071"}}, {"type": "Feature", "geometry": {"type": "Point", "coordinates": [2.961515, 48.505816]}, "properties": {"year": 2024, "valeur_fonciere": 4680000.0, "type_local": "Dépendance", "surface_reelle_bati": null, "nombre_pieces_principales": 0.0, "adresse_nom_voie": "LES MOYEUX", "price_per_sqm": null, "date_iso": "2024-12-30", "parcelle": "770890000C0189", "addr_num": "5071"}}, {"type": "Feature", "geometry": {"type": "Point", "coordinates": [2.961515, 48.505816]}, "properties": {"year": 2024, "valeur_fonciere": 4680000.0, "type_local": "Local industriel. commercial ou assimilé", "surface_reelle_bati": 96.0, "nombre_pieces_principales": 0.0, "adresse_nom_voie": "LES MOYEUX", "price_per_sqm": 48750.0, "date_iso": "2024-12-30", "parcelle": "770890000C0189", "addr_num": "5071"}}, {"type": "Feature", "geometry": {"type": "Point", "coordinates": [2.961515, 48.505816]}, "properties": {"year": 2024, "valeur_fonciere": 4680000.0, "type_local": "Maison", "surface_reelle_bati": 60.0, "nombre_pieces_principales": 2.0, "adresse_nom_voie": "LES MOYEUX", "price_per_sqm": 78000.0, "date_iso": "2024-12-30", "parcelle": "770890000C0189", "addr_num": "5071"}}, {"type": "Feature", "geometry": {"type": "Point", "coordinates": [2.961515, 48.505816]}, "properties": {"year": 2024, "valeur_fonciere": 4680000.0, "type_local": "Local industriel. commercial ou assimilé", "surface_reelle_bati": null, "nombre_pieces_principales": 0.0, "adresse_nom_voie": "LES MOYEUX", "price_per_sqm": null, "date_iso": "2024-12-30", "parcelle": "770890000C0189", "addr_num": "5071"}}, {"type": "Feature", "geometry": {"type": "Point", "coordinates": [2.961515, 48.505816]}, "properties": {"year": 2024, "valeur_fonciere": 4680000.0, "type_local": "Local industriel. commercial ou assimilé", "surface_reelle_bati": null, "nombre_pieces_principales": 0.0, "adresse_nom_voie": "LES MOYEUX", "price_per_sqm": null, "date_iso": "2024-12-30", "parcelle": "770890000C0189", "addr_num": "5071"}}, {"type": "Feature", "geometry": {"type": "Point", "coordinates": [2.961515, 48.505816]}, "properties": {"year": 2024, "valeur_fonciere": 4680000.0, "type_local": "Local industriel. commercial ou assimilé", "surface_reelle_bati": null, "nombre_pieces_principales": 0.0, "adresse_nom_voie": "LES MOYEUX", "price_per_sqm": null, "date_iso": "2024-12-30", "parcelle": "770890000C0189", "addr_num": "5071"}}, {"type": "Feature", "geometry": {"type": "Point", "coordinates": [2.961515, 48.505816]}, "properties": {"year": 2024, "valeur_fonciere": 4680000.0, "type_local": "Dépendance", "surface_reelle_bati": null, "nombre_pieces_principales": 0.0, "adresse_nom_voie": "LES MOYEUX", "price_per_sqm": null, "date_iso": "2024-12-30", "parcelle": "770890000C0189", "addr_num": "5071"}}, {"type": "Feature", "geometry": {"type": "Point", "coordinates": [2.961515, 48.505816]}, "properties": {"year": 2024, "valeur_fonciere": 4680000.0, "type_local": "Local industriel. commercial ou assimilé", "surface_reelle_bati": 96.0, "nombre_pieces_principales": 0.0, "adresse_nom_voie": "LES MOYEUX", "price_per_sqm": 48750.0, "date_iso": "2024-12-30", "parcelle": "770890000C0189", "addr_num": "5071"}}, {"type": "Feature", "geometry": {"type": "Point", "coordinates": [2.961515, 48.505816]}, "properties": {"year": 2024, "valeur_fonciere": 4680000.0, "type_local": "Maison", "surface_reelle_bati": 60.0, "nombre_pieces_principales": 2.0, "adresse_nom_voie": "LES MOYEUX", "price_per_sqm": 78000.0, "date_iso": "2024-12-30", "parcelle": "770890000C0189", "addr_num": "5071"}}, {"type": "Feature", "geometry": {"type": "Point", "coordinates": [2.961515, 48.505816]}, "properties": {"year": 2024, "valeur_fonciere": 4680000.0, "type_local": "Local industriel. commercial ou assimilé", "surface_reelle_bati": null, "nombre_pieces_principales": 0.0, "adresse_nom_voie": "LES MOYEUX", "price_per_sqm": null, "date_iso": "2024-12-30", "parcelle": "770890000C0189", "addr_num": "5071"}}, {"type": "Feature", "geometry": {"type": "Point", "coordinates": [2.961515, 48.505816]}, "properties": {"year": 2024, "valeur_fonciere": 4680000.0, "type_local": "Local industriel. commercial ou assimilé", "surface_reelle_bati": null, "nombre_pieces_principales": 0.0, "adresse_nom_voie": "LES MOYEUX", "price_per_sqm": null, "date_iso": "2024-12-30", "parcelle": "770890000C0189", "addr_num": "5071"}}, {"type": "Feature", "geometry": {"type": "Point", "coordinates": [2.961515, 48.505816]}, "properties": {"year": 2024, "valeur_fonciere": 4680000.0, "type_local": "Local industriel. commercial ou assimilé", "surface_reelle_bati": null, "nombre_pieces_principales": 0.0, "adresse_nom_voie": "LES MOYEUX", "price_per_sqm": null, "date_iso": "2024-12-30", "parcelle": "770890000C0189", "addr_num": "5071"}}, {"type": "Feature", "geometry": {"type": "Point", "coordinates": [2.961515, 48.505816]}, "properties": {"year": 2024, "valeur_fonciere": 4680000.0, "type_local": "Dépendance", "surface_reelle_bati": null, "nombre_pieces_principales": 0.0, "adresse_nom_voie": "LES MOYEUX", "price_per_sqm": null, "date_iso": "2024-12-30", "parcelle": "770890000C0189", "addr_num": "5071"}}, {"type": "Feature", "geometry": {"type": "Point", "coordinates": [2.961515, 48.505816]}, "properties": {"year": 2024, "valeur_fonciere": 4680000.0, "type_local": "Local industriel. commercial ou assimilé", "surface_reelle_bati": 96.0, "nombre_pieces_principales": 0.0, "adresse_nom_voie": "LES MOYEUX", "price_per_sqm": 48750.0, "date_iso": "2024-12-30", "parcelle": "770890000C0189", "addr_num": "5071"}}, {"type": "Feature", "geometry": {"type": "Point", "coordinates": [2.9699, 48.507754]}, "properties": {"year": 2024, "valeur_fonciere": 4680000.0, "type_local": null, "surface_reelle_bati": null, "nombre_pieces_principales": null, "adresse_nom_voie": "LE MOULIN A VENT", "price_per_sqm": null, "date_iso": "2024-12-30", "parcelle": "77089000ZD0012", "addr_num": ""}}, {"type": "Feature", "geometry": {"type": "Point", "coordinates": [2.9699, 48.507754]}, "properties": {"year": 2024, "valeur_fonciere": 4680000.0, "type_local": null, "surface_reelle_bati": null, "nombre_pieces_principales": null, "adresse_nom_voie": "LE MOULIN A VENT", "price_per_sqm": null, "date_iso": "2024-12-30", "parcelle": "77089000ZD0012", "addr_num": ""}}, {"type": "Feature", "geometry": {"type": "Point", "coordinates": [2.9699, 48.507754]}, "properties": {"year": 2024, "valeur_fonciere": 4680000.0, "type_local": null, "surface_reelle_bati": null, "nombre_pieces_principales": null, "adresse_nom_voie": "LE MOULIN A VENT", "price_per_sqm": null, "date_iso": "2024-12-30", "parcelle": "77089000ZD0012", "addr_num": ""}}, {"type": "Feature", "geometry": {"type": "Point", "coordinates": [2.968974, 48.506864]}, "properties": {"year": 2024, "valeur_fonciere": 4680000.0, "type_local": null, "surface_reelle_bati": null, "nombre_pieces_principales": null, "adresse_nom_voie": "LE MOULIN A VENT", "price_per_sqm": null, "date_iso": "2024-12-30", "parcelle": "77089000ZD0014", "addr_num": ""}}, {"type": "Feature", "geometry": {"type": "Point", "coordinates": [2.968974, 48.506864]}, "properties": {"year": 2024, "valeur_fonciere": 4680000.0, "type_local": null, "surface_reelle_bati": null, "nombre_pieces_principales": null, "adresse_nom_voie": "LE MOULIN A VENT", "price_per_sqm": null, "date_iso": "2024-12-30", "parcelle": "77089000ZD0014", "addr_num": ""}}, {"type": "Feature", "geometry": {"type": "Point", "coordinates": [2.968692, 48.507734]}, "properties": {"year": 2024, "valeur_fonciere": 4680000.0, "type_local": null, "surface_reelle_bati": null, "nombre_pieces_principales": null, "adresse_nom_voie": "LE MOULIN A VENT", "price_per_sqm": null, "date_iso": "2024-12-30", "parcelle": "77089000ZD0016", "addr_num": ""}}, {"type": "Feature", "geometry": {"type": "Point", "coordinates": [2.96756, 48.50707]}, "properties": {"year": 2024, "valeur_fonciere": 4680000.0, "type_local": null, "surface_reelle_bati": null, "nombre_pieces_principales": null, "adresse_nom_voie": "LE MOULIN A VENT", "price_per_sqm": null, "date_iso": "2024-12-30", "parcelle": "77089000ZD0017", "addr_num": ""}}, {"type": "Feature", "geometry": {"type": "Point", "coordinates": [2.96756, 48.50707]}, "properties": {"year": 2024, "valeur_fonciere": 4680000.0, "type_local": null, "surface_reelle_bati": null, "nombre_pieces_principales": null, "adresse_nom_voie": "LE MOULIN A VENT", "price_per_sqm": null, "date_iso": "2024-12-30", "parcelle": "77089000ZD0017", "addr_num": ""}}, {"type": "Feature", "geometry": {"type": "Point", "coordinates": [2.971739, 48.511381]}, "properties": {"year": 2025, "valeur_fonciere": 250000.0, "type_local": "Maison", "surface_reelle_bati": 80.0, "nombre_pieces_principales": 4.0, "adresse_nom_voie": "RUE DES CLOS", "price_per_sqm": 3125.0, "date_iso": "2025-02-18", "parcelle": "770890000B0126", "addr_num": "4"}}, {"type": "Feature", "geometry": {"type": "Point", "coordinates": [2.970052, 48.512587]}, "properties": {"year": 2025, "valeur_fonciere": 1.0, "type_local": null, "surface_reelle_bati": null, "nombre_pieces_principales": null, "adresse_nom_voie": "RUE DE LA MARE A LA CANE", "price_per_sqm": null, "date_iso": "2025-03-18", "parcelle": "770890000B0563", "addr_num": "1"}}, {"type": "Feature", "geometry": {"type": "Point", "coordinates": [2.968154, 48.510149]}, "properties": {"year": 2025, "valeur_fonciere": 294000.0, "type_local": "Dépendance", "surface_reelle_bati": null, "nombre_pieces_principales": 0.0, "adresse_nom_voie": "RUE DU BOIS DE L ILE", "price_per_sqm": null, "date_iso": "2025-04-15", "parcelle": "77089000ZB0060", "addr_num": "16"}}, {"type": "Feature", "geometry": {"type": "Point", "coordinates": [2.968154, 48.510149]}, "properties": {"year": 2025, "valeur_fonciere": 294000.0, "type_local": "Maison", "surface_reelle_bati": 141.0, "nombre_pieces_principales": 7.0, "adresse_nom_voie": "RUE DU BOIS DE L ILE", "price_per_sqm": 2085.1063829787236, "date_iso": "2025-04-15", "parcelle": "77089000ZB0060", "addr_num": "16"}}, {"type": "Feature", "geometry": {"type": "Point", "coordinates": [2.972138, 48.509995]}, "properties": {"year": 2025, "valeur_fonciere": 285000.0, "type_local": "Maison", "surface_reelle_bati": 112.0, "nombre_pieces_principales": 4.0, "adresse_nom_voie": "RLE DE LA TUCHONNERIE", "price_per_sqm": 2544.6428571428573, "date_iso": "2025-04-24", "parcelle": "770890000B0152", "addr_num": "1"}}, {"type": "Feature", "geometry": {"type": "Point", "coordinates": [2.972138, 48.509995]}, "properties": {"year": 2025, "valeur_fonciere": 285000.0, "type_local": "Maison", "surface_reelle_bati": 112.0, "nombre_pieces_principales": 4.0, "adresse_nom_voie": "RLE DE LA TUCHONNERIE", "price_per_sqm": 2544.6428571428573, "date_iso": "2025-04-24", "parcelle": "770890000B0152", "addr_num": "1"}}, {"type": "Feature", "geometry": {"type": "Point", "coordinates": [2.966603, 48.510051]}, "properties": {"year": 2025, "valeur_fonciere": 171000.0, "type_local": "Maison", "surface_reelle_bati": 86.0, "nombre_pieces_principales": 4.0, "adresse_nom_voie": "SQ DUPEYRON", "price_per_sqm": 1988.3720930232557, "date_iso": "2025-04-29", "parcelle": "77089000ZB0054", "addr_num": "6"}}, {"type": "Feature", "geometry": {"type": "Point", "coordinates": [2.966603, 48.510051]}, "properties": {"year": 2025, "valeur_fonciere": 171000.0, "type_local": "Dépendance", "surface_reelle_bati": null, "nombre_pieces_principales": 0.0, "adresse_nom_voie": "SQ DUPEYRON", "price_per_sqm": null, "date_iso": "2025-04-29", "parcelle": "77089000ZB0054", "addr_num": "6"}}, {"type": "Feature", "geometry": {"type": "Point", "coordinates": [2.966603, 48.510051]}, "properties": {"year": 2025, "valeur_fonciere": 171000.0, "type_local": "Maison", "surface_reelle_bati": 86.0, "nombre_pieces_principales": 4.0, "adresse_nom_voie": "SQ DUPEYRON", "price_per_sqm": 1988.3720930232557, "date_iso": "2025-04-29", "parcelle": "77089000ZB0054", "addr_num": "6"}}, {"type": "Feature", "geometry": {"type": "Point", "coordinates": [2.966603, 48.510051]}, "properties": {"year": 2025, "valeur_fonciere": 171000.0, "type_local": "Dépendance", "surface_reelle_bati": null, "nombre_pieces_principales": 0.0, "adresse_nom_voie": "SQ DUPEYRON", "price_per_sqm": null, "date_iso": "2025-04-29", "parcelle": "77089000ZB0054", "addr_num": "6"}}, {"type": "Feature", "geometry": {"type": "Point", "coordinates": [2.937643, 48.51141]}, "properties": {"year": 2025, "valeur_fonciere": 270000.0, "type_local": "Maison", "surface_reelle_bati": 117.0, "nombre_pieces_principales": 6.0, "adresse_nom_voie": "RUE DU BOIS CHAPELLE", "price_per_sqm": 2307.6923076923076, "date_iso": "2025-06-04", "parcelle": "77089000ZA0067", "addr_num": "76"}}, {"type": "Feature", "geometry": {"type": "Point", "coordinates": [2.937643, 48.51141]}, "properties": {"year": 2025, "valeur_fonciere": 270000.0, "type_local": "Maison", "surface_reelle_bati": 117.0, "nombre_pieces_principales": 6.0, "adresse_nom_voie": "RUE DU BOIS CHAPELLE", "price_per_sqm": 2307.6923076923076, "date_iso": "2025-06-04", "parcelle": "77089000ZA0067", "addr_num": "76"}}, {"type": "Feature", "geometry": {"type": "Point", "coordinates": [2.966884, 48.512787]}, "properties": {"year": 2025, "valeur_fonciere": 175000.0, "type_local": "Maison", "surface_reelle_bati": 91.0, "nombre_pieces_principales": 6.0, "adresse_nom_voie": "RUE DU BUISSON", "price_per_sqm": 1923.076923076923, "date_iso": "2025-06-16", "parcelle": "77089000ZB0151", "addr_num": "2"}}, {"type": "Feature", "geometry": {"type": "Point", "coordinates": [2.970404, 48.510046]}, "properties": {"year": 2025, "valeur_fonciere": 242800.0, "type_local": "Dépendance", "surface_reelle_bati": null, "nombre_pieces_principales": 0.0, "adresse_nom_voie": "RUE DU BOIS DE L ILE", "price_per_sqm": null, "date_iso": "2025-06-21", "parcelle": "77089000ZD0031", "addr_num": "1"}}, {"type": "Feature", "geometry": {"type": "Point", "coordinates": [2.970404, 48.510046]}, "properties": {"year": 2025, "valeur_fonciere": 242800.0, "type_local": "Maison", "surface_reelle_bati": 95.0, "nombre_pieces_principales": 3.0, "adresse_nom_voie": "RUE DU BOIS DE L ILE", "price_per_sqm": 2555.7894736842104, "date_iso": "2025-06-21", "parcelle": "77089000ZD0031", "addr_num": "1"}}, {"type": "Feature", "geometry": {"type": "Point", "coordinates": [2.970404, 48.510046]}, "properties": {"year": 2025, "valeur_fonciere": 242800.0, "type_local": "Maison", "surface_reelle_bati": 95.0, "nombre_pieces_principales": 3.0, "adresse_nom_voie": "RUE DU BOIS DE L ILE", "price_per_sqm": 2555.7894736842104, "date_iso": "2025-06-21", "parcelle": "77089000ZD0031", "addr_num": "1"}}, {"type": "Feature", "geometry": {"type": "Point", "coordinates": [2.970404, 48.510046]}, "properties": {"year": 2025, "valeur_fonciere": 242800.0, "type_local": "Dépendance", "surface_reelle_bati": null, "nombre_pieces_principales": 0.0, "adresse_nom_voie": "RUE DU BOIS DE L ILE", "price_per_sqm": null, "date_iso": "2025-06-21", "parcelle": "77089000ZD0031", "addr_num": "1"}}, {"type": "Feature", "geometry": {"type": "Point", "coordinates": [2.942033, 48.509461]}, "properties": {"year": 2025, "valeur_fonciere": 205000.0, "type_local": "Dépendance", "surface_reelle_bati": null, "nombre_pieces_principales": 0.0, "adresse_nom_voie": "RUE DU BOIS CHAPELLE", "price_per_sqm": null, "date_iso": "2025-08-11", "parcelle": "770890000A0600", "addr_num": "32"}}, {"type": "Feature", "geometry": {"type": "Point", "coordinates": [2.942084, 48.50949]}, "properties": {"year": 2025, "valeur_fonciere": 205000.0, "type_local": "Maison", "surface_reelle_bati": 116.0, "nombre_pieces_principales": 4.0, "adresse_nom_voie": "RUE DU BOIS CHAPELLE", "price_per_sqm": 1767.2413793103449, "date_iso": "2025-08-11", "parcelle": "770890000A0601", "addr_num": "32"}}, {"type": "Feature", "geometry": {"type": "Point", "coordinates": [2.942084, 48.50949]}, "properties": {"year": 2025, "valeur_fonciere": 205000.0, "type_local": "Dépendance", "surface_reelle_bati": null, "nombre_pieces_principales": 0.0, "adresse_nom_voie": "RUE DU BOIS CHAPELLE", "price_per_sqm": null, "date_iso": "2025-08-11", "parcelle": "770890000A0601", "addr_num": "32"}}, {"type": "Feature", "geometry": {"type": "Point", "coordinates": [2.942084, 48.50949]}, "properties": {"year": 2025, "valeur_fonciere": 205000.0, "type_local": "Dépendance", "surface_reelle_bati": null, "nombre_pieces_principales": 0.0, "adresse_nom_voie": "RUE DU BOIS CHAPELLE", "price_per_sqm": null, "date_iso": "2025-08-11", "parcelle": "770890000A0601", "addr_num": "32"}}, {"type": "Feature", "geometry": {"type": "Point", "coordinates": [2.942168, 48.509413]}, "properties": {"year": 2025, "valeur_fonciere": 205000.0, "type_local": "Maison", "surface_reelle_bati": 12.0, "nombre_pieces_principales": 1.0, "adresse_nom_voie": "RUE DU BOIS CHAPELLE", "price_per_sqm": 17083.333333333332, "date_iso": "2025-08-11", "parcelle": "770890000A0602", "addr_num": "30"}}, {"type": "Feature", "geometry": {"type": "Point", "coordinates": [2.941279, 48.509558]}, "properties": {"year": 2025, "valeur_fonciere": 227000.0, "type_local": null, "surface_reelle_bati": null, "nombre_pieces_principales": null, "adresse_nom_voie": "LES MONTILS", "price_per_sqm": null, "date_iso": "2025-09-26", "parcelle": "770890000A0276", "addr_num": ""}}, {"type": "Feature", "geometry": {"type": "Point", "coordinates": [2.941572, 48.50966]}, "properties": {"year": 2025, "valeur_fonciere": 227000.0, "type_local": "Dépendance", "surface_reelle_bati": null, "nombre_pieces_principales": 0.0, "adresse_nom_voie": "RUE DU BOIS CHAPELLE", "price_per_sqm": null, "date_iso": "2025-09-26", "parcelle": "770890000A0277", "addr_num": "40"}}, {"type": "Feature", "geometry": {"type": "Point", "coordinates": [2.941572, 48.50966]}, "properties": {"year": 2025, "valeur_fonciere": 227000.0, "type_local": "Appartement", "surface_reelle_bati": 97.0, "nombre_pieces_principales": 4.0, "adresse_nom_voie": "RUE DU BOIS CHAPELLE", "price_per_sqm": 2340.2061855670104, "date_iso": "2025-09-26", "parcelle": "770890000A0277", "addr_num": "40"}}, {"type": "Feature", "geometry": {"type": "Point", "coordinates": [2.941572, 48.50966]}, "properties": {"year": 2025, "valeur_fonciere": 227000.0, "type_local": "Appartement", "surface_reelle_bati": 38.0, "nombre_pieces_principales": 3.0, "adresse_nom_voie": "RUE DU BOIS CHAPELLE", "price_per_sqm": 5973.684210526316, "date_iso": "2025-09-26", "parcelle": "770890000A0277", "addr_num": "40"}}, {"type": "Feature", "geometry": {"type": "Point", "coordinates": [2.941572, 48.50966]}, "properties": {"year": 2025, "valeur_fonciere": 227000.0, "type_local": "Appartement", "surface_reelle_bati": 65.0, "nombre_pieces_principales": 4.0, "adresse_nom_voie": "RUE DU BOIS CHAPELLE", "price_per_sqm": 3492.3076923076924, "date_iso": "2025-09-26", "parcelle": "770890000A0277", "addr_num": "40"}}, {"type": "Feature", "geometry": {"type": "Point", "coordinates": [2.941394, 48.509763]}, "properties": {"year": 2025, "valeur_fonciere": 227000.0, "type_local": null, "surface_reelle_bati": null, "nombre_pieces_principales": null, "adresse_nom_voie": "LES MONTILS", "price_per_sqm": null, "date_iso": "2025-09-26", "parcelle": "770890000A0439", "addr_num": ""}}, {"type": "Feature", "geometry": {"type": "Point", "coordinates": [2.941164, 48.509777]}, "properties": {"year": 2025, "valeur_fonciere": 227000.0, "type_local": null, "surface_reelle_bati": null, "nombre_pieces_principales": null, "adresse_nom_voie": "LES MONTILS", "price_per_sqm": null, "date_iso": "2025-09-26", "parcelle": "770890000A0471", "addr_num": ""}}, {"type": "Feature", "geometry": {"type": "Point", "coordinates": [2.936484, 48.511533]}, "properties": {"year": 2025, "valeur_fonciere": 229800.0, "type_local": "Maison", "surface_reelle_bati": 88.0, "nombre_pieces_principales": 5.0, "adresse_nom_voie": "RUE DU BOIS CHAPELLE", "price_per_sqm": 2611.3636363636365, "date_iso": "2025-09-25", "parcelle": "77089000ZA0108", "addr_num": "84"}}, {"type": "Feature", "geometry": {"type": "Point", "coordinates": [2.936484, 48.511533]}, "properties": {"year": 2025, "valeur_fonciere": 229800.0, "type_local": "Dépendance", "surface_reelle_bati": null, "nombre_pieces_principales": 0.0, "adresse_nom_voie": "RUE DU BOIS CHAPELLE", "price_per_sqm": null, "date_iso": "2025-09-25", "parcelle": "77089000ZA0108", "addr_num": "84"}}, {"type": "Feature", "geometry": {"type": "Point", "coordinates": [2.936484, 48.511533]}, "properties": {"year": 2025, "valeur_fonciere": 229800.0, "type_local": "Dépendance", "surface_reelle_bati": null, "nombre_pieces_principales": 0.0, "adresse_nom_voie": "RUE DU BOIS CHAPELLE", "price_per_sqm": null, "date_iso": "2025-09-25", "parcelle": "77089000ZA0108", "addr_num": "84"}}, {"type": "Feature", "geometry": {"type": "Point", "coordinates": [2.969798, 48.512631]}, "properties": {"year": 2025, "valeur_fonciere": 1.0, "type_local": null, "surface_reelle_bati": null, "nombre_pieces_principales": null, "adresse_nom_voie": "RUE DE LA MARE A LA CANE", "price_per_sqm": null, "date_iso": "2025-11-07", "parcelle": "770890000B0562", "addr_num": "3"}}, {"type": "Feature", "geometry": {"type": "Point", "coordinates": [2.972836, 48.508792]}, "properties": {"year": 2025, "valeur_fonciere": 5800.0, "type_local": null, "surface_reelle_bati": null, "nombre_pieces_principales": null, "adresse_nom_voie": "LA CHAPELLE", "price_per_sqm": null, "date_iso": "2025-11-03", "parcelle": "770890000B0142", "addr_num": ""}}]}