{"type": "FeatureCollection", "features": [{"type": "Feature", "geometry": {"type": "Polygon", "coordinates": [[[2.56096, 48.535566], [2.564158, 48.534977], [2.570834, 48.533026], [2.572945, 48.532404], [2.578052, 48.530146], [2.580752, 48.528568], [2.582436, 48.526934], [2.58404, 48.525021], [2.585887, 48.522826], [2.588513, 48.520559], [2.586905, 48.519756], [2.586826, 48.519703], [2.586125, 48.518936], [2.585816, 48.519128], [2.584831, 48.51782], [2.584975, 48.517801], [2.585218, 48.517682], [2.585606, 48.517533], [2.585892, 48.517366], [2.586132, 48.517053], [2.586202, 48.516878], [2.586203, 48.516726], [2.586133, 48.516192], [2.586119, 48.515731], [2.586063, 48.515412], [2.585944, 48.515067], [2.585768, 48.51477], [2.584844, 48.515101], [2.582798, 48.515857], [2.581471, 48.516337], [2.58137, 48.516264], [2.579803, 48.514459], [2.579005, 48.513532], [2.579456, 48.513314], [2.578442, 48.512766], [2.577689, 48.512346], [2.575965, 48.511401], [2.575503, 48.511126], [2.577378, 48.509791], [2.576495, 48.50932], [2.57639, 48.509228], [2.576949, 48.508406], [2.577385, 48.507194], [2.578688, 48.506162], [2.576623, 48.505717], [2.575128, 48.50539], [2.574897, 48.505332], [2.575686, 48.504391], [2.576119, 48.503848], [2.576522, 48.50337], [2.577798, 48.50179], [2.581541, 48.497257], [2.584224, 48.493983], [2.583531, 48.493649], [2.580772, 48.492607], [2.57996, 48.492101], [2.579811, 48.492028], [2.577808, 48.493034], [2.575619, 48.49205], [2.573042, 48.491066], [2.571273, 48.491749], [2.570841, 48.491607], [2.56949, 48.491595], [2.568717, 48.491485], [2.565918, 48.491061], [2.565285, 48.490976], [2.562843, 48.490873], [2.562741, 48.490632], [2.558894, 48.490677], [2.559316, 48.492256], [2.559432, 48.492469], [2.559879, 48.493415], [2.560366, 48.494584], [2.560871, 48.495843], [2.561012, 48.496483], [2.561235, 48.498513], [2.561261, 48.499143], [2.561209, 48.499769], [2.561116, 48.500254], [2.561056, 48.50032], [2.560828, 48.500849], [2.560759, 48.501057], [2.560717, 48.501387], [2.560691, 48.501991], [2.56073, 48.502343], [2.560804, 48.50265], [2.560975, 48.503232], [2.559254, 48.503527], [2.55831, 48.503748], [2.556938, 48.504037], [2.555837, 48.504344], [2.55503, 48.504549], [2.554657, 48.504621], [2.554122, 48.504674], [2.553526, 48.504684], [2.552588, 48.504648], [2.552798, 48.504987], [2.553157, 48.505632], [2.553427, 48.50617], [2.553623, 48.506648], [2.55389, 48.507157], [2.554338, 48.507946], [2.552643, 48.508532], [2.55158, 48.508848], [2.550897, 48.509105], [2.550999, 48.509364], [2.550999, 48.509512], [2.551438, 48.509878], [2.551738, 48.510189], [2.552248, 48.510687], [2.552435, 48.510847], [2.552647, 48.510976], [2.553221, 48.511406], [2.553387, 48.511642], [2.553753, 48.51161], [2.554062, 48.512089], [2.554199, 48.512391], [2.554506, 48.512686], [2.554857, 48.513164], [2.554964, 48.513353], [2.555258, 48.514092], [2.555495, 48.514493], [2.555607, 48.514576], [2.556321, 48.514517], [2.556439, 48.51449], [2.55752, 48.514346], [2.557611, 48.514377], [2.559417, 48.514018], [2.559473, 48.514089], [2.56033, 48.51382], [2.560414, 48.513972], [2.565738, 48.512451], [2.565845, 48.51254], [2.566143, 48.512458], [2.566847, 48.513595], [2.567371, 48.51426], [2.568367, 48.515488], [2.569142, 48.516434], [2.57121, 48.518994], [2.571577, 48.518858], [2.572272, 48.519719], [2.572084, 48.519794], [2.570577, 48.520325], [2.569067, 48.520876], [2.568639, 48.521043], [2.564336, 48.52267], [2.563363, 48.523036], [2.563481, 48.523281], [2.564945, 48.526544], [2.564705, 48.526582], [2.564368, 48.526589], [2.564338, 48.527574], [2.562898, 48.527942], [2.560815, 48.528484], [2.560705, 48.527697], [2.559193, 48.52774], [2.558472, 48.527766], [2.558413, 48.527536], [2.55646, 48.527831], [2.556984, 48.529845], [2.557011, 48.529896], [2.5573, 48.531264], [2.556744, 48.53136], [2.557085, 48.532149], [2.560614, 48.531575], [2.561126, 48.532899], [2.559609, 48.533083], [2.558745, 48.533208], [2.557197, 48.533454], [2.555091, 48.533738], [2.554843, 48.533813], [2.554646, 48.533956], [2.5541, 48.534045], [2.554172, 48.534274], [2.550244, 48.534806], [2.550128, 48.535033], [2.549191, 48.534968], [2.548945, 48.535049], [2.548802, 48.535156], [2.548808, 48.535701], [2.548678, 48.536006], [2.548658, 48.536509], [2.548873, 48.537422], [2.553421, 48.536767], [2.560311, 48.535686], [2.56096, 48.535566]]]}, "properties": {"code_iris": "770400000", "nom_iris": "Boissise-le-Roi (commune entière)", "type_iris": "Z", "lat": 48.514, "lng": 2.5686, "dvf_sales_total": 499, "dvf_sales_appt": 0, "dvf_sales_maison": 0, "dvf_median_price": 378000.0, "dvf_median_ppsqm": 3242.2222222222226, "dvf_by_year": "[{\"year\": 2021, \"sales\": 140, \"median_price\": 485350.0}, {\"year\": 2022, \"sales\": 112, \"median_price\": 380000.0}, {\"year\": 2023, \"sales\": 55, \"median_price\": 290000.0}, {\"year\": 2024, \"sales\": 107, \"median_price\": 425000.0}, {\"year\": 2025, \"sales\": 85, \"median_price\": 378000.0}]", "population": 3941, "n_log": null, "n_rp": null, "pct_proprio": null, "pct_hlm": null, "pct_appart": null, "pct_cadres": null, "pct_bac5p": null, "pct_etrangers": null, "pct_0_14": null, "pct_65p": null, "bpe_total": null, "bpe_commerces": null, "bpe_enseignement": null, "bpe_sante": null, "dpe": null, "attractivity_score": null, "rank_attractivity_score": null, "rank_total_attractivity_score": 1, "commune_avg": null, "is_stub": true}}]}