{"type": "FeatureCollection", "features": [{"type": "Feature", "geometry": {"type": "Point", "coordinates": [3.344908, 48.760824]}, "properties": {"street_name": "LESCHEROLLES", "sales": 28, "sales_appt": 0, "sales_maison": 0, "median_price": 186000.0, "median_price_per_sqm": null, "turnover_score": 100.0, "turnover_rank": 1, "first_year": 2021, "last_year": 2025, "years_active": 5}}, {"type": "Feature", "geometry": {"type": "Point", "coordinates": [3.34543, 48.760844]}, "properties": {"street_name": "RUE DE ST MARS", "sales": 23, "sales_appt": 0, "sales_maison": 12, "median_price": 160000.0, "median_price_per_sqm": 1610.4565537555227, "turnover_score": 82.1, "turnover_rank": 2, "first_year": 2021, "last_year": 2024, "years_active": 4}}, {"type": "Feature", "geometry": {"type": "Point", "coordinates": [3.342787, 48.758545]}, "properties": {"street_name": "RUE DE LA CROIX HARIOT", "sales": 21, "sales_appt": 0, "sales_maison": 8, "median_price": 110000.0, "median_price_per_sqm": 1633.3333333333335, "turnover_score": 75.0, "turnover_rank": 3, "first_year": 2021, "last_year": 2023, "years_active": 3}}, {"type": "Feature", "geometry": {"type": "Point", "coordinates": [3.349339, 48.759363]}, "properties": {"street_name": "RUE DU SAUVAGEON", "sales": 10, "sales_appt": 0, "sales_maison": 6, "median_price": 180000.0, "median_price_per_sqm": 1875.0, "turnover_score": 35.7, "turnover_rank": 4, "first_year": 2021, "last_year": 2023, "years_active": 2}}, {"type": "Feature", "geometry": {"type": "Point", "coordinates": [3.345934, 48.759681]}, "properties": {"street_name": "RUE DES COURTES SOUPES", "sales": 9, "sales_appt": 0, "sales_maison": 3, "median_price": 122000.0, "median_price_per_sqm": 2440.0, "turnover_score": 32.1, "turnover_rank": 5, "first_year": 2021, "last_year": 2025, "years_active": 3}}, {"type": "Feature", "geometry": {"type": "Point", "coordinates": [3.344656, 48.765114]}, "properties": {"street_name": "RUE NOTRE DAME", "sales": 9, "sales_appt": 0, "sales_maison": 7, "median_price": 180000.0, "median_price_per_sqm": 2210.714285714286, "turnover_score": 32.1, "turnover_rank": 5, "first_year": 2021, "last_year": 2025, "years_active": 3}}, {"type": "Feature", "geometry": {"type": "Point", "coordinates": [3.336416, 48.757535000000004]}, "properties": {"street_name": "LES PETITS BOIS", "sales": 8, "sales_appt": 0, "sales_maison": 0, "median_price": 22240.0, "median_price_per_sqm": null, "turnover_score": 28.6, "turnover_rank": 6, "first_year": 2022, "last_year": 2023, "years_active": 2}}, {"type": "Feature", "geometry": {"type": "Point", "coordinates": [3.344016, 48.7813255]}, "properties": {"street_name": "LES CLAIRES MARNES", "sales": 8, "sales_appt": 0, "sales_maison": 0, "median_price": 20000.0, "median_price_per_sqm": null, "turnover_score": 28.6, "turnover_rank": 6, "first_year": 2022, "last_year": 2023, "years_active": 2}}, {"type": "Feature", "geometry": {"type": "Point", "coordinates": [3.347928, 48.760115]}, "properties": {"street_name": "RUE DES PLEUX", "sales": 6, "sales_appt": 0, "sales_maison": 4, "median_price": 262000.0, "median_price_per_sqm": 2738.636363636364, "turnover_score": 21.4, "turnover_rank": 7, "first_year": 2021, "last_year": 2023, "years_active": 2}}, {"type": "Feature", "geometry": {"type": "Point", "coordinates": [3.344918, 48.7584555]}, "properties": {"street_name": "LES GRAVOTTES", "sales": 6, "sales_appt": 0, "sales_maison": 0, "median_price": 180000.0, "median_price_per_sqm": null, "turnover_score": 21.4, "turnover_rank": 7, "first_year": 2025, "last_year": 2025, "years_active": 1}}, {"type": "Feature", "geometry": {"type": "Point", "coordinates": [3.337359, 48.773228]}, "properties": {"street_name": "ROMNEL", "sales": 6, "sales_appt": 0, "sales_maison": 1, "median_price": 366000.0, "median_price_per_sqm": 1464.0, "turnover_score": 21.4, "turnover_rank": 7, "first_year": 2025, "last_year": 2025, "years_active": 1}}, {"type": "Feature", "geometry": {"type": "Point", "coordinates": [3.346176, 48.759813]}, "properties": {"street_name": "RUE DE LA CROIX SAINT JEAN", "sales": 5, "sales_appt": 0, "sales_maison": 2, "median_price": 235000.0, "median_price_per_sqm": 1632.090395480226, "turnover_score": 17.9, "turnover_rank": 8, "first_year": 2025, "last_year": 2025, "years_active": 1}}, {"type": "Feature", "geometry": {"type": "Point", "coordinates": [3.345008, 48.76188]}, "properties": {"street_name": "RUE DU FRANCHIN", "sales": 4, "sales_appt": 0, "sales_maison": 1, "median_price": 880000.0, "median_price_per_sqm": 3928.5714285714284, "turnover_score": 14.3, "turnover_rank": 9, "first_year": 2022, "last_year": 2022, "years_active": 1}}, {"type": "Feature", "geometry": {"type": "Point", "coordinates": [3.33277, 48.7512725]}, "properties": {"street_name": "LE PRE DION", "sales": 4, "sales_appt": 0, "sales_maison": 0, "median_price": 22240.0, "median_price_per_sqm": null, "turnover_score": 14.3, "turnover_rank": 9, "first_year": 2023, "last_year": 2023, "years_active": 1}}, {"type": "Feature", "geometry": {"type": "Point", "coordinates": [3.3407590000000003, 48.750979]}, "properties": {"street_name": "LA GLOYERE", "sales": 4, "sales_appt": 0, "sales_maison": 0, "median_price": 3250.0, "median_price_per_sqm": null, "turnover_score": 14.3, "turnover_rank": 9, "first_year": 2022, "last_year": 2023, "years_active": 2}}, {"type": "Feature", "geometry": {"type": "Point", "coordinates": [3.367788, 48.753570999999994]}, "properties": {"street_name": "DROUILLY", "sales": 4, "sales_appt": 0, "sales_maison": 0, "median_price": 10000.0, "median_price_per_sqm": null, "turnover_score": 14.3, "turnover_rank": 9, "first_year": 2021, "last_year": 2021, "years_active": 1}}, {"type": "Feature", "geometry": {"type": "Point", "coordinates": [3.354251, 48.7649335]}, "properties": {"street_name": "LA VALLEE PICOT", "sales": 4, "sales_appt": 0, "sales_maison": 0, "median_price": 1255.8, "median_price_per_sqm": null, "turnover_score": 14.3, "turnover_rank": 9, "first_year": 2022, "last_year": 2023, "years_active": 2}}, {"type": "Feature", "geometry": {"type": "Point", "coordinates": [3.3240119999999997, 48.757926]}, "properties": {"street_name": "CHATEAUBOUT", "sales": 4, "sales_appt": 0, "sales_maison": 1, "median_price": 230000.0, "median_price_per_sqm": 2446.808510638298, "turnover_score": 14.3, "turnover_rank": 9, "first_year": 2023, "last_year": 2023, "years_active": 1}}, {"type": "Feature", "geometry": {"type": "Point", "coordinates": [3.3437875, 48.768226]}, "properties": {"street_name": "RUE DE LA BALOQUERIE", "sales": 4, "sales_appt": 0, "sales_maison": 4, "median_price": 209500.0, "median_price_per_sqm": 1743.611111111111, "turnover_score": 14.3, "turnover_rank": 9, "first_year": 2021, "last_year": 2021, "years_active": 1}}, {"type": "Feature", "geometry": {"type": "Point", "coordinates": [3.34238, 48.760602500000005]}, "properties": {"street_name": "LES CLOS", "sales": 4, "sales_appt": 0, "sales_maison": 0, "median_price": 180000.0, "median_price_per_sqm": null, "turnover_score": 14.3, "turnover_rank": 9, "first_year": 2025, "last_year": 2025, "years_active": 1}}, {"type": "Feature", "geometry": {"type": "Point", "coordinates": [3.353215, 48.752497000000005]}, "properties": {"street_name": "LES MARNOTTES", "sales": 4, "sales_appt": 0, "sales_maison": 0, "median_price": 180000.0, "median_price_per_sqm": null, "turnover_score": 14.3, "turnover_rank": 9, "first_year": 2025, "last_year": 2025, "years_active": 1}}, {"type": "Feature", "geometry": {"type": "Point", "coordinates": [3.3434575, 48.753344]}, "properties": {"street_name": "LE CALVAIRE", "sales": 4, "sales_appt": 0, "sales_maison": 0, "median_price": 96592.0, "median_price_per_sqm": null, "turnover_score": 14.3, "turnover_rank": 9, "first_year": 2025, "last_year": 2025, "years_active": 1}}, {"type": "Feature", "geometry": {"type": "Point", "coordinates": [3.344305, 48.753496]}, "properties": {"street_name": "LE BAS DU CALVAIRE", "sales": 4, "sales_appt": 0, "sales_maison": 0, "median_price": 13184.0, "median_price_per_sqm": null, "turnover_score": 14.3, "turnover_rank": 9, "first_year": 2025, "last_year": 2025, "years_active": 1}}, {"type": "Feature", "geometry": {"type": "Point", "coordinates": [3.3441015, 48.756814500000004]}, "properties": {"street_name": "LE BOUT D EN HAUT", "sales": 4, "sales_appt": 0, "sales_maison": 0, "median_price": 281000.0, "median_price_per_sqm": null, "turnover_score": 14.3, "turnover_rank": 9, "first_year": 2021, "last_year": 2023, "years_active": 2}}, {"type": "Feature", "geometry": {"type": "Point", "coordinates": [3.34771, 48.759372]}, "properties": {"street_name": "RUE DE CHAMPBOIS", "sales": 3, "sales_appt": 0, "sales_maison": 1, "median_price": 110000.0, "median_price_per_sqm": 1571.4285714285713, "turnover_score": 10.7, "turnover_rank": 10, "first_year": 2024, "last_year": 2024, "years_active": 1}}, {"type": "Feature", "geometry": {"type": "Point", "coordinates": [3.344809, 48.759092]}, "properties": {"street_name": "RUE DES GRAVOTTES", "sales": 3, "sales_appt": 0, "sales_maison": 1, "median_price": 265000.0, "median_price_per_sqm": 1766.6666666666667, "turnover_score": 10.7, "turnover_rank": 10, "first_year": 2022, "last_year": 2022, "years_active": 1}}, {"type": "Feature", "geometry": {"type": "Point", "coordinates": [3.339403, 48.776727]}, "properties": {"street_name": "LES MONTAGNES", "sales": 3, "sales_appt": 0, "sales_maison": 0, "median_price": 2300.0, "median_price_per_sqm": null, "turnover_score": 10.7, "turnover_rank": 10, "first_year": 2021, "last_year": 2023, "years_active": 2}}, {"type": "Feature", "geometry": {"type": "Point", "coordinates": [3.340178, 48.763933]}, "properties": {"street_name": "RUE DU BOIS DES BROSSES", "sales": 2, "sales_appt": 0, "sales_maison": 1, "median_price": 205000.0, "median_price_per_sqm": 1708.3333333333333, "turnover_score": 7.1, "turnover_rank": 11, "first_year": 2024, "last_year": 2024, "years_active": 1}}, {"type": "Feature", "geometry": {"type": "Point", "coordinates": [3.337205, 48.760017]}, "properties": {"street_name": "LA VIGNE", "sales": 2, "sales_appt": 0, "sales_maison": 0, "median_price": 180000.0, "median_price_per_sqm": null, "turnover_score": 7.1, "turnover_rank": 11, "first_year": 2025, "last_year": 2025, "years_active": 1}}, {"type": "Feature", "geometry": {"type": "Point", "coordinates": [3.3399285, 48.763850500000004]}, "properties": {"street_name": "LA GARENNE", "sales": 2, "sales_appt": 0, "sales_maison": 0, "median_price": 205000.0, "median_price_per_sqm": null, "turnover_score": 7.1, "turnover_rank": 11, "first_year": 2024, "last_year": 2024, "years_active": 1}}, {"type": "Feature", "geometry": {"type": "Point", "coordinates": [3.364266, 48.75563]}, "properties": {"street_name": "PIECE DE DROUILLY", "sales": 2, "sales_appt": 0, "sales_maison": 0, "median_price": 20480.0, "median_price_per_sqm": null, "turnover_score": 7.1, "turnover_rank": 11, "first_year": 2025, "last_year": 2025, "years_active": 1}}, {"type": "Feature", "geometry": {"type": "Point", "coordinates": [3.3572379999999997, 48.756451]}, "properties": {"street_name": "LE RU DE LA PATURE", "sales": 2, "sales_appt": 0, "sales_maison": 0, "median_price": 8000.0, "median_price_per_sqm": null, "turnover_score": 7.1, "turnover_rank": 11, "first_year": 2021, "last_year": 2021, "years_active": 1}}, {"type": "Feature", "geometry": {"type": "Point", "coordinates": [3.3578900000000003, 48.775147000000004]}, "properties": {"street_name": "LE BOIS DE LA PIERRE AUX F", "sales": 2, "sales_appt": 0, "sales_maison": 0, "median_price": 2500.0, "median_price_per_sqm": null, "turnover_score": 7.1, "turnover_rank": 11, "first_year": 2023, "last_year": 2023, "years_active": 1}}, {"type": "Feature", "geometry": {"type": "Point", "coordinates": [3.350399, 48.784461]}, "properties": {"street_name": "MORTHOMME", "sales": 2, "sales_appt": 0, "sales_maison": 0, "median_price": 6000.0, "median_price_per_sqm": null, "turnover_score": 7.1, "turnover_rank": 11, "first_year": 2022, "last_year": 2022, "years_active": 1}}, {"type": "Feature", "geometry": {"type": "Point", "coordinates": [3.342134, 48.758865]}, "properties": {"street_name": "FONTAINE CORNAILLES ET VIG", "sales": 1, "sales_appt": 0, "sales_maison": 0, "median_price": 96000.0, "median_price_per_sqm": null, "turnover_score": 3.6, "turnover_rank": 12, "first_year": 2022, "last_year": 2022, "years_active": 1}}, {"type": "Feature", "geometry": {"type": "Point", "coordinates": [3.34483, 48.781692]}, "properties": {"street_name": "BOIS DE MORTHOMME", "sales": 1, "sales_appt": 0, "sales_maison": 0, "median_price": 20000.0, "median_price_per_sqm": null, "turnover_score": 3.6, "turnover_rank": 12, "first_year": 2022, "last_year": 2022, "years_active": 1}}, {"type": "Feature", "geometry": {"type": "Point", "coordinates": [3.339982, 48.751967]}, "properties": {"street_name": "LA FEUILLARDE", "sales": 1, "sales_appt": 0, "sales_maison": 0, "median_price": 22240.0, "median_price_per_sqm": null, "turnover_score": 3.6, "turnover_rank": 12, "first_year": 2023, "last_year": 2023, "years_active": 1}}, {"type": "Feature", "geometry": {"type": "Point", "coordinates": [3.338409, 48.747865]}, "properties": {"street_name": "LE BOIS PRESSOIR MACE", "sales": 1, "sales_appt": 0, "sales_maison": 0, "median_price": 22240.0, "median_price_per_sqm": null, "turnover_score": 3.6, "turnover_rank": 12, "first_year": 2023, "last_year": 2023, "years_active": 1}}, {"type": "Feature", "geometry": {"type": "Point", "coordinates": [3.345561, 48.762501]}, "properties": {"street_name": "RUE DE L EGLISE", "sales": 1, "sales_appt": 0, "sales_maison": 0, "median_price": 43000.0, "median_price_per_sqm": null, "turnover_score": 3.6, "turnover_rank": 12, "first_year": 2024, "last_year": 2024, "years_active": 1}}, {"type": "Feature", "geometry": {"type": "Point", "coordinates": [3.34663, 48.760003]}, "properties": {"street_name": "RUE DE LA CROIX ST JEAN", "sales": 1, "sales_appt": 0, "sales_maison": 1, "median_price": 195000.0, "median_price_per_sqm": 2532.4675324675327, "turnover_score": 3.6, "turnover_rank": 12, "first_year": 2021, "last_year": 2021, "years_active": 1}}, {"type": "Feature", "geometry": {"type": "Point", "coordinates": [3.344646, 48.76261]}, "properties": {"street_name": "RUE DES LYS", "sales": 1, "sales_appt": 0, "sales_maison": 1, "median_price": 145000.0, "median_price_per_sqm": 947.7124183006536, "turnover_score": 3.6, "turnover_rank": 12, "first_year": 2023, "last_year": 2023, "years_active": 1}}]}