{"type": "FeatureCollection", "features": [{"type": "Feature", "geometry": {"type": "Point", "coordinates": [2.646812, 48.796183]}, "properties": {"id_parcelle": "77390000AI0476", "address": "8 AV WINSTON CHURCHILL", "sales": 141, "median_price": 185229.0, "median_price_per_sqm": 3345.350763807285, "median_rooms": 0.0, "first_sale": "2021-03-23", "last_sale": "2025-07-01"}}, {"type": "Feature", "geometry": {"type": "Point", "coordinates": [2.642813, 48.794624]}, "properties": {"id_parcelle": "77390000AI0028", "address": "34 AV DE LA PIERRERIE", "sales": 116, "median_price": 185000.0, "median_price_per_sqm": 2537.313432835821, "median_rooms": 0.0, "first_sale": "2021-03-15", "last_sale": "2025-12-17"}}, {"type": "Feature", "geometry": {"type": "Point", "coordinates": [2.664389, 48.792567]}, "properties": {"id_parcelle": "77390000AC0363", "address": "9001 PL DES MAGNOLIAS", "sales": 69, "median_price": 221060.0, "median_price_per_sqm": 2613.4523809523807, "median_rooms": 0.0, "first_sale": "2021-01-15", "last_sale": "2025-12-12"}}, {"type": "Feature", "geometry": {"type": "Point", "coordinates": [2.64447, 48.793556]}, "properties": {"id_parcelle": "77390000AI0448", "address": "9001 ALL LA MARLIERE", "sales": 61, "median_price": 190000.0, "median_price_per_sqm": 2469.4854797979797, "median_rooms": 0.0, "first_sale": "2021-03-24", "last_sale": "2025-11-21"}}, {"type": "Feature", "geometry": {"type": "Point", "coordinates": [2.65032, 48.794713]}, "properties": {"id_parcelle": "77390000AE0007", "address": "2 SQ LOUISE MICHEL", "sales": 57, "median_price": 215000.0, "median_price_per_sqm": 2655.5555555555557, "median_rooms": 0.0, "first_sale": "2021-06-17", "last_sale": "2025-12-30"}}, {"type": "Feature", "geometry": {"type": "Point", "coordinates": [2.656206, 48.795092]}, "properties": {"id_parcelle": "77390000AD0107", "address": "4 RUE GEORGES POMPIDOU", "sales": 50, "median_price": 199000.0, "median_price_per_sqm": 4189.6551724137935, "median_rooms": 0.0, "first_sale": "2021-07-02", "last_sale": "2025-09-15"}}, {"type": "Feature", "geometry": {"type": "Point", "coordinates": [2.642502, 48.795712]}, "properties": {"id_parcelle": "77390000AI0030", "address": "9 AV DE LA MALIBRAN", "sales": 48, "median_price": 5200000.0, "median_price_per_sqm": 76619.71830985916, "median_rooms": 1.5, "first_sale": "2022-06-03", "last_sale": "2024-12-31"}}, {"type": "Feature", "geometry": {"type": "Point", "coordinates": [2.666025, 48.792794]}, "properties": {"id_parcelle": "77390000AC0358", "address": "3 AV DU MAL FOCH", "sales": 38, "median_price": 217950.0, "median_price_per_sqm": 4031.9148936170213, "median_rooms": 0.0, "first_sale": "2021-02-10", "last_sale": "2025-10-21"}}, {"type": "Feature", "geometry": {"type": "Point", "coordinates": [2.656176, 48.790981]}, "properties": {"id_parcelle": "773900000D1969", "address": "1 RUE LA PEROUSE", "sales": 36, "median_price": 163000.0, "median_price_per_sqm": 3977.777777777778, "median_rooms": 0.0, "first_sale": "2021-01-13", "last_sale": "2025-05-14"}}, {"type": "Feature", "geometry": {"type": "Point", "coordinates": [2.672778, 48.791914]}, "properties": {"id_parcelle": "77390000AO0182", "address": "11 RUE CHARLES LE CHAUVE", "sales": 35, "median_price": 335000.0, "median_price_per_sqm": 3173.076923076923, "median_rooms": 5.0, "first_sale": "2021-02-08", "last_sale": "2025-09-30"}}, {"type": "Feature", "geometry": {"type": "Point", "coordinates": [2.651864, 48.790896]}, "properties": {"id_parcelle": "773900000D2049", "address": "9 ALL DES SOURCES", "sales": 33, "median_price": 185000.0, "median_price_per_sqm": 4223.913043478261, "median_rooms": 0.0, "first_sale": "2021-03-03", "last_sale": "2025-07-28"}}, {"type": "Feature", "geometry": {"type": "Point", "coordinates": [2.653123, 48.791254]}, "properties": {"id_parcelle": "773900000D1949", "address": "17 RUE PASTEUR", "sales": 28, "median_price": 223000.0, "median_price_per_sqm": 3208.955223880597, "median_rooms": 0.0, "first_sale": "2021-05-19", "last_sale": "2025-10-24"}}, {"type": "Feature", "geometry": {"type": "Point", "coordinates": [2.652095, 48.793936]}, "properties": {"id_parcelle": "77390000AE0010", "address": "9001 AV MAURICE DE VLAMINCK", "sales": 24, "median_price": 314500.0, "median_price_per_sqm": 3649.233409610984, "median_rooms": 2.0, "first_sale": "2021-09-16", "last_sale": "2025-09-09"}}, {"type": "Feature", "geometry": {"type": "Point", "coordinates": [2.652129, 48.796139]}, "properties": {"id_parcelle": "77390000AK0026", "address": "11 RUE DE L'EGALITE", "sales": 24, "median_price": 184850.0, "median_price_per_sqm": 3507.789855072464, "median_rooms": 1.0, "first_sale": "2021-05-07", "last_sale": "2024-02-02"}}, {"type": "Feature", "geometry": {"type": "Point", "coordinates": [2.662843, 48.793265]}, "properties": {"id_parcelle": "77390000AD0052", "address": "8 RUE DES VIOLETTES", "sales": 23, "median_price": 207900.0, "median_price_per_sqm": 3708.75, "median_rooms": 0.0, "first_sale": "2021-09-29", "last_sale": "2025-05-06"}}, {"type": "Feature", "geometry": {"type": "Point", "coordinates": [2.638639, 48.801203]}, "properties": {"id_parcelle": "773900000A1494", "address": "49 AV JOSEPH BODIN BOISMORTIER", "sales": 23, "median_price": 190500.0, "median_price_per_sqm": 3530.3030303030305, "median_rooms": 0.0, "first_sale": "2021-01-27", "last_sale": "2025-05-16"}}, {"type": "Feature", "geometry": {"type": "Point", "coordinates": [2.648243, 48.798302]}, "properties": {"id_parcelle": "77390000AK0105", "address": "3 RUE JULES FERRY", "sales": 23, "median_price": 214200.0, "median_price_per_sqm": 3045.3125, "median_rooms": 0.0, "first_sale": "2021-04-27", "last_sale": "2025-10-03"}}, {"type": "Feature", "geometry": {"type": "Point", "coordinates": [2.664209, 48.796404]}, "properties": {"id_parcelle": "77390000AB0474", "address": "12 AV JEAN BAPTISTE COROT", "sales": 21, "median_price": 295000.0, "median_price_per_sqm": 3144.578313253012, "median_rooms": 5.0, "first_sale": "2021-01-28", "last_sale": "2025-12-15"}}, {"type": "Feature", "geometry": {"type": "Point", "coordinates": [2.638851, 48.79343]}, "properties": {"id_parcelle": "77390000AH0011", "address": "3 SQ ANTOINE BOURDELLE", "sales": 20, "median_price": 302000.0, "median_price_per_sqm": 3201.595744680851, "median_rooms": 5.0, "first_sale": "2021-04-15", "last_sale": "2025-06-13"}}, {"type": "Feature", "geometry": {"type": "Point", "coordinates": [2.657687, 48.796365]}, "properties": {"id_parcelle": "77390000AD0004", "address": "2 SQ GUSTAVE COURBET", "sales": 20, "median_price": 293675.0, "median_price_per_sqm": 3447.6190476190477, "median_rooms": 4.0, "first_sale": "2021-04-29", "last_sale": "2025-09-12"}}, {"type": "Feature", "geometry": {"type": "Point", "coordinates": [2.647166, 48.790491]}, "properties": {"id_parcelle": "773900000D1848", "address": "16 RUE DE PONTAULT", "sales": 20, "median_price": 1679238.0, "median_price_per_sqm": 7996.371428571429, "median_rooms": 0.0, "first_sale": "2021-04-14", "last_sale": "2025-07-08"}}, {"type": "Feature", "geometry": {"type": "Point", "coordinates": [2.65774, 48.787629]}, "properties": {"id_parcelle": "773900000D0869", "address": "15 AV DES SAPINS", "sales": 18, "median_price": 750000.0, "median_price_per_sqm": 17441.86046511628, "median_rooms": 0.0, "first_sale": "2023-10-03", "last_sale": "2023-10-03"}}, {"type": "Feature", "geometry": {"type": "Point", "coordinates": [2.651071, 48.791433]}, "properties": {"id_parcelle": "773900000D1948", "address": "40 RUE PASTEUR", "sales": 18, "median_price": 153700.0, "median_price_per_sqm": 4533.498759305211, "median_rooms": 0.0, "first_sale": "2021-03-15", "last_sale": "2025-06-10"}}, {"type": "Feature", "geometry": {"type": "Point", "coordinates": [2.644191, 48.795517]}, "properties": {"id_parcelle": "77390000AI0021", "address": "9001 RES DU CENTRE COMMERCIAL", "sales": 18, "median_price": 180000.0, "median_price_per_sqm": 2440.4761904761904, "median_rooms": 0.0, "first_sale": "2021-02-08", "last_sale": "2025-07-24"}}, {"type": "Feature", "geometry": {"type": "Point", "coordinates": [2.662928, 48.792917]}, "properties": {"id_parcelle": "77390000AD0092", "address": "1 RUE DES VIOLETTES", "sales": 18, "median_price": 250000.0, "median_price_per_sqm": 3520.5479452054797, "median_rooms": 0.0, "first_sale": "2021-09-03", "last_sale": "2025-03-26"}}, {"type": "Feature", "geometry": {"type": "Point", "coordinates": [2.640721, 48.800531]}, "properties": {"id_parcelle": "773900000A1493", "address": "45 AV JOSEPH BODIN BOISMORTIER", "sales": 17, "median_price": 223400.0, "median_price_per_sqm": 3404.255319148936, "median_rooms": 0.0, "first_sale": "2021-03-24", "last_sale": "2025-06-06"}}, {"type": "Feature", "geometry": {"type": "Point", "coordinates": [2.653782, 48.79072]}, "properties": {"id_parcelle": "773900000D0180", "address": "13 RUE PASTEUR", "sales": 17, "median_price": 185000.0, "median_price_per_sqm": 2492.6470588235297, "median_rooms": 0.0, "first_sale": "2021-10-01", "last_sale": "2025-12-12"}}, {"type": "Feature", "geometry": {"type": "Point", "coordinates": [2.645002, 48.796684]}, "properties": {"id_parcelle": "77390000AI0011", "address": "9003 RUE DES AULNES", "sales": 17, "median_price": 210500.0, "median_price_per_sqm": 1739.280523255814, "median_rooms": 0.0, "first_sale": "2021-03-04", "last_sale": "2025-06-23"}}, {"type": "Feature", "geometry": {"type": "Point", "coordinates": [2.662894, 48.792692]}, "properties": {"id_parcelle": "77390000AD0091", "address": "3 RUE DES BLEUETS", "sales": 16, "median_price": 182500.0, "median_price_per_sqm": 4000.0, "median_rooms": 0.0, "first_sale": "2021-03-02", "last_sale": "2023-08-29"}}, {"type": "Feature", "geometry": {"type": "Point", "coordinates": [2.649309, 48.789561]}, "properties": {"id_parcelle": "773900000C0446", "address": "1 PL RAYMOND BAURIN", "sales": 15, "median_price": 236000.0, "median_price_per_sqm": 3850.877192982456, "median_rooms": 0.0, "first_sale": "2021-05-19", "last_sale": "2024-08-06"}}, {"type": "Feature", "geometry": {"type": "Point", "coordinates": [2.659558, 48.79035]}, "properties": {"id_parcelle": "773900000D0757", "address": "8 AV DU GEN LECLERC", "sales": 14, "median_price": 143000.0, "median_price_per_sqm": 4480.266666666666, "median_rooms": 0.0, "first_sale": "2021-07-13", "last_sale": "2025-07-01"}}, {"type": "Feature", "geometry": {"type": "Point", "coordinates": [2.654717, 48.79199]}, "properties": {"id_parcelle": "773900000D0070", "address": "6 AV PIERRE CURIE", "sales": 13, "median_price": 187000.0, "median_price_per_sqm": 4282.842724978974, "median_rooms": 0.0, "first_sale": "2023-01-23", "last_sale": "2025-07-22"}}, {"type": "Feature", "geometry": {"type": "Point", "coordinates": [2.628671, 48.800563]}, "properties": {"id_parcelle": "77390000AL0225", "address": "13 RUE DENIS PAPIN", "sales": 13, "median_price": 1400000.0, "median_price_per_sqm": 17073.170731707316, "median_rooms": 0.0, "first_sale": "2022-09-30", "last_sale": "2022-09-30"}}, {"type": "Feature", "geometry": {"type": "Point", "coordinates": [2.645078, 48.795914]}, "properties": {"id_parcelle": "77390000AI0019", "address": "19 RES DU CENTRE COMMERCIAL", "sales": 13, "median_price": 187000.0, "median_price_per_sqm": 2160.919540229885, "median_rooms": 4.0, "first_sale": "2021-07-13", "last_sale": "2025-07-24"}}, {"type": "Feature", "geometry": {"type": "Point", "coordinates": [2.649341, 48.790961]}, "properties": {"id_parcelle": "773900000D1831", "address": "54 RUE PASTEUR", "sales": 11, "median_price": 151000.0, "median_price_per_sqm": 5033.333333333333, "median_rooms": 0.0, "first_sale": "2021-02-12", "last_sale": "2022-10-13"}}, {"type": "Feature", "geometry": {"type": "Point", "coordinates": [2.664707, 48.791906]}, "properties": {"id_parcelle": "77390000AC0423", "address": "6 RUE DES COQUELICOTS", "sales": 11, "median_price": 250000.0, "median_price_per_sqm": 3490.6944444444443, "median_rooms": 0.0, "first_sale": "2021-10-15", "last_sale": "2023-07-06"}}, {"type": "Feature", "geometry": {"type": "Point", "coordinates": [2.661797, 48.792627]}, "properties": {"id_parcelle": "773900000D2069", "address": "16 RUE DES BOUTONS D'OR", "sales": 10, "median_price": 206500.0, "median_price_per_sqm": 3560.344827586207, "median_rooms": 1.0, "first_sale": "2021-10-19", "last_sale": "2024-11-13"}}, {"type": "Feature", "geometry": {"type": "Point", "coordinates": [2.645656, 48.795623]}, "properties": {"id_parcelle": "77390000AI0490", "address": "1 AV WINSTON CHURCHILL", "sales": 8, "median_price": 183890.0, "median_price_per_sqm": 3533.5497835497836, "median_rooms": 1.0, "first_sale": "2024-01-17", "last_sale": "2025-12-16"}}, {"type": "Feature", "geometry": {"type": "Point", "coordinates": [2.662735, 48.791067]}, "properties": {"id_parcelle": "773900000D1198", "address": "33 AV DU GEN LECLERC", "sales": 8, "median_price": 780000.0, "median_price_per_sqm": 30600.0, "median_rooms": 1.0, "first_sale": "2023-02-03", "last_sale": "2023-02-03"}}, {"type": "Feature", "geometry": {"type": "Point", "coordinates": [2.633956, 48.800181]}, "properties": {"id_parcelle": "77390000AL0114", "address": "17 AV DE LA MALIBRAN", "sales": 8, "median_price": 103000.0, "median_price_per_sqm": 5950.932400932401, "median_rooms": 1.0, "first_sale": "2021-07-28", "last_sale": "2025-05-12"}}, {"type": "Feature", "geometry": {"type": "Point", "coordinates": [2.666668, 48.791238]}, "properties": {"id_parcelle": "77390000AC0345", "address": "11 AV DU MAL FOCH", "sales": 7, "median_price": 228000.0, "median_price_per_sqm": 4067.7966101694915, "median_rooms": 0.0, "first_sale": "2021-12-09", "last_sale": "2023-02-02"}}, {"type": "Feature", "geometry": {"type": "Point", "coordinates": [2.650745, 48.79708]}, "properties": {"id_parcelle": "77390000AK0118", "address": "13 RUE LAVOISIER", "sales": 7, "median_price": 320000.0, "median_price_per_sqm": 2653.631284916201, "median_rooms": 0.0, "first_sale": "2021-04-06", "last_sale": "2023-09-13"}}, {"type": "Feature", "geometry": {"type": "Point", "coordinates": [2.662259, 48.790635]}, "properties": {"id_parcelle": "773900000D1940", "address": "24 AV DU GEN LECLERC", "sales": 7, "median_price": 229999.0, "median_price_per_sqm": 4240.0, "median_rooms": 0.0, "first_sale": "2021-07-01", "last_sale": "2024-02-20"}}, {"type": "Feature", "geometry": {"type": "Point", "coordinates": [2.663492, 48.790764]}, "properties": {"id_parcelle": "773900000D1204", "address": "32 AV DU GEN LECLERC", "sales": 6, "median_price": 2547600.0, "median_price_per_sqm": 33968.0, "median_rooms": 2.0, "first_sale": "2023-06-29", "last_sale": "2024-01-16"}}, {"type": "Feature", "geometry": {"type": "Point", "coordinates": [2.663697, 48.792012]}, "properties": {"id_parcelle": "773900000D1188", "address": "13 RUE CHARLES VAILLANT", "sales": 6, "median_price": 385000.0, "median_price_per_sqm": 8377.314814814814, "median_rooms": 1.5, "first_sale": "2021-09-17", "last_sale": "2021-09-17"}}, {"type": "Feature", "geometry": {"type": "Point", "coordinates": [2.667789, 48.791077]}, "properties": {"id_parcelle": "77390000AC0445", "address": "19 AV DU MAL FOCH", "sales": 6, "median_price": 600000.0, "median_price_per_sqm": 21428.571428571428, "median_rooms": 1.0, "first_sale": "2023-04-17", "last_sale": "2023-04-17"}}, {"type": "Feature", "geometry": {"type": "Point", "coordinates": [2.650558, 48.790706]}, "properties": {"id_parcelle": "773900000D2445", "address": "33 RUE PASTEUR", "sales": 6, "median_price": 157000.0, "median_price_per_sqm": 4468.085106382979, "median_rooms": 0.5, "first_sale": "2021-09-09", "last_sale": "2025-05-06"}}, {"type": "Feature", "geometry": {"type": "Point", "coordinates": [2.658992, 48.786372]}, "properties": {"id_parcelle": "773900000D1017", "address": "34 AV DES SAPINS", "sales": 6, "median_price": 434375.0, "median_price_per_sqm": 3290.719696969697, "median_rooms": 0.0, "first_sale": "2021-07-28", "last_sale": "2024-06-10"}}, {"type": "Feature", "geometry": {"type": "Point", "coordinates": [2.658059, 48.789794]}, "properties": {"id_parcelle": "773900000D0799", "address": "3 AV PARMENTIER", "sales": 6, "median_price": 370000.0, "median_price_per_sqm": 5362.31884057971, "median_rooms": 0.0, "first_sale": "2024-05-16", "last_sale": "2024-05-16"}}, {"type": "Feature", "geometry": {"type": "Point", "coordinates": [2.663056, 48.79068]}, "properties": {"id_parcelle": "773900000D1174", "address": "28 AV DU GEN LECLERC", "sales": 6, "median_price": 2547600.0, "median_price_per_sqm": 35383.333333333336, "median_rooms": 2.0, "first_sale": "2023-09-27", "last_sale": "2024-01-16"}}, {"type": "Feature", "geometry": {"type": "Point", "coordinates": [2.663749, 48.790809]}, "properties": {"id_parcelle": "773900000D0633", "address": "34 AV DU GEN LECLERC", "sales": 6, "median_price": 2547600.0, "median_price_per_sqm": 59246.51162790698, "median_rooms": 1.0, "first_sale": "2023-09-27", "last_sale": "2024-01-16"}}, {"type": "Feature", "geometry": {"type": "Point", "coordinates": [2.663333, 48.790743]}, "properties": {"id_parcelle": "773900000D0630", "address": "30 AV DU GEN LECLERC", "sales": 6, "median_price": 2547600.0, "median_price_per_sqm": 48992.307692307695, "median_rooms": 1.5, "first_sale": "2023-09-27", "last_sale": "2024-01-16"}}, {"type": "Feature", "geometry": {"type": "Point", "coordinates": [2.644439, 48.795056]}, "properties": {"id_parcelle": "77390000AI0478", "address": "21 RES DU CENTRE COMMERCIAL", "sales": 5, "median_price": 193750.0, "median_price_per_sqm": 2202.3809523809523, "median_rooms": 4.0, "first_sale": "2021-05-14", "last_sale": "2023-08-22"}}, {"type": "Feature", "geometry": {"type": "Point", "coordinates": [2.6505, 48.791375]}, "properties": {"id_parcelle": "773900000D0019", "address": "6 RUE DE LA GARE D EMERAINVILLE", "sales": 5, "median_price": 440000.0, "median_price_per_sqm": 12222.222222222223, "median_rooms": 2.0, "first_sale": "2024-01-11", "last_sale": "2024-01-11"}}, {"type": "Feature", "geometry": {"type": "Point", "coordinates": [2.653818, 48.791477]}, "properties": {"id_parcelle": "773900000D0059", "address": "12 RUE PASTEUR", "sales": 5, "median_price": 71000.0, "median_price_per_sqm": 2448.2758620689656, "median_rooms": 1.0, "first_sale": "2023-09-21", "last_sale": "2025-12-16"}}, {"type": "Feature", "geometry": {"type": "Point", "coordinates": [2.663553, 48.791821]}, "properties": {"id_parcelle": "773900000D1189", "address": "11 RUE CHARLES VAILLANT", "sales": 5, "median_price": 185000.0, "median_price_per_sqm": 3772.6041666666665, "median_rooms": 0.0, "first_sale": "2022-08-18", "last_sale": "2025-04-18"}}, {"type": "Feature", "geometry": {"type": "Point", "coordinates": [2.65066, 48.79099]}, "properties": {"id_parcelle": "773900000D0166", "address": "31 RUE PASTEUR", "sales": 4, "median_price": 179900.0, "median_price_per_sqm": 7821.739130434783, "median_rooms": 1.0, "first_sale": "2022-05-12", "last_sale": "2022-05-12"}}, {"type": "Feature", "geometry": {"type": "Point", "coordinates": [2.638974, 48.801692]}, "properties": {"id_parcelle": "773900000A1645", "address": "1 RUE DES CHARMES", "sales": 4, "median_price": 344600.0, "median_price_per_sqm": 3668.799827623357, "median_rooms": 4.5, "first_sale": "2022-09-16", "last_sale": "2025-11-17"}}, {"type": "Feature", "geometry": {"type": "Point", "coordinates": [2.653448, 48.791349]}, "properties": {"id_parcelle": "773900000D2526", "address": "14 RUE PASTEUR", "sales": 4, "median_price": 340000.0, "median_price_per_sqm": 8717.948717948719, "median_rooms": 2.0, "first_sale": "2021-06-03", "last_sale": "2021-06-03"}}, {"type": "Feature", "geometry": {"type": "Point", "coordinates": [2.668141, 48.79433]}, "properties": {"id_parcelle": "77390000AC0139", "address": "12 AV HONORE DE BALZAC", "sales": 4, "median_price": 348570.8, "median_price_per_sqm": 4357.135, "median_rooms": 2.0, "first_sale": "2023-04-18", "last_sale": "2023-04-24"}}, {"type": "Feature", "geometry": {"type": "Point", "coordinates": [2.659015, 48.78498]}, "properties": {"id_parcelle": "773900000B0218", "address": "1 AV GUSTAVE CHARPENTIER", "sales": 4, "median_price": 427370.0, "median_price_per_sqm": 4149.223300970873, "median_rooms": 2.5, "first_sale": "2021-06-11", "last_sale": "2021-06-11"}}, {"type": "Feature", "geometry": {"type": "Point", "coordinates": [2.661073, 48.783414]}, "properties": {"id_parcelle": "773900000B0267", "address": "37 AV GUSTAVE CHARPENTIER", "sales": 4, "median_price": 452632.0, "median_price_per_sqm": 3710.098360655738, "median_rooms": 2.5, "first_sale": "2022-04-20", "last_sale": "2022-04-20"}}, {"type": "Feature", "geometry": {"type": "Point", "coordinates": [2.662769, 48.786256]}, "properties": {"id_parcelle": "773900000B0380", "address": "6 AV CAMILLE SAINT SAENS", "sales": 4, "median_price": 471652.0, "median_price_per_sqm": 3368.942857142857, "median_rooms": 3.5, "first_sale": "2021-05-31", "last_sale": "2021-05-31"}}, {"type": "Feature", "geometry": {"type": "Point", "coordinates": [2.653306, 48.792094]}, "properties": {"id_parcelle": "773900000D1958", "address": "22 AV PIERRE CURIE", "sales": 4, "median_price": 463300.0, "median_price_per_sqm": 4211.818181818182, "median_rooms": 0.0, "first_sale": "2022-12-21", "last_sale": "2022-12-21"}}, {"type": "Feature", "geometry": {"type": "Point", "coordinates": [2.658181, 48.786532]}, "properties": {"id_parcelle": "773900000D0965", "address": "74 AV MOZART", "sales": 4, "median_price": 407000.0, "median_price_per_sqm": 4153.061224489796, "median_rooms": 0.0, "first_sale": "2021-08-02", "last_sale": "2021-08-02"}}, {"type": "Feature", "geometry": {"type": "Point", "coordinates": [2.658855, 48.784045]}, "properties": {"id_parcelle": "773900000B0247", "address": "10 AV GABRIEL PIERNE", "sales": 4, "median_price": 466740.0, "median_price_per_sqm": 8313.80625, "median_rooms": 1.5, "first_sale": "2021-10-14", "last_sale": "2021-10-14"}}, {"type": "Feature", "geometry": {"type": "Point", "coordinates": [2.651042, 48.7901]}, "properties": {"id_parcelle": "773900000D1907", "address": "28 PREMIERE AVENUE", "sales": 4, "median_price": 181960.0, "median_price_per_sqm": 3369.6296296296296, "median_rooms": 0.0, "first_sale": "2025-05-15", "last_sale": "2025-05-15"}}, {"type": "Feature", "geometry": {"type": "Point", "coordinates": [2.655662, 48.791691]}, "properties": {"id_parcelle": "773900000D1943", "address": "3 PL SASSINOT", "sales": 4, "median_price": 128750.0, "median_price_per_sqm": 2501.528301886792, "median_rooms": 1.0, "first_sale": "2024-11-05", "last_sale": "2024-11-19"}}, {"type": "Feature", "geometry": {"type": "Point", "coordinates": [2.663049, 48.79189]}, "properties": {"id_parcelle": "773900000D2129", "address": "10 RUE DES BOUTONS D'OR", "sales": 4, "median_price": 156000.0, "median_price_per_sqm": 3579.5, "median_rooms": 2.5, "first_sale": "2023-02-07", "last_sale": "2025-09-17"}}, {"type": "Feature", "geometry": {"type": "Point", "coordinates": [2.650717, 48.790974]}, "properties": {"id_parcelle": "773900000D1826", "address": "29 RUE PASTEUR", "sales": 4, "median_price": 113500.0, "median_price_per_sqm": 3418.75, "median_rooms": 2.0, "first_sale": "2021-07-15", "last_sale": "2025-10-02"}}, {"type": "Feature", "geometry": {"type": "Point", "coordinates": [2.664505, 48.791432]}, "properties": {"id_parcelle": "773900000D1400", "address": "1 RUE CHARLES VAILLANT", "sales": 3, "median_price": 370000.0, "median_price_per_sqm": 2936.5079365079364, "median_rooms": 0.0, "first_sale": "2022-10-07", "last_sale": "2022-10-07"}}, {"type": "Feature", "geometry": {"type": "Point", "coordinates": [2.655303, 48.790808]}, "properties": {"id_parcelle": "773900000D1133", "address": "5 RUE PASTEUR", "sales": 3, "median_price": 239000.0, "median_price_per_sqm": 3854.8387096774195, "median_rooms": 0.0, "first_sale": "2022-05-05", "last_sale": "2022-05-05"}}, {"type": "Feature", "geometry": {"type": "Point", "coordinates": [2.64858, 48.791562]}, "properties": {"id_parcelle": "773900000D1841", "address": "19 RUE DE LA GARE D EMERAINVILLE", "sales": 3, "median_price": 300000.0, "median_price_per_sqm": 2988.215488215488, "median_rooms": 5.0, "first_sale": "2021-06-28", "last_sale": "2024-07-08"}}, {"type": "Feature", "geometry": {"type": "Point", "coordinates": [2.654348, 48.791714]}, "properties": {"id_parcelle": "773900000D1891", "address": "AV PIERRE CURIE", "sales": 3, "median_price": 260000.0, "median_price_per_sqm": null, "median_rooms": null, "first_sale": "2023-01-23", "last_sale": "2025-12-17"}}, {"type": "Feature", "geometry": {"type": "Point", "coordinates": [2.657227, 48.792014]}, "properties": {"id_parcelle": "773900000D1287", "address": "39 AV LAFAYETTE", "sales": 3, "median_price": 369000.0, "median_price_per_sqm": 4146.067415730337, "median_rooms": 0.0, "first_sale": "2025-04-25", "last_sale": "2025-04-25"}}, {"type": "Feature", "geometry": {"type": "Point", "coordinates": [2.663976, 48.79087]}, "properties": {"id_parcelle": "773900000D1149", "address": "2 AV MOZART", "sales": 3, "median_price": 2547600.0, "median_price_per_sqm": 36394.28571428572, "median_rooms": 3.0, "first_sale": "2023-09-27", "last_sale": "2024-01-16"}}, {"type": "Feature", "geometry": {"type": "Point", "coordinates": [2.661247, 48.789474]}, "properties": {"id_parcelle": "773900000D0721", "address": "25 AV DU COMMERCE", "sales": 3, "median_price": 356900.0, "median_price_per_sqm": 3641.8367346938776, "median_rooms": 0.0, "first_sale": "2023-05-17", "last_sale": "2023-05-17"}}, {"type": "Feature", "geometry": {"type": "Point", "coordinates": [2.656937, 48.789923]}, "properties": {"id_parcelle": "773900000D0773", "address": "1 AV DE LA REINE", "sales": 3, "median_price": 570000.0, "median_price_per_sqm": 10000.0, "median_rooms": 0.0, "first_sale": "2023-03-03", "last_sale": "2023-03-03"}}, {"type": "Feature", "geometry": {"type": "Point", "coordinates": [2.65608, 48.790597]}, "properties": {"id_parcelle": "773900000D1130", "address": "3 RUE PASTEUR", "sales": 3, "median_price": 1000000.0, "median_price_per_sqm": 15384.615384615385, "median_rooms": 3.0, "first_sale": "2023-12-21", "last_sale": "2023-12-21"}}, {"type": "Feature", "geometry": {"type": "Point", "coordinates": [2.658263, 48.78325]}, "properties": {"id_parcelle": "773900000C0590", "address": "57 AV CHARLES DE GAULLE", "sales": 3, "median_price": 4500000.0, "median_price_per_sqm": 3082.1917808219177, "median_rooms": 0.0, "first_sale": "2024-01-11", "last_sale": "2024-01-11"}}, {"type": "Feature", "geometry": {"type": "Point", "coordinates": [2.659563, 48.7907]}, "properties": {"id_parcelle": "773900000D2455", "address": "11 AV DU GEN LECLERC", "sales": 3, "median_price": 320000.0, "median_price_per_sqm": 8826.1253309797, "median_rooms": 0.0, "first_sale": "2022-01-11", "last_sale": "2022-01-11"}}, {"type": "Feature", "geometry": {"type": "Point", "coordinates": [2.644763, 48.795425]}, "properties": {"id_parcelle": "77390000AI0480", "address": "20 RES DU CENTRE COMMERCIAL", "sales": 3, "median_price": 195000.0, "median_price_per_sqm": 2759.259259259259, "median_rooms": 3.0, "first_sale": "2024-02-26", "last_sale": "2025-09-15"}}, {"type": "Feature", "geometry": {"type": "Point", "coordinates": [2.638478, 48.805785]}, "properties": {"id_parcelle": "77390000AM0323", "address": "18 RUE DES CHENES", "sales": 3, "median_price": 410000.0, "median_price_per_sqm": 4555.555555555556, "median_rooms": 0.0, "first_sale": "2025-11-12", "last_sale": "2025-11-12"}}, {"type": "Feature", "geometry": {"type": "Point", "coordinates": [2.65281, 48.791806]}, "properties": {"id_parcelle": "773900000D2425", "address": "2 AV PANAS", "sales": 3, "median_price": 450000.0, "median_price_per_sqm": 15000.0, "median_rooms": 2.0, "first_sale": "2021-12-01", "last_sale": "2021-12-01"}}, {"type": "Feature", "geometry": {"type": "Point", "coordinates": [2.665477, 48.794424]}, "properties": {"id_parcelle": "77390000AC0077", "address": "22 AV LA FONTAINE", "sales": 3, "median_price": 405000.0, "median_price_per_sqm": 3529.411764705882, "median_rooms": 5.0, "first_sale": "2021-01-18", "last_sale": "2022-09-21"}}, {"type": "Feature", "geometry": {"type": "Point", "coordinates": [2.642049, 48.793647]}, "properties": {"id_parcelle": "77390000AI0519", "address": "9001 RUE DE LA MARE", "sales": 3, "median_price": 220000.0, "median_price_per_sqm": 2500.0, "median_rooms": 4.0, "first_sale": "2025-08-05", "last_sale": "2025-08-05"}}, {"type": "Feature", "geometry": {"type": "Point", "coordinates": [2.635089, 48.800024]}, "properties": {"id_parcelle": "77390000AL0167", "address": "12 RUE JULES GUESDE", "sales": 3, "median_price": 290000.0, "median_price_per_sqm": 3014.044943820225, "median_rooms": 4.0, "first_sale": "2021-01-27", "last_sale": "2023-10-06"}}, {"type": "Feature", "geometry": {"type": "Point", "coordinates": [2.64548, 48.790197]}, "properties": {"id_parcelle": "77390000AH0195", "address": "20 RUE DE PONTAULT", "sales": 3, "median_price": 1750000.0, "median_price_per_sqm": 3623.1884057971015, "median_rooms": 0.0, "first_sale": "2023-07-17", "last_sale": "2023-07-17"}}, {"type": "Feature", "geometry": {"type": "Point", "coordinates": [2.662406, 48.793779]}, "properties": {"id_parcelle": "77390000AD0148", "address": "9000 AV JACQUES CHABAN DELMAS", "sales": 3, "median_price": 259000.0, "median_price_per_sqm": 3320.5128205128203, "median_rooms": 0.0, "first_sale": "2025-12-30", "last_sale": "2025-12-30"}}, {"type": "Feature", "geometry": {"type": "Point", "coordinates": [2.666948, 48.791266]}, "properties": {"id_parcelle": "77390000AC0344", "address": "13 AV DU MAL FOCH", "sales": 3, "median_price": 789000.0, "median_price_per_sqm": 22691.165413533836, "median_rooms": 1.0, "first_sale": "2022-01-13", "last_sale": "2022-01-13"}}, {"type": "Feature", "geometry": {"type": "Point", "coordinates": [2.650615, 48.791278]}, "properties": {"id_parcelle": "773900000D0022", "address": "RUE PASTEUR", "sales": 3, "median_price": 125000.0, "median_price_per_sqm": null, "median_rooms": null, "first_sale": "2021-04-22", "last_sale": "2022-11-30"}}, {"type": "Feature", "geometry": {"type": "Point", "coordinates": [2.662077, 48.786055]}, "properties": {"id_parcelle": "773900000B0373", "address": "9 AV GEORGES BIZET", "sales": 3, "median_price": 380000.0, "median_price_per_sqm": 3423.4234234234236, "median_rooms": 0.0, "first_sale": "2025-04-30", "last_sale": "2025-04-30"}}, {"type": "Feature", "geometry": {"type": "Point", "coordinates": [2.66037, 48.786374]}, "properties": {"id_parcelle": "773900000B1211", "address": "LES FRICHES", "sales": 3, "median_price": 427370.0, "median_price_per_sqm": null, "median_rooms": null, "first_sale": "2021-06-11", "last_sale": "2024-04-08"}}, {"type": "Feature", "geometry": {"type": "Point", "coordinates": [2.658713, 48.791778]}, "properties": {"id_parcelle": "773900000D0561", "address": "17 AV DE LA FAISANDERIE", "sales": 3, "median_price": 395000.0, "median_price_per_sqm": 3376.068376068376, "median_rooms": 0.0, "first_sale": "2023-03-30", "last_sale": "2023-03-30"}}, {"type": "Feature", "geometry": {"type": "Point", "coordinates": [2.659205, 48.78537]}, "properties": {"id_parcelle": "773900000B1212", "address": "LES FRICHES", "sales": 3, "median_price": 427370.0, "median_price_per_sqm": null, "median_rooms": null, "first_sale": "2021-06-11", "last_sale": "2024-04-08"}}, {"type": "Feature", "geometry": {"type": "Point", "coordinates": [2.658357, 48.784999]}, "properties": {"id_parcelle": "773900000D1951", "address": "77 AV DE LA REPUBLIQUE", "sales": 3, "median_price": 155000.0, "median_price_per_sqm": 4222.222222222223, "median_rooms": 1.0, "first_sale": "2021-09-03", "last_sale": "2021-10-08"}}, {"type": "Feature", "geometry": {"type": "Point", "coordinates": [2.660115, 48.79176]}, "properties": {"id_parcelle": "773900000D0584", "address": "28 AV LAFAYETTE", "sales": 3, "median_price": 454000.0, "median_price_per_sqm": 4283.018867924528, "median_rooms": 0.0, "first_sale": "2022-07-06", "last_sale": "2022-07-06"}}, {"type": "Feature", "geometry": {"type": "Point", "coordinates": [2.650938, 48.79132]}, "properties": {"id_parcelle": "773900000D0026", "address": "46 RUE PASTEUR", "sales": 3, "median_price": 530000.0, "median_price_per_sqm": 10600.0, "median_rooms": 1.0, "first_sale": "2025-08-27", "last_sale": "2025-08-27"}}, {"type": "Feature", "geometry": {"type": "Point", "coordinates": [2.650845, 48.790917]}, "properties": {"id_parcelle": "773900000D1911", "address": "RUE PASTEUR", "sales": 3, "median_price": 117000.0, "median_price_per_sqm": null, "median_rooms": null, "first_sale": "2021-07-15", "last_sale": "2025-01-21"}}, {"type": "Feature", "geometry": {"type": "Point", "coordinates": [2.661629, 48.791306]}, "properties": {"id_parcelle": "773900000D0593", "address": "12 AV LAFAYETTE", "sales": 2, "median_price": 260000.0, "median_price_per_sqm": 2148.7603305785124, "median_rooms": 2.5, "first_sale": "2023-05-24", "last_sale": "2023-05-24"}}, {"type": "Feature", "geometry": {"type": "Point", "coordinates": [2.664884, 48.789912]}, "properties": {"id_parcelle": "773900000D0660", "address": "4 AV DES PINSONS", "sales": 2, "median_price": 272000.0, "median_price_per_sqm": 3885.714285714286, "median_rooms": 1.5, "first_sale": "2024-03-18", "last_sale": "2024-03-18"}}, {"type": "Feature", "geometry": {"type": "Point", "coordinates": [2.661481, 48.791386]}, "properties": {"id_parcelle": "773900000D0592", "address": "14 AV LAFAYETTE", "sales": 2, "median_price": 365000.0, "median_price_per_sqm": 4679.48717948718, "median_rooms": 1.5, "first_sale": "2022-03-18", "last_sale": "2022-03-18"}}, {"type": "Feature", "geometry": {"type": "Point", "coordinates": [2.668808, 48.790636]}, "properties": {"id_parcelle": "773900000D0481", "address": "CHE DES BOUJARDS", "sales": 2, "median_price": 199000.0, "median_price_per_sqm": null, "median_rooms": null, "first_sale": "2023-02-23", "last_sale": "2023-07-28"}}, {"type": "Feature", "geometry": {"type": "Point", "coordinates": [2.668804, 48.790716]}, "properties": {"id_parcelle": "773900000D0484", "address": "32 AV DU MAL FOCH", "sales": 2, "median_price": 190000.0, "median_price_per_sqm": 3800.0, "median_rooms": 1.5, "first_sale": "2023-07-28", "last_sale": "2023-07-28"}}, {"type": "Feature", "geometry": {"type": "Point", "coordinates": [2.659369, 48.791052]}, "properties": {"id_parcelle": "773900000D0569", "address": "6 AV DE LA FAISANDERIE", "sales": 2, "median_price": 456000.0, "median_price_per_sqm": 5537.142857142857, "median_rooms": 3.0, "first_sale": "2025-10-23", "last_sale": "2025-10-23"}}, {"type": "Feature", "geometry": {"type": "Point", "coordinates": [2.653614, 48.786344]}, "properties": {"id_parcelle": "773900000D0210", "address": "46 SIXIEME AVENUE", "sales": 2, "median_price": 365000.0, "median_price_per_sqm": 4055.5555555555557, "median_rooms": 3.0, "first_sale": "2022-09-30", "last_sale": "2022-09-30"}}, {"type": "Feature", "geometry": {"type": "Point", "coordinates": [2.649353, 48.781218]}, "properties": {"id_parcelle": "773900000C0561", "address": "9008 RTE DE MONTHETY", "sales": 2, "median_price": 362000.0, "median_price_per_sqm": 3656.5656565656564, "median_rooms": 5.0, "first_sale": "2021-06-07", "last_sale": "2021-06-07"}}, {"type": "Feature", "geometry": {"type": "Point", "coordinates": [2.638059, 48.788041]}, "properties": {"id_parcelle": "773900000C0492", "address": "LA FRETTE", "sales": 2, "median_price": 2499801.0, "median_price_per_sqm": null, "median_rooms": null, "first_sale": "2022-12-15", "last_sale": "2022-12-15"}}, {"type": "Feature", "geometry": {"type": "Point", "coordinates": [2.657703, 48.784042]}, "properties": {"id_parcelle": "773900000C0122", "address": "6 AV DU BOIS PRIEUR", "sales": 2, "median_price": 362250.0, "median_price_per_sqm": 2852.3622047244094, "median_rooms": 4.0, "first_sale": "2025-12-16", "last_sale": "2025-12-16"}}, {"type": "Feature", "geometry": {"type": "Point", "coordinates": [2.64233, 48.799922]}, "properties": {"id_parcelle": "773900000A1413", "address": "29 AV JOSEPH BODIN BOISMORTIER", "sales": 2, "median_price": 350500.0, "median_price_per_sqm": 3982.9545454545455, "median_rooms": 4.0, "first_sale": "2023-03-10", "last_sale": "2023-07-10"}}, {"type": "Feature", "geometry": {"type": "Point", "coordinates": [2.642495, 48.801047]}, "properties": {"id_parcelle": "773900000A1045", "address": "3 RUE GEORGES CUVIER", "sales": 2, "median_price": 297450.0, "median_price_per_sqm": 3198.3870967741937, "median_rooms": 5.0, "first_sale": "2021-09-28", "last_sale": "2024-07-22"}}, {"type": "Feature", "geometry": {"type": "Point", "coordinates": [2.662382, 48.785096]}, "properties": {"id_parcelle": "773900000B0394", "address": "18 AV MAURICE RAVEL", "sales": 2, "median_price": 385000.0, "median_price_per_sqm": 4230.7692307692305, "median_rooms": 2.5, "first_sale": "2022-02-23", "last_sale": "2022-02-23"}}, {"type": "Feature", "geometry": {"type": "Point", "coordinates": [2.668731, 48.790706]}, "properties": {"id_parcelle": "773900000D0485", "address": "30 AV DU MAL FOCH", "sales": 2, "median_price": 208000.0, "median_price_per_sqm": 3781.818181818182, "median_rooms": 2.0, "first_sale": "2023-02-23", "last_sale": "2023-02-23"}}, {"type": "Feature", "geometry": {"type": "Point", "coordinates": [2.662694, 48.791285]}, "properties": {"id_parcelle": "773900000D0514", "address": "5 AV DE MULHOUSE", "sales": 2, "median_price": 430000.0, "median_price_per_sqm": 5657.894736842105, "median_rooms": 4.0, "first_sale": "2023-04-26", "last_sale": "2023-06-23"}}, {"type": "Feature", "geometry": {"type": "Point", "coordinates": [2.668998, 48.790544]}, "properties": {"id_parcelle": "773900000D0476", "address": "CHE DES BOUJARDS", "sales": 2, "median_price": 199000.0, "median_price_per_sqm": null, "median_rooms": null, "first_sale": "2023-02-23", "last_sale": "2023-07-28"}}, {"type": "Feature", "geometry": {"type": "Point", "coordinates": [2.654275, 48.784594]}, "properties": {"id_parcelle": "773900000D0420", "address": "21 TROISIEME AVENUE", "sales": 2, "median_price": 340000.0, "median_price_per_sqm": 4415.584415584415, "median_rooms": 2.5, "first_sale": "2024-01-30", "last_sale": "2024-01-30"}}, {"type": "Feature", "geometry": {"type": "Point", "coordinates": [2.654269, 48.784932]}, "properties": {"id_parcelle": "773900000D0414", "address": "16 TROISIEME AVENUE", "sales": 2, "median_price": 355000.0, "median_price_per_sqm": 5725.806451612903, "median_rooms": 2.0, "first_sale": "2023-02-24", "last_sale": "2023-02-24"}}, {"type": "Feature", "geometry": {"type": "Point", "coordinates": [2.655411, 48.785148]}, "properties": {"id_parcelle": "773900000D0335", "address": "58 QUATRIEME AVENUE", "sales": 2, "median_price": 407000.0, "median_price_per_sqm": 2846.153846153846, "median_rooms": 3.5, "first_sale": "2024-09-06", "last_sale": "2024-09-06"}}, {"type": "Feature", "geometry": {"type": "Point", "coordinates": [2.650716, 48.791259]}, "properties": {"id_parcelle": "773900000D0024", "address": "48 RUE PASTEUR", "sales": 2, "median_price": 108500.0, "median_price_per_sqm": 4046.7032967032965, "median_rooms": 2.0, "first_sale": "2021-04-22", "last_sale": "2022-11-30"}}, {"type": "Feature", "geometry": {"type": "Point", "coordinates": [2.648711, 48.790242]}, "properties": {"id_parcelle": "773900000D0112", "address": "6 RUE DE WATTRIPONT", "sales": 2, "median_price": 384000.0, "median_price_per_sqm": 5120.0, "median_rooms": 2.0, "first_sale": "2024-07-23", "last_sale": "2024-07-23"}}, {"type": "Feature", "geometry": {"type": "Point", "coordinates": [2.649527, 48.791102]}, "properties": {"id_parcelle": "773900000D0137", "address": "54 RUE PASTEUR", "sales": 2, "median_price": 310000.0, "median_price_per_sqm": 2052.980132450331, "median_rooms": 2.5, "first_sale": "2025-10-07", "last_sale": "2025-10-07"}}, {"type": "Feature", "geometry": {"type": "Point", "coordinates": [2.659084, 48.784588]}, "properties": {"id_parcelle": "773900000B0220", "address": "4 AV GUSTAVE CHARPENTIER", "sales": 2, "median_price": 405000.0, "median_price_per_sqm": 3164.0625, "median_rooms": 3.0, "first_sale": "2023-07-11", "last_sale": "2023-07-11"}}, {"type": "Feature", "geometry": {"type": "Point", "coordinates": [2.661519, 48.790371]}, "properties": {"id_parcelle": "773900000D2406", "address": "6 AV DU BOIS", "sales": 2, "median_price": 86000.0, "median_price_per_sqm": 4777.777777777777, "median_rooms": 0.5, "first_sale": "2022-01-19", "last_sale": "2022-01-19"}}, {"type": "Feature", "geometry": {"type": "Point", "coordinates": [2.651826, 48.789373]}, "properties": {"id_parcelle": "773900000D2297", "address": "13 RUE DU CHAMP DE FRAISES", "sales": 2, "median_price": 175500.0, "median_price_per_sqm": 1309.7014925373135, "median_rooms": 7.0, "first_sale": "2023-05-24", "last_sale": "2025-10-30"}}, {"type": "Feature", "geometry": {"type": "Point", "coordinates": [2.660833, 48.791874]}, "properties": {"id_parcelle": "773900000D2222", "address": "1 AV BLANCHE", "sales": 2, "median_price": 303040.0, "median_price_per_sqm": 3695.609756097561, "median_rooms": 2.5, "first_sale": "2023-06-30", "last_sale": "2023-06-30"}}, {"type": "Feature", "geometry": {"type": "Point", "coordinates": [2.663111, 48.792162]}, "properties": {"id_parcelle": "773900000D2124", "address": "9109 RUE DES BLEUETS", "sales": 2, "median_price": 164500.0, "median_price_per_sqm": null, "median_rooms": 0.0, "first_sale": "2022-12-07", "last_sale": "2023-07-21"}}, {"type": "Feature", "geometry": {"type": "Point", "coordinates": [2.65115, 48.791027]}, "properties": {"id_parcelle": "773900000D2043", "address": "21 RUE PASTEUR", "sales": 2, "median_price": 333850.0, "median_price_per_sqm": 3477.604166666667, "median_rooms": 5.0, "first_sale": "2021-08-02", "last_sale": "2022-06-15"}}, {"type": "Feature", "geometry": {"type": "Point", "coordinates": [2.649647, 48.791158]}, "properties": {"id_parcelle": "773900000D2001", "address": "7 RUE DE LA GARE D EMERAINVILLE", "sales": 2, "median_price": 101300.0, "median_price_per_sqm": null, "median_rooms": null, "first_sale": "2024-05-21", "last_sale": "2024-12-02"}}, {"type": "Feature", "geometry": {"type": "Point", "coordinates": [2.649914, 48.791336]}, "properties": {"id_parcelle": "773900000D1999", "address": "7 RUE DE LA GARE D EMERAINVILLE", "sales": 2, "median_price": 202500.0, "median_price_per_sqm": 4218.75, "median_rooms": 1.5, "first_sale": "2024-05-21", "last_sale": "2024-05-21"}}, {"type": "Feature", "geometry": {"type": "Point", "coordinates": [2.65979, 48.787256]}, "properties": {"id_parcelle": "773900000D1925", "address": "67 AV MOZART", "sales": 2, "median_price": 396000.0, "median_price_per_sqm": 6491.803278688524, "median_rooms": 1.5, "first_sale": "2022-09-14", "last_sale": "2022-09-14"}}, {"type": "Feature", "geometry": {"type": "Point", "coordinates": [2.656062, 48.791999]}, "properties": {"id_parcelle": "773900000D1318", "address": "5 RUE DE ROCHAMBEAU", "sales": 2, "median_price": 264400.0, "median_price_per_sqm": 3572.972972972973, "median_rooms": 2.0, "first_sale": "2024-08-28", "last_sale": "2024-08-28"}}, {"type": "Feature", "geometry": {"type": "Point", "coordinates": [2.650083, 48.78789]}, "properties": {"id_parcelle": "773900000D1768", "address": "21 RTE DE MONTHETY", "sales": 2, "median_price": 370000.0, "median_price_per_sqm": 3303.5714285714284, "median_rooms": 3.0, "first_sale": "2021-06-28", "last_sale": "2021-06-28"}}, {"type": "Feature", "geometry": {"type": "Point", "coordinates": [2.664294, 48.791587]}, "properties": {"id_parcelle": "773900000D1796", "address": "3 RUE CHARLES VAILLANT", "sales": 2, "median_price": 500000.0, "median_price_per_sqm": 4761.9047619047615, "median_rooms": 5.0, "first_sale": "2021-02-02", "last_sale": "2021-02-02"}}, {"type": "Feature", "geometry": {"type": "Point", "coordinates": [2.65852, 48.786715]}, "properties": {"id_parcelle": "773900000D1634", "address": "28 AV DES SAPINS", "sales": 2, "median_price": 90000.0, "median_price_per_sqm": 3103.448275862069, "median_rooms": 1.0, "first_sale": "2022-04-26", "last_sale": "2022-04-26"}}, {"type": "Feature", "geometry": {"type": "Point", "coordinates": [2.648839, 48.791223]}, "properties": {"id_parcelle": "773900000D1693", "address": "26 RUE DE WATTRIPONT", "sales": 2, "median_price": 319900.0, "median_price_per_sqm": 3594.38202247191, "median_rooms": 2.0, "first_sale": "2022-09-20", "last_sale": "2022-09-20"}}, {"type": "Feature", "geometry": {"type": "Point", "coordinates": [2.654834, 48.793291]}, "properties": {"id_parcelle": "773900000D1629", "address": "28 AV PANAS", "sales": 2, "median_price": 424084.0, "median_price_per_sqm": 5048.619047619048, "median_rooms": 2.0, "first_sale": "2022-12-19", "last_sale": "2022-12-19"}}, {"type": "Feature", "geometry": {"type": "Point", "coordinates": [2.658651, 48.790203]}, "properties": {"id_parcelle": "773900000D1245", "address": "2 AV DU GEN LECLERC", "sales": 2, "median_price": 184500.0, "median_price_per_sqm": 2096.590909090909, "median_rooms": 1.5, "first_sale": "2025-05-15", "last_sale": "2025-05-15"}}, {"type": "Feature", "geometry": {"type": "Point", "coordinates": [2.655364, 48.793209]}, "properties": {"id_parcelle": "773900000D1304", "address": "33 RUE DE ROCHAMBEAU", "sales": 2, "median_price": 343150.0, "median_price_per_sqm": 2599.621212121212, "median_rooms": 3.0, "first_sale": "2023-07-21", "last_sale": "2023-07-21"}}, {"type": "Feature", "geometry": {"type": "Point", "coordinates": [2.659763, 48.787852]}, "properties": {"id_parcelle": "773900000D0976", "address": "44 AV DE LA REINE", "sales": 2, "median_price": 378503.0, "median_price_per_sqm": 3349.5840707964603, "median_rooms": 2.5, "first_sale": "2024-11-29", "last_sale": "2024-11-29"}}, {"type": "Feature", "geometry": {"type": "Point", "coordinates": [2.659635, 48.787657]}, "properties": {"id_parcelle": "773900000D0975", "address": "56 AV MOZART", "sales": 2, "median_price": 389780.0, "median_price_per_sqm": 5339.45205479452, "median_rooms": 2.5, "first_sale": "2025-09-26", "last_sale": "2025-09-26"}}, {"type": "Feature", "geometry": {"type": "Point", "coordinates": [2.656646, 48.785505]}, "properties": {"id_parcelle": "773900000D0951", "address": "2 AV DES ROSES", "sales": 2, "median_price": 275000.0, "median_price_per_sqm": 4583.333333333333, "median_rooms": 2.0, "first_sale": "2024-03-29", "last_sale": "2024-03-29"}}, {"type": "Feature", "geometry": {"type": "Point", "coordinates": [2.657251, 48.786314]}, "properties": {"id_parcelle": "773900000D0944", "address": "79 AV DU COMMERCE", "sales": 2, "median_price": 363000.0, "median_price_per_sqm": 3457.1428571428573, "median_rooms": 2.0, "first_sale": "2022-01-07", "last_sale": "2022-01-07"}}, {"type": "Feature", "geometry": {"type": "Point", "coordinates": [2.65928, 48.789504]}, "properties": {"id_parcelle": "773900000D0847", "address": "16 AV DU CHATEAU", "sales": 2, "median_price": 240000.0, "median_price_per_sqm": 3037.974683544304, "median_rooms": 1.5, "first_sale": "2025-06-06", "last_sale": "2025-06-06"}}, {"type": "Feature", "geometry": {"type": "Point", "coordinates": [2.659467, 48.788569]}, "properties": {"id_parcelle": "773900000D0902", "address": "29 AV DE LA REINE", "sales": 2, "median_price": 421000.0, "median_price_per_sqm": 3263.5658914728683, "median_rooms": 2.5, "first_sale": "2022-05-20", "last_sale": "2022-05-20"}}, {"type": "Feature", "geometry": {"type": "Point", "coordinates": [2.657124, 48.78935]}, "properties": {"id_parcelle": "773900000D0790", "address": "8 AV DE LA REINE", "sales": 2, "median_price": 368000.0, "median_price_per_sqm": 4134.831460674157, "median_rooms": 6.0, "first_sale": "2021-06-08", "last_sale": "2024-12-02"}}, {"type": "Feature", "geometry": {"type": "Point", "coordinates": [2.657789, 48.789758]}, "properties": {"id_parcelle": "773900000D0798", "address": "5 AV PARMENTIER", "sales": 2, "median_price": 200000.0, "median_price_per_sqm": 3636.3636363636365, "median_rooms": 1.0, "first_sale": "2024-04-18", "last_sale": "2024-04-18"}}, {"type": "Feature", "geometry": {"type": "Point", "coordinates": [2.663497, 48.789681]}, "properties": {"id_parcelle": "773900000D0689", "address": "22 AV DU BOIS", "sales": 2, "median_price": 488000.0, "median_price_per_sqm": 11294.591194968554, "median_rooms": 4.0, "first_sale": "2021-07-15", "last_sale": "2021-07-15"}}, {"type": "Feature", "geometry": {"type": "Point", "coordinates": [2.65729, 48.790021]}, "properties": {"id_parcelle": "773900000D0770", "address": "10 AV PARMENTIER", "sales": 2, "median_price": 570000.0, "median_price_per_sqm": 6263.736263736264, "median_rooms": 2.0, "first_sale": "2023-02-27", "last_sale": "2023-02-27"}}, {"type": "Feature", "geometry": {"type": "Point", "coordinates": [2.662287, 48.787972]}, "properties": {"id_parcelle": "773900000D1089", "address": "41 AV DE LA REPUBLIQUE", "sales": 2, "median_price": 250000.0, "median_price_per_sqm": 3676.470588235294, "median_rooms": 2.0, "first_sale": "2023-03-09", "last_sale": "2023-03-09"}}, {"type": "Feature", "geometry": {"type": "Point", "coordinates": [2.662565, 48.791056]}, "properties": {"id_parcelle": "773900000D1200", "address": "31 AV DU GEN LECLERC", "sales": 2, "median_price": 870000.0, "median_price_per_sqm": 6579.324699352451, "median_rooms": 1.5, "first_sale": "2023-06-23", "last_sale": "2023-06-23"}}, {"type": "Feature", "geometry": {"type": "Point", "coordinates": [2.659074, 48.790686]}, "properties": {"id_parcelle": "773900000D1206", "address": "9 AV DU GEN LECLERC", "sales": 2, "median_price": 369000.0, "median_price_per_sqm": 3407.446449654242, "median_rooms": 2.5, "first_sale": "2023-10-19", "last_sale": "2023-10-19"}}, {"type": "Feature", "geometry": {"type": "Point", "coordinates": [2.660706, 48.79082]}, "properties": {"id_parcelle": "773900000D1224", "address": "19 AV DU GEN LECLERC", "sales": 2, "median_price": 140000.0, "median_price_per_sqm": 3684.2105263157896, "median_rooms": 0.0, "first_sale": "2021-08-05", "last_sale": "2021-08-05"}}, {"type": "Feature", "geometry": {"type": "Point", "coordinates": [2.642579, 48.798775]}, "properties": {"id_parcelle": "773900000A1472", "address": "34 RUE DE JUSSIEU", "sales": 2, "median_price": 375491.44, "median_price_per_sqm": 4266.948181818182, "median_rooms": 4.0, "first_sale": "2024-08-01", "last_sale": "2024-08-01"}}, {"type": "Feature", "geometry": {"type": "Point", "coordinates": [2.633504, 48.8033]}, "properties": {"id_parcelle": "773900000A1579", "address": "71 AV JOSEPH BODIN BOISMORTIER", "sales": 2, "median_price": 2775000.0, "median_price_per_sqm": null, "median_rooms": 0.0, "first_sale": "2024-09-18", "last_sale": "2024-09-18"}}, {"type": "Feature", "geometry": {"type": "Point", "coordinates": [2.662639, 48.78752]}, "properties": {"id_parcelle": "773900000B0494", "address": "8 AV FRANCOIS COUPERIN", "sales": 2, "median_price": 400000.0, "median_price_per_sqm": 3603.6036036036035, "median_rooms": 3.0, "first_sale": "2022-07-25", "last_sale": "2022-07-25"}}, {"type": "Feature", "geometry": {"type": "Point", "coordinates": [2.664543, 48.784406]}, "properties": {"id_parcelle": "773900000B1163", "address": "1 AV JULES MASSENET", "sales": 2, "median_price": 575000.0, "median_price_per_sqm": 2211.5384615384614, "median_rooms": 7.0, "first_sale": "2024-12-23", "last_sale": "2024-12-23"}}, {"type": "Feature", "geometry": {"type": "Point", "coordinates": [2.664942, 48.787277]}, "properties": {"id_parcelle": "773900000B0477", "address": "28 AV CAMILLE SAINT SAENS", "sales": 2, "median_price": 133255.5, "median_price_per_sqm": 1464.3461538461538, "median_rooms": 2.5, "first_sale": "2024-09-10", "last_sale": "2024-09-10"}}, {"type": "Feature", "geometry": {"type": "Point", "coordinates": [2.663563, 48.787531]}, "properties": {"id_parcelle": "773900000B0490", "address": "16 AV FRANCOIS COUPERIN", "sales": 2, "median_price": 322000.0, "median_price_per_sqm": 2900.900900900901, "median_rooms": 3.0, "first_sale": "2024-08-01", "last_sale": "2024-08-01"}}, {"type": "Feature", "geometry": {"type": "Point", "coordinates": [2.66507, 48.786229]}, "properties": {"id_parcelle": "773900000B0466", "address": "9 AV FREDERIC CHOPIN", "sales": 2, "median_price": 433000.0, "median_price_per_sqm": 3092.8571428571427, "median_rooms": 3.5, "first_sale": "2024-01-12", "last_sale": "2024-01-12"}}, {"type": "Feature", "geometry": {"type": "Point", "coordinates": [2.665768, 48.786474]}, "properties": {"id_parcelle": "773900000B0431", "address": "34 AV FREDERIC CHOPIN", "sales": 2, "median_price": 369500.0, "median_price_per_sqm": 4060.4395604395604, "median_rooms": 2.5, "first_sale": "2021-06-01", "last_sale": "2021-06-01"}}, {"type": "Feature", "geometry": {"type": "Point", "coordinates": [2.663001, 48.785053]}, "properties": {"id_parcelle": "773900000B0399", "address": "11 AV MAURICE RAVEL", "sales": 2, "median_price": 325000.0, "median_price_per_sqm": 3571.4285714285716, "median_rooms": 2.5, "first_sale": "2025-05-02", "last_sale": "2025-05-02"}}, {"type": "Feature", "geometry": {"type": "Point", "coordinates": [2.663455, 48.785301]}, "properties": {"id_parcelle": "773900000B0406", "address": "2 AV HECTOR BERLIOZ", "sales": 2, "median_price": 330000.0, "median_price_per_sqm": 3626.3736263736264, "median_rooms": 2.5, "first_sale": "2022-10-27", "last_sale": "2022-10-27"}}, {"type": "Feature", "geometry": {"type": "Point", "coordinates": [2.66388, 48.784118]}, "properties": {"id_parcelle": "773900000B0328", "address": "4 AV JULES MASSENET", "sales": 2, "median_price": 359000.0, "median_price_per_sqm": 3485.4368932038833, "median_rooms": 5.0, "first_sale": "2025-08-01", "last_sale": "2025-08-01"}}, {"type": "Feature", "geometry": {"type": "Point", "coordinates": [2.663008, 48.78331]}, "properties": {"id_parcelle": "773900000B0347", "address": "8 AV ANDRE MESSAGER", "sales": 2, "median_price": 413000.0, "median_price_per_sqm": 4257.731958762886, "median_rooms": 2.0, "first_sale": "2024-01-17", "last_sale": "2024-01-17"}}, {"type": "Feature", "geometry": {"type": "Point", "coordinates": [2.667312, 48.794315]}, "properties": {"id_parcelle": "77390000AC0114", "address": "13 AV RACINE", "sales": 2, "median_price": 333358.0, "median_price_per_sqm": 4166.975, "median_rooms": 2.0, "first_sale": "2023-06-22", "last_sale": "2023-06-22"}}, {"type": "Feature", "geometry": {"type": "Point", "coordinates": [2.667245, 48.794806]}, "properties": {"id_parcelle": "77390000AC0119", "address": "3 AV RACINE", "sales": 2, "median_price": 312000.0, "median_price_per_sqm": 4000.0, "median_rooms": 2.0, "first_sale": "2023-01-11", "last_sale": "2023-01-11"}}, {"type": "Feature", "geometry": {"type": "Point", "coordinates": [2.665817, 48.795051]}, "properties": {"id_parcelle": "77390000AC0092", "address": "18 BD DES PRINCES", "sales": 2, "median_price": 394000.0, "median_price_per_sqm": 4104.166666666667, "median_rooms": 2.5, "first_sale": "2024-12-16", "last_sale": "2024-12-16"}}, {"type": "Feature", "geometry": {"type": "Point", "coordinates": [2.664927, 48.79514]}, "properties": {"id_parcelle": "77390000AC0085", "address": "5 AV LA FONTAINE", "sales": 2, "median_price": 310000.0, "median_price_per_sqm": 2366.412213740458, "median_rooms": 3.0, "first_sale": "2024-07-19", "last_sale": "2024-07-19"}}, {"type": "Feature", "geometry": {"type": "Point", "coordinates": [2.665109, 48.794881]}, "properties": {"id_parcelle": "77390000AC0070", "address": "8 AV LA FONTAINE", "sales": 2, "median_price": 305000.0, "median_price_per_sqm": 3910.25641025641, "median_rooms": 2.0, "first_sale": "2024-03-13", "last_sale": "2024-03-13"}}, {"type": "Feature", "geometry": {"type": "Point", "coordinates": [2.666161, 48.79483]}, "properties": {"id_parcelle": "77390000AC0096", "address": "6 AV FRANCOIS VILLON", "sales": 2, "median_price": 359700.0, "median_price_per_sqm": 3526.470588235294, "median_rooms": 2.5, "first_sale": "2025-02-11", "last_sale": "2025-02-11"}}, {"type": "Feature", "geometry": {"type": "Point", "coordinates": [2.667922, 48.794827]}, "properties": {"id_parcelle": "77390000AC0133", "address": "1 AV VICTOR HUGO", "sales": 2, "median_price": 282000.0, "median_price_per_sqm": 3615.3846153846152, "median_rooms": 2.0, "first_sale": "2021-12-06", "last_sale": "2021-12-06"}}, {"type": "Feature", "geometry": {"type": "Point", "coordinates": [2.65688, 48.79787]}, "properties": {"id_parcelle": "77390000AB0448", "address": "36 RUE DES CHARDONNERETS", "sales": 2, "median_price": 322516.67000000004, "median_price_per_sqm": 3664.962159090909, "median_rooms": 5.0, "first_sale": "2023-02-02", "last_sale": "2023-02-14"}}, {"type": "Feature", "geometry": {"type": "Point", "coordinates": [2.66599, 48.793825]}, "properties": {"id_parcelle": "77390000AC0019", "address": "9 AV FLORIAN", "sales": 2, "median_price": 322000.0, "median_price_per_sqm": 4025.0, "median_rooms": 2.0, "first_sale": "2024-08-20", "last_sale": "2024-08-20"}}, {"type": "Feature", "geometry": {"type": "Point", "coordinates": [2.666381, 48.793847]}, "properties": {"id_parcelle": "77390000AC0011", "address": "8 AV FLORIAN", "sales": 2, "median_price": 346000.0, "median_price_per_sqm": 2982.7586206896553, "median_rooms": 3.0, "first_sale": "2021-08-31", "last_sale": "2021-08-31"}}, {"type": "Feature", "geometry": {"type": "Point", "coordinates": [2.66565, 48.793613]}, "properties": {"id_parcelle": "77390000AC0025", "address": "4 AV RONSARD", "sales": 2, "median_price": 299000.0, "median_price_per_sqm": 2931.372549019608, "median_rooms": 2.5, "first_sale": "2021-10-28", "last_sale": "2021-10-28"}}, {"type": "Feature", "geometry": {"type": "Point", "coordinates": [2.666811, 48.793566]}, "properties": {"id_parcelle": "77390000AC0007", "address": "10 IMP FLORIAN", "sales": 2, "median_price": 315800.0, "median_price_per_sqm": 3947.5, "median_rooms": 2.0, "first_sale": "2025-01-17", "last_sale": "2025-01-17"}}, {"type": "Feature", "geometry": {"type": "Point", "coordinates": [2.656964, 48.785089]}, "properties": {"id_parcelle": "773900000D2571", "address": "101 AV MOZART", "sales": 2, "median_price": 302000.0, "median_price_per_sqm": 4646.153846153846, "median_rooms": 3.0, "first_sale": "2021-05-07", "last_sale": "2025-04-30"}}, {"type": "Feature", "geometry": {"type": "Point", "coordinates": [2.662569, 48.789769]}, "properties": {"id_parcelle": "773900000D2442", "address": "20 AV MOZART", "sales": 2, "median_price": 269900.0, "median_price_per_sqm": 3175.294117647059, "median_rooms": 2.0, "first_sale": "2023-10-20", "last_sale": "2023-10-20"}}, {"type": "Feature", "geometry": {"type": "Point", "coordinates": [2.660537, 48.790907]}, "properties": {"id_parcelle": "773900000D2615", "address": "4 AV BEAUSEJOUR", "sales": 2, "median_price": 305500.0, "median_price_per_sqm": 4364.285714285715, "median_rooms": 2.0, "first_sale": "2022-10-14", "last_sale": "2022-10-14"}}, {"type": "Feature", "geometry": {"type": "Point", "coordinates": [2.659213, 48.792535]}, "properties": {"id_parcelle": "773900000D2618", "address": "19 AV DE MULHOUSE", "sales": 2, "median_price": 274400.0, "median_price_per_sqm": 3658.6666666666665, "median_rooms": 2.0, "first_sale": "2025-03-27", "last_sale": "2025-03-27"}}, {"type": "Feature", "geometry": {"type": "Point", "coordinates": [2.656927, 48.799216]}, "properties": {"id_parcelle": "77390000AB0124", "address": "5 RUE DES VANNEAUX", "sales": 2, "median_price": 447000.0, "median_price_per_sqm": 4063.6363636363635, "median_rooms": 3.5, "first_sale": "2023-04-27", "last_sale": "2023-04-27"}}, {"type": "Feature", "geometry": {"type": "Point", "coordinates": [2.658698, 48.792476]}, "properties": {"id_parcelle": "773900000D2619", "address": "19 AV DE MULHOUSE", "sales": 2, "median_price": 189000.0, "median_price_per_sqm": null, "median_rooms": null, "first_sale": "2025-03-27", "last_sale": "2025-03-27"}}, {"type": "Feature", "geometry": {"type": "Point", "coordinates": [2.662164, 48.798437]}, "properties": {"id_parcelle": "77390000AB0235", "address": "7 SQ DE L OREE DU BOIS", "sales": 2, "median_price": 345000.0, "median_price_per_sqm": 3080.3571428571427, "median_rooms": 6.0, "first_sale": "2024-04-25", "last_sale": "2024-04-25"}}, {"type": "Feature", "geometry": {"type": "Point", "coordinates": [2.662395, 48.798706]}, "properties": {"id_parcelle": "77390000AB0243", "address": "10 SQ DES CHASSEURS", "sales": 2, "median_price": 385000.0, "median_price_per_sqm": 3437.5, "median_rooms": 6.0, "first_sale": "2022-12-09", "last_sale": "2022-12-09"}}, {"type": "Feature", "geometry": {"type": "Point", "coordinates": [2.659978, 48.798875]}, "properties": {"id_parcelle": "77390000AB0270", "address": "5 SQ DU BOUT DES CHAMPS", "sales": 2, "median_price": 432900.0, "median_price_per_sqm": 3865.1785714285716, "median_rooms": 6.0, "first_sale": "2022-10-19", "last_sale": "2022-10-19"}}, {"type": "Feature", "geometry": {"type": "Point", "coordinates": [2.650883, 48.788434]}, "properties": {"id_parcelle": "773900000D2416", "address": "38 RUE DU CHAMP DE FRAISES", "sales": 2, "median_price": 530000.0, "median_price_per_sqm": 4453.781512605042, "median_rooms": 5.0, "first_sale": "2022-05-20", "last_sale": "2022-05-20"}}, {"type": "Feature", "geometry": {"type": "Point", "coordinates": [2.669549, 48.79239]}, "properties": {"id_parcelle": "77390000AC0315", "address": "55 AV DU MAL FRANCHET D ESPEREY", "sales": 2, "median_price": 310000.0, "median_price_per_sqm": 2818.181818181818, "median_rooms": 3.0, "first_sale": "2023-11-24", "last_sale": "2023-11-24"}}, {"type": "Feature", "geometry": {"type": "Point", "coordinates": [2.668645, 48.792449]}, "properties": {"id_parcelle": "77390000AC0302", "address": "29 AV DU MAL FRANCHET D ESPEREY", "sales": 2, "median_price": 240000.0, "median_price_per_sqm": 2891.5662650602408, "median_rooms": 2.0, "first_sale": "2024-12-03", "last_sale": "2024-12-03"}}, {"type": "Feature", "geometry": {"type": "Point", "coordinates": [2.667125, 48.79182]}, "properties": {"id_parcelle": "77390000AC0276", "address": "7 AV DU MAL MAUNOURY", "sales": 2, "median_price": 297000.0, "median_price_per_sqm": 3578.3132530120483, "median_rooms": 2.0, "first_sale": "2022-08-22", "last_sale": "2022-08-22"}}, {"type": "Feature", "geometry": {"type": "Point", "coordinates": [2.667249, 48.79154]}, "properties": {"id_parcelle": "77390000AC0281", "address": "10 AV DU MAL MAUNOURY", "sales": 2, "median_price": 325000.0, "median_price_per_sqm": 3611.1111111111113, "median_rooms": 2.5, "first_sale": "2022-10-05", "last_sale": "2022-10-05"}}, {"type": "Feature", "geometry": {"type": "Point", "coordinates": [2.66952, 48.792223]}, "properties": {"id_parcelle": "77390000AC0317", "address": "59 AV DU MAL FRANCHET D ESPEREY", "sales": 2, "median_price": 250000.0, "median_price_per_sqm": 3086.41975308642, "median_rooms": 2.0, "first_sale": "2023-06-12", "last_sale": "2023-06-12"}}, {"type": "Feature", "geometry": {"type": "Point", "coordinates": [2.669532, 48.792308]}, "properties": {"id_parcelle": "77390000AC0316", "address": "57 AV DU MAL FRANCHET D ESPEREY", "sales": 2, "median_price": 294000.0, "median_price_per_sqm": 3629.6296296296296, "median_rooms": 2.0, "first_sale": "2024-08-30", "last_sale": "2024-08-30"}}, {"type": "Feature", "geometry": {"type": "Point", "coordinates": [2.669867, 48.793327]}, "properties": {"id_parcelle": "77390000AC0190", "address": "4 AV BOILEAU", "sales": 2, "median_price": 275000.0, "median_price_per_sqm": 3525.641025641026, "median_rooms": 2.0, "first_sale": "2021-05-31", "last_sale": "2021-05-31"}}, {"type": "Feature", "geometry": {"type": "Point", "coordinates": [2.66945, 48.793405]}, "properties": {"id_parcelle": "77390000AC0193", "address": "10 AV BOILEAU", "sales": 2, "median_price": 310000.0, "median_price_per_sqm": 3875.0, "median_rooms": 2.0, "first_sale": "2022-12-28", "last_sale": "2022-12-28"}}, {"type": "Feature", "geometry": {"type": "Point", "coordinates": [2.669197, 48.793115]}, "properties": {"id_parcelle": "77390000AC0199", "address": "15 AV BOILEAU", "sales": 2, "median_price": 287000.0, "median_price_per_sqm": 2813.725490196078, "median_rooms": 2.5, "first_sale": "2025-12-05", "last_sale": "2025-12-05"}}, {"type": "Feature", "geometry": {"type": "Point", "coordinates": [2.667592, 48.792727]}, "properties": {"id_parcelle": "77390000AC0240", "address": "11 AV DU GEN GOURAUD", "sales": 2, "median_price": 335000.0, "median_price_per_sqm": 3190.4761904761904, "median_rooms": 2.0, "first_sale": "2021-09-29", "last_sale": "2021-09-29"}}, {"type": "Feature", "geometry": {"type": "Point", "coordinates": [2.66773, 48.792876]}, "properties": {"id_parcelle": "77390000AC0241", "address": "13 AV DU GEN GOURAUD", "sales": 2, "median_price": 260000.0, "median_price_per_sqm": 2921.3483146067415, "median_rooms": 2.5, "first_sale": "2024-06-05", "last_sale": "2024-06-05"}}, {"type": "Feature", "geometry": {"type": "Point", "coordinates": [2.668006, 48.792557]}, "properties": {"id_parcelle": "77390000AC0245", "address": "16 AV DU GEN GOURAUD", "sales": 2, "median_price": 216250.0, "median_price_per_sqm": 2605.421686746988, "median_rooms": 2.0, "first_sale": "2024-09-20", "last_sale": "2024-09-20"}}, {"type": "Feature", "geometry": {"type": "Point", "coordinates": [2.667622, 48.792429]}, "properties": {"id_parcelle": "77390000AC0247", "address": "12 AV DU GEN GOURAUD", "sales": 2, "median_price": 275000.0, "median_price_per_sqm": 3666.6666666666665, "median_rooms": 2.0, "first_sale": "2025-07-17", "last_sale": "2025-07-17"}}, {"type": "Feature", "geometry": {"type": "Point", "coordinates": [2.6671, 48.79248]}, "properties": {"id_parcelle": "77390000AC0250", "address": "6 AV DU GEN GOURAUD", "sales": 2, "median_price": 263000.0, "median_price_per_sqm": 3329.1139240506327, "median_rooms": 2.0, "first_sale": "2023-01-19", "last_sale": "2023-01-19"}}, {"type": "Feature", "geometry": {"type": "Point", "coordinates": [2.668143, 48.792154]}, "properties": {"id_parcelle": "77390000AC0261", "address": "17 AV DU MAL GALLIENI", "sales": 2, "median_price": 360000.0, "median_price_per_sqm": 3529.4117647058824, "median_rooms": 2.5, "first_sale": "2022-03-11", "last_sale": "2022-03-11"}}, {"type": "Feature", "geometry": {"type": "Point", "coordinates": [2.66815, 48.791979]}, "properties": {"id_parcelle": "77390000AC0262", "address": "22 AV DU MAL GALLIENI", "sales": 2, "median_price": 329000.0, "median_price_per_sqm": 3225.4901960784314, "median_rooms": 2.5, "first_sale": "2023-03-23", "last_sale": "2023-03-23"}}, {"type": "Feature", "geometry": {"type": "Point", "coordinates": [2.669182, 48.794134]}, "properties": {"id_parcelle": "77390000AC0168", "address": "5 AV CHATEAUBRIAND", "sales": 2, "median_price": 295000.0, "median_price_per_sqm": 3782.051282051282, "median_rooms": 2.0, "first_sale": "2021-09-09", "last_sale": "2021-09-09"}}, {"type": "Feature", "geometry": {"type": "Point", "coordinates": [2.668614, 48.793699]}, "properties": {"id_parcelle": "77390000AC0162", "address": "20 AV CHATEAUBRIAND", "sales": 2, "median_price": 405000.0, "median_price_per_sqm": 2793.103448275862, "median_rooms": 2.5, "first_sale": "2021-06-30", "last_sale": "2021-06-30"}}, {"type": "Feature", "geometry": {"type": "Point", "coordinates": [2.669438, 48.793609]}, "properties": {"id_parcelle": "77390000AC0186", "address": "1 AV SAINT SIMON", "sales": 2, "median_price": 285000.0, "median_price_per_sqm": 3562.5, "median_rooms": 2.0, "first_sale": "2022-03-29", "last_sale": "2022-03-29"}}, {"type": "Feature", "geometry": {"type": "Point", "coordinates": [2.669331, 48.794421]}, "properties": {"id_parcelle": "77390000AC0171", "address": "10 AV ALFRED DE VIGNY", "sales": 2, "median_price": 289700.0, "median_price_per_sqm": 3621.25, "median_rooms": 2.0, "first_sale": "2021-09-17", "last_sale": "2021-09-17"}}, {"type": "Feature", "geometry": {"type": "Point", "coordinates": [2.668806, 48.794125]}, "properties": {"id_parcelle": "77390000AC0158", "address": "12 AV CHATEAUBRIAND", "sales": 2, "median_price": 319900.0, "median_price_per_sqm": 3998.75, "median_rooms": 2.0, "first_sale": "2021-06-29", "last_sale": "2021-06-29"}}, {"type": "Feature", "geometry": {"type": "Point", "coordinates": [2.665252, 48.793612]}, "properties": {"id_parcelle": "77390000AC0039", "address": "3 AV RONSARD", "sales": 2, "median_price": 289900.0, "median_price_per_sqm": 3716.6666666666665, "median_rooms": 2.0, "first_sale": "2022-07-01", "last_sale": "2022-07-01"}}, {"type": "Feature", "geometry": {"type": "Point", "coordinates": [2.664609, 48.79383]}, "properties": {"id_parcelle": "77390000AC0044", "address": "7 AV MONTAIGNE", "sales": 2, "median_price": 318000.0, "median_price_per_sqm": 3975.0, "median_rooms": 2.0, "first_sale": "2022-08-30", "last_sale": "2022-08-30"}}, {"type": "Feature", "geometry": {"type": "Point", "coordinates": [2.665879, 48.79344]}, "properties": {"id_parcelle": "77390000AC0023", "address": "1 AV FLORIAN", "sales": 2, "median_price": 259000.0, "median_price_per_sqm": 3320.5128205128203, "median_rooms": 2.0, "first_sale": "2022-12-02", "last_sale": "2022-12-02"}}, {"type": "Feature", "geometry": {"type": "Point", "coordinates": [2.665033, 48.794748]}, "properties": {"id_parcelle": "77390000AC0058", "address": "22 AV MONTAIGNE", "sales": 2, "median_price": 338000.0, "median_price_per_sqm": 4225.0, "median_rooms": 2.0, "first_sale": "2022-09-09", "last_sale": "2022-09-09"}}, {"type": "Feature", "geometry": {"type": "Point", "coordinates": [2.639053, 48.794224]}, "properties": {"id_parcelle": "77390000AI0391", "address": "18 RUE ALEXANDRE FALGUIERE", "sales": 2, "median_price": 185625.0, "median_price_per_sqm": 1718.75, "median_rooms": 3.0, "first_sale": "2022-07-01", "last_sale": "2022-07-01"}}, {"type": "Feature", "geometry": {"type": "Point", "coordinates": [2.645208, 48.798142]}, "properties": {"id_parcelle": "77390000AK0076", "address": "31 RUE PAUL VALERY", "sales": 2, "median_price": 327500.0, "median_price_per_sqm": 3521.505376344086, "median_rooms": 5.0, "first_sale": "2022-09-01", "last_sale": "2024-12-16"}}, {"type": "Feature", "geometry": {"type": "Point", "coordinates": [2.639914, 48.795269]}, "properties": {"id_parcelle": "77390000AI0431", "address": "5 SQ J B PIGALLE", "sales": 2, "median_price": 265000.0, "median_price_per_sqm": 2912.087912087912, "median_rooms": 3.0, "first_sale": "2021-07-27", "last_sale": "2021-07-27"}}, {"type": "Feature", "geometry": {"type": "Point", "coordinates": [2.636644, 48.795457]}, "properties": {"id_parcelle": "77390000AI0099", "address": "51 AV DU GRAND ETANG", "sales": 2, "median_price": 313910.0, "median_price_per_sqm": 3487.8888888888887, "median_rooms": 5.0, "first_sale": "2022-08-12", "last_sale": "2025-07-21"}}, {"type": "Feature", "geometry": {"type": "Point", "coordinates": [2.637525, 48.794932]}, "properties": {"id_parcelle": "77390000AI0341", "address": "10 SQ PIERRE PUGET", "sales": 2, "median_price": 322650.0, "median_price_per_sqm": 3751.7441860465115, "median_rooms": 4.0, "first_sale": "2022-08-24", "last_sale": "2025-03-04"}}, {"type": "Feature", "geometry": {"type": "Point", "coordinates": [2.640561, 48.795735]}, "properties": {"id_parcelle": "77390000AI0255", "address": "2 SQ JAMES DRADIN", "sales": 2, "median_price": 332325.0, "median_price_per_sqm": 4431.0, "median_rooms": 4.0, "first_sale": "2021-05-06", "last_sale": "2022-02-17"}}, {"type": "Feature", "geometry": {"type": "Point", "coordinates": [2.640275, 48.796126]}, "properties": {"id_parcelle": "77390000AI0241", "address": "1 SQ JAMES DRADIN", "sales": 2, "median_price": 347750.0, "median_price_per_sqm": 3104.910714285714, "median_rooms": 6.0, "first_sale": "2023-01-25", "last_sale": "2025-07-30"}}, {"type": "Feature", "geometry": {"type": "Point", "coordinates": [2.635582, 48.798247]}, "properties": {"id_parcelle": "77390000AL0003", "address": "20 RUE SIMONE WEIL", "sales": 2, "median_price": 295000.0, "median_price_per_sqm": 3041.237113402062, "median_rooms": 2.5, "first_sale": "2023-11-03", "last_sale": "2023-11-03"}}, {"type": "Feature", "geometry": {"type": "Point", "coordinates": [2.654271, 48.797138]}, "properties": {"id_parcelle": "77390000AK0263", "address": "LA VALLEE DE LAGNY", "sales": 2, "median_price": 318950.0, "median_price_per_sqm": null, "median_rooms": null, "first_sale": "2022-08-19", "last_sale": "2025-03-05"}}, {"type": "Feature", "geometry": {"type": "Point", "coordinates": [2.654715, 48.796657]}, "properties": {"id_parcelle": "77390000AK0249", "address": "40 RUE CONDORCET", "sales": 2, "median_price": 318950.0, "median_price_per_sqm": 3986.875, "median_rooms": 4.0, "first_sale": "2022-08-19", "last_sale": "2025-03-05"}}, {"type": "Feature", "geometry": {"type": "Point", "coordinates": [2.653497, 48.797282]}, "properties": {"id_parcelle": "77390000AK0248", "address": "LA VALLEE DE LAGNY", "sales": 2, "median_price": 318950.0, "median_price_per_sqm": null, "median_rooms": null, "first_sale": "2022-08-19", "last_sale": "2025-03-05"}}, {"type": "Feature", "geometry": {"type": "Point", "coordinates": [2.653547, 48.796373]}, "properties": {"id_parcelle": "77390000AK0185", "address": "44 RUE DE LA LIBERTE", "sales": 2, "median_price": 370000.0, "median_price_per_sqm": 2534.246575342466, "median_rooms": 2.5, "first_sale": "2021-07-16", "last_sale": "2021-07-16"}}, {"type": "Feature", "geometry": {"type": "Point", "coordinates": [2.629965, 48.800212]}, "properties": {"id_parcelle": "77390000AL0124", "address": "11 RUE DENIS PAPIN", "sales": 2, "median_price": 800000.0, "median_price_per_sqm": 1411.0996916752313, "median_rooms": 0.0, "first_sale": "2023-01-31", "last_sale": "2023-01-31"}}, {"type": "Feature", "geometry": {"type": "Point", "coordinates": [2.636158, 48.799149]}, "properties": {"id_parcelle": "77390000AL0198", "address": "30 RUE M T EYQUEM", "sales": 2, "median_price": 303000.0, "median_price_per_sqm": 3935.064935064935, "median_rooms": 2.0, "first_sale": "2021-12-03", "last_sale": "2021-12-03"}}, {"type": "Feature", "geometry": {"type": "Point", "coordinates": [2.636142, 48.799221]}, "properties": {"id_parcelle": "77390000AL0197", "address": "32 RUE M T EYQUEM", "sales": 2, "median_price": 295000.0, "median_price_per_sqm": 3277.777777777778, "median_rooms": 2.5, "first_sale": "2021-06-09", "last_sale": "2021-06-09"}}, {"type": "Feature", "geometry": {"type": "Point", "coordinates": [2.633602, 48.797722]}, "properties": {"id_parcelle": "77390000AL0439", "address": "LES CINQUANTE ARPENTS", "sales": 2, "median_price": 182000.5, "median_price_per_sqm": null, "median_rooms": null, "first_sale": "2022-10-25", "last_sale": "2022-10-25"}}, {"type": "Feature", "geometry": {"type": "Point", "coordinates": [2.637828, 48.804746]}, "properties": {"id_parcelle": "77390000AM0297", "address": "1 RUE DES CHENES", "sales": 2, "median_price": 433500.0, "median_price_per_sqm": 4051.4018691588785, "median_rooms": 2.5, "first_sale": "2025-07-10", "last_sale": "2025-07-10"}}, {"type": "Feature", "geometry": {"type": "Point", "coordinates": [2.637044, 48.805473]}, "properties": {"id_parcelle": "77390000AM0304", "address": "15 RUE DES CHENES", "sales": 2, "median_price": 550600.0, "median_price_per_sqm": 3462.893081761006, "median_rooms": 3.0, "first_sale": "2021-07-05", "last_sale": "2021-07-05"}}, {"type": "Feature", "geometry": {"type": "Point", "coordinates": [2.63933, 48.80367]}, "properties": {"id_parcelle": "77390000AM0360", "address": "54 RUE DES CHATAIGNIERS", "sales": 2, "median_price": 415000.0, "median_price_per_sqm": 3373.9837398373984, "median_rooms": 3.0, "first_sale": "2025-07-04", "last_sale": "2025-07-04"}}, {"type": "Feature", "geometry": {"type": "Point", "coordinates": [2.640194, 48.802867]}, "properties": {"id_parcelle": "77390000AM0406", "address": "10 RUE DES PRUNELLIERS", "sales": 2, "median_price": 494900.0, "median_price_per_sqm": 3806.923076923077, "median_rooms": 2.5, "first_sale": "2025-10-06", "last_sale": "2025-10-06"}}, {"type": "Feature", "geometry": {"type": "Point", "coordinates": [2.636849, 48.805085]}, "properties": {"id_parcelle": "77390000AM0482", "address": "20 IMP DES PEUPLIERS", "sales": 2, "median_price": 343500.0, "median_price_per_sqm": 3733.695652173913, "median_rooms": 4.0, "first_sale": "2021-12-16", "last_sale": "2022-09-14"}}, {"type": "Feature", "geometry": {"type": "Point", "coordinates": [2.670812, 48.790479]}, "properties": {"id_parcelle": "77390000AO0005", "address": "9 AV LE SAGE", "sales": 2, "median_price": 295000.0, "median_price_per_sqm": 3687.5, "median_rooms": 2.0, "first_sale": "2023-03-31", "last_sale": "2023-03-31"}}, {"type": "Feature", "geometry": {"type": "Point", "coordinates": [2.634735, 48.797124]}, "properties": {"id_parcelle": "77390000AL0085", "address": "7 COUR EUGENE POTTIER", "sales": 2, "median_price": 315000.0, "median_price_per_sqm": 3247.422680412371, "median_rooms": 2.5, "first_sale": "2025-01-29", "last_sale": "2025-01-29"}}, {"type": "Feature", "geometry": {"type": "Point", "coordinates": [2.670512, 48.790245]}, "properties": {"id_parcelle": "77390000AO0022", "address": "6 AV LE SAGE", "sales": 2, "median_price": 283000.0, "median_price_per_sqm": 3628.2051282051284, "median_rooms": 2.0, "first_sale": "2022-06-28", "last_sale": "2022-06-28"}}, {"type": "Feature", "geometry": {"type": "Point", "coordinates": [2.670358, 48.790262]}, "properties": {"id_parcelle": "77390000AO0023", "address": "4 AV LE SAGE", "sales": 2, "median_price": 295450.0, "median_price_per_sqm": 3787.8205128205127, "median_rooms": 2.0, "first_sale": "2025-03-21", "last_sale": "2025-03-21"}}, {"type": "Feature", "geometry": {"type": "Point", "coordinates": [2.670527, 48.789809]}, "properties": {"id_parcelle": "77390000AO0033", "address": "8 AV VOLTAIRE", "sales": 2, "median_price": 393000.0, "median_price_per_sqm": 3247.9338842975208, "median_rooms": 3.0, "first_sale": "2022-08-30", "last_sale": "2022-08-30"}}, {"type": "Feature", "geometry": {"type": "Point", "coordinates": [2.670281, 48.790067]}, "properties": {"id_parcelle": "77390000AO0026", "address": "3 AV VOLTAIRE", "sales": 2, "median_price": 266000.0, "median_price_per_sqm": 3325.0, "median_rooms": 2.0, "first_sale": "2025-03-06", "last_sale": "2025-03-06"}}, {"type": "Feature", "geometry": {"type": "Point", "coordinates": [2.672583, 48.788754]}, "properties": {"id_parcelle": "77390000AO0073", "address": "4 AV CHENIER", "sales": 2, "median_price": 320000.0, "median_price_per_sqm": 4000.0, "median_rooms": 2.0, "first_sale": "2023-03-15", "last_sale": "2023-03-15"}}, {"type": "Feature", "geometry": {"type": "Point", "coordinates": [2.67321, 48.788804]}, "properties": {"id_parcelle": "77390000AO0077", "address": "5 AV DIDEROT", "sales": 2, "median_price": 273000.0, "median_price_per_sqm": 3500.0, "median_rooms": 2.0, "first_sale": "2021-12-15", "last_sale": "2021-12-15"}}, {"type": "Feature", "geometry": {"type": "Point", "coordinates": [2.673572, 48.789269]}, "properties": {"id_parcelle": "77390000AO0093", "address": "12 AV DIDEROT", "sales": 2, "median_price": 391870.0, "median_price_per_sqm": 3562.4545454545455, "median_rooms": 3.0, "first_sale": "2024-08-21", "last_sale": "2024-08-21"}}, {"type": "Feature", "geometry": {"type": "Point", "coordinates": [2.670645, 48.789363]}, "properties": {"id_parcelle": "77390000AO0037", "address": "10 AV MONTESQUIEU", "sales": 2, "median_price": 305000.0, "median_price_per_sqm": 2629.310344827586, "median_rooms": 3.0, "first_sale": "2021-08-04", "last_sale": "2021-08-04"}}, {"type": "Feature", "geometry": {"type": "Point", "coordinates": [2.673559, 48.789517]}, "properties": {"id_parcelle": "77390000AO0100", "address": "3 AV VAUVENARGUES", "sales": 2, "median_price": 305000.0, "median_price_per_sqm": 3910.25641025641, "median_rooms": 2.0, "first_sale": "2022-07-15", "last_sale": "2022-07-15"}}, {"type": "Feature", "geometry": {"type": "Point", "coordinates": [2.673385, 48.789534]}, "properties": {"id_parcelle": "77390000AO0101", "address": "5 AV VAUVENARGUES", "sales": 2, "median_price": 298000.0, "median_price_per_sqm": 3820.5128205128203, "median_rooms": 2.0, "first_sale": "2022-07-04", "last_sale": "2022-07-04"}}, {"type": "Feature", "geometry": {"type": "Point", "coordinates": [2.672472, 48.789624]}, "properties": {"id_parcelle": "77390000AO0105", "address": "13 AV VAUVENARGUES", "sales": 2, "median_price": 260000.0, "median_price_per_sqm": 3250.0, "median_rooms": 2.0, "first_sale": "2025-01-10", "last_sale": "2025-01-10"}}, {"type": "Feature", "geometry": {"type": "Point", "coordinates": [2.673054, 48.789569]}, "properties": {"id_parcelle": "77390000AO0103", "address": "9 AV VAUVENARGUES", "sales": 2, "median_price": 305000.0, "median_price_per_sqm": 3910.25641025641, "median_rooms": 2.0, "first_sale": "2022-01-21", "last_sale": "2022-01-21"}}, {"type": "Feature", "geometry": {"type": "Point", "coordinates": [2.672436, 48.789704]}, "properties": {"id_parcelle": "77390000AO0106", "address": "15 AV VAUVENARGUES", "sales": 2, "median_price": 292000.0, "median_price_per_sqm": 3650.0, "median_rooms": 2.0, "first_sale": "2023-01-11", "last_sale": "2023-01-11"}}, {"type": "Feature", "geometry": {"type": "Point", "coordinates": [2.673756, 48.789737]}, "properties": {"id_parcelle": "77390000AO0114", "address": "2 AV VAUVENARGUES", "sales": 2, "median_price": 376600.0, "median_price_per_sqm": 3692.156862745098, "median_rooms": 2.5, "first_sale": "2022-01-07", "last_sale": "2022-01-07"}}, {"type": "Feature", "geometry": {"type": "Point", "coordinates": [2.673118, 48.789993]}, "properties": {"id_parcelle": "77390000AO0119", "address": "9 AV BUFFON", "sales": 2, "median_price": 338000.0, "median_price_per_sqm": 2816.6666666666665, "median_rooms": 3.5, "first_sale": "2024-07-01", "last_sale": "2024-07-01"}}, {"type": "Feature", "geometry": {"type": "Point", "coordinates": [2.670867, 48.79228]}, "properties": {"id_parcelle": "77390000AO0192", "address": "1 AV DU BOIS MONTMARTRE", "sales": 2, "median_price": 175100.0, "median_price_per_sqm": null, "median_rooms": null, "first_sale": "2023-01-17", "last_sale": "2023-03-08"}}]}