{"type": "FeatureCollection", "features": [{"type": "Feature", "geometry": {"type": "Point", "coordinates": [2.60083, 48.917953]}, "properties": {"id_parcelle": "77139000BB0332", "address": "12 RUE DES BONNES VIGNES", "sales": 52, "median_price": 240000.0, "median_price_per_sqm": 4032.2580645161293, "median_rooms": 0.0, "first_sale": "2021-06-22", "last_sale": "2025-04-07"}}, {"type": "Feature", "geometry": {"type": "Point", "coordinates": [2.607718, 48.907585]}, "properties": {"id_parcelle": "771390000B3821", "address": "16 L ETANG", "sales": 51, "median_price": 864000.0, "median_price_per_sqm": 11737.0, "median_rooms": 0.0, "first_sale": "2021-10-01", "last_sale": "2025-04-15"}}, {"type": "Feature", "geometry": {"type": "Point", "coordinates": [2.606968, 48.91797]}, "properties": {"id_parcelle": "77139000BC0200", "address": "2 RUE DE LA MARE MADAME", "sales": 33, "median_price": 230850.0, "median_price_per_sqm": 3928.5714285714284, "median_rooms": 0.0, "first_sale": "2021-04-26", "last_sale": "2023-09-07"}}, {"type": "Feature", "geometry": {"type": "Point", "coordinates": [2.60099, 48.90949]}, "properties": {"id_parcelle": "77139000BE0495", "address": "51 AV DU FOND DE BERCON", "sales": 30, "median_price": 700000.0, "median_price_per_sqm": 9908.29346092504, "median_rooms": 0.0, "first_sale": "2021-09-14", "last_sale": "2025-09-08"}}, {"type": "Feature", "geometry": {"type": "Point", "coordinates": [2.590585, 48.909605]}, "properties": {"id_parcelle": "77139000BH0235", "address": "13 RUE DES MESANGES", "sales": 19, "median_price": 780000.0, "median_price_per_sqm": 16428.258007898203, "median_rooms": 0.0, "first_sale": "2021-01-29", "last_sale": "2025-07-31"}}, {"type": "Feature", "geometry": {"type": "Point", "coordinates": [2.596016, 48.918038]}, "properties": {"id_parcelle": "77139000BB0001", "address": "9 RUE DU GOULET", "sales": 17, "median_price": 880000.0, "median_price_per_sqm": 5622.222222222223, "median_rooms": 0.0, "first_sale": "2022-12-30", "last_sale": "2022-12-30"}}, {"type": "Feature", "geometry": {"type": "Point", "coordinates": [2.595765, 48.913552]}, "properties": {"id_parcelle": "77139000BI0126", "address": "54 RUE AUGUSTE RODIN", "sales": 15, "median_price": 185000.0, "median_price_per_sqm": 2969.6969696969695, "median_rooms": 0.0, "first_sale": "2022-10-06", "last_sale": "2025-05-27"}}, {"type": "Feature", "geometry": {"type": "Point", "coordinates": [2.599607, 48.911339]}, "properties": {"id_parcelle": "77139000AB0496", "address": "10 VILLAGE DE LA FORET", "sales": 14, "median_price": 300000.0, "median_price_per_sqm": 3214.285714285714, "median_rooms": 0.0, "first_sale": "2021-02-26", "last_sale": "2025-12-09"}}, {"type": "Feature", "geometry": {"type": "Point", "coordinates": [2.596943, 48.917079]}, "properties": {"id_parcelle": "77139000BB0353", "address": "10 RUE DE LA BARRE", "sales": 12, "median_price": 207150.0, "median_price_per_sqm": 3803.27868852459, "median_rooms": 0.0, "first_sale": "2021-06-25", "last_sale": "2025-06-13"}}, {"type": "Feature", "geometry": {"type": "Point", "coordinates": [2.596801, 48.917694]}, "properties": {"id_parcelle": "77139000BB0013", "address": "16 RUE DE LA BARRE", "sales": 11, "median_price": 463400.0, "median_price_per_sqm": 4777.319587628866, "median_rooms": 0.0, "first_sale": "2024-05-06", "last_sale": "2024-05-06"}}, {"type": "Feature", "geometry": {"type": "Point", "coordinates": [2.592188, 48.909121]}, "properties": {"id_parcelle": "77139000BH0329", "address": "17 RUE DES CHARDONNERETS", "sales": 10, "median_price": 210000.0, "median_price_per_sqm": 3915.343915343916, "median_rooms": 0.0, "first_sale": "2022-05-16", "last_sale": "2025-10-10"}}, {"type": "Feature", "geometry": {"type": "Point", "coordinates": [2.60423, 48.91099]}, "properties": {"id_parcelle": "77139000BD0092", "address": "93 RUE CHARLES VAN WYNGENE", "sales": 8, "median_price": 904465.0, "median_price_per_sqm": 13403.012422360247, "median_rooms": 3.5, "first_sale": "2021-06-01", "last_sale": "2024-11-07"}}, {"type": "Feature", "geometry": {"type": "Point", "coordinates": [2.589947, 48.909652]}, "properties": {"id_parcelle": "77139000BH0265", "address": "10 RUE DES PINSONS", "sales": 8, "median_price": 456971.56, "median_price_per_sqm": 8960.226666666666, "median_rooms": 1.5, "first_sale": "2022-11-16", "last_sale": "2022-11-16"}}, {"type": "Feature", "geometry": {"type": "Point", "coordinates": [2.59955, 48.906037]}, "properties": {"id_parcelle": "77139000BE0237", "address": "21 AV DE CHANTEREINE", "sales": 6, "median_price": 400000.0, "median_price_per_sqm": 11428.57142857143, "median_rooms": 0.0, "first_sale": "2022-09-08", "last_sale": "2022-09-08"}}, {"type": "Feature", "geometry": {"type": "Point", "coordinates": [2.597925, 48.912616]}, "properties": {"id_parcelle": "77139000AB0497", "address": "4 RUE DES ORMEAUX", "sales": 6, "median_price": 455000.0, "median_price_per_sqm": 10472.222222222223, "median_rooms": 2.5, "first_sale": "2022-06-02", "last_sale": "2022-06-02"}}, {"type": "Feature", "geometry": {"type": "Point", "coordinates": [2.606918, 48.90963]}, "properties": {"id_parcelle": "77139000BD0010", "address": "7 RUE DE LA REGALE", "sales": 5, "median_price": 875000.0, "median_price_per_sqm": 3645.8333333333335, "median_rooms": 0.0, "first_sale": "2024-07-01", "last_sale": "2024-07-01"}}, {"type": "Feature", "geometry": {"type": "Point", "coordinates": [2.597958, 48.916769]}, "properties": {"id_parcelle": "77139000BB0250", "address": "107 RUE DU GENERAL DE GAULLE", "sales": 4, "median_price": 240000.0, "median_price_per_sqm": 2949.1525423728813, "median_rooms": 3.5, "first_sale": "2021-03-26", "last_sale": "2024-03-22"}}, {"type": "Feature", "geometry": {"type": "Point", "coordinates": [2.596249, 48.917841]}, "properties": {"id_parcelle": "77139000BB0271", "address": "13 RUE DE LA BARRE", "sales": 4, "median_price": 245000.0, "median_price_per_sqm": 2606.3829787234044, "median_rooms": 0.0, "first_sale": "2024-05-23", "last_sale": "2024-05-23"}}, {"type": "Feature", "geometry": {"type": "Point", "coordinates": [2.595291, 48.908977]}, "properties": {"id_parcelle": "77139000BE0462", "address": "54 RTE DU CHAT", "sales": 4, "median_price": 325000.0, "median_price_per_sqm": 10156.25, "median_rooms": 2.0, "first_sale": "2021-04-16", "last_sale": "2021-04-16"}}, {"type": "Feature", "geometry": {"type": "Point", "coordinates": [2.600883, 48.909343]}, "properties": {"id_parcelle": "77139000BE0106", "address": "105 RTE DU CHAT", "sales": 4, "median_price": 265000.0, "median_price_per_sqm": 2409.090909090909, "median_rooms": 1.5, "first_sale": "2025-09-26", "last_sale": "2025-09-26"}}, {"type": "Feature", "geometry": {"type": "Point", "coordinates": [2.599082, 48.908125]}, "properties": {"id_parcelle": "77139000BE0286", "address": "22 RTE DU CLOCHER DE COURTRY", "sales": 4, "median_price": 260000.0, "median_price_per_sqm": 6452.455590386625, "median_rooms": 0.5, "first_sale": "2025-07-03", "last_sale": "2025-07-03"}}, {"type": "Feature", "geometry": {"type": "Point", "coordinates": [2.604254, 48.918361]}, "properties": {"id_parcelle": "77139000BC0139", "address": "36 RUE DU GENERAL LECLERC", "sales": 4, "median_price": 170500.0, "median_price_per_sqm": null, "median_rooms": null, "first_sale": "2023-07-11", "last_sale": "2025-01-17"}}, {"type": "Feature", "geometry": {"type": "Point", "coordinates": [2.602925, 48.918492]}, "properties": {"id_parcelle": "77139000BB0140", "address": "1 RUE DE LA BERGERIE", "sales": 4, "median_price": 290000.0, "median_price_per_sqm": 3250.487329434698, "median_rooms": 0.0, "first_sale": "2025-11-07", "last_sale": "2025-11-07"}}, {"type": "Feature", "geometry": {"type": "Point", "coordinates": [2.597077, 48.916539]}, "properties": {"id_parcelle": "77139000BB0378", "address": "119 RUE DU GENERAL DE GAULLE", "sales": 4, "median_price": 9289429.0, "median_price_per_sqm": 300767.8214616096, "median_rooms": 2.0, "first_sale": "2022-12-19", "last_sale": "2022-12-19"}}, {"type": "Feature", "geometry": {"type": "Point", "coordinates": [2.59759, 48.91008]}, "properties": {"id_parcelle": "77139000BE0067", "address": "42 RUE DES CHARMES", "sales": 4, "median_price": 316500.0, "median_price_per_sqm": 3956.25, "median_rooms": 1.5, "first_sale": "2022-02-18", "last_sale": "2024-07-09"}}, {"type": "Feature", "geometry": {"type": "Point", "coordinates": [2.592181, 48.909499]}, "properties": {"id_parcelle": "77139000BH0202", "address": "28 RTE DU CHAT", "sales": 4, "median_price": 224900.0, "median_price_per_sqm": 3307.3529411764707, "median_rooms": 0.0, "first_sale": "2025-07-29", "last_sale": "2025-07-29"}}, {"type": "Feature", "geometry": {"type": "Point", "coordinates": [2.609301, 48.906713]}, "properties": {"id_parcelle": "771390000B3813", "address": "9015 CHE DU BOIS RAFFETEAU", "sales": 4, "median_price": 460000.0, "median_price_per_sqm": 8070.175438596491, "median_rooms": 1.5, "first_sale": "2022-10-07", "last_sale": "2022-10-07"}}, {"type": "Feature", "geometry": {"type": "Point", "coordinates": [2.594592, 48.908441]}, "properties": {"id_parcelle": "77139000BH0327", "address": "11 RUE DES CHENES", "sales": 4, "median_price": 343000.0, "median_price_per_sqm": 10380.263157894737, "median_rooms": 0.0, "first_sale": "2024-06-14", "last_sale": "2024-06-14"}}, {"type": "Feature", "geometry": {"type": "Point", "coordinates": [2.591753, 48.908565]}, "properties": {"id_parcelle": "77139000BH0213", "address": "5 RUE DES CHARDONNERETS", "sales": 4, "median_price": 410000.0, "median_price_per_sqm": 5189.873417721519, "median_rooms": 2.0, "first_sale": "2023-09-07", "last_sale": "2023-09-07"}}, {"type": "Feature", "geometry": {"type": "Point", "coordinates": [2.597511, 48.908481]}, "properties": {"id_parcelle": "77139000BE0383", "address": "21 RUE DES SAULES", "sales": 3, "median_price": 450000.0, "median_price_per_sqm": 3000.0, "median_rooms": 0.0, "first_sale": "2021-09-30", "last_sale": "2021-09-30"}}, {"type": "Feature", "geometry": {"type": "Point", "coordinates": [2.593219, 48.910187]}, "properties": {"id_parcelle": "77139000BH0082", "address": "13 RTE COSSEE", "sales": 3, "median_price": 447500.0, "median_price_per_sqm": 3792.3728813559323, "median_rooms": 0.0, "first_sale": "2023-10-19", "last_sale": "2023-10-19"}}, {"type": "Feature", "geometry": {"type": "Point", "coordinates": [2.599471, 48.909143]}, "properties": {"id_parcelle": "77139000BE0097", "address": "36 RTE DU CLOCHER DE COURTRY", "sales": 3, "median_price": 205000.0, "median_price_per_sqm": 3660.714285714286, "median_rooms": 0.0, "first_sale": "2024-11-27", "last_sale": "2024-11-27"}}, {"type": "Feature", "geometry": {"type": "Point", "coordinates": [2.599031, 48.907156]}, "properties": {"id_parcelle": "77139000BE0270", "address": "7 AV DES ONZE ARPENTS", "sales": 3, "median_price": 350850.0, "median_price_per_sqm": 2637.96992481203, "median_rooms": 0.0, "first_sale": "2024-12-19", "last_sale": "2024-12-19"}}, {"type": "Feature", "geometry": {"type": "Point", "coordinates": [2.597002, 48.91009]}, "properties": {"id_parcelle": "77139000BE0045", "address": "45 RUE DES CHARMES", "sales": 3, "median_price": 272000.0, "median_price_per_sqm": 6476.190476190476, "median_rooms": 0.0, "first_sale": "2023-03-13", "last_sale": "2023-03-13"}}, {"type": "Feature", "geometry": {"type": "Point", "coordinates": [2.59962, 48.909536]}, "properties": {"id_parcelle": "77139000BE0100", "address": "67 AV DE CHANTEREINE", "sales": 3, "median_price": 205000.0, "median_price_per_sqm": 2440.4761904761904, "median_rooms": 0.0, "first_sale": "2021-06-23", "last_sale": "2021-06-23"}}, {"type": "Feature", "geometry": {"type": "Point", "coordinates": [2.598325, 48.910816]}, "properties": {"id_parcelle": "77139000BI0344", "address": "81 AV DE LA FORET", "sales": 3, "median_price": 40000.0, "median_price_per_sqm": null, "median_rooms": null, "first_sale": "2021-01-25", "last_sale": "2025-06-06"}}, {"type": "Feature", "geometry": {"type": "Point", "coordinates": [2.59816, 48.910725]}, "properties": {"id_parcelle": "77139000BI0170", "address": "81 AV DE LA FORET", "sales": 3, "median_price": 40000.0, "median_price_per_sqm": 3912.0, "median_rooms": 4.0, "first_sale": "2021-01-25", "last_sale": "2025-06-06"}}, {"type": "Feature", "geometry": {"type": "Point", "coordinates": [2.593592, 48.913089]}, "properties": {"id_parcelle": "77139000BI0117", "address": "8 RUE DES GONCOURT", "sales": 3, "median_price": 245000.0, "median_price_per_sqm": 4152.542372881356, "median_rooms": 0.0, "first_sale": "2023-07-03", "last_sale": "2023-07-03"}}, {"type": "Feature", "geometry": {"type": "Point", "coordinates": [2.595964, 48.91897]}, "properties": {"id_parcelle": "77139000ZB0014", "address": "13 RUE DU GOULET", "sales": 3, "median_price": 325000.0, "median_price_per_sqm": 4062.5, "median_rooms": 3.0, "first_sale": "2023-04-13", "last_sale": "2023-04-13"}}, {"type": "Feature", "geometry": {"type": "Point", "coordinates": [2.592916, 48.9105]}, "properties": {"id_parcelle": "77139000BH0096", "address": "16 RUE DES ACACIAS", "sales": 3, "median_price": 252500.0, "median_price_per_sqm": 3156.25, "median_rooms": 0.0, "first_sale": "2021-05-28", "last_sale": "2021-05-28"}}, {"type": "Feature", "geometry": {"type": "Point", "coordinates": [2.594508, 48.90908]}, "properties": {"id_parcelle": "77139000BH0106", "address": "48 RTE DU CHAT", "sales": 3, "median_price": 207000.0, "median_price_per_sqm": 4813.953488372093, "median_rooms": 0.0, "first_sale": "2024-11-26", "last_sale": "2024-11-26"}}, {"type": "Feature", "geometry": {"type": "Point", "coordinates": [2.592381, 48.91091]}, "properties": {"id_parcelle": "77139000BH0047", "address": "17 RUE DES ACACIAS", "sales": 3, "median_price": 239000.0, "median_price_per_sqm": 4509.433962264151, "median_rooms": 0.0, "first_sale": "2021-08-06", "last_sale": "2021-08-06"}}, {"type": "Feature", "geometry": {"type": "Point", "coordinates": [2.593521, 48.913651]}, "properties": {"id_parcelle": "77139000BI0090", "address": "17 RUE DES GONCOURT", "sales": 3, "median_price": 284000.0, "median_price_per_sqm": 6311.111111111111, "median_rooms": 0.0, "first_sale": "2022-09-12", "last_sale": "2022-09-12"}}, {"type": "Feature", "geometry": {"type": "Point", "coordinates": [2.602806, 48.91903]}, "properties": {"id_parcelle": "77139000BB0148", "address": "17 RUE DE LA BERGERIE", "sales": 3, "median_price": 234200.0, "median_price_per_sqm": 3042.0715249662617, "median_rooms": 0.0, "first_sale": "2024-02-21", "last_sale": "2024-02-21"}}, {"type": "Feature", "geometry": {"type": "Point", "coordinates": [2.599319, 48.916903]}, "properties": {"id_parcelle": "77139000BB0227", "address": "73 RUE DU GENERAL DE GAULLE", "sales": 3, "median_price": 215000.0, "median_price_per_sqm": 3257.5757575757575, "median_rooms": 0.0, "first_sale": "2022-11-25", "last_sale": "2022-11-25"}}, {"type": "Feature", "geometry": {"type": "Point", "coordinates": [2.606697, 48.908964]}, "properties": {"id_parcelle": "77139000BD0013", "address": "13 RUE DE LA REGALE", "sales": 3, "median_price": 445000.0, "median_price_per_sqm": 8090.909090909091, "median_rooms": 2.0, "first_sale": "2023-07-26", "last_sale": "2023-07-26"}}, {"type": "Feature", "geometry": {"type": "Point", "coordinates": [2.599209, 48.916812]}, "properties": {"id_parcelle": "77139000BB0231", "address": "79 RUE DU GENERAL DE GAULLE", "sales": 3, "median_price": 136000.0, "median_price_per_sqm": 2551.5151515151515, "median_rooms": 3.0, "first_sale": "2021-01-14", "last_sale": "2021-08-20"}}, {"type": "Feature", "geometry": {"type": "Point", "coordinates": [2.603145, 48.91685]}, "properties": {"id_parcelle": "77139000BB0172", "address": "32 RUE CHARLES VAN WYNGENE", "sales": 3, "median_price": 450000.0, "median_price_per_sqm": 4591.836734693878, "median_rooms": 0.0, "first_sale": "2022-12-27", "last_sale": "2022-12-27"}}, {"type": "Feature", "geometry": {"type": "Point", "coordinates": [2.602349, 48.918133]}, "properties": {"id_parcelle": "77139000BB0135", "address": "3 ALL DU ROSTERNEL", "sales": 3, "median_price": 120000.0, "median_price_per_sqm": 3913.0434782608695, "median_rooms": 2.0, "first_sale": "2021-04-09", "last_sale": "2025-03-03"}}, {"type": "Feature", "geometry": {"type": "Point", "coordinates": [2.597034, 48.910383]}, "properties": {"id_parcelle": "77139000BE0041", "address": "49 RUE DES CHARMES", "sales": 3, "median_price": 372000.0, "median_price_per_sqm": 4592.592592592592, "median_rooms": 0.0, "first_sale": "2022-11-16", "last_sale": "2022-11-16"}}, {"type": "Feature", "geometry": {"type": "Point", "coordinates": [2.598746, 48.917594]}, "properties": {"id_parcelle": "77139000BB0056", "address": "18 RUE DE LA DHUYS", "sales": 2, "median_price": 295000.0, "median_price_per_sqm": 3734.1772151898736, "median_rooms": 2.0, "first_sale": "2022-10-26", "last_sale": "2022-10-26"}}, {"type": "Feature", "geometry": {"type": "Point", "coordinates": [2.601937, 48.917264]}, "properties": {"id_parcelle": "77139000BB0191", "address": "23 RUE DU GENERAL DE GAULLE", "sales": 2, "median_price": 210000.0, "median_price_per_sqm": 2344.881699661999, "median_rooms": 2.0, "first_sale": "2021-09-15", "last_sale": "2021-09-15"}}, {"type": "Feature", "geometry": {"type": "Point", "coordinates": [2.60197, 48.91717]}, "properties": {"id_parcelle": "77139000BB0188", "address": "RUE DU GENERAL DE GAULLE", "sales": 2, "median_price": 165000.0, "median_price_per_sqm": null, "median_rooms": null, "first_sale": "2021-10-01", "last_sale": "2022-08-02"}}, {"type": "Feature", "geometry": {"type": "Point", "coordinates": [2.601999, 48.91712]}, "properties": {"id_parcelle": "77139000BB0187", "address": "19 RUE DU GENERAL DE GAULLE", "sales": 2, "median_price": 165000.0, "median_price_per_sqm": null, "median_rooms": null, "first_sale": "2021-10-01", "last_sale": "2022-08-02"}}, {"type": "Feature", "geometry": {"type": "Point", "coordinates": [2.601564, 48.917349]}, "properties": {"id_parcelle": "77139000BB0128", "address": "COURTRY", "sales": 2, "median_price": 171575.0, "median_price_per_sqm": null, "median_rooms": null, "first_sale": "2022-09-08", "last_sale": "2025-02-12"}}, {"type": "Feature", "geometry": {"type": "Point", "coordinates": [2.599778, 48.915917]}, "properties": {"id_parcelle": "77139000AD0064", "address": "4 ALL DES DENTELIERES", "sales": 2, "median_price": 470980.0, "median_price_per_sqm": 3892.396694214876, "median_rooms": 2.5, "first_sale": "2021-10-20", "last_sale": "2021-10-20"}}, {"type": "Feature", "geometry": {"type": "Point", "coordinates": [2.594788, 48.915519]}, "properties": {"id_parcelle": "77139000AC0296", "address": "4 RUE DES METIERS", "sales": 2, "median_price": 402160.0, "median_price_per_sqm": 3408.135593220339, "median_rooms": 3.0, "first_sale": "2024-05-30", "last_sale": "2024-05-30"}}, {"type": "Feature", "geometry": {"type": "Point", "coordinates": [2.597834, 48.913638]}, "properties": {"id_parcelle": "77139000AB0411", "address": "19 RUE DES ORMEAUX", "sales": 2, "median_price": 318000.0, "median_price_per_sqm": 3925.925925925926, "median_rooms": 2.0, "first_sale": "2023-07-06", "last_sale": "2023-07-06"}}, {"type": "Feature", "geometry": {"type": "Point", "coordinates": [2.591353, 48.915443]}, "properties": {"id_parcelle": "771390000B0300", "address": "7 RTE DE MONTFERMEIL", "sales": 2, "median_price": 380000.0, "median_price_per_sqm": 4130.434782608696, "median_rooms": 5.0, "first_sale": "2021-10-02", "last_sale": "2021-10-02"}}, {"type": "Feature", "geometry": {"type": "Point", "coordinates": [2.598975, 48.909635]}, "properties": {"id_parcelle": "77139000BE0087", "address": "33 RTE DU CLOCHER DE COURTRY", "sales": 2, "median_price": 385000.0, "median_price_per_sqm": 4277.777777777777, "median_rooms": 4.0, "first_sale": "2025-08-25", "last_sale": "2025-08-25"}}, {"type": "Feature", "geometry": {"type": "Point", "coordinates": [2.606484, 48.907547]}, "properties": {"id_parcelle": "77139000BD0020", "address": "27 RUE DE LA REGALE", "sales": 2, "median_price": 950000.0, "median_price_per_sqm": 3361.222111222111, "median_rooms": 0.0, "first_sale": "2023-09-14", "last_sale": "2023-09-14"}}, {"type": "Feature", "geometry": {"type": "Point", "coordinates": [2.595335, 48.91044]}, "properties": {"id_parcelle": "77139000BE0007", "address": "19 RUE DES HETRES", "sales": 2, "median_price": 433000.0, "median_price_per_sqm": 2775.641025641026, "median_rooms": 3.0, "first_sale": "2022-10-11", "last_sale": "2022-10-11"}}, {"type": "Feature", "geometry": {"type": "Point", "coordinates": [2.595678, 48.909315]}, "properties": {"id_parcelle": "77139000BE0017", "address": "57 RTE DU CHAT", "sales": 2, "median_price": 371000.0, "median_price_per_sqm": 4032.608695652174, "median_rooms": 2.5, "first_sale": "2021-06-15", "last_sale": "2021-06-15"}}, {"type": "Feature", "geometry": {"type": "Point", "coordinates": [2.603868, 48.918242]}, "properties": {"id_parcelle": "77139000BC0216", "address": "RUE DU GENERAL LECLERC", "sales": 2, "median_price": 1000.0, "median_price_per_sqm": null, "median_rooms": null, "first_sale": "2024-01-15", "last_sale": "2024-11-08"}}, {"type": "Feature", "geometry": {"type": "Point", "coordinates": [2.603909, 48.918219]}, "properties": {"id_parcelle": "77139000BC0215", "address": "RUE DU GENERAL LECLERC", "sales": 2, "median_price": 1000.0, "median_price_per_sqm": null, "median_rooms": null, "first_sale": "2024-01-15", "last_sale": "2024-11-08"}}, {"type": "Feature", "geometry": {"type": "Point", "coordinates": [2.604013, 48.918288]}, "properties": {"id_parcelle": "77139000BC0217", "address": "RUE DU GENERAL LECLERC", "sales": 2, "median_price": 1000.0, "median_price_per_sqm": null, "median_rooms": null, "first_sale": "2024-01-15", "last_sale": "2024-11-08"}}, {"type": "Feature", "geometry": {"type": "Point", "coordinates": [2.606654, 48.908722]}, "properties": {"id_parcelle": "77139000BD0014", "address": "15 LA REGALLE", "sales": 2, "median_price": 420000.0, "median_price_per_sqm": 1074.4996479935633, "median_rooms": 0.0, "first_sale": "2021-05-05", "last_sale": "2021-05-05"}}, {"type": "Feature", "geometry": {"type": "Point", "coordinates": [2.603992, 48.918214]}, "properties": {"id_parcelle": "77139000BC0214", "address": "9005 RUE DU GENERAL LECLERC", "sales": 2, "median_price": 1000.0, "median_price_per_sqm": null, "median_rooms": null, "first_sale": "2024-01-15", "last_sale": "2024-11-08"}}, {"type": "Feature", "geometry": {"type": "Point", "coordinates": [2.599333, 48.916854]}, "properties": {"id_parcelle": "77139000BB0228", "address": "COURTRY", "sales": 2, "median_price": 190000.0, "median_price_per_sqm": null, "median_rooms": null, "first_sale": "2022-11-25", "last_sale": "2024-01-30"}}, {"type": "Feature", "geometry": {"type": "Point", "coordinates": [2.596585, 48.91646]}, "properties": {"id_parcelle": "77139000BB0379", "address": "121 RUE DU GENERAL DE GAULLE", "sales": 2, "median_price": 9289429.0, "median_price_per_sqm": 30964.763333333332, "median_rooms": 0.0, "first_sale": "2022-12-19", "last_sale": "2022-12-19"}}, {"type": "Feature", "geometry": {"type": "Point", "coordinates": [2.602222, 48.916989]}, "properties": {"id_parcelle": "77139000BB0375", "address": "19 RUE DU GENERAL DE GAULLE", "sales": 2, "median_price": 268000.0, "median_price_per_sqm": 3828.5714285714284, "median_rooms": 2.0, "first_sale": "2022-10-26", "last_sale": "2022-10-26"}}, {"type": "Feature", "geometry": {"type": "Point", "coordinates": [2.603572, 48.91859]}, "properties": {"id_parcelle": "77139000BC0052", "address": "10 RUE DE LA BERGERIE", "sales": 2, "median_price": 103000.0, "median_price_per_sqm": 1471.4285714285713, "median_rooms": 1.5, "first_sale": "2025-05-26", "last_sale": "2025-05-26"}}, {"type": "Feature", "geometry": {"type": "Point", "coordinates": [2.603715, 48.917787]}, "properties": {"id_parcelle": "77139000BC0108", "address": "9002 RUE DU GENERAL LECLERC", "sales": 2, "median_price": 103500.0, "median_price_per_sqm": null, "median_rooms": 0.0, "first_sale": "2021-12-02", "last_sale": "2023-09-25"}}, {"type": "Feature", "geometry": {"type": "Point", "coordinates": [2.604192, 48.918394]}, "properties": {"id_parcelle": "77139000BC0131", "address": "38 RUE DU GENERAL LECLERC", "sales": 2, "median_price": 177250.0, "median_price_per_sqm": 1611.3636363636365, "median_rooms": 5.0, "first_sale": "2023-07-11", "last_sale": "2023-12-19"}}, {"type": "Feature", "geometry": {"type": "Point", "coordinates": [2.604294, 48.918467]}, "properties": {"id_parcelle": "77139000BC0133", "address": "42 RUE DU GENERAL LECLERC", "sales": 2, "median_price": 205000.0, "median_price_per_sqm": 3153.846153846154, "median_rooms": 1.0, "first_sale": "2021-07-27", "last_sale": "2021-07-27"}}, {"type": "Feature", "geometry": {"type": "Point", "coordinates": [2.599507, 48.916751]}, "properties": {"id_parcelle": "77139000BB0221", "address": "RUE DU CAVOY", "sales": 2, "median_price": 190000.0, "median_price_per_sqm": null, "median_rooms": null, "first_sale": "2022-11-25", "last_sale": "2024-01-30"}}, {"type": "Feature", "geometry": {"type": "Point", "coordinates": [2.60153, 48.913294]}, "properties": {"id_parcelle": "77139000AB0305", "address": "9 AV DES LINAS", "sales": 2, "median_price": 470000.0, "median_price_per_sqm": 3700.787401574803, "median_rooms": 3.0, "first_sale": "2023-07-26", "last_sale": "2023-07-26"}}, {"type": "Feature", "geometry": {"type": "Point", "coordinates": [2.600249, 48.912801]}, "properties": {"id_parcelle": "77139000AB0214", "address": "21 AV DES LINAS", "sales": 2, "median_price": 337000.0, "median_price_per_sqm": 3438.7755102040815, "median_rooms": 2.5, "first_sale": "2023-06-29", "last_sale": "2023-06-29"}}, {"type": "Feature", "geometry": {"type": "Point", "coordinates": [2.600291, 48.910854]}, "properties": {"id_parcelle": "77139000AB0174", "address": "18 RUE DU HAMEAU DU VILLAGE", "sales": 2, "median_price": 345000.0, "median_price_per_sqm": 2923.728813559322, "median_rooms": 3.0, "first_sale": "2021-05-28", "last_sale": "2021-05-28"}}, {"type": "Feature", "geometry": {"type": "Point", "coordinates": [2.600931, 48.915777]}, "properties": {"id_parcelle": "77139000AB0040", "address": "7 ALL ANDRE MAUROIS", "sales": 2, "median_price": 524000.0, "median_price_per_sqm": 3824.817518248175, "median_rooms": 3.0, "first_sale": "2021-06-30", "last_sale": "2021-06-30"}}, {"type": "Feature", "geometry": {"type": "Point", "coordinates": [2.607786, 48.905991]}, "properties": {"id_parcelle": "771390000B3837", "address": "13 RUE DU POTEAU", "sales": 2, "median_price": 1446960.0, "median_price_per_sqm": null, "median_rooms": null, "first_sale": "2024-02-22", "last_sale": "2024-07-01"}}, {"type": "Feature", "geometry": {"type": "Point", "coordinates": [2.608925, 48.906764]}, "properties": {"id_parcelle": "771390000B3833", "address": "CHE DU BOIS RAFFETEAU", "sales": 2, "median_price": 234212.0, "median_price_per_sqm": null, "median_rooms": null, "first_sale": "2022-03-24", "last_sale": "2022-10-07"}}, {"type": "Feature", "geometry": {"type": "Point", "coordinates": [2.591788, 48.915647]}, "properties": {"id_parcelle": "771390000B3026", "address": "3 RTE DE MONTFERMEIL", "sales": 2, "median_price": 390000.0, "median_price_per_sqm": 3644.8598130841124, "median_rooms": 3.0, "first_sale": "2024-06-27", "last_sale": "2024-06-27"}}, {"type": "Feature", "geometry": {"type": "Point", "coordinates": [2.601708, 48.917362]}, "properties": {"id_parcelle": "77139000BB0127", "address": "28 RUE DU GENERAL DE GAULLE", "sales": 2, "median_price": 203150.0, "median_price_per_sqm": 4322.340425531915, "median_rooms": 1.5, "first_sale": "2025-02-12", "last_sale": "2025-02-12"}}, {"type": "Feature", "geometry": {"type": "Point", "coordinates": [2.596609, 48.906924]}, "properties": {"id_parcelle": "77139000BE0355", "address": "16 RUE DES FAUVETTES", "sales": 2, "median_price": 350000.0, "median_price_per_sqm": 5000.0, "median_rooms": 4.0, "first_sale": "2024-06-11", "last_sale": "2024-06-11"}}, {"type": "Feature", "geometry": {"type": "Point", "coordinates": [2.599944, 48.90677]}, "properties": {"id_parcelle": "77139000BE0261", "address": "29 AV DE CHANTEREINE", "sales": 2, "median_price": 283000.0, "median_price_per_sqm": 4564.5161290322585, "median_rooms": 1.5, "first_sale": "2023-05-31", "last_sale": "2023-05-31"}}, {"type": "Feature", "geometry": {"type": "Point", "coordinates": [2.59943, 48.907089]}, "properties": {"id_parcelle": "77139000BE0267", "address": "11 AV DES ONZE ARPENTS", "sales": 2, "median_price": 485700.0, "median_price_per_sqm": 2857.0588235294117, "median_rooms": 7.0, "first_sale": "2021-04-15", "last_sale": "2021-04-15"}}, {"type": "Feature", "geometry": {"type": "Point", "coordinates": [2.597545, 48.907548]}, "properties": {"id_parcelle": "77139000BE0369", "address": "5 RUE DES SAULES", "sales": 2, "median_price": 350000.0, "median_price_per_sqm": 4166.666666666667, "median_rooms": 2.5, "first_sale": "2023-04-12", "last_sale": "2023-04-12"}}, {"type": "Feature", "geometry": {"type": "Point", "coordinates": [2.602038, 48.90684]}, "properties": {"id_parcelle": "77139000BE0181", "address": "30 RUE AUGUSTE BOULNAT", "sales": 2, "median_price": 377788.0, "median_price_per_sqm": 3122.214876033058, "median_rooms": 3.0, "first_sale": "2022-02-07", "last_sale": "2022-02-07"}}, {"type": "Feature", "geometry": {"type": "Point", "coordinates": [2.600656, 48.906258]}, "properties": {"id_parcelle": "77139000BE0232", "address": "20 AV DES ONZE ARPENTS", "sales": 2, "median_price": 275000.0, "median_price_per_sqm": 4104.477611940299, "median_rooms": 2.0, "first_sale": "2023-10-11", "last_sale": "2023-10-11"}}, {"type": "Feature", "geometry": {"type": "Point", "coordinates": [2.601592, 48.907417]}, "properties": {"id_parcelle": "77139000BE0158", "address": "27 RUE AUGUSTE BOULNAT", "sales": 2, "median_price": 435000.0, "median_price_per_sqm": 2900.0, "median_rooms": 7.0, "first_sale": "2021-08-10", "last_sale": "2021-08-10"}}, {"type": "Feature", "geometry": {"type": "Point", "coordinates": [2.593033, 48.90828]}, "properties": {"id_parcelle": "77139000BH0185", "address": "15 RUE DES BOUVREUILS", "sales": 2, "median_price": 145000.0, "median_price_per_sqm": 1812.5, "median_rooms": 2.0, "first_sale": "2023-06-09", "last_sale": "2023-06-09"}}, {"type": "Feature", "geometry": {"type": "Point", "coordinates": [2.592956, 48.909371]}, "properties": {"id_parcelle": "77139000BH0152", "address": "30 RUE DES CHARDONNERETS", "sales": 2, "median_price": 448200.0, "median_price_per_sqm": 4394.117647058823, "median_rooms": 5.0, "first_sale": "2022-04-15", "last_sale": "2022-04-15"}}, {"type": "Feature", "geometry": {"type": "Point", "coordinates": [2.594248, 48.908516]}, "properties": {"id_parcelle": "77139000BH0117", "address": "6 RUE DES FRENES", "sales": 2, "median_price": 335000.0, "median_price_per_sqm": 2791.6666666666665, "median_rooms": 3.0, "first_sale": "2024-02-27", "last_sale": "2024-02-27"}}, {"type": "Feature", "geometry": {"type": "Point", "coordinates": [2.594057, 48.909142]}, "properties": {"id_parcelle": "77139000BH0104", "address": "42 RTE DU CHAT", "sales": 2, "median_price": 281000.0, "median_price_per_sqm": 5017.857142857143, "median_rooms": 1.5, "first_sale": "2022-06-15", "last_sale": "2022-06-15"}}, {"type": "Feature", "geometry": {"type": "Point", "coordinates": [2.591665, 48.909927]}, "properties": {"id_parcelle": "77139000BH0057", "address": "21 RTE DU CHAT", "sales": 2, "median_price": 414252.0, "median_price_per_sqm": 3211.2558139534885, "median_rooms": 4.0, "first_sale": "2024-10-28", "last_sale": "2024-10-28"}}, {"type": "Feature", "geometry": {"type": "Point", "coordinates": [2.596244, 48.910432]}, "properties": {"id_parcelle": "77139000BE0560", "address": "17 RUE DES BOULEAUX", "sales": 2, "median_price": 290000.0, "median_price_per_sqm": 7377.19298245614, "median_rooms": 1.5, "first_sale": "2022-11-10", "last_sale": "2022-11-10"}}, {"type": "Feature", "geometry": {"type": "Point", "coordinates": [2.591633, 48.911331]}, "properties": {"id_parcelle": "77139000BH0018", "address": "25 RUE DES CHATAIGNIERS", "sales": 2, "median_price": 340000.0, "median_price_per_sqm": 6071.428571428572, "median_rooms": 1.5, "first_sale": "2022-07-26", "last_sale": "2022-07-26"}}, {"type": "Feature", "geometry": {"type": "Point", "coordinates": [2.59213, 48.910402]}, "properties": {"id_parcelle": "77139000BH0051", "address": "9 RUE DES ACACIAS", "sales": 2, "median_price": 360700.0, "median_price_per_sqm": 2121.764705882353, "median_rooms": 3.0, "first_sale": "2022-08-18", "last_sale": "2022-08-18"}}, {"type": "Feature", "geometry": {"type": "Point", "coordinates": [2.595708, 48.906644]}, "properties": {"id_parcelle": "77139000BE0423", "address": "3 RUE DES FAUVETTES", "sales": 2, "median_price": 331000.0, "median_price_per_sqm": 4413.333333333333, "median_rooms": 2.0, "first_sale": "2021-06-28", "last_sale": "2021-06-28"}}, {"type": "Feature", "geometry": {"type": "Point", "coordinates": [2.600903, 48.906146]}, "properties": {"id_parcelle": "77139000BE0492", "address": "19 RUE DESIRE LEFEVRE", "sales": 2, "median_price": 260000.0, "median_price_per_sqm": 4000.0, "median_rooms": 1.5, "first_sale": "2025-03-29", "last_sale": "2025-03-29"}}, {"type": "Feature", "geometry": {"type": "Point", "coordinates": [2.602469, 48.907134]}, "properties": {"id_parcelle": "77139000BE0177", "address": "38 RUE AUGUSTE BOULNAT", "sales": 2, "median_price": 323000.0, "median_price_per_sqm": 2626.0162601626016, "median_rooms": 3.0, "first_sale": "2025-06-06", "last_sale": "2025-06-06"}}, {"type": "Feature", "geometry": {"type": "Point", "coordinates": [2.600864, 48.907316]}, "properties": {"id_parcelle": "77139000BE0170", "address": "38 AV DE CHANTEREINE", "sales": 2, "median_price": 560000.0, "median_price_per_sqm": 4666.666666666667, "median_rooms": 7.0, "first_sale": "2023-02-27", "last_sale": "2023-02-27"}}, {"type": "Feature", "geometry": {"type": "Point", "coordinates": [2.590367, 48.909145]}, "properties": {"id_parcelle": "77139000BH0239", "address": "5 RUE DES MESANGES", "sales": 2, "median_price": 450000.0, "median_price_per_sqm": 3146.853146853147, "median_rooms": 5.0, "first_sale": "2021-10-05", "last_sale": "2021-10-05"}}, {"type": "Feature", "geometry": {"type": "Point", "coordinates": [2.590197, 48.90987]}, "properties": {"id_parcelle": "77139000BH0230", "address": "10 RTE DU CHAT", "sales": 2, "median_price": 365000.0, "median_price_per_sqm": 2807.6923076923076, "median_rooms": 3.5, "first_sale": "2024-01-03", "last_sale": "2024-01-03"}}, {"type": "Feature", "geometry": {"type": "Point", "coordinates": [2.592188, 48.909241]}, "properties": {"id_parcelle": "77139000BH0206", "address": "21 RUE DES CHARDONNERETS", "sales": 2, "median_price": 312500.0, "median_price_per_sqm": 2790.1785714285716, "median_rooms": 2.5, "first_sale": "2025-12-09", "last_sale": "2025-12-09"}}, {"type": "Feature", "geometry": {"type": "Point", "coordinates": [2.591562, 48.909337]}, "properties": {"id_parcelle": "77139000BH0227", "address": "20 RUE DES MESANGES", "sales": 2, "median_price": 493350.0, "median_price_per_sqm": 3356.122448979592, "median_rooms": 4.0, "first_sale": "2021-03-03", "last_sale": "2021-03-03"}}, {"type": "Feature", "geometry": {"type": "Point", "coordinates": [2.592184, 48.91331]}, "properties": {"id_parcelle": "77139000BI0101", "address": "6 AV FLAUBERT", "sales": 2, "median_price": 209000.0, "median_price_per_sqm": 10040.196078431372, "median_rooms": 1.5, "first_sale": "2021-03-24", "last_sale": "2021-03-24"}}, {"type": "Feature", "geometry": {"type": "Point", "coordinates": [2.592525, 48.914026]}, "properties": {"id_parcelle": "77139000BI0061", "address": "21 AV FLAUBERT", "sales": 2, "median_price": 417000.0, "median_price_per_sqm": 4793.103448275862, "median_rooms": 4.0, "first_sale": "2022-03-08", "last_sale": "2022-03-08"}}, {"type": "Feature", "geometry": {"type": "Point", "coordinates": [2.592482, 48.914879]}, "properties": {"id_parcelle": "77139000BI0028", "address": "8 RUE LAMARTINE", "sales": 2, "median_price": 200000.0, "median_price_per_sqm": 5000.0, "median_rooms": 1.5, "first_sale": "2022-04-29", "last_sale": "2022-04-29"}}, {"type": "Feature", "geometry": {"type": "Point", "coordinates": [2.595003, 48.913343]}, "properties": {"id_parcelle": "77139000BI0022", "address": "51 RUE AUGUSTE RODIN", "sales": 2, "median_price": 310000.0, "median_price_per_sqm": 3483.14606741573, "median_rooms": 2.0, "first_sale": "2024-04-04", "last_sale": "2024-04-04"}}, {"type": "Feature", "geometry": {"type": "Point", "coordinates": [2.590306, 48.909676]}, "properties": {"id_parcelle": "77139000BH0323", "address": "11 RUE DES MESANGES", "sales": 2, "median_price": 456971.56, "median_price_per_sqm": null, "median_rooms": null, "first_sale": "2022-11-16", "last_sale": "2022-11-16"}}, {"type": "Feature", "geometry": {"type": "Point", "coordinates": [2.59737, 48.911782]}, "properties": {"id_parcelle": "77139000BI0197", "address": "38 RUE DES BOULEAUX", "sales": 2, "median_price": 245000.0, "median_price_per_sqm": 3181.818181818182, "median_rooms": 2.0, "first_sale": "2024-10-31", "last_sale": "2024-10-31"}}, {"type": "Feature", "geometry": {"type": "Point", "coordinates": [2.59758, 48.911486]}, "properties": {"id_parcelle": "77139000BI0184", "address": "63 RUE DES CHARMES", "sales": 2, "median_price": 317000.0, "median_price_per_sqm": 4064.102564102564, "median_rooms": 1.5, "first_sale": "2021-07-15", "last_sale": "2021-07-15"}}, {"type": "Feature", "geometry": {"type": "Point", "coordinates": [2.596733, 48.912774]}, "properties": {"id_parcelle": "77139000BI0138", "address": "12 ALL DE LA RESIDENCE DU CAVOY", "sales": 2, "median_price": 331500.0, "median_price_per_sqm": 2439.8516593579125, "median_rooms": 6.5, "first_sale": "2022-09-07", "last_sale": "2023-10-30"}}, {"type": "Feature", "geometry": {"type": "Point", "coordinates": [2.592601, 48.911962]}, "properties": {"id_parcelle": "77139000BI0276", "address": "5 RUE DES NOYERS", "sales": 2, "median_price": 200000.0, "median_price_per_sqm": 1980.1980198019803, "median_rooms": 2.0, "first_sale": "2024-06-06", "last_sale": "2024-06-06"}}, {"type": "Feature", "geometry": {"type": "Point", "coordinates": [2.596588, 48.911367]}, "properties": {"id_parcelle": "77139000BI0203", "address": "33 RUE DES BOULEAUX", "sales": 2, "median_price": 400000.0, "median_price_per_sqm": 2816.9014084507044, "median_rooms": 3.0, "first_sale": "2021-06-08", "last_sale": "2021-06-08"}}, {"type": "Feature", "geometry": {"type": "Point", "coordinates": [2.610379, 48.915889]}, "properties": {"id_parcelle": "77139000YA0132", "address": "1 CHE DU BOIS RAFFETEAU", "sales": 2, "median_price": 200000.0, "median_price_per_sqm": 2409.6385542168673, "median_rooms": 3.0, "first_sale": "2022-02-22", "last_sale": "2022-02-22"}}, {"type": "Feature", "geometry": {"type": "Point", "coordinates": [2.592442, 48.912602]}, "properties": {"id_parcelle": "77139000BI0287", "address": "16 RUE DES PLATANES", "sales": 2, "median_price": 360000.0, "median_price_per_sqm": 5373.134328358209, "median_rooms": 1.5, "first_sale": "2023-06-05", "last_sale": "2023-06-05"}}, {"type": "Feature", "geometry": {"type": "Point", "coordinates": [2.595408, 48.918105]}, "properties": {"id_parcelle": "77139000ZB0011", "address": "LES SABLES", "sales": 2, "median_price": 763.0, "median_price_per_sqm": null, "median_rooms": null, "first_sale": "2021-12-20", "last_sale": "2022-03-03"}}, {"type": "Feature", "geometry": {"type": "Point", "coordinates": [2.598085, 48.918179]}, "properties": {"id_parcelle": "77139000ZB0058", "address": "20 RLE POLTRON", "sales": 2, "median_price": 330315.0, "median_price_per_sqm": 2799.2796610169494, "median_rooms": 4.0, "first_sale": "2022-05-20", "last_sale": "2022-05-20"}}, {"type": "Feature", "geometry": {"type": "Point", "coordinates": [2.608382, 48.924358]}, "properties": {"id_parcelle": "77139000ZD0012", "address": "LE FRECU", "sales": 2, "median_price": 4948.09, "median_price_per_sqm": null, "median_rooms": null, "first_sale": "2021-03-29", "last_sale": "2021-03-29"}}, {"type": "Feature", "geometry": {"type": "Point", "coordinates": [2.609712, 48.921687]}, "properties": {"id_parcelle": "77139000ZD0101", "address": "9001 LA BASSE ARANGE", "sales": 2, "median_price": 180000.0, "median_price_per_sqm": 2647.0588235294117, "median_rooms": 4.0, "first_sale": "2021-03-10", "last_sale": "2021-03-10"}}]}