{"type": "FeatureCollection", "features": [{"type": "Feature", "geometry": {"type": "Polygon", "coordinates": [[[3.225788, 48.369912], [3.22513, 48.369802], [3.224863, 48.369244], [3.224699, 48.369398], [3.223396, 48.370385], [3.223327, 48.370468], [3.222958, 48.370374], [3.221394, 48.36987], [3.218287, 48.368895], [3.216765, 48.368445], [3.216312, 48.36832], [3.21576, 48.368134], [3.215583, 48.368044], [3.21369, 48.366958], [3.214093, 48.36766], [3.214984, 48.369185], [3.215062, 48.370291], [3.215199, 48.372797], [3.215103, 48.374083], [3.215295, 48.37597], [3.21545, 48.377385], [3.21573, 48.37917], [3.215839, 48.379831], [3.216736, 48.382066], [3.216961, 48.382653], [3.216862, 48.383598], [3.217017, 48.384042], [3.217808, 48.385844], [3.218142, 48.38709], [3.217641, 48.390328], [3.217589, 48.390536], [3.217473, 48.391423], [3.217172, 48.39385], [3.217078, 48.394569], [3.21681, 48.396736], [3.216408, 48.399891], [3.216234, 48.401229], [3.216908, 48.402521], [3.217449, 48.403295], [3.219015, 48.405199], [3.219905, 48.406107], [3.220153, 48.40685], [3.220511, 48.407863], [3.220597, 48.408138], [3.219479, 48.410181], [3.219147, 48.410762], [3.218877, 48.411053], [3.217784, 48.412346], [3.21672, 48.413634], [3.214688, 48.416054], [3.213474, 48.417523], [3.213385, 48.41764], [3.214021, 48.418306], [3.214714, 48.418389], [3.215092, 48.419643], [3.214811, 48.420666], [3.215218, 48.420632], [3.215596, 48.420629], [3.216407, 48.420695], [3.216977, 48.420781], [3.2176, 48.420956], [3.218104, 48.42119], [3.218604, 48.421106], [3.219771, 48.420964], [3.219916, 48.419506], [3.220156, 48.419511], [3.220206, 48.418846], [3.220243, 48.418823], [3.221017, 48.418625], [3.221033, 48.418598], [3.221817, 48.418404], [3.222084, 48.418403], [3.222733, 48.418283], [3.223769, 48.418196], [3.224314, 48.41817], [3.224741, 48.41825], [3.225261, 48.418377], [3.22551, 48.418406], [3.226864, 48.418422], [3.227132, 48.418399], [3.227654, 48.418262], [3.228925, 48.418141], [3.229086, 48.418099], [3.229144, 48.417864], [3.229224, 48.417786], [3.229895, 48.417404], [3.231351, 48.417217], [3.231496, 48.417182], [3.232382, 48.416866], [3.232979, 48.417007], [3.233439, 48.417187], [3.233596, 48.417226], [3.234737, 48.416874], [3.23475, 48.41682], [3.235079, 48.416447], [3.234909, 48.416183], [3.234298, 48.415287], [3.234093, 48.414965], [3.233436, 48.414008], [3.233257, 48.413705], [3.232305, 48.412253], [3.231415, 48.410925], [3.231218, 48.410613], [3.231099, 48.41027], [3.231201, 48.409881], [3.23177, 48.407593], [3.231991, 48.406721], [3.232275, 48.40555], [3.232482, 48.404617], [3.233242, 48.404659], [3.233961, 48.404758], [3.234991, 48.404914], [3.235268, 48.404945], [3.236324, 48.405116], [3.237531, 48.40534], [3.239441, 48.405779], [3.240805, 48.406041], [3.24168, 48.406197], [3.243252, 48.406493], [3.244325, 48.406708], [3.245402, 48.406936], [3.245813, 48.407035], [3.246793, 48.407249], [3.247201, 48.407329], [3.250347, 48.408042], [3.251558, 48.40836], [3.252714, 48.408706], [3.254496, 48.409201], [3.254671, 48.409101], [3.255048, 48.408807], [3.255751, 48.408067], [3.256878, 48.406835], [3.257363, 48.406294], [3.258157, 48.405443], [3.259146, 48.404369], [3.259465, 48.404007], [3.260204, 48.403213], [3.260821, 48.402538], [3.260601, 48.402537], [3.259675, 48.402333], [3.25909, 48.402167], [3.258701, 48.402007], [3.258043, 48.401679], [3.257523, 48.401464], [3.256781, 48.401205], [3.255789, 48.40092], [3.255117, 48.400651], [3.254055, 48.400246], [3.252116, 48.39954], [3.251579, 48.399333], [3.251178, 48.399208], [3.250783, 48.399129], [3.250804, 48.398762], [3.24996, 48.398651], [3.248968, 48.398488], [3.248793, 48.39844], [3.248679, 48.39835], [3.248433, 48.398015], [3.248226, 48.397659], [3.248128, 48.397549], [3.248223, 48.397442], [3.248208, 48.397301], [3.247442, 48.396145], [3.247478, 48.396061], [3.247328, 48.395777], [3.24713, 48.395574], [3.246617, 48.395106], [3.246107, 48.394735], [3.245098, 48.394151], [3.244405, 48.393566], [3.243239, 48.392608], [3.241909, 48.391891], [3.240908, 48.391335], [3.240229, 48.390547], [3.239184, 48.390097], [3.238925, 48.38966], [3.238408, 48.389716], [3.238371, 48.389527], [3.238221, 48.389404], [3.23781, 48.389149], [3.237673, 48.389013], [3.236415, 48.387674], [3.236352, 48.387521], [3.234624, 48.387047], [3.234524, 48.385569], [3.234474, 48.384917], [3.233697, 48.384963], [3.232527, 48.385048], [3.232456, 48.384655], [3.232239, 48.383774], [3.231859, 48.38256], [3.231579, 48.381789], [3.231145, 48.380192], [3.230985, 48.379747], [3.230681, 48.378653], [3.230426, 48.377573], [3.230248, 48.377071], [3.229984, 48.376584], [3.229699, 48.376251], [3.228538, 48.375037], [3.228193, 48.374526], [3.228014, 48.374189], [3.227877, 48.373984], [3.226912, 48.372224], [3.226358, 48.371288], [3.226395, 48.371275], [3.225788, 48.369912]]]}, "properties": {"code_iris": "773210000", "nom_iris": "Mousseaux-lès-Bray (commune entière)", "type_iris": "Z", "lat": 48.3941, "lng": 3.2371, "dvf_sales_total": 187, "dvf_sales_appt": 0, "dvf_sales_maison": 0, "dvf_median_price": 140000.0, "dvf_median_ppsqm": 1849.5403377110695, "dvf_by_year": "[{\"year\": 2021, \"sales\": 54, \"median_price\": 140000.0}, {\"year\": 2022, \"sales\": 33, \"median_price\": 67500.0}, {\"year\": 2023, \"sales\": 52, \"median_price\": 133750.0}, {\"year\": 2024, \"sales\": 23, \"median_price\": 183565.0}, {\"year\": 2025, \"sales\": 25, \"median_price\": 165000.0}]", "population": 682, "n_log": null, "n_rp": null, "pct_proprio": null, "pct_hlm": null, "pct_appart": null, "pct_cadres": null, "pct_bac5p": null, "pct_etrangers": null, "pct_0_14": null, "pct_65p": null, "bpe_total": null, "bpe_commerces": null, "bpe_enseignement": null, "bpe_sante": null, "dpe": null, "attractivity_score": null, "rank_attractivity_score": null, "rank_total_attractivity_score": 1, "commune_avg": null, "is_stub": true}}]}