{"type": "FeatureCollection", "features": [{"type": "Feature", "geometry": {"type": "Point", "coordinates": [2.80941, 48.710667]}, "properties": {"year": 2021, "valeur_fonciere": 440000.0, "type_local": "Maison", "surface_reelle_bati": 118.0, "nombre_pieces_principales": 4.0, "adresse_nom_voie": "RUE DE LA MAIRIE", "price_per_sqm": 3728.813559322034, "date_iso": "2021-01-29", "parcelle": "771040000C0336", "addr_num": "3"}}, {"type": "Feature", "geometry": {"type": "Point", "coordinates": [2.809311, 48.710735]}, "properties": {"year": 2021, "valeur_fonciere": 440000.0, "type_local": null, "surface_reelle_bati": null, "nombre_pieces_principales": null, "adresse_nom_voie": "CHATRES", "price_per_sqm": null, "date_iso": "2021-01-29", "parcelle": "771040000C0338", "addr_num": ""}}, {"type": "Feature", "geometry": {"type": "Point", "coordinates": [2.805455, 48.711409]}, "properties": {"year": 2021, "valeur_fonciere": 374000.0, "type_local": "Maison", "surface_reelle_bati": 122.0, "nombre_pieces_principales": 5.0, "adresse_nom_voie": "RUE DU CHENE", "price_per_sqm": 3065.5737704918033, "date_iso": "2021-02-09", "parcelle": "771040000X0185", "addr_num": "3"}}, {"type": "Feature", "geometry": {"type": "Point", "coordinates": [2.808107, 48.711599]}, "properties": {"year": 2021, "valeur_fonciere": 70000.0, "type_local": null, "surface_reelle_bati": null, "nombre_pieces_principales": null, "adresse_nom_voie": "CHATRES", "price_per_sqm": null, "date_iso": "2021-02-09", "parcelle": "771040000C0228", "addr_num": ""}}, {"type": "Feature", "geometry": {"type": "Point", "coordinates": [2.808049, 48.711747]}, "properties": {"year": 2021, "valeur_fonciere": 70000.0, "type_local": null, "surface_reelle_bati": null, "nombre_pieces_principales": null, "adresse_nom_voie": "CHATRES", "price_per_sqm": null, "date_iso": "2021-02-09", "parcelle": "771040000C0408", "addr_num": ""}}, {"type": "Feature", "geometry": {"type": "Point", "coordinates": [2.805843, 48.71267]}, "properties": {"year": 2021, "valeur_fonciere": 393500.0, "type_local": "Maison", "surface_reelle_bati": 128.0, "nombre_pieces_principales": 7.0, "adresse_nom_voie": "RUE DU LAVOIR", "price_per_sqm": 3074.21875, "date_iso": "2021-02-08", "parcelle": "771040000X0168", "addr_num": "5"}}, {"type": "Feature", "geometry": {"type": "Point", "coordinates": [2.808218, 48.711532]}, "properties": {"year": 2021, "valeur_fonciere": 274000.0, "type_local": "Maison", "surface_reelle_bati": 51.0, "nombre_pieces_principales": 3.0, "adresse_nom_voie": "RUE DE L ECOLE", "price_per_sqm": 5372.549019607844, "date_iso": "2021-02-26", "parcelle": "771040000C0113", "addr_num": "3"}}, {"type": "Feature", "geometry": {"type": "Point", "coordinates": [2.808107, 48.711599]}, "properties": {"year": 2021, "valeur_fonciere": 274000.0, "type_local": null, "surface_reelle_bati": null, "nombre_pieces_principales": null, "adresse_nom_voie": "CHATRES", "price_per_sqm": null, "date_iso": "2021-02-26", "parcelle": "771040000C0228", "addr_num": ""}}, {"type": "Feature", "geometry": {"type": "Point", "coordinates": [2.808005, 48.70946]}, "properties": {"year": 2021, "valeur_fonciere": 21600.0, "type_local": "Maison", "surface_reelle_bati": 125.0, "nombre_pieces_principales": 5.0, "adresse_nom_voie": "RTE DE CHAUMES", "price_per_sqm": 172.8, "date_iso": "2021-03-03", "parcelle": "771040000D0409", "addr_num": "3"}}, {"type": "Feature", "geometry": {"type": "Point", "coordinates": [2.808005, 48.70946]}, "properties": {"year": 2021, "valeur_fonciere": 21600.0, "type_local": "Maison", "surface_reelle_bati": 125.0, "nombre_pieces_principales": 5.0, "adresse_nom_voie": "RTE DE CHAUMES", "price_per_sqm": 172.8, "date_iso": "2021-03-03", "parcelle": "771040000D0409", "addr_num": "3"}}, {"type": "Feature", "geometry": {"type": "Point", "coordinates": [2.808005, 48.70946]}, "properties": {"year": 2021, "valeur_fonciere": 120000.0, "type_local": "Maison", "surface_reelle_bati": 125.0, "nombre_pieces_principales": 5.0, "adresse_nom_voie": "RTE DE CHAUMES", "price_per_sqm": 960.0, "date_iso": "2021-05-28", "parcelle": "771040000D0409", "addr_num": "3"}}, {"type": "Feature", "geometry": {"type": "Point", "coordinates": [2.808005, 48.70946]}, "properties": {"year": 2021, "valeur_fonciere": 120000.0, "type_local": "Dépendance", "surface_reelle_bati": null, "nombre_pieces_principales": 0.0, "adresse_nom_voie": "RTE DE CHAUMES", "price_per_sqm": null, "date_iso": "2021-05-28", "parcelle": "771040000D0409", "addr_num": "3"}}, {"type": "Feature", "geometry": {"type": "Point", "coordinates": [2.808005, 48.70946]}, "properties": {"year": 2021, "valeur_fonciere": 120000.0, "type_local": "Dépendance", "surface_reelle_bati": null, "nombre_pieces_principales": 0.0, "adresse_nom_voie": "RTE DE CHAUMES", "price_per_sqm": null, "date_iso": "2021-05-28", "parcelle": "771040000D0409", "addr_num": "3"}}, {"type": "Feature", "geometry": {"type": "Point", "coordinates": [2.808005, 48.70946]}, "properties": {"year": 2021, "valeur_fonciere": 120000.0, "type_local": "Dépendance", "surface_reelle_bati": null, "nombre_pieces_principales": 0.0, "adresse_nom_voie": "RTE DE CHAUMES", "price_per_sqm": null, "date_iso": "2021-05-28", "parcelle": "771040000D0409", "addr_num": "3"}}, {"type": "Feature", "geometry": {"type": "Point", "coordinates": [2.808005, 48.70946]}, "properties": {"year": 2021, "valeur_fonciere": 120000.0, "type_local": "Dépendance", "surface_reelle_bati": null, "nombre_pieces_principales": 0.0, "adresse_nom_voie": "RTE DE CHAUMES", "price_per_sqm": null, "date_iso": "2021-05-28", "parcelle": "771040000D0409", "addr_num": "3"}}, {"type": "Feature", "geometry": {"type": "Point", "coordinates": [2.808005, 48.70946]}, "properties": {"year": 2021, "valeur_fonciere": 120000.0, "type_local": "Maison", "surface_reelle_bati": 125.0, "nombre_pieces_principales": 5.0, "adresse_nom_voie": "RTE DE CHAUMES", "price_per_sqm": 960.0, "date_iso": "2021-05-28", "parcelle": "771040000D0409", "addr_num": "3"}}, {"type": "Feature", "geometry": {"type": "Point", "coordinates": [2.804161, 48.711364]}, "properties": {"year": 2021, "valeur_fonciere": 310000.0, "type_local": "Maison", "surface_reelle_bati": 82.0, "nombre_pieces_principales": 5.0, "adresse_nom_voie": "RUE DES VILLAS PATRICE", "price_per_sqm": 3780.487804878049, "date_iso": "2021-07-12", "parcelle": "771040000X0044", "addr_num": "8"}}, {"type": "Feature", "geometry": {"type": "Point", "coordinates": [2.804612, 48.711949]}, "properties": {"year": 2021, "valeur_fonciere": 310000.0, "type_local": null, "surface_reelle_bati": null, "nombre_pieces_principales": null, "adresse_nom_voie": "LA RUE", "price_per_sqm": null, "date_iso": "2021-07-12", "parcelle": "771040000X0070", "addr_num": ""}}, {"type": "Feature", "geometry": {"type": "Point", "coordinates": [2.804789, 48.71191]}, "properties": {"year": 2021, "valeur_fonciere": 310000.0, "type_local": null, "surface_reelle_bati": null, "nombre_pieces_principales": null, "adresse_nom_voie": "LA RUE", "price_per_sqm": null, "date_iso": "2021-07-12", "parcelle": "771040000X0071", "addr_num": ""}}, {"type": "Feature", "geometry": {"type": "Point", "coordinates": [2.804569, 48.712474]}, "properties": {"year": 2021, "valeur_fonciere": 310000.0, "type_local": null, "surface_reelle_bati": null, "nombre_pieces_principales": null, "adresse_nom_voie": "LA RUE", "price_per_sqm": null, "date_iso": "2021-07-12", "parcelle": "771040000X0072", "addr_num": ""}}, {"type": "Feature", "geometry": {"type": "Point", "coordinates": [2.806746, 48.711452]}, "properties": {"year": 2021, "valeur_fonciere": 40000.0, "type_local": null, "surface_reelle_bati": null, "nombre_pieces_principales": null, "adresse_nom_voie": "LA RUE", "price_per_sqm": null, "date_iso": "2021-09-03", "parcelle": "771040000X0154", "addr_num": ""}}, {"type": "Feature", "geometry": {"type": "Point", "coordinates": [2.80569, 48.712568]}, "properties": {"year": 2021, "valeur_fonciere": 414450.0, "type_local": "Dépendance", "surface_reelle_bati": null, "nombre_pieces_principales": 0.0, "adresse_nom_voie": "RUE DU LAVOIR", "price_per_sqm": null, "date_iso": "2021-09-29", "parcelle": "771040000X0169", "addr_num": "7"}}, {"type": "Feature", "geometry": {"type": "Point", "coordinates": [2.80569, 48.712568]}, "properties": {"year": 2021, "valeur_fonciere": 414450.0, "type_local": "Maison", "surface_reelle_bati": 131.0, "nombre_pieces_principales": 4.0, "adresse_nom_voie": "RUE DU LAVOIR", "price_per_sqm": 3163.740458015267, "date_iso": "2021-09-29", "parcelle": "771040000X0169", "addr_num": "7"}}, {"type": "Feature", "geometry": {"type": "Point", "coordinates": [2.80569, 48.712568]}, "properties": {"year": 2021, "valeur_fonciere": 414450.0, "type_local": "Dépendance", "surface_reelle_bati": null, "nombre_pieces_principales": 0.0, "adresse_nom_voie": "RUE DU LAVOIR", "price_per_sqm": null, "date_iso": "2021-09-29", "parcelle": "771040000X0169", "addr_num": "7"}}, {"type": "Feature", "geometry": {"type": "Point", "coordinates": [2.804356, 48.711843]}, "properties": {"year": 2021, "valeur_fonciere": 128304.0, "type_local": "Maison", "surface_reelle_bati": 121.0, "nombre_pieces_principales": 6.0, "adresse_nom_voie": "RUE DES VILLAS PATRICE", "price_per_sqm": 1060.3636363636363, "date_iso": "2021-10-12", "parcelle": "771040000X0049", "addr_num": "13"}}, {"type": "Feature", "geometry": {"type": "Point", "coordinates": [2.804612, 48.711949]}, "properties": {"year": 2021, "valeur_fonciere": 128304.0, "type_local": null, "surface_reelle_bati": null, "nombre_pieces_principales": null, "adresse_nom_voie": "LA RUE", "price_per_sqm": null, "date_iso": "2021-10-12", "parcelle": "771040000X0070", "addr_num": ""}}, {"type": "Feature", "geometry": {"type": "Point", "coordinates": [2.804789, 48.71191]}, "properties": {"year": 2021, "valeur_fonciere": 128304.0, "type_local": null, "surface_reelle_bati": null, "nombre_pieces_principales": null, "adresse_nom_voie": "LA RUE", "price_per_sqm": null, "date_iso": "2021-10-12", "parcelle": "771040000X0071", "addr_num": ""}}, {"type": "Feature", "geometry": {"type": "Point", "coordinates": [2.808198, 48.708786]}, "properties": {"year": 2021, "valeur_fonciere": 179000.0, "type_local": "Dépendance", "surface_reelle_bati": null, "nombre_pieces_principales": 0.0, "adresse_nom_voie": "RTE DE CHAUMES", "price_per_sqm": null, "date_iso": "2021-10-15", "parcelle": "771040000D0360", "addr_num": "3"}}, {"type": "Feature", "geometry": {"type": "Point", "coordinates": [2.808198, 48.708786]}, "properties": {"year": 2021, "valeur_fonciere": 179000.0, "type_local": "Appartement", "surface_reelle_bati": 53.0, "nombre_pieces_principales": 2.0, "adresse_nom_voie": "RTE DE CHAUMES", "price_per_sqm": 3377.3584905660377, "date_iso": "2021-10-15", "parcelle": "771040000D0360", "addr_num": "3"}}, {"type": "Feature", "geometry": {"type": "Point", "coordinates": [2.808198, 48.708786]}, "properties": {"year": 2021, "valeur_fonciere": 179000.0, "type_local": "Dépendance", "surface_reelle_bati": null, "nombre_pieces_principales": 0.0, "adresse_nom_voie": "RTE DE CHAUMES", "price_per_sqm": null, "date_iso": "2021-10-15", "parcelle": "771040000D0360", "addr_num": "3"}}, {"type": "Feature", "geometry": {"type": "Point", "coordinates": [2.808198, 48.708786]}, "properties": {"year": 2022, "valeur_fonciere": 138000.0, "type_local": "Dépendance", "surface_reelle_bati": null, "nombre_pieces_principales": 0.0, "adresse_nom_voie": "RTE DE CHAUMES", "price_per_sqm": null, "date_iso": "2022-02-08", "parcelle": "771040000D0360", "addr_num": "3"}}, {"type": "Feature", "geometry": {"type": "Point", "coordinates": [2.808198, 48.708786]}, "properties": {"year": 2022, "valeur_fonciere": 138000.0, "type_local": "Dépendance", "surface_reelle_bati": null, "nombre_pieces_principales": 0.0, "adresse_nom_voie": "RTE DE CHAUMES", "price_per_sqm": null, "date_iso": "2022-02-08", "parcelle": "771040000D0360", "addr_num": "3"}}, {"type": "Feature", "geometry": {"type": "Point", "coordinates": [2.808198, 48.708786]}, "properties": {"year": 2022, "valeur_fonciere": 138000.0, "type_local": "Appartement", "surface_reelle_bati": 48.0, "nombre_pieces_principales": 2.0, "adresse_nom_voie": "RTE DE CHAUMES", "price_per_sqm": 2875.0, "date_iso": "2022-02-08", "parcelle": "771040000D0360", "addr_num": "3"}}, {"type": "Feature", "geometry": {"type": "Point", "coordinates": [2.803706, 48.712797]}, "properties": {"year": 2022, "valeur_fonciere": 100000.0, "type_local": "Dépendance", "surface_reelle_bati": null, "nombre_pieces_principales": 0.0, "adresse_nom_voie": "RUE DES BOULAYES", "price_per_sqm": null, "date_iso": "2022-01-03", "parcelle": "771040000X0103", "addr_num": "7"}}, {"type": "Feature", "geometry": {"type": "Point", "coordinates": [2.803706, 48.712797]}, "properties": {"year": 2022, "valeur_fonciere": 100000.0, "type_local": "Dépendance", "surface_reelle_bati": null, "nombre_pieces_principales": 0.0, "adresse_nom_voie": "RUE DES BOULAYES", "price_per_sqm": null, "date_iso": "2022-01-03", "parcelle": "771040000X0103", "addr_num": "7"}}, {"type": "Feature", "geometry": {"type": "Point", "coordinates": [2.803706, 48.712797]}, "properties": {"year": 2022, "valeur_fonciere": 100000.0, "type_local": "Maison", "surface_reelle_bati": 59.0, "nombre_pieces_principales": 3.0, "adresse_nom_voie": "RUE DES BOULAYES", "price_per_sqm": 1694.915254237288, "date_iso": "2022-01-03", "parcelle": "771040000X0103", "addr_num": "7"}}, {"type": "Feature", "geometry": {"type": "Point", "coordinates": [2.803718, 48.712679]}, "properties": {"year": 2022, "valeur_fonciere": 100000.0, "type_local": null, "surface_reelle_bati": null, "nombre_pieces_principales": null, "adresse_nom_voie": "LA RUE", "price_per_sqm": null, "date_iso": "2022-01-03", "parcelle": "771040000X0204", "addr_num": ""}}, {"type": "Feature", "geometry": {"type": "Point", "coordinates": [2.803565, 48.712769]}, "properties": {"year": 2022, "valeur_fonciere": 100000.0, "type_local": null, "surface_reelle_bati": null, "nombre_pieces_principales": null, "adresse_nom_voie": "LA RUE", "price_per_sqm": null, "date_iso": "2022-01-03", "parcelle": "771040000X0206", "addr_num": ""}}, {"type": "Feature", "geometry": {"type": "Point", "coordinates": [2.812229, 48.705798]}, "properties": {"year": 2022, "valeur_fonciere": 1.0, "type_local": null, "surface_reelle_bati": null, "nombre_pieces_principales": null, "adresse_nom_voie": "LE PETIT MESNIL", "price_per_sqm": null, "date_iso": "2022-02-08", "parcelle": "771040000D0041", "addr_num": ""}}, {"type": "Feature", "geometry": {"type": "Point", "coordinates": [2.80797, 48.708939]}, "properties": {"year": 2022, "valeur_fonciere": 334000.0, "type_local": "Maison", "surface_reelle_bati": 98.0, "nombre_pieces_principales": 5.0, "adresse_nom_voie": "RTE DE CHAUMES", "price_per_sqm": 3408.1632653061224, "date_iso": "2022-02-03", "parcelle": "771040000D0359", "addr_num": "1"}}, {"type": "Feature", "geometry": {"type": "Point", "coordinates": [2.809226, 48.707951]}, "properties": {"year": 2022, "valeur_fonciere": 170000.0, "type_local": null, "surface_reelle_bati": null, "nombre_pieces_principales": null, "adresse_nom_voie": "RTE DE CHAUMES", "price_per_sqm": null, "date_iso": "2022-02-16", "parcelle": "771040000D0472", "addr_num": "7"}}, {"type": "Feature", "geometry": {"type": "Point", "coordinates": [2.809321, 48.707824]}, "properties": {"year": 2022, "valeur_fonciere": 170000.0, "type_local": null, "surface_reelle_bati": null, "nombre_pieces_principales": null, "adresse_nom_voie": "RTE DE CHAUMES", "price_per_sqm": null, "date_iso": "2022-02-16", "parcelle": "771040000D0473", "addr_num": "7"}}, {"type": "Feature", "geometry": {"type": "Point", "coordinates": [2.806991, 48.706547]}, "properties": {"year": 2022, "valeur_fonciere": 1210000.0, "type_local": null, "surface_reelle_bati": null, "nombre_pieces_principales": null, "adresse_nom_voie": "LE GRAND MESNIL", "price_per_sqm": null, "date_iso": "2022-02-10", "parcelle": "771040000D0071", "addr_num": ""}}, {"type": "Feature", "geometry": {"type": "Point", "coordinates": [2.805993, 48.706448]}, "properties": {"year": 2022, "valeur_fonciere": 1210000.0, "type_local": null, "surface_reelle_bati": null, "nombre_pieces_principales": null, "adresse_nom_voie": "LE GRAND MESNIL", "price_per_sqm": null, "date_iso": "2022-02-10", "parcelle": "771040000D0072", "addr_num": ""}}, {"type": "Feature", "geometry": {"type": "Point", "coordinates": [2.808411, 48.706106]}, "properties": {"year": 2022, "valeur_fonciere": 1210000.0, "type_local": null, "surface_reelle_bati": null, "nombre_pieces_principales": null, "adresse_nom_voie": "LE GRAND MESNIL", "price_per_sqm": null, "date_iso": "2022-02-10", "parcelle": "771040000D0073", "addr_num": ""}}, {"type": "Feature", "geometry": {"type": "Point", "coordinates": [2.808572, 48.70589]}, "properties": {"year": 2022, "valeur_fonciere": 1210000.0, "type_local": "Local industriel. commercial ou assimilé", "surface_reelle_bati": null, "nombre_pieces_principales": 0.0, "adresse_nom_voie": "LE GRAND MESNIL", "price_per_sqm": null, "date_iso": "2022-02-10", "parcelle": "771040000D0074", "addr_num": "5029"}}, {"type": "Feature", "geometry": {"type": "Point", "coordinates": [2.809017, 48.705869]}, "properties": {"year": 2022, "valeur_fonciere": 1210000.0, "type_local": null, "surface_reelle_bati": null, "nombre_pieces_principales": null, "adresse_nom_voie": "LE GRAND MESNIL", "price_per_sqm": null, "date_iso": "2022-02-10", "parcelle": "771040000D0075", "addr_num": ""}}, {"type": "Feature", "geometry": {"type": "Point", "coordinates": [2.809206, 48.708082]}, "properties": {"year": 2022, "valeur_fonciere": 170000.0, "type_local": "Maison", "surface_reelle_bati": 281.0, "nombre_pieces_principales": 6.0, "adresse_nom_voie": "RTE DE CHAUMES", "price_per_sqm": 604.982206405694, "date_iso": "2022-04-14", "parcelle": "771040000D0471", "addr_num": "7"}}, {"type": "Feature", "geometry": {"type": "Point", "coordinates": [2.803869, 48.710998]}, "properties": {"year": 2022, "valeur_fonciere": 330000.0, "type_local": "Dépendance", "surface_reelle_bati": null, "nombre_pieces_principales": 0.0, "adresse_nom_voie": "RUE DES VILLAS PATRICE", "price_per_sqm": null, "date_iso": "2022-05-19", "parcelle": "771040000X0040", "addr_num": "4"}}, {"type": "Feature", "geometry": {"type": "Point", "coordinates": [2.803869, 48.710998]}, "properties": {"year": 2022, "valeur_fonciere": 330000.0, "type_local": "Maison", "surface_reelle_bati": 94.0, "nombre_pieces_principales": 5.0, "adresse_nom_voie": "RUE DES VILLAS PATRICE", "price_per_sqm": 3510.6382978723404, "date_iso": "2022-05-19", "parcelle": "771040000X0040", "addr_num": "4"}}, {"type": "Feature", "geometry": {"type": "Point", "coordinates": [2.804612, 48.711949]}, "properties": {"year": 2022, "valeur_fonciere": 330000.0, "type_local": null, "surface_reelle_bati": null, "nombre_pieces_principales": null, "adresse_nom_voie": "LA RUE", "price_per_sqm": null, "date_iso": "2022-05-19", "parcelle": "771040000X0070", "addr_num": ""}}, {"type": "Feature", "geometry": {"type": "Point", "coordinates": [2.804789, 48.71191]}, "properties": {"year": 2022, "valeur_fonciere": 330000.0, "type_local": null, "surface_reelle_bati": null, "nombre_pieces_principales": null, "adresse_nom_voie": "LA RUE", "price_per_sqm": null, "date_iso": "2022-05-19", "parcelle": "771040000X0071", "addr_num": ""}}, {"type": "Feature", "geometry": {"type": "Point", "coordinates": [2.804569, 48.712474]}, "properties": {"year": 2022, "valeur_fonciere": 330000.0, "type_local": null, "surface_reelle_bati": null, "nombre_pieces_principales": null, "adresse_nom_voie": "LA RUE", "price_per_sqm": null, "date_iso": "2022-05-19", "parcelle": "771040000X0072", "addr_num": ""}}, {"type": "Feature", "geometry": {"type": "Point", "coordinates": [2.832739, 48.725395]}, "properties": {"year": 2022, "valeur_fonciere": 74200000.0, "type_local": null, "surface_reelle_bati": null, "nombre_pieces_principales": null, "adresse_nom_voie": "PRES DE LA NOUE", "price_per_sqm": null, "date_iso": "2022-05-31", "parcelle": "771040000A0110", "addr_num": ""}}, {"type": "Feature", "geometry": {"type": "Point", "coordinates": [2.838413, 48.723025]}, "properties": {"year": 2022, "valeur_fonciere": 74200000.0, "type_local": null, "surface_reelle_bati": null, "nombre_pieces_principales": null, "adresse_nom_voie": "LES VIEILLES CHAPELLES", "price_per_sqm": null, "date_iso": "2022-05-31", "parcelle": "77104000YA0087", "addr_num": ""}}, {"type": "Feature", "geometry": {"type": "Point", "coordinates": [2.834909, 48.724557]}, "properties": {"year": 2022, "valeur_fonciere": 74200000.0, "type_local": "Local industriel. commercial ou assimilé", "surface_reelle_bati": 53522.0, "nombre_pieces_principales": 0.0, "adresse_nom_voie": "AVE LOUIS RENAULT", "price_per_sqm": 1386.345801726393, "date_iso": "2022-05-31", "parcelle": "771040000Z0062", "addr_num": "9000"}}, {"type": "Feature", "geometry": {"type": "Point", "coordinates": [2.842821, 48.728042]}, "properties": {"year": 2022, "valeur_fonciere": 56300000.0, "type_local": "Local industriel. commercial ou assimilé", "surface_reelle_bati": 38045.0, "nombre_pieces_principales": 0.0, "adresse_nom_voie": "LE PELLERET", "price_per_sqm": 1479.8265212248652, "date_iso": "2022-05-31", "parcelle": "771040000Z0039", "addr_num": "5000"}}, {"type": "Feature", "geometry": {"type": "Point", "coordinates": [2.808407, 48.711623]}, "properties": {"year": 2022, "valeur_fonciere": 315000.0, "type_local": "Maison", "surface_reelle_bati": 163.0, "nombre_pieces_principales": 6.0, "adresse_nom_voie": "GR GRANDE RUE", "price_per_sqm": 1932.515337423313, "date_iso": "2022-06-17", "parcelle": "771040000C0115", "addr_num": "16"}}, {"type": "Feature", "geometry": {"type": "Point", "coordinates": [2.808489, 48.71166]}, "properties": {"year": 2022, "valeur_fonciere": 315000.0, "type_local": null, "surface_reelle_bati": null, "nombre_pieces_principales": null, "adresse_nom_voie": "CHE DE LA RUE", "price_per_sqm": null, "date_iso": "2022-06-17", "parcelle": "771040000C0265", "addr_num": ""}}, {"type": "Feature", "geometry": {"type": "Point", "coordinates": [2.800433, 48.712325]}, "properties": {"year": 2022, "valeur_fonciere": 340000.0, "type_local": "Maison", "surface_reelle_bati": 97.0, "nombre_pieces_principales": 4.0, "adresse_nom_voie": "RUE DES BOULAYES", "price_per_sqm": 3505.1546391752577, "date_iso": "2022-07-21", "parcelle": "771040000X0202", "addr_num": "2"}}, {"type": "Feature", "geometry": {"type": "Point", "coordinates": [2.821774, 48.724098]}, "properties": {"year": 2022, "valeur_fonciere": 60000.0, "type_local": null, "surface_reelle_bati": null, "nombre_pieces_principales": null, "adresse_nom_voie": "LE GRAND LORIBEAU", "price_per_sqm": null, "date_iso": "2022-07-20", "parcelle": "771040000Y0044", "addr_num": ""}}, {"type": "Feature", "geometry": {"type": "Point", "coordinates": [2.809873, 48.710643]}, "properties": {"year": 2022, "valeur_fonciere": 770500.0, "type_local": null, "surface_reelle_bati": null, "nombre_pieces_principales": null, "adresse_nom_voie": "CHATRES", "price_per_sqm": null, "date_iso": "2022-08-01", "parcelle": "771040000C0081", "addr_num": ""}}, {"type": "Feature", "geometry": {"type": "Point", "coordinates": [2.809908, 48.710846]}, "properties": {"year": 2022, "valeur_fonciere": 770500.0, "type_local": "Appartement", "surface_reelle_bati": 33.0, "nombre_pieces_principales": 1.0, "adresse_nom_voie": "RTE DE FONTENAY", "price_per_sqm": 23348.484848484848, "date_iso": "2022-08-01", "parcelle": "771040000C0082", "addr_num": "2"}}, {"type": "Feature", "geometry": {"type": "Point", "coordinates": [2.809908, 48.710846]}, "properties": {"year": 2022, "valeur_fonciere": 770500.0, "type_local": "Appartement", "surface_reelle_bati": 27.0, "nombre_pieces_principales": 1.0, "adresse_nom_voie": "RTE DE FONTENAY", "price_per_sqm": 28537.037037037036, "date_iso": "2022-08-01", "parcelle": "771040000C0082", "addr_num": "2"}}, {"type": "Feature", "geometry": {"type": "Point", "coordinates": [2.809908, 48.710846]}, "properties": {"year": 2022, "valeur_fonciere": 770500.0, "type_local": "Maison", "surface_reelle_bati": 80.0, "nombre_pieces_principales": 4.0, "adresse_nom_voie": "RTE DE FONTENAY", "price_per_sqm": 9631.25, "date_iso": "2022-08-01", "parcelle": "771040000C0082", "addr_num": "2"}}, {"type": "Feature", "geometry": {"type": "Point", "coordinates": [2.809908, 48.710846]}, "properties": {"year": 2022, "valeur_fonciere": 770500.0, "type_local": "Maison", "surface_reelle_bati": 105.0, "nombre_pieces_principales": 3.0, "adresse_nom_voie": "RTE DE FONTENAY", "price_per_sqm": 7338.0952380952385, "date_iso": "2022-08-01", "parcelle": "771040000C0082", "addr_num": "2"}}, {"type": "Feature", "geometry": {"type": "Point", "coordinates": [2.808198, 48.708786]}, "properties": {"year": 2022, "valeur_fonciere": 127000.0, "type_local": "Dépendance", "surface_reelle_bati": null, "nombre_pieces_principales": 0.0, "adresse_nom_voie": "RTE DE CHAUMES", "price_per_sqm": null, "date_iso": "2022-08-17", "parcelle": "771040000D0360", "addr_num": "3"}}, {"type": "Feature", "geometry": {"type": "Point", "coordinates": [2.808198, 48.708786]}, "properties": {"year": 2022, "valeur_fonciere": 127000.0, "type_local": "Appartement", "surface_reelle_bati": 40.0, "nombre_pieces_principales": 2.0, "adresse_nom_voie": "RTE DE CHAUMES", "price_per_sqm": 3175.0, "date_iso": "2022-08-17", "parcelle": "771040000D0360", "addr_num": "3"}}, {"type": "Feature", "geometry": {"type": "Point", "coordinates": [2.808198, 48.708786]}, "properties": {"year": 2022, "valeur_fonciere": 127000.0, "type_local": "Dépendance", "surface_reelle_bati": null, "nombre_pieces_principales": 0.0, "adresse_nom_voie": "RTE DE CHAUMES", "price_per_sqm": null, "date_iso": "2022-08-17", "parcelle": "771040000D0360", "addr_num": "3"}}, {"type": "Feature", "geometry": {"type": "Point", "coordinates": [2.804217, 48.712992]}, "properties": {"year": 2022, "valeur_fonciere": 150000.0, "type_local": null, "surface_reelle_bati": null, "nombre_pieces_principales": null, "adresse_nom_voie": "RUE DES BOULAYES", "price_per_sqm": null, "date_iso": "2022-08-12", "parcelle": "771040000X0116", "addr_num": "3"}}, {"type": "Feature", "geometry": {"type": "Point", "coordinates": [2.804132, 48.712767]}, "properties": {"year": 2022, "valeur_fonciere": 150000.0, "type_local": "Maison", "surface_reelle_bati": 133.0, "nombre_pieces_principales": 5.0, "adresse_nom_voie": "RUE DES BOULAYES", "price_per_sqm": 1127.8195488721803, "date_iso": "2022-08-12", "parcelle": "771040000X0117", "addr_num": "3"}}, {"type": "Feature", "geometry": {"type": "Point", "coordinates": [2.808107, 48.711599]}, "properties": {"year": 2022, "valeur_fonciere": 296000.0, "type_local": null, "surface_reelle_bati": null, "nombre_pieces_principales": null, "adresse_nom_voie": "CHATRES", "price_per_sqm": null, "date_iso": "2022-08-19", "parcelle": "771040000C0228", "addr_num": ""}}, {"type": "Feature", "geometry": {"type": "Point", "coordinates": [2.808216, 48.711718]}, "properties": {"year": 2022, "valeur_fonciere": 296000.0, "type_local": null, "surface_reelle_bati": null, "nombre_pieces_principales": null, "adresse_nom_voie": "CHATRES", "price_per_sqm": null, "date_iso": "2022-08-19", "parcelle": "771040000C0229", "addr_num": ""}}, {"type": "Feature", "geometry": {"type": "Point", "coordinates": [2.808347, 48.711699]}, "properties": {"year": 2022, "valeur_fonciere": 296000.0, "type_local": "Maison", "surface_reelle_bati": 165.0, "nombre_pieces_principales": 5.0, "adresse_nom_voie": "RUE DE L ECOLE", "price_per_sqm": 1793.939393939394, "date_iso": "2022-08-19", "parcelle": "771040000C0276", "addr_num": "1"}}, {"type": "Feature", "geometry": {"type": "Point", "coordinates": [2.805614, 48.711941]}, "properties": {"year": 2022, "valeur_fonciere": 320000.0, "type_local": "Maison", "surface_reelle_bati": 99.0, "nombre_pieces_principales": 5.0, "adresse_nom_voie": "IMP DES VILLAS PATRICE", "price_per_sqm": 3232.3232323232323, "date_iso": "2022-09-08", "parcelle": "771040000X0145", "addr_num": "2"}}, {"type": "Feature", "geometry": {"type": "Point", "coordinates": [2.805614, 48.711941]}, "properties": {"year": 2022, "valeur_fonciere": 320000.0, "type_local": "Dépendance", "surface_reelle_bati": null, "nombre_pieces_principales": 0.0, "adresse_nom_voie": "IMP DES VILLAS PATRICE", "price_per_sqm": null, "date_iso": "2022-09-08", "parcelle": "771040000X0145", "addr_num": "2"}}, {"type": "Feature", "geometry": {"type": "Point", "coordinates": [2.807616, 48.711884]}, "properties": {"year": 2022, "valeur_fonciere": 140000.0, "type_local": null, "surface_reelle_bati": null, "nombre_pieces_principales": null, "adresse_nom_voie": "RUE DE L ECOLE", "price_per_sqm": null, "date_iso": "2022-09-05", "parcelle": "771040000C0410", "addr_num": "5"}}, {"type": "Feature", "geometry": {"type": "Point", "coordinates": [2.81104, 48.708736]}, "properties": {"year": 2022, "valeur_fonciere": 162000.0, "type_local": null, "surface_reelle_bati": null, "nombre_pieces_principales": null, "adresse_nom_voie": "LE CHATELET", "price_per_sqm": null, "date_iso": "2022-09-27", "parcelle": "771040000W0130", "addr_num": ""}}, {"type": "Feature", "geometry": {"type": "Point", "coordinates": [2.812353, 48.709403]}, "properties": {"year": 2022, "valeur_fonciere": 167000.0, "type_local": null, "surface_reelle_bati": null, "nombre_pieces_principales": null, "adresse_nom_voie": "LE CHATELET", "price_per_sqm": null, "date_iso": "2022-09-27", "parcelle": "771040000W0120", "addr_num": ""}}, {"type": "Feature", "geometry": {"type": "Point", "coordinates": [2.812146, 48.708997]}, "properties": {"year": 2022, "valeur_fonciere": 172000.0, "type_local": null, "surface_reelle_bati": null, "nombre_pieces_principales": null, "adresse_nom_voie": "LE CHATELET", "price_per_sqm": null, "date_iso": "2022-09-28", "parcelle": "771040000W0125", "addr_num": ""}}, {"type": "Feature", "geometry": {"type": "Point", "coordinates": [2.821751, 48.715449]}, "properties": {"year": 2022, "valeur_fonciere": 460000.0, "type_local": null, "surface_reelle_bati": null, "nombre_pieces_principales": null, "adresse_nom_voie": "LE PETIT LORIBEAU", "price_per_sqm": null, "date_iso": "2022-09-30", "parcelle": "771040000B0056", "addr_num": ""}}, {"type": "Feature", "geometry": {"type": "Point", "coordinates": [2.821651, 48.715673]}, "properties": {"year": 2022, "valeur_fonciere": 460000.0, "type_local": null, "surface_reelle_bati": null, "nombre_pieces_principales": null, "adresse_nom_voie": "LE PETIT LORIBEAU", "price_per_sqm": null, "date_iso": "2022-09-30", "parcelle": "771040000B0057", "addr_num": ""}}, {"type": "Feature", "geometry": {"type": "Point", "coordinates": [2.820845, 48.71609]}, "properties": {"year": 2022, "valeur_fonciere": 460000.0, "type_local": null, "surface_reelle_bati": null, "nombre_pieces_principales": null, "adresse_nom_voie": "LE PETIT LORIBEAU", "price_per_sqm": null, "date_iso": "2022-09-30", "parcelle": "771040000B0058", "addr_num": ""}}, {"type": "Feature", "geometry": {"type": "Point", "coordinates": [2.820442, 48.715654]}, "properties": {"year": 2022, "valeur_fonciere": 460000.0, "type_local": null, "surface_reelle_bati": null, "nombre_pieces_principales": null, "adresse_nom_voie": "LE PETIT LORIBEAU", "price_per_sqm": null, "date_iso": "2022-09-30", "parcelle": "771040000B0061", "addr_num": ""}}, {"type": "Feature", "geometry": {"type": "Point", "coordinates": [2.820442, 48.715654]}, "properties": {"year": 2022, "valeur_fonciere": 460000.0, "type_local": null, "surface_reelle_bati": null, "nombre_pieces_principales": null, "adresse_nom_voie": "LE PETIT LORIBEAU", "price_per_sqm": null, "date_iso": "2022-09-30", "parcelle": "771040000B0061", "addr_num": ""}}, {"type": "Feature", "geometry": {"type": "Point", "coordinates": [2.820749, 48.71533]}, "properties": {"year": 2022, "valeur_fonciere": 460000.0, "type_local": "Maison", "surface_reelle_bati": 127.0, "nombre_pieces_principales": 6.0, "adresse_nom_voie": "IMP DE LORIBEAU", "price_per_sqm": 3622.047244094488, "date_iso": "2022-09-30", "parcelle": "771040000B0062", "addr_num": "4"}}, {"type": "Feature", "geometry": {"type": "Point", "coordinates": [2.820749, 48.71533]}, "properties": {"year": 2022, "valeur_fonciere": 460000.0, "type_local": "Maison", "surface_reelle_bati": 127.0, "nombre_pieces_principales": 6.0, "adresse_nom_voie": "IMP DE LORIBEAU", "price_per_sqm": 3622.047244094488, "date_iso": "2022-09-30", "parcelle": "771040000B0062", "addr_num": "4"}}, {"type": "Feature", "geometry": {"type": "Point", "coordinates": [2.819895, 48.715679]}, "properties": {"year": 2022, "valeur_fonciere": 460000.0, "type_local": null, "surface_reelle_bati": null, "nombre_pieces_principales": null, "adresse_nom_voie": "LE PETIT LORIBEAU", "price_per_sqm": null, "date_iso": "2022-09-30", "parcelle": "771040000B0197", "addr_num": ""}}, {"type": "Feature", "geometry": {"type": "Point", "coordinates": [2.820061, 48.715919]}, "properties": {"year": 2022, "valeur_fonciere": 460000.0, "type_local": null, "surface_reelle_bati": null, "nombre_pieces_principales": null, "adresse_nom_voie": "LE PETIT LORIBEAU", "price_per_sqm": null, "date_iso": "2022-09-30", "parcelle": "771040000Y0039", "addr_num": ""}}, {"type": "Feature", "geometry": {"type": "Point", "coordinates": [2.812065, 48.709409]}, "properties": {"year": 2022, "valeur_fonciere": 170000.0, "type_local": null, "surface_reelle_bati": null, "nombre_pieces_principales": null, "adresse_nom_voie": "LE CHATELET", "price_per_sqm": null, "date_iso": "2022-10-07", "parcelle": "771040000W0119", "addr_num": ""}}, {"type": "Feature", "geometry": {"type": "Point", "coordinates": [2.810822, 48.70874]}, "properties": {"year": 2022, "valeur_fonciere": 165000.0, "type_local": null, "surface_reelle_bati": null, "nombre_pieces_principales": null, "adresse_nom_voie": "LE CHATELET", "price_per_sqm": null, "date_iso": "2022-10-10", "parcelle": "771040000W0131", "addr_num": ""}}, {"type": "Feature", "geometry": {"type": "Point", "coordinates": [2.815091, 48.697333]}, "properties": {"year": 2022, "valeur_fonciere": 1154639.0, "type_local": null, "surface_reelle_bati": null, "nombre_pieces_principales": null, "adresse_nom_voie": "LES ALLOIS", "price_per_sqm": null, "date_iso": "2022-10-20", "parcelle": "771040000D0450", "addr_num": ""}}, {"type": "Feature", "geometry": {"type": "Point", "coordinates": [2.816424, 48.697158]}, "properties": {"year": 2022, "valeur_fonciere": 1154639.0, "type_local": "Maison", "surface_reelle_bati": 81.0, "nombre_pieces_principales": 3.0, "adresse_nom_voie": "RTE DE CHAUMES", "price_per_sqm": 14254.802469135802, "date_iso": "2022-10-20", "parcelle": "771040000D0451", "addr_num": "5002"}}, {"type": "Feature", "geometry": {"type": "Point", "coordinates": [2.816424, 48.697158]}, "properties": {"year": 2022, "valeur_fonciere": 1154639.0, "type_local": "Maison", "surface_reelle_bati": 81.0, "nombre_pieces_principales": 3.0, "adresse_nom_voie": "RTE DE CHAUMES", "price_per_sqm": 14254.802469135802, "date_iso": "2022-10-20", "parcelle": "771040000D0451", "addr_num": "5002"}}, {"type": "Feature", "geometry": {"type": "Point", "coordinates": [2.816703, 48.69808]}, "properties": {"year": 2022, "valeur_fonciere": 1154639.0, "type_local": null, "surface_reelle_bati": null, "nombre_pieces_principales": null, "adresse_nom_voie": "LES ALLOIS", "price_per_sqm": null, "date_iso": "2022-10-20", "parcelle": "771040000D0452", "addr_num": ""}}, {"type": "Feature", "geometry": {"type": "Point", "coordinates": [2.810962, 48.709233]}, "properties": {"year": 2022, "valeur_fonciere": 182000.0, "type_local": null, "surface_reelle_bati": null, "nombre_pieces_principales": null, "adresse_nom_voie": "LE CHATELET", "price_per_sqm": null, "date_iso": "2022-10-17", "parcelle": "771040000W0112", "addr_num": ""}}, {"type": "Feature", "geometry": {"type": "Point", "coordinates": [2.810984, 48.709074]}, "properties": {"year": 2022, "valeur_fonciere": 182000.0, "type_local": null, "surface_reelle_bati": null, "nombre_pieces_principales": null, "adresse_nom_voie": "LE CHATELET", "price_per_sqm": null, "date_iso": "2022-10-17", "parcelle": "771040000W0115", "addr_num": ""}}, {"type": "Feature", "geometry": {"type": "Point", "coordinates": [2.811535, 48.708756]}, "properties": {"year": 2022, "valeur_fonciere": 176000.0, "type_local": null, "surface_reelle_bati": null, "nombre_pieces_principales": null, "adresse_nom_voie": "LE CHATELET", "price_per_sqm": null, "date_iso": "2022-10-25", "parcelle": "771040000W0128", "addr_num": ""}}, {"type": "Feature", "geometry": {"type": "Point", "coordinates": [2.811562, 48.709318]}, "properties": {"year": 2022, "valeur_fonciere": 180000.0, "type_local": null, "surface_reelle_bati": null, "nombre_pieces_principales": null, "adresse_nom_voie": "LE CHATELET", "price_per_sqm": null, "date_iso": "2022-10-21", "parcelle": "771040000W0117", "addr_num": ""}}, {"type": "Feature", "geometry": {"type": "Point", "coordinates": [2.811748, 48.708777]}, "properties": {"year": 2022, "valeur_fonciere": 179000.0, "type_local": null, "surface_reelle_bati": null, "nombre_pieces_principales": null, "adresse_nom_voie": "LE CHATELET", "price_per_sqm": null, "date_iso": "2022-10-31", "parcelle": "771040000W0127", "addr_num": ""}}, {"type": "Feature", "geometry": {"type": "Point", "coordinates": [2.812559, 48.708754]}, "properties": {"year": 2022, "valeur_fonciere": 172000.0, "type_local": null, "surface_reelle_bati": null, "nombre_pieces_principales": null, "adresse_nom_voie": "LE CHATELET", "price_per_sqm": null, "date_iso": "2022-10-26", "parcelle": "771040000W0123", "addr_num": ""}}, {"type": "Feature", "geometry": {"type": "Point", "coordinates": [2.810755, 48.704464]}, "properties": {"year": 2022, "valeur_fonciere": 230000.0, "type_local": null, "surface_reelle_bati": null, "nombre_pieces_principales": null, "adresse_nom_voie": "LE PETIT MESNIL", "price_per_sqm": null, "date_iso": "2022-11-30", "parcelle": "771040000D0444", "addr_num": ""}}, {"type": "Feature", "geometry": {"type": "Point", "coordinates": [2.810762, 48.704502]}, "properties": {"year": 2022, "valeur_fonciere": 230000.0, "type_local": null, "surface_reelle_bati": null, "nombre_pieces_principales": null, "adresse_nom_voie": "LE PETIT MESNIL", "price_per_sqm": null, "date_iso": "2022-11-30", "parcelle": "771040000D0447", "addr_num": ""}}, {"type": "Feature", "geometry": {"type": "Point", "coordinates": [2.810628, 48.704633]}, "properties": {"year": 2022, "valeur_fonciere": 230000.0, "type_local": "Maison", "surface_reelle_bati": 179.0, "nombre_pieces_principales": 4.0, "adresse_nom_voie": "RTE DE CHAUMES", "price_per_sqm": 1284.9162011173185, "date_iso": "2022-11-30", "parcelle": "771040000D0453", "addr_num": "17"}}, {"type": "Feature", "geometry": {"type": "Point", "coordinates": [2.811268, 48.708829]}, "properties": {"year": 2022, "valeur_fonciere": 175000.0, "type_local": null, "surface_reelle_bati": null, "nombre_pieces_principales": null, "adresse_nom_voie": "LE CHATELET", "price_per_sqm": null, "date_iso": "2022-11-30", "parcelle": "771040000W0129", "addr_num": ""}}, {"type": "Feature", "geometry": {"type": "Point", "coordinates": [2.811825, 48.709403]}, "properties": {"year": 2022, "valeur_fonciere": 182000.0, "type_local": null, "surface_reelle_bati": null, "nombre_pieces_principales": null, "adresse_nom_voie": "LE CHATELET", "price_per_sqm": null, "date_iso": "2022-12-22", "parcelle": "771040000W0118", "addr_num": ""}}, {"type": "Feature", "geometry": {"type": "Point", "coordinates": [2.807841, 48.711877]}, "properties": {"year": 2022, "valeur_fonciere": 349000.0, "type_local": "Maison", "surface_reelle_bati": 100.0, "nombre_pieces_principales": 4.0, "adresse_nom_voie": "RUE DE L ECOLE", "price_per_sqm": 3490.0, "date_iso": "2022-12-30", "parcelle": "771040000C0120", "addr_num": "5"}}, {"type": "Feature", "geometry": {"type": "Point", "coordinates": [2.807898, 48.711764]}, "properties": {"year": 2022, "valeur_fonciere": 349000.0, "type_local": null, "surface_reelle_bati": null, "nombre_pieces_principales": null, "adresse_nom_voie": "CHATRES", "price_per_sqm": null, "date_iso": "2022-12-30", "parcelle": "771040000C0121", "addr_num": ""}}, {"type": "Feature", "geometry": {"type": "Point", "coordinates": [2.807973, 48.711702]}, "properties": {"year": 2022, "valeur_fonciere": 349000.0, "type_local": null, "surface_reelle_bati": null, "nombre_pieces_principales": null, "adresse_nom_voie": "CHATRES", "price_per_sqm": null, "date_iso": "2022-12-30", "parcelle": "771040000C0225", "addr_num": ""}}, {"type": "Feature", "geometry": {"type": "Point", "coordinates": [2.812272, 48.708744]}, "properties": {"year": 2023, "valeur_fonciere": 175000.0, "type_local": null, "surface_reelle_bati": null, "nombre_pieces_principales": null, "adresse_nom_voie": "LE CHATELET", "price_per_sqm": null, "date_iso": "2023-01-13", "parcelle": "771040000W0124", "addr_num": ""}}, {"type": "Feature", "geometry": {"type": "Point", "coordinates": [2.812506, 48.709027]}, "properties": {"year": 2023, "valeur_fonciere": 177000.0, "type_local": null, "surface_reelle_bati": null, "nombre_pieces_principales": null, "adresse_nom_voie": "LE CHATELET", "price_per_sqm": null, "date_iso": "2023-01-05", "parcelle": "771040000W0122", "addr_num": ""}}, {"type": "Feature", "geometry": {"type": "Point", "coordinates": [2.810303, 48.710755]}, "properties": {"year": 2023, "valeur_fonciere": 451600.0, "type_local": "Dépendance", "surface_reelle_bati": null, "nombre_pieces_principales": 0.0, "adresse_nom_voie": "RTE DE FONTENAY", "price_per_sqm": null, "date_iso": "2023-03-15", "parcelle": "771040000C0083", "addr_num": "4"}}, {"type": "Feature", "geometry": {"type": "Point", "coordinates": [2.810303, 48.710755]}, "properties": {"year": 2023, "valeur_fonciere": 451600.0, "type_local": "Dépendance", "surface_reelle_bati": null, "nombre_pieces_principales": 0.0, "adresse_nom_voie": "RTE DE FONTENAY", "price_per_sqm": null, "date_iso": "2023-03-15", "parcelle": "771040000C0083", "addr_num": "4"}}, {"type": "Feature", "geometry": {"type": "Point", "coordinates": [2.810303, 48.710755]}, "properties": {"year": 2023, "valeur_fonciere": 451600.0, "type_local": "Dépendance", "surface_reelle_bati": null, "nombre_pieces_principales": 0.0, "adresse_nom_voie": "RTE DE FONTENAY", "price_per_sqm": null, "date_iso": "2023-03-15", "parcelle": "771040000C0083", "addr_num": "4"}}, {"type": "Feature", "geometry": {"type": "Point", "coordinates": [2.810303, 48.710755]}, "properties": {"year": 2023, "valeur_fonciere": 451600.0, "type_local": "Dépendance", "surface_reelle_bati": null, "nombre_pieces_principales": 0.0, "adresse_nom_voie": "RTE DE FONTENAY", "price_per_sqm": null, "date_iso": "2023-03-15", "parcelle": "771040000C0083", "addr_num": "4"}}, {"type": "Feature", "geometry": {"type": "Point", "coordinates": [2.810303, 48.710755]}, "properties": {"year": 2023, "valeur_fonciere": 451600.0, "type_local": "Maison", "surface_reelle_bati": 113.0, "nombre_pieces_principales": 4.0, "adresse_nom_voie": "RTE DE FONTENAY", "price_per_sqm": 3996.4601769911505, "date_iso": "2023-03-15", "parcelle": "771040000C0083", "addr_num": "4"}}, {"type": "Feature", "geometry": {"type": "Point", "coordinates": [2.810253, 48.710525]}, "properties": {"year": 2023, "valeur_fonciere": 451600.0, "type_local": null, "surface_reelle_bati": null, "nombre_pieces_principales": null, "adresse_nom_voie": "CHATRES", "price_per_sqm": null, "date_iso": "2023-03-15", "parcelle": "771040000C0084", "addr_num": ""}}, {"type": "Feature", "geometry": {"type": "Point", "coordinates": [2.811183, 48.709278]}, "properties": {"year": 2023, "valeur_fonciere": 185000.0, "type_local": null, "surface_reelle_bati": null, "nombre_pieces_principales": null, "adresse_nom_voie": "LE CHATELET", "price_per_sqm": null, "date_iso": "2023-04-21", "parcelle": "771040000W0113", "addr_num": ""}}, {"type": "Feature", "geometry": {"type": "Point", "coordinates": [2.811255, 48.709133]}, "properties": {"year": 2023, "valeur_fonciere": 185000.0, "type_local": null, "surface_reelle_bati": null, "nombre_pieces_principales": null, "adresse_nom_voie": "LE CHATELET", "price_per_sqm": null, "date_iso": "2023-04-21", "parcelle": "771040000W0116", "addr_num": ""}}, {"type": "Feature", "geometry": {"type": "Point", "coordinates": [2.81197, 48.708808]}, "properties": {"year": 2023, "valeur_fonciere": 190000.0, "type_local": null, "surface_reelle_bati": null, "nombre_pieces_principales": null, "adresse_nom_voie": "LE CHATELET", "price_per_sqm": null, "date_iso": "2023-04-28", "parcelle": "771040000W0126", "addr_num": ""}}, {"type": "Feature", "geometry": {"type": "Point", "coordinates": [2.840769, 48.720329]}, "properties": {"year": 2023, "valeur_fonciere": 90000.0, "type_local": null, "surface_reelle_bati": null, "nombre_pieces_principales": null, "adresse_nom_voie": "BOISTRON", "price_per_sqm": null, "date_iso": "2023-05-03", "parcelle": "77104000YA0096", "addr_num": ""}}, {"type": "Feature", "geometry": {"type": "Point", "coordinates": [2.840769, 48.720329]}, "properties": {"year": 2023, "valeur_fonciere": 90000.0, "type_local": null, "surface_reelle_bati": null, "nombre_pieces_principales": null, "adresse_nom_voie": "BOISTRON", "price_per_sqm": null, "date_iso": "2023-05-03", "parcelle": "77104000YA0096", "addr_num": ""}}, {"type": "Feature", "geometry": {"type": "Point", "coordinates": [2.836476, 48.710049]}, "properties": {"year": 2023, "valeur_fonciere": 190000.0, "type_local": null, "surface_reelle_bati": null, "nombre_pieces_principales": null, "adresse_nom_voie": "LA GARENNE DES PINS", "price_per_sqm": null, "date_iso": "2023-05-16", "parcelle": "77104000YB0008", "addr_num": ""}}, {"type": "Feature", "geometry": {"type": "Point", "coordinates": [2.804316, 48.711536]}, "properties": {"year": 2023, "valeur_fonciere": 300000.0, "type_local": "Maison", "surface_reelle_bati": 78.0, "nombre_pieces_principales": 4.0, "adresse_nom_voie": "RUE DES VILLAS PATRICE", "price_per_sqm": 3846.153846153846, "date_iso": "2023-06-02", "parcelle": "771040000X0046", "addr_num": "10"}}, {"type": "Feature", "geometry": {"type": "Point", "coordinates": [2.804612, 48.711949]}, "properties": {"year": 2023, "valeur_fonciere": 300000.0, "type_local": null, "surface_reelle_bati": null, "nombre_pieces_principales": null, "adresse_nom_voie": "LA RUE", "price_per_sqm": null, "date_iso": "2023-06-02", "parcelle": "771040000X0070", "addr_num": ""}}, {"type": "Feature", "geometry": {"type": "Point", "coordinates": [2.804789, 48.71191]}, "properties": {"year": 2023, "valeur_fonciere": 300000.0, "type_local": null, "surface_reelle_bati": null, "nombre_pieces_principales": null, "adresse_nom_voie": "LA RUE", "price_per_sqm": null, "date_iso": "2023-06-02", "parcelle": "771040000X0071", "addr_num": ""}}, {"type": "Feature", "geometry": {"type": "Point", "coordinates": [2.804569, 48.712474]}, "properties": {"year": 2023, "valeur_fonciere": 300000.0, "type_local": null, "surface_reelle_bati": null, "nombre_pieces_principales": null, "adresse_nom_voie": "LA RUE", "price_per_sqm": null, "date_iso": "2023-06-02", "parcelle": "771040000X0072", "addr_num": ""}}, {"type": "Feature", "geometry": {"type": "Point", "coordinates": [2.820831, 48.727823]}, "properties": {"year": 2023, "valeur_fonciere": 59319672.0, "type_local": "Local industriel. commercial ou assimilé", "surface_reelle_bati": 62218.0, "nombre_pieces_principales": 0.0, "adresse_nom_voie": "BOIS DU HAUT CHAMP", "price_per_sqm": 953.4165675527983, "date_iso": "2023-06-22", "parcelle": "771040000A0101", "addr_num": "5001"}}, {"type": "Feature", "geometry": {"type": "Point", "coordinates": [2.804963, 48.712775]}, "properties": {"year": 2023, "valeur_fonciere": 326000.0, "type_local": "Maison", "surface_reelle_bati": 119.0, "nombre_pieces_principales": 6.0, "adresse_nom_voie": "RUE DES VILLAS PATRICE", "price_per_sqm": 2739.4957983193276, "date_iso": "2023-08-30", "parcelle": "771040000X0055", "addr_num": "23"}}, {"type": "Feature", "geometry": {"type": "Point", "coordinates": [2.803681, 48.710822]}, "properties": {"year": 2023, "valeur_fonciere": 353000.0, "type_local": "Maison", "surface_reelle_bati": 84.0, "nombre_pieces_principales": 4.0, "adresse_nom_voie": "RUE DES VILLAS PATRICE", "price_per_sqm": 4202.380952380952, "date_iso": "2023-08-25", "parcelle": "771040000X0038", "addr_num": "2"}}, {"type": "Feature", "geometry": {"type": "Point", "coordinates": [2.821842, 48.713429]}, "properties": {"year": 2023, "valeur_fonciere": 114200.0, "type_local": null, "surface_reelle_bati": null, "nombre_pieces_principales": null, "adresse_nom_voie": "LE PETIT LORIBEAU", "price_per_sqm": null, "date_iso": "2023-09-14", "parcelle": "771040000B0130", "addr_num": ""}}, {"type": "Feature", "geometry": {"type": "Point", "coordinates": [2.822756, 48.71389]}, "properties": {"year": 2023, "valeur_fonciere": 114200.0, "type_local": null, "surface_reelle_bati": null, "nombre_pieces_principales": null, "adresse_nom_voie": "LE PETIT LORIBEAU", "price_per_sqm": null, "date_iso": "2023-09-14", "parcelle": "771040000B0131", "addr_num": ""}}, {"type": "Feature", "geometry": {"type": "Point", "coordinates": [2.822756, 48.71389]}, "properties": {"year": 2023, "valeur_fonciere": 114200.0, "type_local": null, "surface_reelle_bati": null, "nombre_pieces_principales": null, "adresse_nom_voie": "LE PETIT LORIBEAU", "price_per_sqm": null, "date_iso": "2023-09-14", "parcelle": "771040000B0131", "addr_num": ""}}, {"type": "Feature", "geometry": {"type": "Point", "coordinates": [2.82356, 48.713755]}, "properties": {"year": 2023, "valeur_fonciere": 114200.0, "type_local": null, "surface_reelle_bati": null, "nombre_pieces_principales": null, "adresse_nom_voie": "LE PETIT LORIBEAU", "price_per_sqm": null, "date_iso": "2023-09-14", "parcelle": "771040000B0132", "addr_num": ""}}, {"type": "Feature", "geometry": {"type": "Point", "coordinates": [2.824167, 48.712976]}, "properties": {"year": 2023, "valeur_fonciere": 114200.0, "type_local": null, "surface_reelle_bati": null, "nombre_pieces_principales": null, "adresse_nom_voie": "LE PETIT LORIBEAU", "price_per_sqm": null, "date_iso": "2023-09-14", "parcelle": "771040000B0200", "addr_num": ""}}, {"type": "Feature", "geometry": {"type": "Point", "coordinates": [2.810341, 48.711093]}, "properties": {"year": 2023, "valeur_fonciere": 389000.0, "type_local": "Dépendance", "surface_reelle_bati": null, "nombre_pieces_principales": 0.0, "adresse_nom_voie": "RTE DE FONTENAY", "price_per_sqm": null, "date_iso": "2023-09-27", "parcelle": "771040000C0368", "addr_num": "1"}}, {"type": "Feature", "geometry": {"type": "Point", "coordinates": [2.810341, 48.711093]}, "properties": {"year": 2023, "valeur_fonciere": 389000.0, "type_local": "Maison", "surface_reelle_bati": 180.0, "nombre_pieces_principales": 5.0, "adresse_nom_voie": "RTE DE FONTENAY", "price_per_sqm": 2161.1111111111113, "date_iso": "2023-09-27", "parcelle": "771040000C0368", "addr_num": "1"}}, {"type": "Feature", "geometry": {"type": "Point", "coordinates": [2.831789, 48.722485]}, "properties": {"year": 2023, "valeur_fonciere": 15000.0, "type_local": null, "surface_reelle_bati": null, "nombre_pieces_principales": null, "adresse_nom_voie": "BOISTRON", "price_per_sqm": null, "date_iso": "2023-10-05", "parcelle": "771040000B0204", "addr_num": ""}}, {"type": "Feature", "geometry": {"type": "Point", "coordinates": [2.806703, 48.71166]}, "properties": {"year": 2023, "valeur_fonciere": 370000.0, "type_local": "Maison", "surface_reelle_bati": 120.0, "nombre_pieces_principales": 7.0, "adresse_nom_voie": "RUE DU LAVOIR", "price_per_sqm": 3083.3333333333335, "date_iso": "2023-10-27", "parcelle": "771040000X0179", "addr_num": "12"}}, {"type": "Feature", "geometry": {"type": "Point", "coordinates": [2.800156, 48.712231]}, "properties": {"year": 2023, "valeur_fonciere": 250000.0, "type_local": "Maison", "surface_reelle_bati": 68.0, "nombre_pieces_principales": 2.0, "adresse_nom_voie": "RUE DES BOULAYES", "price_per_sqm": 3676.470588235294, "date_iso": "2023-11-02", "parcelle": "771040000X0200", "addr_num": "2"}}, {"type": "Feature", "geometry": {"type": "Point", "coordinates": [2.800156, 48.712231]}, "properties": {"year": 2023, "valeur_fonciere": 250000.0, "type_local": "Maison", "surface_reelle_bati": 68.0, "nombre_pieces_principales": 2.0, "adresse_nom_voie": "RUE DES BOULAYES", "price_per_sqm": 3676.470588235294, "date_iso": "2023-11-02", "parcelle": "771040000X0200", "addr_num": "2"}}, {"type": "Feature", "geometry": {"type": "Point", "coordinates": [2.812105, 48.709714]}, "properties": {"year": 2023, "valeur_fonciere": 133018.4, "type_local": null, "surface_reelle_bati": null, "nombre_pieces_principales": null, "adresse_nom_voie": "LE CHATELET", "price_per_sqm": null, "date_iso": "2023-11-07", "parcelle": "771040000W0121", "addr_num": ""}}, {"type": "Feature", "geometry": {"type": "Point", "coordinates": [2.847234, 48.726847]}, "properties": {"year": 2023, "valeur_fonciere": 1.0, "type_local": null, "surface_reelle_bati": null, "nombre_pieces_principales": null, "adresse_nom_voie": "LA BONDE", "price_per_sqm": null, "date_iso": "2023-11-22", "parcelle": "77104000YA0077", "addr_num": ""}}, {"type": "Feature", "geometry": {"type": "Point", "coordinates": [2.845873, 48.72492]}, "properties": {"year": 2023, "valeur_fonciere": 1.0, "type_local": null, "surface_reelle_bati": null, "nombre_pieces_principales": null, "adresse_nom_voie": "LA BONDE", "price_per_sqm": null, "date_iso": "2023-11-22", "parcelle": "77104000YA0078", "addr_num": ""}}, {"type": "Feature", "geometry": {"type": "Point", "coordinates": [2.844193, 48.72389]}, "properties": {"year": 2023, "valeur_fonciere": 1.0, "type_local": null, "surface_reelle_bati": null, "nombre_pieces_principales": null, "adresse_nom_voie": "LA BONDE", "price_per_sqm": null, "date_iso": "2023-11-22", "parcelle": "77104000YA0079", "addr_num": ""}}, {"type": "Feature", "geometry": {"type": "Point", "coordinates": [2.843714, 48.722179]}, "properties": {"year": 2023, "valeur_fonciere": 1.0, "type_local": null, "surface_reelle_bati": null, "nombre_pieces_principales": null, "adresse_nom_voie": "LES MARNIERES DE BOISTRON", "price_per_sqm": null, "date_iso": "2023-11-22", "parcelle": "77104000YA0082", "addr_num": ""}}, {"type": "Feature", "geometry": {"type": "Point", "coordinates": [2.844076, 48.723149]}, "properties": {"year": 2023, "valeur_fonciere": 1.0, "type_local": null, "surface_reelle_bati": null, "nombre_pieces_principales": null, "adresse_nom_voie": "LES MARNIERES DE BOISTRON", "price_per_sqm": null, "date_iso": "2023-11-22", "parcelle": "77104000YA0084", "addr_num": ""}}, {"type": "Feature", "geometry": {"type": "Point", "coordinates": [2.84756, 48.72785]}, "properties": {"year": 2023, "valeur_fonciere": 1.0, "type_local": null, "surface_reelle_bati": null, "nombre_pieces_principales": null, "adresse_nom_voie": "LA BONDE", "price_per_sqm": null, "date_iso": "2023-11-22", "parcelle": "77104000YA0089", "addr_num": ""}}, {"type": "Feature", "geometry": {"type": "Point", "coordinates": [2.845949, 48.727156]}, "properties": {"year": 2023, "valeur_fonciere": 1.0, "type_local": null, "surface_reelle_bati": null, "nombre_pieces_principales": null, "adresse_nom_voie": "LE PELLERET", "price_per_sqm": null, "date_iso": "2023-11-22", "parcelle": "771040000Z0051", "addr_num": ""}}, {"type": "Feature", "geometry": {"type": "Point", "coordinates": [2.80654, 48.711203]}, "properties": {"year": 2024, "valeur_fonciere": 343000.0, "type_local": "Dépendance", "surface_reelle_bati": null, "nombre_pieces_principales": 0.0, "adresse_nom_voie": "RUE DE LIVERDY", "price_per_sqm": null, "date_iso": "2024-02-22", "parcelle": "771040000X0155", "addr_num": "2"}}, {"type": "Feature", "geometry": {"type": "Point", "coordinates": [2.80654, 48.711203]}, "properties": {"year": 2024, "valeur_fonciere": 343000.0, "type_local": "Dépendance", "surface_reelle_bati": null, "nombre_pieces_principales": 0.0, "adresse_nom_voie": "RUE DE LIVERDY", "price_per_sqm": null, "date_iso": "2024-02-22", "parcelle": "771040000X0155", "addr_num": "2"}}, {"type": "Feature", "geometry": {"type": "Point", "coordinates": [2.80654, 48.711203]}, "properties": {"year": 2024, "valeur_fonciere": 343000.0, "type_local": "Maison", "surface_reelle_bati": 132.0, "nombre_pieces_principales": 6.0, "adresse_nom_voie": "RUE DE LIVERDY", "price_per_sqm": 2598.4848484848485, "date_iso": "2024-02-22", "parcelle": "771040000X0155", "addr_num": "2"}}, {"type": "Feature", "geometry": {"type": "Point", "coordinates": [2.80654, 48.711203]}, "properties": {"year": 2024, "valeur_fonciere": 343000.0, "type_local": "Maison", "surface_reelle_bati": 132.0, "nombre_pieces_principales": 6.0, "adresse_nom_voie": "RUE DE LIVERDY", "price_per_sqm": 2598.4848484848485, "date_iso": "2024-02-22", "parcelle": "771040000X0155", "addr_num": "2"}}, {"type": "Feature", "geometry": {"type": "Point", "coordinates": [2.819822, 48.714945]}, "properties": {"year": 2024, "valeur_fonciere": 325000.0, "type_local": "Dépendance", "surface_reelle_bati": null, "nombre_pieces_principales": 0.0, "adresse_nom_voie": "IMP DE LORIBEAU", "price_per_sqm": null, "date_iso": "2024-04-26", "parcelle": "771040000B0066", "addr_num": "3"}}, {"type": "Feature", "geometry": {"type": "Point", "coordinates": [2.819822, 48.714945]}, "properties": {"year": 2024, "valeur_fonciere": 325000.0, "type_local": "Maison", "surface_reelle_bati": 55.0, "nombre_pieces_principales": 3.0, "adresse_nom_voie": "IMP DE LORIBEAU", "price_per_sqm": 5909.090909090909, "date_iso": "2024-04-26", "parcelle": "771040000B0066", "addr_num": "3"}}, {"type": "Feature", "geometry": {"type": "Point", "coordinates": [2.819822, 48.714945]}, "properties": {"year": 2024, "valeur_fonciere": 325000.0, "type_local": "Dépendance", "surface_reelle_bati": null, "nombre_pieces_principales": 0.0, "adresse_nom_voie": "IMP DE LORIBEAU", "price_per_sqm": null, "date_iso": "2024-04-26", "parcelle": "771040000B0066", "addr_num": "3"}}, {"type": "Feature", "geometry": {"type": "Point", "coordinates": [2.819822, 48.714945]}, "properties": {"year": 2024, "valeur_fonciere": 325000.0, "type_local": "Dépendance", "surface_reelle_bati": null, "nombre_pieces_principales": 0.0, "adresse_nom_voie": "IMP DE LORIBEAU", "price_per_sqm": null, "date_iso": "2024-04-26", "parcelle": "771040000B0066", "addr_num": "3"}}, {"type": "Feature", "geometry": {"type": "Point", "coordinates": [2.819822, 48.714945]}, "properties": {"year": 2024, "valeur_fonciere": 325000.0, "type_local": "Dépendance", "surface_reelle_bati": null, "nombre_pieces_principales": 0.0, "adresse_nom_voie": "IMP DE LORIBEAU", "price_per_sqm": null, "date_iso": "2024-04-26", "parcelle": "771040000B0066", "addr_num": "3"}}, {"type": "Feature", "geometry": {"type": "Point", "coordinates": [2.819892, 48.715052]}, "properties": {"year": 2024, "valeur_fonciere": 325000.0, "type_local": null, "surface_reelle_bati": null, "nombre_pieces_principales": null, "adresse_nom_voie": "LE PETIT LORIBEAU", "price_per_sqm": null, "date_iso": "2024-04-26", "parcelle": "771040000B0202", "addr_num": ""}}, {"type": "Feature", "geometry": {"type": "Point", "coordinates": [2.81104, 48.708736]}, "properties": {"year": 2024, "valeur_fonciere": 333000.0, "type_local": "Maison", "surface_reelle_bati": 124.0, "nombre_pieces_principales": 4.0, "adresse_nom_voie": "RUE DES VERGERS", "price_per_sqm": 2685.483870967742, "date_iso": "2024-07-23", "parcelle": "771040000W0130", "addr_num": "14"}}, {"type": "Feature", "geometry": {"type": "Point", "coordinates": [2.808276, 48.709899]}, "properties": {"year": 2024, "valeur_fonciere": 375000.0, "type_local": "Maison", "surface_reelle_bati": 115.0, "nombre_pieces_principales": 5.0, "adresse_nom_voie": "ALL DE LA FERME", "price_per_sqm": 3260.8695652173915, "date_iso": "2024-08-19", "parcelle": "771040000D0405", "addr_num": "3"}}, {"type": "Feature", "geometry": {"type": "Point", "coordinates": [2.808276, 48.709899]}, "properties": {"year": 2024, "valeur_fonciere": 375000.0, "type_local": "Maison", "surface_reelle_bati": 115.0, "nombre_pieces_principales": 5.0, "adresse_nom_voie": "ALL DE LA FERME", "price_per_sqm": 3260.8695652173915, "date_iso": "2024-08-19", "parcelle": "771040000D0405", "addr_num": "3"}}, {"type": "Feature", "geometry": {"type": "Point", "coordinates": [2.806156, 48.711671]}, "properties": {"year": 2024, "valeur_fonciere": 323150.0, "type_local": "Maison", "surface_reelle_bati": 103.0, "nombre_pieces_principales": 5.0, "adresse_nom_voie": "RUE DU LAVOIR", "price_per_sqm": 3137.378640776699, "date_iso": "2024-08-27", "parcelle": "771040000X0159", "addr_num": "21"}}, {"type": "Feature", "geometry": {"type": "Point", "coordinates": [2.804426, 48.71113]}, "properties": {"year": 2024, "valeur_fonciere": 350000.0, "type_local": "Maison", "surface_reelle_bati": 131.0, "nombre_pieces_principales": 7.0, "adresse_nom_voie": "RUE DES VILLAS PATRICE", "price_per_sqm": 2671.7557251908397, "date_iso": "2024-10-16", "parcelle": "771040000X0067", "addr_num": "31"}}, {"type": "Feature", "geometry": {"type": "Point", "coordinates": [2.804612, 48.711949]}, "properties": {"year": 2024, "valeur_fonciere": 350000.0, "type_local": null, "surface_reelle_bati": null, "nombre_pieces_principales": null, "adresse_nom_voie": "LA RUE", "price_per_sqm": null, "date_iso": "2024-10-16", "parcelle": "771040000X0070", "addr_num": ""}}, {"type": "Feature", "geometry": {"type": "Point", "coordinates": [2.804789, 48.71191]}, "properties": {"year": 2024, "valeur_fonciere": 350000.0, "type_local": null, "surface_reelle_bati": null, "nombre_pieces_principales": null, "adresse_nom_voie": "LA RUE", "price_per_sqm": null, "date_iso": "2024-10-16", "parcelle": "771040000X0071", "addr_num": ""}}, {"type": "Feature", "geometry": {"type": "Point", "coordinates": [2.804569, 48.712474]}, "properties": {"year": 2024, "valeur_fonciere": 350000.0, "type_local": null, "surface_reelle_bati": null, "nombre_pieces_principales": null, "adresse_nom_voie": "LA RUE", "price_per_sqm": null, "date_iso": "2024-10-16", "parcelle": "771040000X0072", "addr_num": ""}}, {"type": "Feature", "geometry": {"type": "Point", "coordinates": [2.810261, 48.706715]}, "properties": {"year": 2024, "valeur_fonciere": 1120000.0, "type_local": null, "surface_reelle_bati": null, "nombre_pieces_principales": null, "adresse_nom_voie": "LE GRAND MESNIL", "price_per_sqm": null, "date_iso": "2024-11-26", "parcelle": "771040000D0345", "addr_num": ""}}, {"type": "Feature", "geometry": {"type": "Point", "coordinates": [2.809837, 48.706733]}, "properties": {"year": 2024, "valeur_fonciere": 1120000.0, "type_local": null, "surface_reelle_bati": null, "nombre_pieces_principales": null, "adresse_nom_voie": "LE GRAND MESNIL", "price_per_sqm": null, "date_iso": "2024-11-26", "parcelle": "771040000D0346", "addr_num": ""}}, {"type": "Feature", "geometry": {"type": "Point", "coordinates": [2.809837, 48.706733]}, "properties": {"year": 2024, "valeur_fonciere": 1120000.0, "type_local": null, "surface_reelle_bati": null, "nombre_pieces_principales": null, "adresse_nom_voie": "LE GRAND MESNIL", "price_per_sqm": null, "date_iso": "2024-11-26", "parcelle": "771040000D0346", "addr_num": ""}}, {"type": "Feature", "geometry": {"type": "Point", "coordinates": [2.810238, 48.706113]}, "properties": {"year": 2024, "valeur_fonciere": 1120000.0, "type_local": null, "surface_reelle_bati": null, "nombre_pieces_principales": null, "adresse_nom_voie": "LE GRAND MESNIL", "price_per_sqm": null, "date_iso": "2024-11-26", "parcelle": "771040000D0347", "addr_num": ""}}, {"type": "Feature", "geometry": {"type": "Point", "coordinates": [2.809927, 48.70604]}, "properties": {"year": 2024, "valeur_fonciere": 1120000.0, "type_local": null, "surface_reelle_bati": null, "nombre_pieces_principales": null, "adresse_nom_voie": "LE GRAND MESNIL", "price_per_sqm": null, "date_iso": "2024-11-26", "parcelle": "771040000D0348", "addr_num": ""}}, {"type": "Feature", "geometry": {"type": "Point", "coordinates": [2.810884, 48.706168]}, "properties": {"year": 2024, "valeur_fonciere": 1120000.0, "type_local": null, "surface_reelle_bati": null, "nombre_pieces_principales": null, "adresse_nom_voie": "LE PETIT MESNIL", "price_per_sqm": null, "date_iso": "2024-11-26", "parcelle": "771040000D0464", "addr_num": ""}}, {"type": "Feature", "geometry": {"type": "Point", "coordinates": [2.807398, 48.709766]}, "properties": {"year": 2025, "valeur_fonciere": 1.0, "type_local": null, "surface_reelle_bati": null, "nombre_pieces_principales": null, "adresse_nom_voie": "LA JARRIE", "price_per_sqm": null, "date_iso": "2025-01-08", "parcelle": "771040000D0413", "addr_num": ""}}, {"type": "Feature", "geometry": {"type": "Point", "coordinates": [2.800933, 48.711981]}, "properties": {"year": 2025, "valeur_fonciere": 194000.0, "type_local": null, "surface_reelle_bati": null, "nombre_pieces_principales": null, "adresse_nom_voie": "LA RUE", "price_per_sqm": null, "date_iso": "2025-02-07", "parcelle": "771040000X0093", "addr_num": ""}}, {"type": "Feature", "geometry": {"type": "Point", "coordinates": [2.800892, 48.712032]}, "properties": {"year": 2025, "valeur_fonciere": 194000.0, "type_local": "Maison", "surface_reelle_bati": 60.0, "nombre_pieces_principales": 3.0, "adresse_nom_voie": "RUE DES BOULAYES", "price_per_sqm": 3233.3333333333335, "date_iso": "2025-02-07", "parcelle": "771040000X0147", "addr_num": "17"}}, {"type": "Feature", "geometry": {"type": "Point", "coordinates": [2.800892, 48.712032]}, "properties": {"year": 2025, "valeur_fonciere": 194000.0, "type_local": "Dépendance", "surface_reelle_bati": null, "nombre_pieces_principales": 0.0, "adresse_nom_voie": "RUE DES BOULAYES", "price_per_sqm": null, "date_iso": "2025-02-07", "parcelle": "771040000X0147", "addr_num": "17"}}, {"type": "Feature", "geometry": {"type": "Point", "coordinates": [2.801084, 48.711981]}, "properties": {"year": 2025, "valeur_fonciere": 194000.0, "type_local": null, "surface_reelle_bati": null, "nombre_pieces_principales": null, "adresse_nom_voie": "RUE DES BOULAYES", "price_per_sqm": null, "date_iso": "2025-02-07", "parcelle": "771040000X0148", "addr_num": ""}}, {"type": "Feature", "geometry": {"type": "Point", "coordinates": [2.80811, 48.707921]}, "properties": {"year": 2025, "valeur_fonciere": 189000.0, "type_local": null, "surface_reelle_bati": null, "nombre_pieces_principales": null, "adresse_nom_voie": "RTE DE CHAUMES", "price_per_sqm": null, "date_iso": "2025-03-26", "parcelle": "771040000D0475", "addr_num": "18"}}, {"type": "Feature", "geometry": {"type": "Point", "coordinates": [2.808154, 48.70796]}, "properties": {"year": 2025, "valeur_fonciere": 189000.0, "type_local": null, "surface_reelle_bati": null, "nombre_pieces_principales": null, "adresse_nom_voie": "LE GRAND MESNIL", "price_per_sqm": null, "date_iso": "2025-03-26", "parcelle": "771040000D0477", "addr_num": ""}}, {"type": "Feature", "geometry": {"type": "Point", "coordinates": [2.807991, 48.707918]}, "properties": {"year": 2025, "valeur_fonciere": 189000.0, "type_local": null, "surface_reelle_bati": null, "nombre_pieces_principales": null, "adresse_nom_voie": "LE GRAND MESNIL", "price_per_sqm": null, "date_iso": "2025-03-26", "parcelle": "771040000D0480", "addr_num": ""}}, {"type": "Feature", "geometry": {"type": "Point", "coordinates": [2.803345, 48.71074]}, "properties": {"year": 2025, "valeur_fonciere": 305000.0, "type_local": "Dépendance", "surface_reelle_bati": null, "nombre_pieces_principales": 0.0, "adresse_nom_voie": "RUE DE LIVERDY", "price_per_sqm": null, "date_iso": "2025-03-31", "parcelle": "771040000X0037", "addr_num": "4"}}, {"type": "Feature", "geometry": {"type": "Point", "coordinates": [2.803345, 48.71074]}, "properties": {"year": 2025, "valeur_fonciere": 305000.0, "type_local": "Maison", "surface_reelle_bati": 139.0, "nombre_pieces_principales": 6.0, "adresse_nom_voie": "RUE DE LIVERDY", "price_per_sqm": 2194.244604316547, "date_iso": "2025-03-31", "parcelle": "771040000X0037", "addr_num": "4"}}, {"type": "Feature", "geometry": {"type": "Point", "coordinates": [2.804612, 48.711949]}, "properties": {"year": 2025, "valeur_fonciere": 305000.0, "type_local": null, "surface_reelle_bati": null, "nombre_pieces_principales": null, "adresse_nom_voie": "LA RUE", "price_per_sqm": null, "date_iso": "2025-03-31", "parcelle": "771040000X0070", "addr_num": ""}}, {"type": "Feature", "geometry": {"type": "Point", "coordinates": [2.804789, 48.71191]}, "properties": {"year": 2025, "valeur_fonciere": 305000.0, "type_local": null, "surface_reelle_bati": null, "nombre_pieces_principales": null, "adresse_nom_voie": "LA RUE", "price_per_sqm": null, "date_iso": "2025-03-31", "parcelle": "771040000X0071", "addr_num": ""}}, {"type": "Feature", "geometry": {"type": "Point", "coordinates": [2.804569, 48.712474]}, "properties": {"year": 2025, "valeur_fonciere": 305000.0, "type_local": null, "surface_reelle_bati": null, "nombre_pieces_principales": null, "adresse_nom_voie": "LA RUE", "price_per_sqm": null, "date_iso": "2025-03-31", "parcelle": "771040000X0072", "addr_num": ""}}, {"type": "Feature", "geometry": {"type": "Point", "coordinates": [2.804217, 48.712992]}, "properties": {"year": 2025, "valeur_fonciere": 193255.81, "type_local": null, "surface_reelle_bati": null, "nombre_pieces_principales": null, "adresse_nom_voie": "RUE DES BOULAYES", "price_per_sqm": null, "date_iso": "2025-05-26", "parcelle": "771040000X0116", "addr_num": "3"}}, {"type": "Feature", "geometry": {"type": "Point", "coordinates": [2.804132, 48.712767]}, "properties": {"year": 2025, "valeur_fonciere": 193255.81, "type_local": "Maison", "surface_reelle_bati": 133.0, "nombre_pieces_principales": 5.0, "adresse_nom_voie": "RUE DES BOULAYES", "price_per_sqm": 1453.0512030075188, "date_iso": "2025-05-26", "parcelle": "771040000X0117", "addr_num": "3"}}, {"type": "Feature", "geometry": {"type": "Point", "coordinates": [2.805932, 48.711944]}, "properties": {"year": 2025, "valeur_fonciere": 424400.0, "type_local": "Maison", "surface_reelle_bati": 125.0, "nombre_pieces_principales": 5.0, "adresse_nom_voie": "RUE DU CHENE", "price_per_sqm": 3395.2, "date_iso": "2025-06-19", "parcelle": "771040000X0182", "addr_num": "9"}}, {"type": "Feature", "geometry": {"type": "Point", "coordinates": [2.805932, 48.711944]}, "properties": {"year": 2025, "valeur_fonciere": 424400.0, "type_local": "Dépendance", "surface_reelle_bati": null, "nombre_pieces_principales": 0.0, "adresse_nom_voie": "RUE DU CHENE", "price_per_sqm": null, "date_iso": "2025-06-19", "parcelle": "771040000X0182", "addr_num": "9"}}, {"type": "Feature", "geometry": {"type": "Point", "coordinates": [2.809599, 48.710877]}, "properties": {"year": 2025, "valeur_fonciere": 340000.0, "type_local": "Maison", "surface_reelle_bati": 116.0, "nombre_pieces_principales": 4.0, "adresse_nom_voie": "RUE DE LA MAIRIE", "price_per_sqm": 2931.0344827586205, "date_iso": "2025-06-06", "parcelle": "771040000C0371", "addr_num": "1"}}, {"type": "Feature", "geometry": {"type": "Point", "coordinates": [2.810923, 48.706403]}, "properties": {"year": 2025, "valeur_fonciere": 278000.0, "type_local": "Maison", "surface_reelle_bati": 89.0, "nombre_pieces_principales": 5.0, "adresse_nom_voie": "RUE DU MESNIL", "price_per_sqm": 3123.5955056179773, "date_iso": "2025-07-31", "parcelle": "771040000D0372", "addr_num": "23"}}, {"type": "Feature", "geometry": {"type": "Point", "coordinates": [2.810923, 48.706403]}, "properties": {"year": 2025, "valeur_fonciere": 278000.0, "type_local": "Dépendance", "surface_reelle_bati": null, "nombre_pieces_principales": 0.0, "adresse_nom_voie": "RUE DU MESNIL", "price_per_sqm": null, "date_iso": "2025-07-31", "parcelle": "771040000D0372", "addr_num": "23"}}, {"type": "Feature", "geometry": {"type": "Point", "coordinates": [2.810195, 48.711487]}, "properties": {"year": 2025, "valeur_fonciere": 313800.0, "type_local": "Maison", "surface_reelle_bati": 81.0, "nombre_pieces_principales": 5.0, "adresse_nom_voie": "GRANDE RUE", "price_per_sqm": 3874.074074074074, "date_iso": "2025-07-18", "parcelle": "771040000C0255", "addr_num": "4"}}, {"type": "Feature", "geometry": {"type": "Point", "coordinates": [2.808049, 48.711747]}, "properties": {"year": 2025, "valeur_fonciere": 267000.0, "type_local": null, "surface_reelle_bati": null, "nombre_pieces_principales": null, "adresse_nom_voie": "CHATRES", "price_per_sqm": null, "date_iso": "2025-07-19", "parcelle": "771040000C0408", "addr_num": ""}}, {"type": "Feature", "geometry": {"type": "Point", "coordinates": [2.807939, 48.71184]}, "properties": {"year": 2025, "valeur_fonciere": 267000.0, "type_local": "Maison", "surface_reelle_bati": 101.0, "nombre_pieces_principales": 4.0, "adresse_nom_voie": "RUE DE L ECOLE", "price_per_sqm": 2643.5643564356437, "date_iso": "2025-07-19", "parcelle": "771040000C0411", "addr_num": "3"}}, {"type": "Feature", "geometry": {"type": "Point", "coordinates": [2.803656, 48.710935]}, "properties": {"year": 2025, "valeur_fonciere": 320000.0, "type_local": "Maison", "surface_reelle_bati": 125.0, "nombre_pieces_principales": 6.0, "adresse_nom_voie": "RUE DES VILLAS PATRICE", "price_per_sqm": 2560.0, "date_iso": "2025-08-29", "parcelle": "771040000X0039", "addr_num": "3"}}, {"type": "Feature", "geometry": {"type": "Point", "coordinates": [2.804612, 48.711949]}, "properties": {"year": 2025, "valeur_fonciere": 320000.0, "type_local": null, "surface_reelle_bati": null, "nombre_pieces_principales": null, "adresse_nom_voie": "LA RUE", "price_per_sqm": null, "date_iso": "2025-08-29", "parcelle": "771040000X0070", "addr_num": ""}}, {"type": "Feature", "geometry": {"type": "Point", "coordinates": [2.804789, 48.71191]}, "properties": {"year": 2025, "valeur_fonciere": 320000.0, "type_local": null, "surface_reelle_bati": null, "nombre_pieces_principales": null, "adresse_nom_voie": "LA RUE", "price_per_sqm": null, "date_iso": "2025-08-29", "parcelle": "771040000X0071", "addr_num": ""}}, {"type": "Feature", "geometry": {"type": "Point", "coordinates": [2.804569, 48.712474]}, "properties": {"year": 2025, "valeur_fonciere": 320000.0, "type_local": null, "surface_reelle_bati": null, "nombre_pieces_principales": null, "adresse_nom_voie": "LA RUE", "price_per_sqm": null, "date_iso": "2025-08-29", "parcelle": "771040000X0072", "addr_num": ""}}, {"type": "Feature", "geometry": {"type": "Point", "coordinates": [2.809488, 48.701123]}, "properties": {"year": 2025, "valeur_fonciere": 40000.0, "type_local": null, "surface_reelle_bati": null, "nombre_pieces_principales": null, "adresse_nom_voie": "LA BELLE EPINE", "price_per_sqm": null, "date_iso": "2025-09-18", "parcelle": "771040000D0091", "addr_num": ""}}, {"type": "Feature", "geometry": {"type": "Point", "coordinates": [2.810717, 48.700241]}, "properties": {"year": 2025, "valeur_fonciere": 40000.0, "type_local": null, "surface_reelle_bati": null, "nombre_pieces_principales": null, "adresse_nom_voie": "LA BELLE EPINE", "price_per_sqm": null, "date_iso": "2025-09-18", "parcelle": "771040000D0092", "addr_num": ""}}, {"type": "Feature", "geometry": {"type": "Point", "coordinates": [2.810794, 48.70084]}, "properties": {"year": 2025, "valeur_fonciere": 40000.0, "type_local": null, "surface_reelle_bati": null, "nombre_pieces_principales": null, "adresse_nom_voie": "LA BELLE EPINE", "price_per_sqm": null, "date_iso": "2025-09-18", "parcelle": "771040000D0093", "addr_num": ""}}, {"type": "Feature", "geometry": {"type": "Point", "coordinates": [2.811165, 48.701147]}, "properties": {"year": 2025, "valeur_fonciere": 40000.0, "type_local": null, "surface_reelle_bati": null, "nombre_pieces_principales": null, "adresse_nom_voie": "LA BELLE EPINE", "price_per_sqm": null, "date_iso": "2025-09-18", "parcelle": "771040000D0094", "addr_num": ""}}, {"type": "Feature", "geometry": {"type": "Point", "coordinates": [2.811029, 48.702187]}, "properties": {"year": 2025, "valeur_fonciere": 40000.0, "type_local": null, "surface_reelle_bati": null, "nombre_pieces_principales": null, "adresse_nom_voie": "LA BELLE EPINE", "price_per_sqm": null, "date_iso": "2025-09-18", "parcelle": "771040000D0095", "addr_num": ""}}, {"type": "Feature", "geometry": {"type": "Point", "coordinates": [2.812132, 48.702898]}, "properties": {"year": 2025, "valeur_fonciere": 155000.0, "type_local": null, "surface_reelle_bati": null, "nombre_pieces_principales": null, "adresse_nom_voie": "LE PETIT MESNIL", "price_per_sqm": null, "date_iso": "2025-10-01", "parcelle": "771040000W0156", "addr_num": ""}}, {"type": "Feature", "geometry": {"type": "Point", "coordinates": [2.812132, 48.702898]}, "properties": {"year": 2025, "valeur_fonciere": 155000.0, "type_local": null, "surface_reelle_bati": null, "nombre_pieces_principales": null, "adresse_nom_voie": "LE PETIT MESNIL", "price_per_sqm": null, "date_iso": "2025-10-01", "parcelle": "771040000W0156", "addr_num": ""}}, {"type": "Feature", "geometry": {"type": "Point", "coordinates": [2.809653, 48.709396]}, "properties": {"year": 2025, "valeur_fonciere": 320000.0, "type_local": "Maison", "surface_reelle_bati": 88.0, "nombre_pieces_principales": 5.0, "adresse_nom_voie": "RUE DU CHATELET", "price_per_sqm": 3636.3636363636365, "date_iso": "2025-10-14", "parcelle": "771040000W0058", "addr_num": "13"}}, {"type": "Feature", "geometry": {"type": "Point", "coordinates": [2.804445, 48.712825]}, "properties": {"year": 2025, "valeur_fonciere": 341200.0, "type_local": "Dépendance", "surface_reelle_bati": null, "nombre_pieces_principales": 0.0, "adresse_nom_voie": "RUE DES BOULAYES", "price_per_sqm": null, "date_iso": "2025-10-13", "parcelle": "771040000X0106", "addr_num": "1"}}, {"type": "Feature", "geometry": {"type": "Point", "coordinates": [2.804445, 48.712825]}, "properties": {"year": 2025, "valeur_fonciere": 341200.0, "type_local": "Maison", "surface_reelle_bati": 110.0, "nombre_pieces_principales": 5.0, "adresse_nom_voie": "RUE DES BOULAYES", "price_per_sqm": 3101.818181818182, "date_iso": "2025-10-13", "parcelle": "771040000X0106", "addr_num": "1"}}, {"type": "Feature", "geometry": {"type": "Point", "coordinates": [2.804445, 48.712825]}, "properties": {"year": 2025, "valeur_fonciere": 341200.0, "type_local": "Dépendance", "surface_reelle_bati": null, "nombre_pieces_principales": 0.0, "adresse_nom_voie": "RUE DES BOULAYES", "price_per_sqm": null, "date_iso": "2025-10-13", "parcelle": "771040000X0106", "addr_num": "1"}}]}