{"type": "FeatureCollection", "features": [{"type": "Feature", "geometry": {"type": "Polygon", "coordinates": [[[3.282089, 48.903067], [3.28294, 48.903577], [3.283432, 48.904099], [3.286185, 48.904002], [3.286912, 48.903985], [3.288922, 48.903909], [3.290827, 48.903051], [3.29132, 48.902813], [3.291438, 48.902736], [3.29171, 48.902462], [3.291904, 48.902209], [3.292035, 48.901949], [3.292234, 48.901468], [3.292387, 48.901422], [3.292954, 48.901382], [3.294105, 48.900467], [3.293847, 48.900181], [3.293799, 48.900026], [3.293799, 48.899648], [3.293633, 48.89945], [3.293563, 48.899311], [3.293574, 48.899092], [3.293398, 48.898834], [3.293224, 48.898311], [3.293215, 48.898106], [3.293148, 48.897753], [3.293174, 48.897618], [3.293064, 48.897445], [3.292897, 48.897057], [3.293619, 48.896384], [3.293577, 48.896318], [3.292658, 48.896531], [3.291656, 48.895157], [3.293374, 48.893928], [3.294388, 48.893209], [3.296739, 48.891486], [3.298688, 48.890048], [3.298978, 48.889841], [3.300181, 48.889346], [3.301739, 48.888722], [3.301916, 48.888743], [3.302125, 48.888929], [3.302386, 48.889277], [3.302579, 48.889382], [3.303086, 48.88946], [3.303216, 48.889433], [3.30337, 48.889474], [3.303619, 48.889756], [3.30426, 48.890295], [3.304806, 48.890646], [3.30501, 48.890705], [3.305296, 48.890901], [3.306135, 48.891226], [3.306386, 48.891274], [3.306673, 48.891252], [3.307259, 48.89144], [3.307808, 48.891568], [3.308191, 48.891775], [3.308576, 48.892034], [3.308887, 48.892125], [3.309007, 48.892054], [3.30943, 48.892306], [3.310034, 48.892568], [3.310325, 48.892829], [3.310594, 48.892977], [3.310873, 48.893001], [3.31099, 48.893081], [3.310835, 48.893149], [3.310668, 48.893281], [3.31071, 48.893337], [3.311291, 48.893619], [3.311617, 48.893617], [3.311894, 48.893933], [3.312136, 48.894043], [3.31235, 48.893982], [3.312411, 48.893884], [3.312599, 48.893913], [3.312911, 48.89403], [3.312925, 48.89409], [3.312828, 48.894444], [3.312838, 48.89454], [3.313038, 48.894654], [3.313436, 48.894744], [3.31373, 48.89467], [3.314051, 48.894703], [3.314285, 48.894493], [3.314683, 48.894253], [3.315071, 48.894127], [3.3154, 48.894043], [3.315597, 48.89383], [3.315768, 48.893762], [3.315876, 48.893496], [3.315987, 48.89337], [3.316224, 48.893388], [3.316538, 48.893485], [3.317081, 48.893463], [3.317193, 48.893427], [3.317376, 48.893248], [3.317595, 48.893156], [3.317789, 48.893207], [3.318154, 48.893198], [3.318247, 48.893045], [3.318684, 48.892655], [3.318834, 48.892471], [3.318874, 48.892259], [3.318846, 48.891714], [3.318527, 48.8912], [3.318412, 48.890934], [3.318426, 48.890829], [3.31874, 48.890148], [3.319336, 48.889494], [3.319512, 48.88917], [3.318773, 48.888942], [3.318878, 48.888314], [3.318972, 48.887181], [3.319032, 48.887105], [3.320285, 48.886016], [3.320456, 48.886067], [3.320676, 48.885918], [3.321117, 48.88549], [3.320604, 48.885224], [3.321787, 48.884035], [3.32077, 48.883452], [3.320624, 48.883397], [3.321815, 48.881826], [3.322193, 48.881318], [3.323156, 48.880694], [3.322201, 48.879361], [3.321873, 48.878973], [3.320937, 48.878887], [3.320518, 48.878481], [3.320549, 48.877718], [3.32055, 48.876986], [3.320159, 48.876053], [3.315776, 48.876254], [3.31542, 48.875266], [3.315322, 48.87486], [3.315365, 48.873866], [3.315256, 48.873887], [3.315032, 48.873791], [3.314694, 48.873595], [3.313864, 48.872665], [3.313663, 48.872371], [3.313356, 48.871875], [3.312667, 48.870726], [3.31298, 48.870634], [3.312585, 48.870192], [3.3115, 48.868815], [3.310957, 48.868038], [3.310361, 48.867074], [3.309799, 48.866188], [3.309589, 48.865918], [3.30943, 48.866005], [3.308892, 48.865516], [3.308301, 48.864925], [3.308342, 48.864829], [3.307584, 48.86414], [3.307538, 48.864119], [3.306976, 48.863624], [3.306922, 48.863528], [3.306918, 48.863285], [3.306583, 48.862748], [3.306417, 48.862563], [3.306121, 48.862584], [3.306145, 48.862506], [3.306549, 48.862424], [3.307006, 48.862426], [3.307199, 48.862308], [3.306514, 48.861306], [3.306186, 48.860839], [3.306334, 48.860742], [3.306079, 48.860521], [3.306166, 48.860472], [3.305846, 48.860369], [3.305143, 48.860227], [3.304795, 48.860338], [3.304388, 48.860019], [3.303995, 48.859858], [3.303896, 48.859924], [3.303439, 48.859687], [3.302683, 48.8588], [3.302222, 48.858274], [3.302041, 48.858041], [3.301509, 48.85746], [3.301548, 48.857359], [3.3014, 48.85728], [3.301462, 48.857217], [3.301306, 48.857062], [3.301325, 48.856987], [3.30122, 48.85681], [3.301078, 48.856689], [3.301053, 48.856489], [3.300841, 48.856511], [3.300752, 48.856308], [3.300565, 48.856134], [3.300239, 48.855986], [3.300054, 48.855808], [3.299648, 48.855259], [3.29951, 48.855027], [3.299325, 48.85458], [3.299123, 48.854264], [3.298746, 48.853884], [3.298583, 48.853674], [3.2982, 48.853094], [3.297758, 48.852488], [3.298867, 48.852023], [3.299268, 48.851843], [3.298491, 48.850949], [3.297974, 48.850265], [3.297714, 48.849853], [3.297273, 48.849311], [3.29707, 48.849117], [3.296755, 48.849341], [3.295868, 48.849643], [3.294839, 48.850039], [3.292606, 48.850866], [3.291955, 48.851129], [3.291448, 48.851392], [3.291237, 48.851484], [3.290168, 48.85186], [3.289659, 48.852015], [3.289175, 48.852134], [3.288225, 48.852396], [3.287554, 48.852566], [3.286648, 48.852856], [3.285235, 48.853345], [3.284745, 48.853528], [3.284325, 48.853751], [3.283705, 48.854158], [3.282792, 48.854807], [3.2816, 48.855635], [3.281317, 48.85569], [3.281293, 48.855842], [3.280858, 48.856188], [3.280403, 48.856522], [3.280019, 48.856781], [3.279862, 48.856848], [3.278577, 48.857302], [3.277998, 48.857562], [3.277753, 48.857694], [3.277317, 48.857812], [3.275365, 48.858379], [3.273839, 48.858815], [3.272595, 48.859157], [3.271637, 48.859393], [3.271226, 48.859473], [3.269778, 48.859723], [3.269113, 48.859829], [3.268164, 48.859961], [3.266651, 48.860117], [3.2663, 48.860122], [3.265063, 48.860113], [3.264132, 48.860168], [3.263214, 48.860277], [3.264174, 48.861659], [3.265274, 48.863234], [3.265235, 48.863246], [3.266174, 48.864494], [3.266734, 48.865143], [3.267094, 48.865508], [3.268005, 48.866341], [3.268628, 48.866856], [3.268911, 48.867075], [3.269135, 48.867376], [3.268968, 48.867485], [3.269391, 48.867876], [3.269426, 48.868096], [3.269717, 48.868454], [3.269926, 48.868377], [3.270253, 48.86869], [3.270084, 48.868752], [3.270285, 48.868986], [3.270672, 48.869333], [3.272153, 48.870727], [3.2723, 48.870847], [3.272753, 48.871274], [3.273161, 48.871689], [3.273424, 48.871868], [3.27358, 48.87203], [3.273485, 48.872081], [3.273494, 48.872241], [3.2738, 48.872333], [3.273888, 48.872492], [3.274131, 48.87254], [3.274216, 48.872651], [3.274363, 48.872703], [3.274683, 48.872902], [3.275175, 48.87332], [3.275241, 48.873489], [3.275631, 48.87343], [3.275825, 48.873543], [3.275988, 48.873862], [3.2761, 48.874017], [3.276205, 48.874252], [3.276776, 48.874727], [3.277013, 48.874967], [3.27714, 48.875133], [3.277262, 48.875412], [3.277708, 48.875649], [3.277945, 48.875898], [3.277923, 48.875989], [3.278112, 48.876157], [3.278317, 48.876485], [3.278346, 48.876585], [3.278518, 48.876732], [3.278759, 48.876875], [3.278924, 48.877076], [3.279131, 48.877257], [3.279253, 48.877495], [3.279262, 48.877637], [3.279339, 48.877757], [3.279544, 48.877856], [3.279627, 48.878022], [3.278852, 48.878159], [3.278034, 48.878496], [3.27771, 48.878767], [3.277207, 48.879277], [3.276893, 48.879721], [3.277243, 48.87991], [3.277239, 48.880541], [3.277195, 48.880686], [3.276951, 48.880899], [3.276686, 48.881059], [3.276648, 48.881139], [3.276679, 48.881516], [3.276635, 48.881602], [3.276476, 48.881649], [3.276195, 48.881625], [3.275911, 48.881693], [3.275725, 48.881892], [3.275581, 48.882207], [3.275357, 48.882524], [3.275328, 48.882609], [3.275343, 48.882864], [3.275284, 48.883178], [3.275215, 48.883262], [3.274736, 48.883624], [3.274198, 48.88377], [3.27404, 48.884], [3.274338, 48.884669], [3.274212, 48.884876], [3.274093, 48.884987], [3.273819, 48.885113], [3.273625, 48.885262], [3.273152, 48.885566], [3.273094, 48.885701], [3.273132, 48.886093], [3.272917, 48.886259], [3.272636, 48.88631], [3.272044, 48.886248], [3.271857, 48.886261], [3.271887, 48.886433], [3.271485, 48.886513], [3.271975, 48.887384], [3.271485, 48.887551], [3.271746, 48.887897], [3.271825, 48.888078], [3.272061, 48.888441], [3.272297, 48.888464], [3.272471, 48.88884], [3.272487, 48.888973], [3.272737, 48.889316], [3.272746, 48.889369], [3.272985, 48.889573], [3.273138, 48.889604], [3.273222, 48.889791], [3.27313, 48.889894], [3.273151, 48.890037], [3.273247, 48.890109], [3.273313, 48.890334], [3.27457, 48.890138], [3.274832, 48.890505], [3.275031, 48.891049], [3.275219, 48.891371], [3.275333, 48.891689], [3.275417, 48.891763], [3.275578, 48.892099], [3.27581, 48.892525], [3.276166, 48.893052], [3.27643, 48.893552], [3.276698, 48.893926], [3.277127, 48.893763], [3.27752, 48.893557], [3.277895, 48.894254], [3.278361, 48.895296], [3.278519, 48.895626], [3.278668, 48.896108], [3.278715, 48.896449], [3.27855, 48.896956], [3.278416, 48.897448], [3.278424, 48.897844], [3.278696, 48.898718], [3.278846, 48.899011], [3.280031, 48.900589], [3.280638, 48.901418], [3.280726, 48.9015], [3.282623, 48.902061], [3.282089, 48.903067]]]}, "properties": {"code_iris": "773980000", "nom_iris": "Sablonnières (commune entière)", "type_iris": "Z", "lat": 48.8766, "lng": 3.2932, "dvf_sales_total": 380, "dvf_sales_appt": 0, "dvf_sales_maison": 0, "dvf_median_price": 129000.0, "dvf_median_ppsqm": 1875.0, "dvf_by_year": "[{\"year\": 2021, \"sales\": 92, \"median_price\": 165000.0}, {\"year\": 2022, \"sales\": 71, \"median_price\": 146893.0}, {\"year\": 2023, \"sales\": 73, \"median_price\": 164000.0}, {\"year\": 2024, \"sales\": 49, \"median_price\": 41535.0}, {\"year\": 2025, \"sales\": 95, \"median_price\": 40000.0}]", "population": 791, "n_log": null, "n_rp": null, "pct_proprio": null, "pct_hlm": null, "pct_appart": null, "pct_cadres": null, "pct_bac5p": null, "pct_etrangers": null, "pct_0_14": null, "pct_65p": null, "bpe_total": null, "bpe_commerces": null, "bpe_enseignement": null, "bpe_sante": null, "dpe": null, "attractivity_score": null, "rank_attractivity_score": null, "rank_total_attractivity_score": 1, "commune_avg": null, "is_stub": true}}]}