{"type": "FeatureCollection", "features": [{"type": "Feature", "geometry": {"type": "Polygon", "coordinates": [[[3.127254, 48.410032], [3.127057, 48.409793], [3.127019, 48.409642], [3.127087, 48.409305], [3.126988, 48.408909], [3.126725, 48.408796], [3.126262, 48.408714], [3.125729, 48.408729], [3.12539, 48.408709], [3.125067, 48.408661], [3.12483, 48.408596], [3.124597, 48.408409], [3.124478, 48.408227], [3.124392, 48.407886], [3.124425, 48.407574], [3.124304, 48.407601], [3.124404, 48.407081], [3.124375, 48.406937], [3.12408, 48.406554], [3.123749, 48.406301], [3.123361, 48.406129], [3.12305, 48.40591], [3.122817, 48.4059], [3.122354, 48.406108], [3.122131, 48.406303], [3.121844, 48.40623], [3.121713, 48.406149], [3.12144, 48.40608], [3.120987, 48.406037], [3.120635, 48.405903], [3.120504, 48.405785], [3.1202, 48.405671], [3.120059, 48.40566], [3.119388, 48.405695], [3.119123, 48.405691], [3.118669, 48.405638], [3.11846, 48.405588], [3.117587, 48.405294], [3.117371, 48.404744], [3.117237, 48.404581], [3.116274, 48.404439], [3.115958, 48.404366], [3.115395, 48.404099], [3.114931, 48.404113], [3.114697, 48.404012], [3.114426, 48.40383], [3.114777, 48.40363], [3.115593, 48.403287], [3.115534, 48.403073], [3.115534, 48.40267], [3.115123, 48.402699], [3.114739, 48.402291], [3.114533, 48.402047], [3.114062, 48.402233], [3.11394, 48.402034], [3.113812, 48.401746], [3.113546, 48.40094], [3.11341, 48.400735], [3.113338, 48.400042], [3.11302, 48.399929], [3.112705, 48.39973], [3.112364, 48.399543], [3.112105, 48.399361], [3.112019, 48.399218], [3.112038, 48.399139], [3.11168, 48.398971], [3.111405, 48.398717], [3.110674, 48.398741], [3.110048, 48.398722], [3.110001, 48.398878], [3.109654, 48.39871], [3.109416, 48.398697], [3.109921, 48.398407], [3.109634, 48.398037], [3.109391, 48.397602], [3.108879, 48.397678], [3.108412, 48.397787], [3.107846, 48.397961], [3.107351, 48.398138], [3.106817, 48.398289], [3.106481, 48.398355], [3.105908, 48.398408], [3.105909, 48.398732], [3.106322, 48.401143], [3.105785, 48.401131], [3.102149, 48.400882], [3.101432, 48.400826], [3.099364, 48.40073], [3.097767, 48.400803], [3.09628, 48.400885], [3.095518, 48.400937], [3.091672, 48.401247], [3.086948, 48.401626], [3.08539, 48.401626], [3.085007, 48.401649], [3.083631, 48.40177], [3.082995, 48.401968], [3.083209, 48.402191], [3.083218, 48.402391], [3.083333, 48.402629], [3.083121, 48.402942], [3.082915, 48.40313], [3.082786, 48.403111], [3.082678, 48.403257], [3.082548, 48.403528], [3.082471, 48.40387], [3.082513, 48.403947], [3.081981, 48.403877], [3.08115, 48.40382], [3.081004, 48.404003], [3.080612, 48.404037], [3.080019, 48.404883], [3.079849, 48.405146], [3.079321, 48.405783], [3.078998, 48.406203], [3.078834, 48.406333], [3.078452, 48.406887], [3.078343, 48.407088], [3.078037, 48.407457], [3.077625, 48.40784], [3.077502, 48.407916], [3.077138, 48.408057], [3.077015, 48.408139], [3.076671, 48.408507], [3.076368, 48.409284], [3.076294, 48.409581], [3.07694, 48.410341], [3.077171, 48.410763], [3.077087, 48.411129], [3.077223, 48.411166], [3.077295, 48.411363], [3.077277, 48.411653], [3.077134, 48.412272], [3.077017, 48.412566], [3.076535, 48.413649], [3.076421, 48.413827], [3.075865, 48.4149], [3.075505, 48.415539], [3.075273, 48.415892], [3.074729, 48.416684], [3.074447, 48.417061], [3.074326, 48.417135], [3.073833, 48.417167], [3.073716, 48.417201], [3.073662, 48.417376], [3.073737, 48.417795], [3.073834, 48.41805], [3.074051, 48.418358], [3.074124, 48.418537], [3.074131, 48.418778], [3.07408, 48.418914], [3.073808, 48.419441], [3.073579, 48.419733], [3.073051, 48.420235], [3.072923, 48.42045], [3.072714, 48.420903], [3.072218, 48.421109], [3.071633, 48.421252], [3.071122, 48.421411], [3.070851, 48.421588], [3.070088, 48.421932], [3.069907, 48.42204], [3.069781, 48.422166], [3.069692, 48.422334], [3.069608, 48.422744], [3.069535, 48.422921], [3.069138, 48.42341], [3.068648, 48.423793], [3.068124, 48.42403], [3.067753, 48.424281], [3.067564, 48.424527], [3.06727, 48.425229], [3.066738, 48.426824], [3.06898, 48.427624], [3.068932, 48.427925], [3.068925, 48.428478], [3.069661, 48.428905], [3.069678, 48.428958], [3.0695, 48.429116], [3.069223, 48.429444], [3.068859, 48.429749], [3.068359, 48.430115], [3.068154, 48.430244], [3.068319, 48.430368], [3.069005, 48.431397], [3.069708, 48.4322], [3.069895, 48.432147], [3.070228, 48.43272], [3.07076, 48.43333], [3.071461, 48.433933], [3.071847, 48.434525], [3.072117, 48.434834], [3.072554, 48.435512], [3.072816, 48.435863], [3.073375, 48.436522], [3.073424, 48.436543], [3.074078, 48.437318], [3.074473, 48.437896], [3.074633, 48.437913], [3.07612, 48.439411], [3.077295, 48.440365], [3.077187, 48.440415], [3.079246, 48.440693], [3.079292, 48.440203], [3.080492, 48.439343], [3.080259, 48.440907], [3.080125, 48.441332], [3.080764, 48.441306], [3.081493, 48.441221], [3.082426, 48.441082], [3.082834, 48.441049], [3.083171, 48.441081], [3.08552, 48.441437], [3.086895, 48.441524], [3.087567, 48.441542], [3.088315, 48.441537], [3.088907, 48.441547], [3.08909, 48.441581], [3.089594, 48.441616], [3.090346, 48.441695], [3.092212, 48.441902], [3.093362, 48.441985], [3.09409, 48.441923], [3.0947, 48.441786], [3.094976, 48.441688], [3.095711, 48.441603], [3.096919, 48.441402], [3.097334, 48.441341], [3.099342, 48.440987], [3.099874, 48.440926], [3.100506, 48.44083], [3.101211, 48.440631], [3.102785, 48.440128], [3.103319, 48.439941], [3.103813, 48.439749], [3.105076, 48.439436], [3.105677, 48.439383], [3.106142, 48.439415], [3.106345, 48.43931], [3.106986, 48.438207], [3.106842, 48.437776], [3.10702, 48.437337], [3.107021, 48.437268], [3.107356, 48.437125], [3.107657, 48.436518], [3.107929, 48.43594], [3.108217, 48.435371], [3.10796, 48.435299], [3.108573, 48.434261], [3.108877, 48.433497], [3.1092, 48.433075], [3.109576, 48.432747], [3.10795, 48.432262], [3.10804, 48.432123], [3.106271, 48.431599], [3.105341, 48.431343], [3.105398, 48.431232], [3.105985, 48.430544], [3.10648, 48.429929], [3.107105, 48.429064], [3.107117, 48.428905], [3.107899, 48.427892], [3.108336, 48.427302], [3.110618, 48.428069], [3.110904, 48.427758], [3.111481, 48.426887], [3.10996, 48.426174], [3.108781, 48.425631], [3.10979, 48.424529], [3.109954, 48.424572], [3.110595, 48.423659], [3.110958, 48.422804], [3.111402, 48.422841], [3.111624, 48.422499], [3.113566, 48.420323], [3.113853, 48.419934], [3.114407, 48.419391], [3.11446, 48.419308], [3.114836, 48.41901], [3.115226, 48.418771], [3.115697, 48.418388], [3.115959, 48.418213], [3.116083, 48.418084], [3.11652, 48.417973], [3.116927, 48.417912], [3.117224, 48.417811], [3.117836, 48.417479], [3.118972, 48.416919], [3.119306, 48.41681], [3.120623, 48.416293], [3.121749, 48.415591], [3.122608, 48.415002], [3.123225, 48.414406], [3.12349, 48.414048], [3.123857, 48.413729], [3.124595, 48.412991], [3.124939, 48.412688], [3.125923, 48.411926], [3.127254, 48.410032]]]}, "properties": {"code_iris": "771010000", "nom_iris": "Châtenay-sur-Seine (commune entière)", "type_iris": "Z", "lat": 48.4198, "lng": 3.097, "dvf_sales_total": 632, "dvf_sales_appt": 0, "dvf_sales_maison": 0, "dvf_median_price": 71733.15, "dvf_median_ppsqm": 2000.0, "dvf_by_year": "[{\"year\": 2021, \"sales\": 84, \"median_price\": 136000.0}, {\"year\": 2022, \"sales\": 118, \"median_price\": 22336.7}, {\"year\": 2023, \"sales\": 185, \"median_price\": 44247.6}, {\"year\": 2024, \"sales\": 137, \"median_price\": 71733.15}, {\"year\": 2025, \"sales\": 108, \"median_price\": 225000.0}]", "population": 1049, "n_log": null, "n_rp": null, "pct_proprio": null, "pct_hlm": null, "pct_appart": null, "pct_cadres": null, "pct_bac5p": null, "pct_etrangers": null, "pct_0_14": null, "pct_65p": null, "bpe_total": null, "bpe_commerces": null, "bpe_enseignement": null, "bpe_sante": null, "dpe": null, "attractivity_score": null, "rank_attractivity_score": null, "rank_total_attractivity_score": 1, "commune_avg": null, "is_stub": true}}]}