{"type": "FeatureCollection", "features": [{"type": "Feature", "geometry": {"type": "Polygon", "coordinates": [[[2.747406, 48.483293], [2.74783, 48.483271], [2.747906, 48.483229], [2.748167, 48.483224], [2.749817, 48.483391], [2.75017, 48.483452], [2.750539, 48.483483], [2.74866, 48.481604], [2.74954, 48.481323], [2.752631, 48.48042], [2.752746, 48.4804], [2.754758, 48.47982], [2.756441, 48.481914], [2.757336, 48.483033], [2.758827, 48.482445], [2.760179, 48.481761], [2.760436, 48.481594], [2.761011, 48.481335], [2.761582, 48.48092], [2.762631, 48.480073], [2.763602, 48.47921], [2.764072, 48.478826], [2.764432, 48.478464], [2.76573, 48.477073], [2.766546, 48.475937], [2.766071, 48.475822], [2.764556, 48.475266], [2.765694, 48.473295], [2.764638, 48.472984], [2.763151, 48.472056], [2.762813, 48.471827], [2.763014, 48.471255], [2.763206, 48.470786], [2.763257, 48.470496], [2.763396, 48.469377], [2.763505, 48.468221], [2.763783, 48.465966], [2.762031, 48.46586], [2.761177, 48.465813], [2.760345, 48.46554], [2.759928, 48.465425], [2.757573, 48.464701], [2.756386, 48.464407], [2.756169, 48.464336], [2.754421, 48.463894], [2.753986, 48.464], [2.752154, 48.464789], [2.747499, 48.466744], [2.746771, 48.467033], [2.746526, 48.469719], [2.743903, 48.469802], [2.742445, 48.468122], [2.742171, 48.467813], [2.742504, 48.46762], [2.741167, 48.466504], [2.739884, 48.465652], [2.739814, 48.465632], [2.739977, 48.465255], [2.740294, 48.464892], [2.741141, 48.464277], [2.740771, 48.464068], [2.740152, 48.463777], [2.74021, 48.463335], [2.740208, 48.462604], [2.74014, 48.462173], [2.74012, 48.461871], [2.740009, 48.461159], [2.740111, 48.461055], [2.740606, 48.460807], [2.740692, 48.460644], [2.740503, 48.46042], [2.740242, 48.460283], [2.739821, 48.460106], [2.739573, 48.459962], [2.73925, 48.459714], [2.738867, 48.459464], [2.738669, 48.459281], [2.738276, 48.458864], [2.73789, 48.458515], [2.737752, 48.458341], [2.737706, 48.458197], [2.737699, 48.457976], [2.737206, 48.454348], [2.737007, 48.453063], [2.736974, 48.452581], [2.736809, 48.451484], [2.737008, 48.451367], [2.738151, 48.450816], [2.738597, 48.450559], [2.739138, 48.450278], [2.739712, 48.449997], [2.740649, 48.449488], [2.741653, 48.448992], [2.742183, 48.448781], [2.742297, 48.44876], [2.742399, 48.448645], [2.742443, 48.448207], [2.742322, 48.447757], [2.742123, 48.446901], [2.741961, 48.446414], [2.74219, 48.446175], [2.742519, 48.446165], [2.744015, 48.446154], [2.743869, 48.445753], [2.743697, 48.445368], [2.743258, 48.444171], [2.743043, 48.443534], [2.742646, 48.442515], [2.742485, 48.442021], [2.741603, 48.43966], [2.740978, 48.437834], [2.740958, 48.437823], [2.740719, 48.437188], [2.742095, 48.436937], [2.742595, 48.436824], [2.74233, 48.436226], [2.742088, 48.436253], [2.742032, 48.436107], [2.742106, 48.43591], [2.742152, 48.435294], [2.742777, 48.435233], [2.742952, 48.434959], [2.742922, 48.434829], [2.742712, 48.43484], [2.742527, 48.434246], [2.742236, 48.433772], [2.742033, 48.433401], [2.741858, 48.433131], [2.742263, 48.432996], [2.742274, 48.432251], [2.74227, 48.431618], [2.742172, 48.430082], [2.74222, 48.429858], [2.742225, 48.429499], [2.742187, 48.428944], [2.742126, 48.427142], [2.742077, 48.426952], [2.741716, 48.426556], [2.74153, 48.426453], [2.740726, 48.426126], [2.740455, 48.426034], [2.740493, 48.425953], [2.740178, 48.425943], [2.73975, 48.425894], [2.739536, 48.426053], [2.739351, 48.426122], [2.739019, 48.426107], [2.738785, 48.426063], [2.738497, 48.425854], [2.738207, 48.425728], [2.738098, 48.425619], [2.737828, 48.425837], [2.737466, 48.425713], [2.73684, 48.425377], [2.736215, 48.424888], [2.735371, 48.424407], [2.735156, 48.424201], [2.735107, 48.424048], [2.734896, 48.42409], [2.734639, 48.424381], [2.734371, 48.424397], [2.73346, 48.424417], [2.732335, 48.423313], [2.73162, 48.42269], [2.731072, 48.422186], [2.730761, 48.421876], [2.730186, 48.421354], [2.729723, 48.420978], [2.728559, 48.419935], [2.728274, 48.419668], [2.727658, 48.419028], [2.727502, 48.418816], [2.726893, 48.417917], [2.726867, 48.417833], [2.726929, 48.417494], [2.726671, 48.417467], [2.725852, 48.417198], [2.72552, 48.417124], [2.725143, 48.417154], [2.724497, 48.417136], [2.723901, 48.417134], [2.723518, 48.417046], [2.723042, 48.41687], [2.722734, 48.416795], [2.72233, 48.416802], [2.721781, 48.416487], [2.720831, 48.416201], [2.720084, 48.415912], [2.719257, 48.415634], [2.718665, 48.415472], [2.718231, 48.415414], [2.717206, 48.415334], [2.716116, 48.415189], [2.715384, 48.414946], [2.714579, 48.414561], [2.713755, 48.414018], [2.71314, 48.413702], [2.712929, 48.413579], [2.713047, 48.413397], [2.713249, 48.413294], [2.713596, 48.413197], [2.714488, 48.413215], [2.715233, 48.412733], [2.716365, 48.412402], [2.717327, 48.412131], [2.718103, 48.411145], [2.719043, 48.409906], [2.719842, 48.408836], [2.720117, 48.408562], [2.720162, 48.408437], [2.720706, 48.407699], [2.721255, 48.406993], [2.72112, 48.40691], [2.720378, 48.406644], [2.719809, 48.406452], [2.719869, 48.40606], [2.717235, 48.405009], [2.71763, 48.404427], [2.717551, 48.404377], [2.717801, 48.404128], [2.718795, 48.401689], [2.719116, 48.400936], [2.718895, 48.400941], [2.719252, 48.399936], [2.72071, 48.400223], [2.721898, 48.399364], [2.722593, 48.398877], [2.724613, 48.398694], [2.723399, 48.400098], [2.723527, 48.400131], [2.72675, 48.40127], [2.726504, 48.401572], [2.72909, 48.40264], [2.729548, 48.402345], [2.730206, 48.402665], [2.72942, 48.403429], [2.729036, 48.40384], [2.729202, 48.403902], [2.729131, 48.404063], [2.728528, 48.404996], [2.728023, 48.405873], [2.728371, 48.406131], [2.729517, 48.407032], [2.731064, 48.40826], [2.732252, 48.407855], [2.73298, 48.407641], [2.734886, 48.407028], [2.735244, 48.406934], [2.735727, 48.407925], [2.735808, 48.408015], [2.736121, 48.408592], [2.736367, 48.409135], [2.736669, 48.409511], [2.737805, 48.41022], [2.738882, 48.410776], [2.73924, 48.41094], [2.73984, 48.411165], [2.741497, 48.411771], [2.74279, 48.412325], [2.744784, 48.410477], [2.745865, 48.409527], [2.746876, 48.408812], [2.749038, 48.407368], [2.751904, 48.405477], [2.752352, 48.405804], [2.754978, 48.40775], [2.755112, 48.407685], [2.757092, 48.409643], [2.75723, 48.409622], [2.758125, 48.409565], [2.759521, 48.409542], [2.760998, 48.409494], [2.76187, 48.409495], [2.76252, 48.409486], [2.763964, 48.409427], [2.764667, 48.409416], [2.766032, 48.409328], [2.766126, 48.409313], [2.767483, 48.409217], [2.767608, 48.408785], [2.767568, 48.408058], [2.768268, 48.407974], [2.768985, 48.407838], [2.769535, 48.40783], [2.771465, 48.40797], [2.77245, 48.408049], [2.772834, 48.408181], [2.773867, 48.408705], [2.773926, 48.408544], [2.774143, 48.407589], [2.774967, 48.407635], [2.77497, 48.407413], [2.775048, 48.406293], [2.775222, 48.406271], [2.776969, 48.406812], [2.778257, 48.407202], [2.778421, 48.406817], [2.778836, 48.40602], [2.779343, 48.406076], [2.779603, 48.405972], [2.779293, 48.405723], [2.778903, 48.405548], [2.778971, 48.405466], [2.778301, 48.405178], [2.77657, 48.404402], [2.776038, 48.404154], [2.774639, 48.403876], [2.773995, 48.403775], [2.772932, 48.403576], [2.772305, 48.403471], [2.77221, 48.403418], [2.772278, 48.40315], [2.772375, 48.402542], [2.772668, 48.402039], [2.773448, 48.400977], [2.774299, 48.39975], [2.774749, 48.399628], [2.776598, 48.399064], [2.776872, 48.399008], [2.77805, 48.399131], [2.779158, 48.39926], [2.779082, 48.398673], [2.778988, 48.398115], [2.778925, 48.397485], [2.778879, 48.397369], [2.778673, 48.396306], [2.778491, 48.395465], [2.778689, 48.395474], [2.778635, 48.395357], [2.778549, 48.394973], [2.778529, 48.394277], [2.778434, 48.3941], [2.778261, 48.393963], [2.777888, 48.393751], [2.777451, 48.393639], [2.777622, 48.392858], [2.777683, 48.392825], [2.777796, 48.392513], [2.777922, 48.391887], [2.778103, 48.391188], [2.778136, 48.390662], [2.778104, 48.390024], [2.778121, 48.389666], [2.778125, 48.389128], [2.778044, 48.388717], [2.777937, 48.388537], [2.777516, 48.388047], [2.777222, 48.387338], [2.777147, 48.387011], [2.777215, 48.386616], [2.777452, 48.385922], [2.777612, 48.385513], [2.777781, 48.384608], [2.777969, 48.38386], [2.778409, 48.382754], [2.778864, 48.381721], [2.779572, 48.380322], [2.780192, 48.379652], [2.780707, 48.37929], [2.781658, 48.378576], [2.781966, 48.378328], [2.78183, 48.378107], [2.781932, 48.378068], [2.782829, 48.377171], [2.783341, 48.376792], [2.784585, 48.375831], [2.785528, 48.375151], [2.787066, 48.374063], [2.787865, 48.373477], [2.787675, 48.37336], [2.789942, 48.371783], [2.790591, 48.371344], [2.79147, 48.370847], [2.791895, 48.370882], [2.792002, 48.370941], [2.792959, 48.371259], [2.793595, 48.371398], [2.794692, 48.371597], [2.794966, 48.371682], [2.795109, 48.371564], [2.795961, 48.371006], [2.796762, 48.370587], [2.797253, 48.370085], [2.798351, 48.369093], [2.798988, 48.368492], [2.799734, 48.367824], [2.799956, 48.367604], [2.801285, 48.366401], [2.801433, 48.366215], [2.8015, 48.366012], [2.801607, 48.365556], [2.801618, 48.365422], [2.801725, 48.364939], [2.801776, 48.364618], [2.801851, 48.363923], [2.801915, 48.363602], [2.801926, 48.36325], [2.802145, 48.361397], [2.801515, 48.360219], [2.801009, 48.359313], [2.801153, 48.359238], [2.800978, 48.359118], [2.800681, 48.35897], [2.800525, 48.358795], [2.80021, 48.358621], [2.799969, 48.358412], [2.799631, 48.35819], [2.79936, 48.357906], [2.799425, 48.357794], [2.799452, 48.357597], [2.799419, 48.35749], [2.799422, 48.357185], [2.799394, 48.355584], [2.799357, 48.355058], [2.799246, 48.35451], [2.799214, 48.354216], [2.799206, 48.353639], [2.799231, 48.35342], [2.799363, 48.35303], [2.799548, 48.352608], [2.799636, 48.352291], [2.79942, 48.352068], [2.799232, 48.351774], [2.798918, 48.351471], [2.798081, 48.350817], [2.797379, 48.350246], [2.796613, 48.349639], [2.796152, 48.349245], [2.79541, 48.348706], [2.794731, 48.348116], [2.794026, 48.347551], [2.793673, 48.347268], [2.792109, 48.347357], [2.78971, 48.347474], [2.788296, 48.347568], [2.786003, 48.347706], [2.785345, 48.347732], [2.785148, 48.347772], [2.785017, 48.347732], [2.784863, 48.347791], [2.78427, 48.347815], [2.783358, 48.34788], [2.783013, 48.34789], [2.782719, 48.347938], [2.781386, 48.34872], [2.780246, 48.349416], [2.779901, 48.349605], [2.779493, 48.349968], [2.778427, 48.350521], [2.778265, 48.350474], [2.776898, 48.350021], [2.77658, 48.349863], [2.776102, 48.349721], [2.775245, 48.349397], [2.77478, 48.349243], [2.774289, 48.349054], [2.774136, 48.348972], [2.773657, 48.348803], [2.772361, 48.348273], [2.77077, 48.347678], [2.770095, 48.347453], [2.769442, 48.347281], [2.769282, 48.347442], [2.76825, 48.348282], [2.767749, 48.348733], [2.76633, 48.348688], [2.765952, 48.348701], [2.763307, 48.348708], [2.76278, 48.348696], [2.762516, 48.348708], [2.761295, 48.348828], [2.760245, 48.348917], [2.759417, 48.349011], [2.758759, 48.349126], [2.75736, 48.349251], [2.756568, 48.349427], [2.756135, 48.349502], [2.755164, 48.349552], [2.754171, 48.349628], [2.752168, 48.349748], [2.751296, 48.349807], [2.750114, 48.349947], [2.749503, 48.35001], [2.748352, 48.350084], [2.746576, 48.350267], [2.745549, 48.350438], [2.74474, 48.350592], [2.744525, 48.350622], [2.742534, 48.350993], [2.74141, 48.351167], [2.739748, 48.351435], [2.739605, 48.351444], [2.738556, 48.351269], [2.737953, 48.351179], [2.736645, 48.350954], [2.736231, 48.350854], [2.735872, 48.35083], [2.735247, 48.350833], [2.734617, 48.350801], [2.733071, 48.350675], [2.73257, 48.350649], [2.731793, 48.350632], [2.730154, 48.350709], [2.729564, 48.350745], [2.728716, 48.350812], [2.727719, 48.350937], [2.726509, 48.351206], [2.724886, 48.351531], [2.724295, 48.351642], [2.722819, 48.352046], [2.72263, 48.35213], [2.721685, 48.352431], [2.721166, 48.352583], [2.720239, 48.352877], [2.718931, 48.353108], [2.718338, 48.353206], [2.718285, 48.353237], [2.71767, 48.353379], [2.717039, 48.353488], [2.716042, 48.35363], [2.716039, 48.353174], [2.715016, 48.353299], [2.714506, 48.353351], [2.713287, 48.353428], [2.712832, 48.353322], [2.712461, 48.353274], [2.711832, 48.353334], [2.711826, 48.352903], [2.71245, 48.352704], [2.712502, 48.352412], [2.712454, 48.352077], [2.712413, 48.352044], [2.711929, 48.351305], [2.711379, 48.35054], [2.71086, 48.349753], [2.71021, 48.348884], [2.709856, 48.348389], [2.709558, 48.348562], [2.709319, 48.348385], [2.709724, 48.348161], [2.709646, 48.348082], [2.708236, 48.346935], [2.70771, 48.34719], [2.707444, 48.346986], [2.707053, 48.347108], [2.706831, 48.346951], [2.707466, 48.346648], [2.70718, 48.346516], [2.706673, 48.346195], [2.706424, 48.346072], [2.706194, 48.346209], [2.705002, 48.346273], [2.704825, 48.346174], [2.704263, 48.346183], [2.703177, 48.346254], [2.702642, 48.346377], [2.702346, 48.346588], [2.702132, 48.346624], [2.702049, 48.347004], [2.702186, 48.347606], [2.701573, 48.347822], [2.700753, 48.347708], [2.700392, 48.347608], [2.699887, 48.3474], [2.699597, 48.34738], [2.699047, 48.347456], [2.698876, 48.347458], [2.698765, 48.347545], [2.698535, 48.347805], [2.697421, 48.347458], [2.697003, 48.347112], [2.696796, 48.346974], [2.695997, 48.346231], [2.695128, 48.346205], [2.694919, 48.346188], [2.694661, 48.346], [2.694382, 48.34602], [2.693589, 48.346035], [2.691808, 48.34599], [2.691006, 48.345952], [2.690588, 48.345945], [2.690096, 48.345847], [2.689472, 48.345784], [2.688982, 48.345753], [2.688149, 48.345725], [2.687762, 48.345731], [2.687152, 48.34569], [2.686952, 48.345717], [2.68604, 48.345647], [2.685036, 48.345625], [2.684413, 48.345629], [2.683448, 48.345552], [2.683255, 48.345573], [2.682468, 48.345512], [2.682235, 48.34547], [2.681834, 48.345472], [2.681593, 48.345506], [2.680456, 48.345515], [2.679763, 48.345394], [2.678919, 48.345311], [2.677934, 48.345245], [2.677584, 48.345244], [2.677105, 48.345327], [2.676454, 48.345304], [2.676361, 48.34525], [2.675178, 48.344988], [2.674411, 48.344897], [2.673724, 48.344886], [2.673404, 48.344904], [2.67196, 48.34492], [2.671457, 48.34494], [2.671148, 48.344994], [2.670308, 48.345251], [2.669649, 48.345528], [2.668986, 48.345808], [2.668372, 48.345988], [2.668266, 48.346119], [2.668117, 48.346196], [2.667888, 48.346424], [2.667748, 48.346705], [2.667462, 48.346968], [2.667247, 48.347207], [2.667106, 48.347465], [2.666622, 48.348022], [2.666064, 48.348527], [2.665733, 48.348868], [2.665205, 48.349312], [2.664645, 48.349728], [2.664525, 48.349859], [2.664508, 48.350014], [2.664389, 48.350114], [2.663735, 48.350561], [2.663166, 48.350769], [2.662835, 48.350916], [2.661973, 48.351263], [2.661054, 48.351666], [2.660308, 48.352004], [2.659933, 48.352658], [2.659102, 48.353152], [2.658511, 48.353079], [2.657544, 48.352978], [2.657342, 48.352944], [2.65613, 48.352451], [2.655173, 48.352051], [2.653951, 48.351483], [2.653423, 48.351392], [2.652134, 48.351209], [2.651689, 48.351126], [2.651258, 48.351142], [2.651053, 48.351176], [2.650368, 48.351342], [2.649886, 48.351426], [2.648461, 48.35156], [2.647974, 48.351591], [2.647207, 48.351605], [2.647007, 48.351626], [2.64603, 48.352576], [2.64613, 48.353287], [2.646222, 48.35355], [2.645735, 48.353687], [2.644631, 48.354023], [2.644243, 48.354184], [2.643412, 48.354456], [2.642947, 48.354517], [2.642069, 48.35461], [2.641203, 48.354715], [2.640089, 48.354861], [2.639797, 48.354887], [2.639272, 48.354851], [2.638314, 48.354718], [2.637821, 48.354685], [2.637088, 48.35466], [2.636728, 48.354607], [2.636019, 48.354467], [2.634549, 48.354243], [2.634128, 48.354141], [2.632691, 48.353734], [2.631339, 48.353283], [2.631052, 48.353213], [2.630624, 48.353181], [2.63022, 48.353194], [2.628477, 48.353142], [2.628205, 48.353126], [2.627894, 48.35302], [2.627459, 48.352795], [2.626126, 48.352258], [2.625577, 48.351966], [2.625129, 48.351668], [2.623619, 48.35074], [2.623485, 48.350615], [2.623439, 48.350485], [2.623245, 48.350443], [2.622041, 48.350462], [2.621138, 48.350614], [2.620535, 48.350697], [2.61958, 48.350703], [2.619444, 48.350694], [2.618949, 48.350598], [2.618528, 48.350431], [2.618279, 48.350245], [2.61807, 48.35042], [2.61735, 48.350843], [2.61554, 48.351563], [2.614794, 48.351867], [2.615174, 48.352684], [2.615148, 48.352838], [2.613515, 48.353718], [2.612292, 48.354418], [2.61173, 48.354959], [2.611323, 48.355269], [2.608735, 48.355498], [2.608758, 48.355699], [2.608857, 48.355983], [2.608838, 48.356484], [2.608669, 48.356582], [2.608278, 48.356688], [2.607384, 48.356876], [2.606362, 48.357108], [2.606039, 48.35715], [2.605351, 48.357273], [2.604858, 48.357346], [2.604273, 48.355954], [2.604242, 48.355751], [2.603974, 48.355291], [2.60387, 48.355068], [2.603815, 48.354856], [2.603714, 48.354676], [2.603477, 48.354396], [2.602931, 48.353908], [2.602688, 48.353747], [2.60254, 48.353585], [2.601872, 48.352504], [2.601634, 48.352311], [2.601347, 48.352137], [2.600183, 48.351492], [2.599981, 48.351348], [2.599901, 48.351127], [2.599772, 48.350957], [2.598326, 48.35089], [2.597406, 48.3509], [2.597318, 48.350863], [2.59717, 48.350372], [2.597073, 48.350263], [2.596826, 48.35016], [2.596565, 48.350154], [2.596217, 48.350205], [2.596098, 48.350259], [2.595757, 48.350526], [2.595348, 48.350575], [2.593795, 48.350828], [2.592265, 48.351127], [2.592037, 48.351187], [2.591646, 48.351358], [2.59119, 48.351699], [2.59066, 48.352169], [2.590155, 48.352543], [2.589983, 48.352713], [2.589908, 48.352839], [2.589876, 48.35302], [2.589896, 48.35338], [2.589899, 48.354203], [2.589459, 48.356872], [2.589277, 48.357898], [2.589263, 48.358131], [2.589311, 48.359528], [2.589357, 48.359792], [2.589354, 48.36023], [2.589314, 48.360679], [2.589311, 48.360989], [2.589271, 48.361305], [2.589103, 48.361741], [2.588848, 48.362179], [2.588673, 48.362524], [2.588521, 48.362661], [2.58789, 48.363007], [2.587245, 48.363291], [2.587049, 48.363557], [2.586813, 48.363993], [2.586514, 48.364205], [2.585499, 48.364574], [2.584454, 48.364904], [2.5827, 48.365415], [2.581985, 48.365644], [2.581691, 48.365757], [2.581426, 48.365907], [2.581037, 48.366054], [2.580002, 48.366274], [2.57884, 48.366346], [2.577873, 48.366461], [2.577397, 48.366561], [2.576175, 48.366918], [2.575485, 48.367159], [2.574834, 48.367439], [2.574213, 48.367726], [2.573668, 48.368004], [2.573249, 48.368185], [2.57164, 48.368698], [2.57115, 48.36881], [2.56938, 48.369284], [2.568585, 48.369523], [2.567477, 48.369802], [2.565361, 48.370283], [2.565109, 48.370268], [2.564511, 48.370097], [2.564237, 48.37004], [2.562969, 48.369692], [2.562576, 48.369614], [2.561472, 48.369478], [2.561356, 48.369456], [2.561354, 48.369693], [2.561343, 48.371666], [2.562072, 48.372326], [2.564135, 48.37426], [2.565688, 48.375737], [2.566186, 48.37619], [2.566689, 48.376684], [2.567021, 48.376974], [2.567593, 48.377525], [2.568306, 48.378191], [2.568791, 48.378656], [2.569724, 48.379516], [2.571395, 48.381028], [2.573153, 48.382668], [2.57418, 48.383653], [2.574905, 48.384368], [2.575205, 48.384642], [2.575144, 48.38484], [2.576411, 48.386071], [2.577932, 48.387527], [2.578582, 48.388173], [2.579835, 48.389982], [2.580357, 48.390715], [2.581337, 48.392125], [2.581703, 48.392628], [2.581757, 48.392677], [2.582901, 48.394233], [2.583242, 48.394843], [2.583619, 48.395445], [2.583831, 48.395906], [2.584044, 48.396231], [2.584237, 48.396474], [2.584415, 48.396812], [2.58587, 48.399112], [2.586194, 48.39964], [2.587352, 48.401627], [2.587814, 48.402337], [2.587852, 48.40245], [2.588329, 48.403309], [2.588478, 48.403637], [2.588681, 48.403802], [2.588726, 48.403941], [2.588928, 48.404201], [2.588984, 48.40445], [2.589245, 48.404736], [2.589232, 48.404853], [2.589325, 48.404887], [2.589563, 48.405241], [2.59048, 48.406833], [2.590728, 48.407411], [2.591439, 48.409125], [2.591461, 48.409218], [2.591811, 48.409966], [2.591833, 48.410125], [2.591954, 48.410314], [2.592164, 48.410848], [2.592911, 48.4126], [2.593241, 48.413312], [2.593379, 48.41369], [2.593768, 48.414631], [2.594229, 48.415879], [2.594677, 48.417144], [2.594757, 48.41728], [2.59487, 48.417701], [2.595123, 48.418376], [2.595719, 48.419935], [2.596144, 48.421019], [2.596353, 48.42169], [2.596499, 48.422077], [2.596934, 48.422964], [2.597239, 48.423611], [2.597452, 48.424231], [2.597616, 48.424644], [2.597764, 48.424925], [2.598413, 48.426352], [2.598641, 48.426888], [2.598716, 48.427161], [2.5989, 48.427691], [2.599153, 48.42857], [2.599195, 48.428772], [2.599083, 48.429527], [2.598744, 48.431087], [2.598488, 48.432638], [2.598404, 48.432974], [2.598175, 48.434166], [2.597636, 48.436995], [2.597557, 48.437434], [2.598431, 48.437969], [2.599154, 48.438393], [2.599423, 48.438899], [2.599601, 48.438896], [2.600051, 48.438816], [2.600833, 48.438773], [2.601691, 48.438744], [2.602099, 48.438837], [2.602596, 48.439058], [2.603765, 48.439527], [2.604078, 48.439629], [2.604922, 48.43998], [2.605507, 48.440188], [2.605594, 48.440256], [2.606395, 48.440723], [2.606915, 48.440992], [2.607636, 48.441392], [2.607978, 48.441552], [2.608554, 48.441859], [2.609155, 48.442116], [2.60955, 48.442302], [2.61004, 48.44246], [2.612135, 48.442859], [2.612429, 48.442877], [2.613852, 48.443281], [2.614729, 48.44355], [2.615023, 48.443624], [2.615957, 48.443897], [2.616644, 48.44412], [2.61896, 48.445122], [2.619226, 48.445259], [2.620577, 48.445837], [2.621265, 48.446068], [2.621666, 48.446175], [2.62194, 48.446277], [2.621995, 48.446872], [2.622117, 48.447612], [2.622149, 48.447975], [2.622196, 48.448188], [2.622359, 48.449298], [2.622366, 48.449614], [2.622466, 48.449951], [2.622532, 48.450376], [2.622839, 48.450567], [2.623259, 48.450724], [2.62358, 48.450981], [2.623695, 48.451029], [2.624196, 48.451331], [2.62426, 48.45142], [2.625085, 48.452017], [2.62551, 48.452353], [2.626592, 48.453258], [2.627268, 48.453845], [2.627451, 48.453985], [2.627816, 48.454346], [2.629171, 48.455331], [2.630309, 48.45608], [2.630923, 48.456636], [2.631367, 48.456976], [2.631389, 48.457122], [2.631629, 48.457631], [2.631424, 48.458059], [2.631387, 48.458403], [2.631335, 48.458604], [2.631205, 48.459302], [2.631645, 48.45935], [2.632115, 48.459426], [2.633038, 48.459543], [2.634654, 48.459703], [2.634874, 48.459736], [2.634552, 48.460124], [2.634334, 48.460355], [2.633933, 48.460868], [2.633301, 48.461594], [2.633141, 48.461892], [2.633076, 48.462152], [2.633044, 48.462547], [2.633087, 48.463447], [2.633734, 48.463568], [2.634718, 48.463732], [2.635536, 48.463774], [2.635476, 48.464142], [2.632987, 48.464407], [2.633008, 48.464634], [2.635388, 48.464361], [2.635989, 48.46473], [2.636167, 48.464165], [2.637031, 48.464213], [2.638771, 48.46445], [2.639847, 48.464645], [2.640032, 48.464384], [2.640944, 48.464397], [2.641224, 48.464347], [2.642075, 48.464132], [2.643383, 48.463785], [2.643557, 48.463756], [2.644243, 48.463944], [2.644554, 48.464176], [2.64473, 48.464217], [2.645193, 48.464181], [2.645732, 48.464266], [2.645642, 48.464349], [2.645566, 48.464524], [2.645676, 48.464896], [2.645672, 48.465429], [2.645471, 48.46602], [2.645434, 48.466313], [2.645154, 48.466677], [2.645057, 48.466847], [2.645048, 48.46701], [2.645366, 48.46738], [2.645996, 48.467989], [2.646519, 48.468464], [2.647022, 48.468982], [2.64723, 48.469223], [2.646702, 48.469605], [2.646226, 48.469985], [2.645156, 48.470789], [2.644793, 48.471103], [2.643778, 48.471883], [2.643604, 48.472041], [2.643439, 48.472259], [2.642457, 48.473177], [2.642173, 48.473374], [2.641999, 48.473451], [2.64158, 48.473578], [2.641356, 48.473696], [2.640884, 48.473894], [2.640575, 48.474223], [2.64035, 48.474286], [2.640129, 48.474521], [2.639928, 48.474591], [2.639823, 48.474682], [2.640077, 48.475133], [2.640281, 48.475434], [2.641092, 48.47536], [2.641289, 48.475841], [2.641778, 48.475972], [2.641716, 48.476662], [2.6407, 48.476792], [2.640604, 48.476995], [2.640194, 48.477042], [2.639915, 48.477313], [2.639836, 48.477766], [2.639378, 48.477826], [2.639217, 48.478662], [2.639369, 48.478718], [2.639474, 48.479402], [2.639579, 48.479703], [2.639386, 48.480236], [2.639546, 48.480559], [2.638936, 48.48071], [2.638631, 48.480812], [2.638226, 48.481065], [2.637884, 48.481167], [2.637315, 48.481663], [2.636687, 48.481863], [2.636926, 48.48233], [2.637484, 48.483675], [2.636814, 48.483962], [2.635938, 48.484194], [2.635078, 48.484445], [2.634924, 48.484473], [2.633072, 48.485061], [2.63291, 48.485632], [2.63305, 48.486085], [2.633367, 48.48673], [2.633405, 48.487045], [2.632924, 48.487251], [2.632903, 48.487544], [2.632942, 48.487819], [2.632479, 48.487994], [2.632427, 48.488115], [2.63244, 48.488254], [2.631816, 48.488547], [2.631222, 48.489017], [2.630469, 48.490952], [2.630715, 48.491254], [2.630606, 48.491303], [2.63097, 48.491693], [2.631245, 48.492097], [2.6322, 48.493826], [2.633716, 48.496589], [2.634005, 48.497094], [2.634038, 48.497159], [2.63485, 48.496882], [2.637789, 48.495808], [2.638535, 48.495542], [2.638669, 48.495478], [2.639137, 48.49533], [2.639809, 48.495066], [2.640735, 48.49473], [2.641049, 48.494681], [2.640831, 48.494554], [2.645855, 48.4927], [2.648326, 48.491782], [2.648521, 48.491722], [2.649097, 48.491496], [2.649832, 48.49124], [2.650577, 48.49094], [2.651296, 48.490669], [2.652323, 48.490299], [2.65418, 48.489609], [2.654254, 48.489748], [2.654614, 48.489649], [2.656371, 48.48898], [2.657733, 48.488482], [2.658123, 48.488445], [2.658641, 48.488303], [2.659191, 48.488103], [2.659828, 48.487837], [2.661018, 48.487469], [2.661216, 48.487514], [2.661813, 48.487465], [2.662334, 48.487544], [2.662502, 48.487521], [2.662648, 48.487684], [2.663236, 48.487922], [2.663017, 48.48861], [2.662463, 48.490401], [2.662376, 48.490888], [2.662026, 48.492677], [2.661765, 48.494151], [2.662106, 48.495822], [2.661912, 48.496985], [2.661834, 48.497768], [2.661685, 48.498658], [2.661246, 48.501093], [2.661211, 48.501322], [2.661134, 48.501497], [2.660844, 48.502271], [2.662237, 48.502209], [2.662419, 48.502159], [2.66383, 48.502077], [2.664391, 48.502089], [2.66448, 48.501614], [2.664691, 48.500908], [2.664755, 48.500505], [2.664777, 48.500217], [2.664884, 48.499712], [2.66496, 48.499485], [2.665054, 48.499447], [2.665252, 48.499135], [2.665718, 48.499124], [2.666191, 48.499274], [2.66657, 48.49928], [2.666736, 48.49931], [2.666676, 48.49901], [2.666601, 48.498807], [2.666531, 48.498766], [2.666614, 48.49847], [2.666489, 48.498105], [2.66663, 48.497838], [2.666745, 48.497831], [2.666759, 48.497572], [2.666857, 48.49726], [2.666837, 48.496998], [2.666976, 48.496544], [2.667042, 48.496514], [2.667009, 48.496262], [2.666911, 48.496069], [2.667027, 48.495636], [2.667231, 48.495254], [2.667271, 48.494962], [2.667392, 48.494733], [2.667532, 48.49457], [2.667779, 48.494514], [2.668394, 48.494585], [2.668582, 48.494295], [2.668923, 48.494257], [2.669371, 48.494424], [2.669631, 48.494451], [2.669736, 48.494153], [2.669767, 48.493896], [2.669996, 48.493376], [2.67008, 48.493135], [2.670105, 48.492844], [2.669801, 48.492759], [2.669376, 48.492597], [2.669313, 48.492473], [2.669491, 48.492142], [2.670212, 48.492233], [2.670349, 48.491979], [2.670816, 48.491241], [2.670943, 48.490981], [2.670451, 48.490826], [2.670783, 48.490246], [2.671125, 48.489716], [2.671309, 48.489497], [2.671483, 48.48934], [2.671824, 48.48878], [2.671992, 48.488586], [2.672218, 48.488238], [2.672692, 48.487879], [2.673174, 48.487352], [2.673366, 48.487225], [2.673568, 48.487147], [2.673708, 48.487027], [2.673717, 48.486807], [2.67336, 48.486567], [2.673454, 48.486427], [2.672969, 48.486137], [2.672843, 48.485951], [2.672966, 48.485686], [2.673013, 48.485303], [2.672926, 48.485], [2.672839, 48.484818], [2.672573, 48.484497], [2.672832, 48.48438], [2.67216, 48.483692], [2.671897, 48.48328], [2.672051, 48.483136], [2.671318, 48.482632], [2.670376, 48.482081], [2.669495, 48.481683], [2.670052, 48.481076], [2.670175, 48.480883], [2.670495, 48.480606], [2.670906, 48.480208], [2.671182, 48.479986], [2.671577, 48.479769], [2.671742, 48.479727], [2.672253, 48.4799], [2.672521, 48.480119], [2.673066, 48.479704], [2.674049, 48.478997], [2.674824, 48.478389], [2.675366, 48.477931], [2.675864, 48.477472], [2.676805, 48.476717], [2.677344, 48.476245], [2.677948, 48.475762], [2.679322, 48.474709], [2.679763, 48.475182], [2.680928, 48.47625], [2.681297, 48.476535], [2.681533, 48.476631], [2.681894, 48.476735], [2.6823, 48.476916], [2.682863, 48.477143], [2.683353, 48.476863], [2.68399, 48.476425], [2.684444, 48.476202], [2.683839, 48.47565], [2.68358, 48.475201], [2.682821, 48.473818], [2.682193, 48.47272], [2.684545, 48.47089], [2.684698, 48.470828], [2.685685, 48.469998], [2.686683, 48.46931], [2.68668, 48.469153], [2.686972, 48.468936], [2.688752, 48.467542], [2.68913, 48.467297], [2.689249, 48.467171], [2.689956, 48.466296], [2.690486, 48.465911], [2.691339, 48.465266], [2.693785, 48.46336], [2.694753, 48.462601], [2.695366, 48.462105], [2.697578, 48.460372], [2.700059, 48.458418], [2.700678, 48.458774], [2.7014, 48.459162], [2.702518, 48.459779], [2.703523, 48.460358], [2.705419, 48.461374], [2.705754, 48.461571], [2.707242, 48.462406], [2.708764, 48.463239], [2.711227, 48.46456], [2.711618, 48.464348], [2.712461, 48.464805], [2.712377, 48.465258], [2.712276, 48.465458], [2.712145, 48.465626], [2.711793, 48.465901], [2.712236, 48.466157], [2.712554, 48.466538], [2.712866, 48.46718], [2.713238, 48.4676], [2.713674, 48.467968], [2.713855, 48.468267], [2.713935, 48.468486], [2.713976, 48.468758], [2.714173, 48.469047], [2.714842, 48.469864], [2.716006, 48.471063], [2.71615, 48.471277], [2.716375, 48.471734], [2.716783, 48.473465], [2.716798, 48.473591], [2.716493, 48.474295], [2.716214, 48.474755], [2.716144, 48.474924], [2.716104, 48.475212], [2.716094, 48.476046], [2.716135, 48.476761], [2.716174, 48.477055], [2.716246, 48.477242], [2.716834, 48.477042], [2.716814, 48.477125], [2.717268, 48.477121], [2.718181, 48.477048], [2.718613, 48.478736], [2.71865, 48.478936], [2.719007, 48.480308], [2.720692, 48.480381], [2.721678, 48.480414], [2.722018, 48.480435], [2.725168, 48.480533], [2.726413, 48.48058], [2.731373, 48.480743], [2.731312, 48.481748], [2.731216, 48.483024], [2.73121, 48.483234], [2.73308, 48.483309], [2.733297, 48.48331], [2.737017, 48.48346], [2.740567, 48.483523], [2.74494, 48.483458], [2.745516, 48.483435], [2.745798, 48.483384], [2.745917, 48.483331], [2.746825, 48.483325], [2.747406, 48.483293]]]}, "properties": {"code_iris": "771860000", "nom_iris": "Fontainebleau (commune entière)", "type_iris": "Z", "lat": 48.4236, "lng": 2.6817, "dvf_sales_total": 3886, "dvf_sales_appt": 0, "dvf_sales_maison": 0, "dvf_median_price": 300000.0, "dvf_median_ppsqm": 4950.0, "dvf_by_year": "[{\"year\": 2021, \"sales\": 949, \"median_price\": 315000.0}, {\"year\": 2022, \"sales\": 860, \"median_price\": 304000.0}, {\"year\": 2023, \"sales\": 736, \"median_price\": 284000.0}, {\"year\": 2024, \"sales\": 614, \"median_price\": 297082.86}, {\"year\": 2025, \"sales\": 727, \"median_price\": 290200.0}]", "population": 15583, "n_log": null, "n_rp": null, "pct_proprio": null, "pct_hlm": null, "pct_appart": null, "pct_cadres": null, "pct_bac5p": null, "pct_etrangers": null, "pct_0_14": null, "pct_65p": null, "bpe_total": null, "bpe_commerces": null, "bpe_enseignement": null, "bpe_sante": null, "dpe": null, "attractivity_score": null, "rank_attractivity_score": null, "rank_total_attractivity_score": 1, "commune_avg": null, "is_stub": true}}]}