{"type": "FeatureCollection", "features": [{"type": "Feature", "geometry": {"type": "Point", "coordinates": [2.637803, 48.878867]}, "properties": {"street_name": "RUE DES PINSONS", "sales": 109, "sales_appt": 39, "sales_maison": 0, "median_price": 228000.0, "median_price_per_sqm": 3202.3809523809523, "turnover_score": 100.0, "turnover_rank": 1, "first_year": 2021, "last_year": 2025, "years_active": 5}}, {"type": "Feature", "geometry": {"type": "Point", "coordinates": [2.640942, 48.876673]}, "properties": {"street_name": "AV DES MESANGES", "sales": 108, "sales_appt": 39, "sales_maison": 0, "median_price": 157308.5, "median_price_per_sqm": 2252.205882352941, "turnover_score": 99.1, "turnover_rank": 2, "first_year": 2021, "last_year": 2025, "years_active": 5}}, {"type": "Feature", "geometry": {"type": "Point", "coordinates": [2.634971, 48.874127]}, "properties": {"street_name": "RUE DE CHELLES", "sales": 99, "sales_appt": 46, "sales_maison": 13, "median_price": 330000.0, "median_price_per_sqm": 8575.0, "turnover_score": 90.8, "turnover_rank": 3, "first_year": 2021, "last_year": 2025, "years_active": 5}}, {"type": "Feature", "geometry": {"type": "Point", "coordinates": [2.636367, 48.876127]}, "properties": {"street_name": "RUE DE LA LIBERTE", "sales": 98, "sales_appt": 30, "sales_maison": 10, "median_price": 256225.0, "median_price_per_sqm": 4239.780144280316, "turnover_score": 89.9, "turnover_rank": 4, "first_year": 2021, "last_year": 2025, "years_active": 5}}, {"type": "Feature", "geometry": {"type": "Point", "coordinates": [2.633953, 48.880229]}, "properties": {"street_name": "AV HENRI BARBUSSE", "sales": 80, "sales_appt": 21, "sales_maison": 11, "median_price": 241000.0, "median_price_per_sqm": 4179.142441860466, "turnover_score": 73.4, "turnover_rank": 5, "first_year": 2021, "last_year": 2025, "years_active": 5}}, {"type": "Feature", "geometry": {"type": "Point", "coordinates": [2.645485, 48.872041]}, "properties": {"street_name": "RUE DE LA GARE", "sales": 63, "sales_appt": 8, "sales_maison": 8, "median_price": 280000.0, "median_price_per_sqm": 4258.016591251886, "turnover_score": 57.8, "turnover_rank": 6, "first_year": 2021, "last_year": 2025, "years_active": 5}}, {"type": "Feature", "geometry": {"type": "Point", "coordinates": [2.63724, 48.8736555]}, "properties": {"street_name": "AV JEAN JAURES", "sales": 58, "sales_appt": 19, "sales_maison": 11, "median_price": 305000.0, "median_price_per_sqm": 4897.727272727272, "turnover_score": 53.2, "turnover_rank": 7, "first_year": 2021, "last_year": 2025, "years_active": 5}}, {"type": "Feature", "geometry": {"type": "Point", "coordinates": [2.6399, 48.874213]}, "properties": {"street_name": "BD DE LORRAINE", "sales": 58, "sales_appt": 15, "sales_maison": 11, "median_price": 222500.0, "median_price_per_sqm": 4893.617021276596, "turnover_score": 53.2, "turnover_rank": 7, "first_year": 2021, "last_year": 2025, "years_active": 5}}, {"type": "Feature", "geometry": {"type": "Point", "coordinates": [2.644665, 48.867344]}, "properties": {"street_name": "RUE DE TORCY", "sales": 56, "sales_appt": 25, "sales_maison": 2, "median_price": 205000.0, "median_price_per_sqm": 4299.914917753828, "turnover_score": 51.4, "turnover_rank": 8, "first_year": 2021, "last_year": 2025, "years_active": 5}}, {"type": "Feature", "geometry": {"type": "Point", "coordinates": [2.625555, 48.873232]}, "properties": {"street_name": "RUE HENRI MENIER", "sales": 50, "sales_appt": 45, "sales_maison": 2, "median_price": 7500000.0, "median_price_per_sqm": 156250.0, "turnover_score": 45.9, "turnover_rank": 9, "first_year": 2021, "last_year": 2022, "years_active": 2}}, {"type": "Feature", "geometry": {"type": "Point", "coordinates": [2.643236, 48.876951]}, "properties": {"street_name": "RUE DES LORIOTS", "sales": 49, "sales_appt": 16, "sales_maison": 0, "median_price": 259000.0, "median_price_per_sqm": 3171.6867469879517, "turnover_score": 45.0, "turnover_rank": 10, "first_year": 2021, "last_year": 2025, "years_active": 5}}, {"type": "Feature", "geometry": {"type": "Point", "coordinates": [2.639464, 48.870492]}, "properties": {"street_name": "RUE ALPHONSE MANCEAU", "sales": 45, "sales_appt": 3, "sales_maison": 18, "median_price": 510000.0, "median_price_per_sqm": 4756.280344014426, "turnover_score": 41.3, "turnover_rank": 11, "first_year": 2021, "last_year": 2025, "years_active": 5}}, {"type": "Feature", "geometry": {"type": "Point", "coordinates": [2.627908, 48.86931]}, "properties": {"street_name": "RUE DES PECHEURS", "sales": 41, "sales_appt": 6, "sales_maison": 14, "median_price": 260000.0, "median_price_per_sqm": 3589.7212543554006, "turnover_score": 37.6, "turnover_rank": 12, "first_year": 2021, "last_year": 2025, "years_active": 5}}, {"type": "Feature", "geometry": {"type": "Point", "coordinates": [2.637269, 48.871243]}, "properties": {"street_name": "RUE PAUL ALGIS", "sales": 38, "sales_appt": 5, "sales_maison": 19, "median_price": 265000.0, "median_price_per_sqm": 4268.244315177155, "turnover_score": 34.9, "turnover_rank": 13, "first_year": 2021, "last_year": 2025, "years_active": 5}}, {"type": "Feature", "geometry": {"type": "Point", "coordinates": [2.636079, 48.873693]}, "properties": {"street_name": "RUE JULES FERRY", "sales": 34, "sales_appt": 10, "sales_maison": 8, "median_price": 269932.0, "median_price_per_sqm": 4613.299039005087, "turnover_score": 31.2, "turnover_rank": 14, "first_year": 2021, "last_year": 2025, "years_active": 5}}, {"type": "Feature", "geometry": {"type": "Point", "coordinates": [2.644969, 48.872171]}, "properties": {"street_name": "RUE DE LA PLAINE", "sales": 34, "sales_appt": 1, "sales_maison": 3, "median_price": 539000.0, "median_price_per_sqm": 4130.997949419002, "turnover_score": 31.2, "turnover_rank": 14, "first_year": 2022, "last_year": 2025, "years_active": 3}}, {"type": "Feature", "geometry": {"type": "Point", "coordinates": [2.641817, 48.869931]}, "properties": {"street_name": "RUE LOUIS BECTARD", "sales": 33, "sales_appt": 4, "sales_maison": 14, "median_price": 350000.0, "median_price_per_sqm": 4330.053191489362, "turnover_score": 30.3, "turnover_rank": 15, "first_year": 2021, "last_year": 2025, "years_active": 5}}, {"type": "Feature", "geometry": {"type": "Point", "coordinates": [2.6348225, 48.8775285]}, "properties": {"street_name": "AV DU GENERAL LECLERC", "sales": 32, "sales_appt": 3, "sales_maison": 18, "median_price": 480500.0, "median_price_per_sqm": 4508.571428571428, "turnover_score": 29.4, "turnover_rank": 16, "first_year": 2021, "last_year": 2025, "years_active": 5}}, {"type": "Feature", "geometry": {"type": "Point", "coordinates": [2.648126, 48.874919]}, "properties": {"street_name": "LA CENTRALE THERMIQUE", "sales": 32, "sales_appt": 0, "sales_maison": 0, "median_price": 551016.0, "median_price_per_sqm": 45918.0, "turnover_score": 29.4, "turnover_rank": 16, "first_year": 2021, "last_year": 2023, "years_active": 3}}, {"type": "Feature", "geometry": {"type": "Point", "coordinates": [2.630171, 48.868232]}, "properties": {"street_name": "PL DE L'EUROPE", "sales": 31, "sales_appt": 18, "sales_maison": 0, "median_price": 179000.0, "median_price_per_sqm": 3266.8367346938776, "turnover_score": 28.4, "turnover_rank": 17, "first_year": 2021, "last_year": 2025, "years_active": 5}}, {"type": "Feature", "geometry": {"type": "Point", "coordinates": [2.633918, 48.882039]}, "properties": {"street_name": "AV VICTOR THIEBAULT", "sales": 31, "sales_appt": 13, "sales_maison": 4, "median_price": 165000.0, "median_price_per_sqm": 4104.166666666667, "turnover_score": 28.4, "turnover_rank": 17, "first_year": 2021, "last_year": 2025, "years_active": 5}}, {"type": "Feature", "geometry": {"type": "Point", "coordinates": [2.627908, 48.86918]}, "properties": {"street_name": "RUE DES ECOLES", "sales": 31, "sales_appt": 5, "sales_maison": 2, "median_price": 225000.0, "median_price_per_sqm": 3100.0, "turnover_score": 28.4, "turnover_rank": 17, "first_year": 2022, "last_year": 2025, "years_active": 4}}, {"type": "Feature", "geometry": {"type": "Point", "coordinates": [2.63856, 48.8675915]}, "properties": {"street_name": "RUE DU COLONEL MOLL", "sales": 30, "sales_appt": 0, "sales_maison": 14, "median_price": 430000.0, "median_price_per_sqm": 4608.527131782946, "turnover_score": 27.5, "turnover_rank": 18, "first_year": 2021, "last_year": 2025, "years_active": 5}}, {"type": "Feature", "geometry": {"type": "Point", "coordinates": [2.6281274999999997, 48.871048]}, "properties": {"street_name": "RUE WALDECK ROUSSEAU", "sales": 30, "sales_appt": 6, "sales_maison": 15, "median_price": 315000.0, "median_price_per_sqm": 4320.0, "turnover_score": 27.5, "turnover_rank": 18, "first_year": 2021, "last_year": 2025, "years_active": 5}}, {"type": "Feature", "geometry": {"type": "Point", "coordinates": [2.6394615000000003, 48.8673285]}, "properties": {"street_name": "RUE DU PARC", "sales": 28, "sales_appt": 2, "sales_maison": 9, "median_price": 295800.0, "median_price_per_sqm": 3872.0, "turnover_score": 25.7, "turnover_rank": 19, "first_year": 2021, "last_year": 2025, "years_active": 3}}, {"type": "Feature", "geometry": {"type": "Point", "coordinates": [2.647795, 48.871038]}, "properties": {"street_name": "RUE DE LA GRANDE FERME", "sales": 27, "sales_appt": 10, "sales_maison": 1, "median_price": 227000.0, "median_price_per_sqm": 3636.3636363636365, "turnover_score": 24.8, "turnover_rank": 20, "first_year": 2021, "last_year": 2025, "years_active": 4}}, {"type": "Feature", "geometry": {"type": "Point", "coordinates": [2.639941, 48.877232]}, "properties": {"street_name": "RUE DES FAUVETTES", "sales": 27, "sales_appt": 6, "sales_maison": 0, "median_price": 222000.0, "median_price_per_sqm": 3336.6674244146398, "turnover_score": 24.8, "turnover_rank": 20, "first_year": 2021, "last_year": 2025, "years_active": 4}}, {"type": "Feature", "geometry": {"type": "Point", "coordinates": [2.627972, 48.877996]}, "properties": {"street_name": "AV ANDRE THEURIET", "sales": 21, "sales_appt": 9, "sales_maison": 3, "median_price": 315000.0, "median_price_per_sqm": 5473.011363636364, "turnover_score": 19.3, "turnover_rank": 21, "first_year": 2021, "last_year": 2024, "years_active": 4}}, {"type": "Feature", "geometry": {"type": "Point", "coordinates": [2.632722, 48.880335]}, "properties": {"street_name": "ALL DES BOCAGES", "sales": 21, "sales_appt": 3, "sales_maison": 7, "median_price": 311000.0, "median_price_per_sqm": 3959.4928880643165, "turnover_score": 19.3, "turnover_rank": 21, "first_year": 2021, "last_year": 2025, "years_active": 5}}, {"type": "Feature", "geometry": {"type": "Point", "coordinates": [2.630259, 48.872558]}, "properties": {"street_name": "AV DES FUSILLES", "sales": 21, "sales_appt": 4, "sales_maison": 7, "median_price": 285550.0, "median_price_per_sqm": 4166.666666666666, "turnover_score": 19.3, "turnover_rank": 21, "first_year": 2021, "last_year": 2025, "years_active": 4}}, {"type": "Feature", "geometry": {"type": "Point", "coordinates": [2.630661, 48.867677]}, "properties": {"street_name": "RUE LOUIS ARISTIDE VERDIER", "sales": 19, "sales_appt": 2, "sales_maison": 3, "median_price": 265000.0, "median_price_per_sqm": 3684.2105263157896, "turnover_score": 17.4, "turnover_rank": 22, "first_year": 2021, "last_year": 2025, "years_active": 5}}, {"type": "Feature", "geometry": {"type": "Point", "coordinates": [2.63228, 48.870542]}, "properties": {"street_name": "RUE FRANCOIS COPPEE", "sales": 19, "sales_appt": 0, "sales_maison": 8, "median_price": 305200.0, "median_price_per_sqm": 4308.861940298508, "turnover_score": 17.4, "turnover_rank": 22, "first_year": 2021, "last_year": 2025, "years_active": 4}}, {"type": "Feature", "geometry": {"type": "Point", "coordinates": [2.629338, 48.8777415]}, "properties": {"street_name": "RUE DE GOURNAY", "sales": 16, "sales_appt": 3, "sales_maison": 7, "median_price": 380000.0, "median_price_per_sqm": 4187.933102345416, "turnover_score": 14.7, "turnover_rank": 23, "first_year": 2022, "last_year": 2025, "years_active": 3}}, {"type": "Feature", "geometry": {"type": "Point", "coordinates": [2.6348915, 48.8737615]}, "properties": {"street_name": "RUE CHARLES FLOQUET", "sales": 14, "sales_appt": 2, "sales_maison": 5, "median_price": 367000.0, "median_price_per_sqm": 5170.689655172414, "turnover_score": 12.8, "turnover_rank": 24, "first_year": 2021, "last_year": 2023, "years_active": 3}}, {"type": "Feature", "geometry": {"type": "Point", "coordinates": [2.64334, 48.868474500000005]}, "properties": {"street_name": "RUE DE LAGNY", "sales": 14, "sales_appt": 0, "sales_maison": 9, "median_price": 529250.0, "median_price_per_sqm": 4382.191780821918, "turnover_score": 12.8, "turnover_rank": 24, "first_year": 2021, "last_year": 2025, "years_active": 4}}, {"type": "Feature", "geometry": {"type": "Point", "coordinates": [2.642647, 48.8713275]}, "properties": {"street_name": "RUE DE CRECY", "sales": 14, "sales_appt": 0, "sales_maison": 9, "median_price": 307500.0, "median_price_per_sqm": 3673.469387755102, "turnover_score": 12.8, "turnover_rank": 24, "first_year": 2021, "last_year": 2025, "years_active": 4}}, {"type": "Feature", "geometry": {"type": "Point", "coordinates": [2.632953, 48.872288999999995]}, "properties": {"street_name": "RUE FELIX FAURE", "sales": 14, "sales_appt": 0, "sales_maison": 9, "median_price": 335025.0, "median_price_per_sqm": 3951.6129032258063, "turnover_score": 12.8, "turnover_rank": 24, "first_year": 2021, "last_year": 2025, "years_active": 4}}, {"type": "Feature", "geometry": {"type": "Point", "coordinates": [2.641795, 48.867277]}, "properties": {"street_name": "BD DE LA MARNE", "sales": 13, "sales_appt": 0, "sales_maison": 7, "median_price": 415000.0, "median_price_per_sqm": 4768.6567164179105, "turnover_score": 11.9, "turnover_rank": 25, "first_year": 2021, "last_year": 2025, "years_active": 5}}, {"type": "Feature", "geometry": {"type": "Point", "coordinates": [2.631661, 48.875735]}, "properties": {"street_name": "RUE DE LA PASSERELLE", "sales": 13, "sales_appt": 12, "sales_maison": 1, "median_price": 7500000.0, "median_price_per_sqm": 104166.66666666667, "turnover_score": 11.9, "turnover_rank": 25, "first_year": 2021, "last_year": 2023, "years_active": 2}}, {"type": "Feature", "geometry": {"type": "Point", "coordinates": [2.6365755, 48.8691545]}, "properties": {"street_name": "RUE CARNOT", "sales": 12, "sales_appt": 0, "sales_maison": 9, "median_price": 347500.0, "median_price_per_sqm": 4322.580645161291, "turnover_score": 11.0, "turnover_rank": 26, "first_year": 2021, "last_year": 2025, "years_active": 4}}, {"type": "Feature", "geometry": {"type": "Point", "coordinates": [2.631797, 48.878003500000005]}, "properties": {"street_name": "RUE DU PIN", "sales": 12, "sales_appt": 2, "sales_maison": 5, "median_price": 444000.0, "median_price_per_sqm": 3877.5510204081634, "turnover_score": 11.0, "turnover_rank": 26, "first_year": 2021, "last_year": 2025, "years_active": 4}}, {"type": "Feature", "geometry": {"type": "Point", "coordinates": [2.633039, 48.877633]}, "properties": {"street_name": "RUE DE POMPONNE", "sales": 11, "sales_appt": 0, "sales_maison": 6, "median_price": 500000.0, "median_price_per_sqm": 4629.62962962963, "turnover_score": 10.1, "turnover_rank": 27, "first_year": 2022, "last_year": 2025, "years_active": 3}}, {"type": "Feature", "geometry": {"type": "Point", "coordinates": [2.63278, 48.879127]}, "properties": {"street_name": "IMP DES BOCAGES", "sales": 11, "sales_appt": 5, "sales_maison": 1, "median_price": 250000.0, "median_price_per_sqm": 3717.602848101266, "turnover_score": 10.1, "turnover_rank": 27, "first_year": 2021, "last_year": 2025, "years_active": 4}}, {"type": "Feature", "geometry": {"type": "Point", "coordinates": [2.6313855, 48.869622]}, "properties": {"street_name": "RUE DU 11 NOVEMBRE", "sales": 10, "sales_appt": 0, "sales_maison": 5, "median_price": 307600.0, "median_price_per_sqm": 3837.2093023255816, "turnover_score": 9.2, "turnover_rank": 28, "first_year": 2022, "last_year": 2025, "years_active": 3}}, {"type": "Feature", "geometry": {"type": "Point", "coordinates": [2.629425, 48.871743]}, "properties": {"street_name": "RUE PASTEUR", "sales": 9, "sales_appt": 2, "sales_maison": 1, "median_price": 388656.0, "median_price_per_sqm": 3810.3529411764707, "turnover_score": 8.3, "turnover_rank": 29, "first_year": 2021, "last_year": 2025, "years_active": 4}}, {"type": "Feature", "geometry": {"type": "Point", "coordinates": [2.625014, 48.868076]}, "properties": {"street_name": "RUE DES BLEUETS", "sales": 9, "sales_appt": 0, "sales_maison": 7, "median_price": 495000.0, "median_price_per_sqm": 4297.520661157025, "turnover_score": 8.3, "turnover_rank": 29, "first_year": 2021, "last_year": 2023, "years_active": 3}}, {"type": "Feature", "geometry": {"type": "Point", "coordinates": [2.634687, 48.870266]}, "properties": {"street_name": "RUE BERTHELOT", "sales": 7, "sales_appt": 0, "sales_maison": 5, "median_price": 283000.0, "median_price_per_sqm": 5145.454545454545, "turnover_score": 6.4, "turnover_rank": 30, "first_year": 2022, "last_year": 2024, "years_active": 3}}, {"type": "Feature", "geometry": {"type": "Point", "coordinates": [2.634622, 48.86966]}, "properties": {"street_name": "RUE NIEPCE", "sales": 7, "sales_appt": 0, "sales_maison": 5, "median_price": 248000.0, "median_price_per_sqm": 4521.014492753623, "turnover_score": 6.4, "turnover_rank": 30, "first_year": 2021, "last_year": 2025, "years_active": 3}}, {"type": "Feature", "geometry": {"type": "Point", "coordinates": [2.642598, 48.875035]}, "properties": {"street_name": "IMP DE L AULNAY", "sales": 6, "sales_appt": 5, "sales_maison": 0, "median_price": 1200000.0, "median_price_per_sqm": 15000.0, "turnover_score": 5.5, "turnover_rank": 31, "first_year": 2023, "last_year": 2023, "years_active": 1}}, {"type": "Feature", "geometry": {"type": "Point", "coordinates": [2.624717, 48.872419]}, "properties": {"street_name": "RUE DU TRIAGE", "sales": 6, "sales_appt": 1, "sales_maison": 1, "median_price": 345000.0, "median_price_per_sqm": 4825.0, "turnover_score": 5.5, "turnover_rank": 31, "first_year": 2023, "last_year": 2024, "years_active": 2}}, {"type": "Feature", "geometry": {"type": "Point", "coordinates": [2.622862, 48.869594]}, "properties": {"street_name": "CHE DU CORPS DE GARDE", "sales": 6, "sales_appt": 2, "sales_maison": 0, "median_price": 1600000.0, "median_price_per_sqm": 5479.957805907174, "turnover_score": 5.5, "turnover_rank": 31, "first_year": 2021, "last_year": 2025, "years_active": 2}}, {"type": "Feature", "geometry": {"type": "Point", "coordinates": [2.651778, 48.872504]}, "properties": {"street_name": "IMP DE LA CENTRALE", "sales": 5, "sales_appt": 0, "sales_maison": 0, "median_price": 3805521.5, "median_price_per_sqm": null, "turnover_score": 4.6, "turnover_rank": 32, "first_year": 2023, "last_year": 2024, "years_active": 2}}, {"type": "Feature", "geometry": {"type": "Point", "coordinates": [2.627738, 48.868779]}, "properties": {"street_name": "RUE DES COQUELICOTS", "sales": 5, "sales_appt": 0, "sales_maison": 4, "median_price": 442000.0, "median_price_per_sqm": 3437.3893245636227, "turnover_score": 4.6, "turnover_rank": 32, "first_year": 2021, "last_year": 2025, "years_active": 2}}, {"type": "Feature", "geometry": {"type": "Point", "coordinates": [2.641283, 48.864396]}, "properties": {"street_name": "ROUTE DE TORCY", "sales": 5, "sales_appt": 0, "sales_maison": 0, "median_price": 215000.0, "median_price_per_sqm": null, "turnover_score": 4.6, "turnover_rank": 32, "first_year": 2021, "last_year": 2023, "years_active": 2}}, {"type": "Feature", "geometry": {"type": "Point", "coordinates": [2.643684, 48.870636]}, "properties": {"street_name": "RUE JEHAN DE BRIE", "sales": 5, "sales_appt": 0, "sales_maison": 3, "median_price": 420000.0, "median_price_per_sqm": 4468.085106382979, "turnover_score": 4.6, "turnover_rank": 32, "first_year": 2025, "last_year": 2025, "years_active": 1}}, {"type": "Feature", "geometry": {"type": "Point", "coordinates": [2.628953, 48.867987]}, "properties": {"street_name": "RUE DES JONQUILLES", "sales": 5, "sales_appt": 0, "sales_maison": 5, "median_price": 470000.0, "median_price_per_sqm": 3759.68992248062, "turnover_score": 4.6, "turnover_rank": 32, "first_year": 2021, "last_year": 2025, "years_active": 3}}, {"type": "Feature", "geometry": {"type": "Point", "coordinates": [2.629465, 48.87695]}, "properties": {"street_name": "RUE DE MONTFERMEIL", "sales": 4, "sales_appt": 0, "sales_maison": 2, "median_price": 301000.0, "median_price_per_sqm": 5784.2442645074225, "turnover_score": 3.7, "turnover_rank": 33, "first_year": 2022, "last_year": 2024, "years_active": 2}}, {"type": "Feature", "geometry": {"type": "Point", "coordinates": [2.6319065, 48.8763995]}, "properties": {"street_name": "RUE DU BOIS DE LA FONTAINE", "sales": 4, "sales_appt": 0, "sales_maison": 3, "median_price": 462500.0, "median_price_per_sqm": 3823.529411764706, "turnover_score": 3.7, "turnover_rank": 33, "first_year": 2022, "last_year": 2022, "years_active": 1}}, {"type": "Feature", "geometry": {"type": "Point", "coordinates": [2.6375215, 48.8785035]}, "properties": {"street_name": "RUE DES ROSSIGNOLS", "sales": 4, "sales_appt": 0, "sales_maison": 4, "median_price": 444785.0, "median_price_per_sqm": 4114.244417862839, "turnover_score": 3.7, "turnover_rank": 33, "first_year": 2021, "last_year": 2024, "years_active": 3}}, {"type": "Feature", "geometry": {"type": "Point", "coordinates": [2.634936, 48.870822]}, "properties": {"street_name": "PL VICTOR HUGO", "sales": 4, "sales_appt": 3, "sales_maison": 0, "median_price": 380700.0, "median_price_per_sqm": 7183.018867924528, "turnover_score": 3.7, "turnover_rank": 33, "first_year": 2022, "last_year": 2022, "years_active": 1}}, {"type": "Feature", "geometry": {"type": "Point", "coordinates": [2.6223725, 48.866074999999995]}, "properties": {"street_name": "LE MARAIS BREBIS", "sales": 4, "sales_appt": 0, "sales_maison": 0, "median_price": 1.0, "median_price_per_sqm": null, "turnover_score": 3.7, "turnover_rank": 33, "first_year": 2025, "last_year": 2025, "years_active": 1}}, {"type": "Feature", "geometry": {"type": "Point", "coordinates": [2.631714, 48.867684]}, "properties": {"street_name": "RUE JOSEPH MONJARET", "sales": 3, "sales_appt": 0, "sales_maison": 3, "median_price": 469000.0, "median_price_per_sqm": 3897.196261682243, "turnover_score": 2.8, "turnover_rank": 34, "first_year": 2022, "last_year": 2025, "years_active": 3}}, {"type": "Feature", "geometry": {"type": "Point", "coordinates": [2.642691, 48.869641]}, "properties": {"street_name": "AV DU CHATEAU", "sales": 3, "sales_appt": 0, "sales_maison": 1, "median_price": 326500.0, "median_price_per_sqm": 2612.0, "turnover_score": 2.8, "turnover_rank": 34, "first_year": 2025, "last_year": 2025, "years_active": 1}}, {"type": "Feature", "geometry": {"type": "Point", "coordinates": [2.647002, 48.871675]}, "properties": {"street_name": "RUE DES BRUYERES", "sales": 3, "sales_appt": 0, "sales_maison": 3, "median_price": 432000.0, "median_price_per_sqm": 4095.744680851064, "turnover_score": 2.8, "turnover_rank": 34, "first_year": 2024, "last_year": 2025, "years_active": 2}}, {"type": "Feature", "geometry": {"type": "Point", "coordinates": [2.627908, 48.86918]}, "properties": {"street_name": "RUE DES TULIPES", "sales": 3, "sales_appt": 0, "sales_maison": 3, "median_price": 310000.0, "median_price_per_sqm": 3924.0506329113923, "turnover_score": 2.8, "turnover_rank": 34, "first_year": 2022, "last_year": 2025, "years_active": 3}}, {"type": "Feature", "geometry": {"type": "Point", "coordinates": [2.634704, 48.881591]}, "properties": {"street_name": "ALL DES ACACIAS", "sales": 2, "sales_appt": 0, "sales_maison": 2, "median_price": 602600.0, "median_price_per_sqm": 4155.862068965517, "turnover_score": 1.8, "turnover_rank": 35, "first_year": 2022, "last_year": 2022, "years_active": 1}}, {"type": "Feature", "geometry": {"type": "Point", "coordinates": [2.636593, 48.867838]}, "properties": {"street_name": "RUE MASSENET", "sales": 2, "sales_appt": 0, "sales_maison": 1, "median_price": 389000.0, "median_price_per_sqm": 5186.666666666667, "turnover_score": 1.8, "turnover_rank": 35, "first_year": 2022, "last_year": 2022, "years_active": 1}}, {"type": "Feature", "geometry": {"type": "Point", "coordinates": [2.6287830000000003, 48.867364]}, "properties": {"street_name": "RUE DES VIOLETTES", "sales": 2, "sales_appt": 0, "sales_maison": 2, "median_price": 507150.0, "median_price_per_sqm": 3728.319139644066, "turnover_score": 1.8, "turnover_rank": 35, "first_year": 2021, "last_year": 2023, "years_active": 2}}, {"type": "Feature", "geometry": {"type": "Point", "coordinates": [2.634113, 48.876311]}, "properties": {"street_name": "IMP SUZY", "sales": 2, "sales_appt": 0, "sales_maison": 2, "median_price": 464130.0, "median_price_per_sqm": 3438.0, "turnover_score": 1.8, "turnover_rank": 35, "first_year": 2021, "last_year": 2021, "years_active": 1}}, {"type": "Feature", "geometry": {"type": "Point", "coordinates": [2.629758, 48.878904]}, "properties": {"street_name": "RUE DE BROU", "sales": 2, "sales_appt": 0, "sales_maison": 1, "median_price": 258000.0, "median_price_per_sqm": 2457.1428571428573, "turnover_score": 1.8, "turnover_rank": 35, "first_year": 2024, "last_year": 2024, "years_active": 1}}, {"type": "Feature", "geometry": {"type": "Point", "coordinates": [2.635762, 48.88143]}, "properties": {"street_name": "RUE DES ACACIAS", "sales": 2, "sales_appt": 0, "sales_maison": 1, "median_price": 515000.0, "median_price_per_sqm": 5099.009900990099, "turnover_score": 1.8, "turnover_rank": 35, "first_year": 2022, "last_year": 2022, "years_active": 1}}, {"type": "Feature", "geometry": {"type": "Point", "coordinates": [2.645022, 48.871733]}, "properties": {"street_name": "RUE DE LA PETITE FERME", "sales": 2, "sales_appt": 0, "sales_maison": 1, "median_price": 480000.0, "median_price_per_sqm": 4528.301886792453, "turnover_score": 1.8, "turnover_rank": 35, "first_year": 2022, "last_year": 2022, "years_active": 1}}, {"type": "Feature", "geometry": {"type": "Point", "coordinates": [2.634575, 48.878122]}, "properties": {"street_name": "RUE DE THORIGNY", "sales": 2, "sales_appt": 0, "sales_maison": 1, "median_price": 267000.0, "median_price_per_sqm": 4767.857142857143, "turnover_score": 1.8, "turnover_rank": 35, "first_year": 2023, "last_year": 2023, "years_active": 1}}, {"type": "Feature", "geometry": {"type": "Point", "coordinates": [2.620787, 48.866171]}, "properties": {"street_name": "LE PONT BLANC", "sales": 2, "sales_appt": 0, "sales_maison": 0, "median_price": 1.0, "median_price_per_sqm": null, "turnover_score": 1.8, "turnover_rank": 35, "first_year": 2025, "last_year": 2025, "years_active": 1}}, {"type": "Feature", "geometry": {"type": "Point", "coordinates": [2.631844, 48.879218]}, "properties": {"street_name": "IMP DES PETUNIAS", "sales": 1, "sales_appt": 0, "sales_maison": 1, "median_price": 470000.0, "median_price_per_sqm": 3852.4590163934427, "turnover_score": 0.9, "turnover_rank": 36, "first_year": 2021, "last_year": 2021, "years_active": 1}}, {"type": "Feature", "geometry": {"type": "Point", "coordinates": [2.627908, 48.86918]}, "properties": {"street_name": "ALL DU MUGUET", "sales": 1, "sales_appt": 0, "sales_maison": 1, "median_price": 260000.0, "median_price_per_sqm": 5000.0, "turnover_score": 0.9, "turnover_rank": 36, "first_year": 2022, "last_year": 2022, "years_active": 1}}, {"type": "Feature", "geometry": {"type": "Point", "coordinates": [2.631505, 48.867371]}, "properties": {"street_name": "ALL GEORGES CARPENTIER", "sales": 1, "sales_appt": 0, "sales_maison": 1, "median_price": 454600.0, "median_price_per_sqm": 3987.719298245614, "turnover_score": 0.9, "turnover_rank": 36, "first_year": 2025, "last_year": 2025, "years_active": 1}}, {"type": "Feature", "geometry": {"type": "Point", "coordinates": [2.640692, 48.865915]}, "properties": {"street_name": "QUAI DU PORT", "sales": 1, "sales_appt": 0, "sales_maison": 1, "median_price": 323000.0, "median_price_per_sqm": 4306.666666666667, "turnover_score": 0.9, "turnover_rank": 36, "first_year": 2024, "last_year": 2024, "years_active": 1}}, {"type": "Feature", "geometry": {"type": "Point", "coordinates": [2.646131, 48.870641]}, "properties": {"street_name": "PL DU VIEUX VAIRES", "sales": 1, "sales_appt": 0, "sales_maison": 1, "median_price": 447000.0, "median_price_per_sqm": 4656.25, "turnover_score": 0.9, "turnover_rank": 36, "first_year": 2021, "last_year": 2021, "years_active": 1}}, {"type": "Feature", "geometry": {"type": "Point", "coordinates": [2.640446, 48.87365]}, "properties": {"street_name": "RUE CONSTANT MELET", "sales": 1, "sales_appt": 0, "sales_maison": 1, "median_price": 900000.0, "median_price_per_sqm": 5487.804878048781, "turnover_score": 0.9, "turnover_rank": 36, "first_year": 2024, "last_year": 2024, "years_active": 1}}, {"type": "Feature", "geometry": {"type": "Point", "coordinates": [2.626737, 48.868151]}, "properties": {"street_name": "RUE DES PRIMEVERES", "sales": 1, "sales_appt": 0, "sales_maison": 1, "median_price": 431000.0, "median_price_per_sqm": 3504.0650406504064, "turnover_score": 0.9, "turnover_rank": 36, "first_year": 2024, "last_year": 2024, "years_active": 1}}, {"type": "Feature", "geometry": {"type": "Point", "coordinates": [2.645856, 48.870327]}, "properties": {"street_name": "RUE DES MARINIERS", "sales": 1, "sales_appt": 0, "sales_maison": 1, "median_price": 284400.0, "median_price_per_sqm": 5078.571428571428, "turnover_score": 0.9, "turnover_rank": 36, "first_year": 2021, "last_year": 2021, "years_active": 1}}, {"type": "Feature", "geometry": {"type": "Point", "coordinates": [2.627908, 48.86918]}, "properties": {"street_name": "RUE DES LILAS", "sales": 1, "sales_appt": 0, "sales_maison": 1, "median_price": 267000.0, "median_price_per_sqm": 4107.692307692308, "turnover_score": 0.9, "turnover_rank": 36, "first_year": 2025, "last_year": 2025, "years_active": 1}}, {"type": "Feature", "geometry": {"type": "Point", "coordinates": [2.628134, 48.871354]}, "properties": {"street_name": "RUE LEON GAMBETTA", "sales": 1, "sales_appt": 0, "sales_maison": 0, "median_price": 185000.0, "median_price_per_sqm": null, "turnover_score": 0.9, "turnover_rank": 36, "first_year": 2021, "last_year": 2021, "years_active": 1}}, {"type": "Feature", "geometry": {"type": "Point", "coordinates": [2.644386, 48.870702]}, "properties": {"street_name": "SEN DES MARINIERS", "sales": 1, "sales_appt": 0, "sales_maison": 0, "median_price": 284400.0, "median_price_per_sqm": null, "turnover_score": 0.9, "turnover_rank": 36, "first_year": 2021, "last_year": 2021, "years_active": 1}}]}