{"type": "FeatureCollection", "features": [{"type": "Feature", "geometry": {"type": "Point", "coordinates": [2.691341, 48.8586095]}, "properties": {"street_name": "RUE DU HAUT VILLIERS", "sales": 36, "sales_appt": 0, "sales_maison": 20, "median_price": 526000.0, "median_price_per_sqm": 4298.571428571428, "turnover_score": 100.0, "turnover_rank": 1, "first_year": 2021, "last_year": 2025, "years_active": 5}}, {"type": "Feature", "geometry": {"type": "Point", "coordinates": [2.703606, 48.855338]}, "properties": {"street_name": "AV DES DEUX CHATEAUX", "sales": 31, "sales_appt": 6, "sales_maison": 4, "median_price": 275000.0, "median_price_per_sqm": 78.856, "turnover_score": 86.1, "turnover_rank": 2, "first_year": 2022, "last_year": 2024, "years_active": 3}}, {"type": "Feature", "geometry": {"type": "Point", "coordinates": [2.693166, 48.860449]}, "properties": {"street_name": "RUE PASTEUR", "sales": 30, "sales_appt": 5, "sales_maison": 16, "median_price": 442250.0, "median_price_per_sqm": 4370.192307692308, "turnover_score": 83.3, "turnover_rank": 3, "first_year": 2021, "last_year": 2025, "years_active": 5}}, {"type": "Feature", "geometry": {"type": "Point", "coordinates": [2.696385, 48.863939]}, "properties": {"street_name": "RUE SAINT GERMAIN", "sales": 29, "sales_appt": 0, "sales_maison": 15, "median_price": 698000.0, "median_price_per_sqm": 3803.3166666666666, "turnover_score": 80.6, "turnover_rank": 4, "first_year": 2021, "last_year": 2025, "years_active": 5}}, {"type": "Feature", "geometry": {"type": "Point", "coordinates": [2.69961, 48.854834]}, "properties": {"street_name": "LES HERMIERES", "sales": 21, "sales_appt": 0, "sales_maison": 0, "median_price": 535000.0, "median_price_per_sqm": 662.2941176470588, "turnover_score": 58.3, "turnover_rank": 5, "first_year": 2022, "last_year": 2025, "years_active": 3}}, {"type": "Feature", "geometry": {"type": "Point", "coordinates": [2.697081, 48.860703]}, "properties": {"street_name": "RUE DE LA FONTAINE", "sales": 20, "sales_appt": 8, "sales_maison": 3, "median_price": 160000.0, "median_price_per_sqm": 3571.4285714285716, "turnover_score": 55.6, "turnover_rank": 6, "first_year": 2021, "last_year": 2025, "years_active": 5}}, {"type": "Feature", "geometry": {"type": "Point", "coordinates": [2.686788, 48.858368999999996]}, "properties": {"street_name": "RUE DU BAS VILLIERS", "sales": 16, "sales_appt": 0, "sales_maison": 7, "median_price": 565500.0, "median_price_per_sqm": 5067.961165048544, "turnover_score": 44.4, "turnover_rank": 7, "first_year": 2021, "last_year": 2025, "years_active": 4}}, {"type": "Feature", "geometry": {"type": "Point", "coordinates": [2.6926705, 48.8600345]}, "properties": {"street_name": "CHE MATHOU", "sales": 12, "sales_appt": 0, "sales_maison": 6, "median_price": 438000.0, "median_price_per_sqm": 4022.6166832174777, "turnover_score": 33.3, "turnover_rank": 8, "first_year": 2021, "last_year": 2023, "years_active": 3}}, {"type": "Feature", "geometry": {"type": "Point", "coordinates": [2.69231, 48.859277]}, "properties": {"street_name": "RUE FERRE", "sales": 8, "sales_appt": 0, "sales_maison": 4, "median_price": 555000.0, "median_price_per_sqm": 2919.84981649604, "turnover_score": 22.2, "turnover_rank": 9, "first_year": 2023, "last_year": 2025, "years_active": 2}}, {"type": "Feature", "geometry": {"type": "Point", "coordinates": [2.684465, 48.857123]}, "properties": {"street_name": "RUE DES CLOSEAUX", "sales": 7, "sales_appt": 0, "sales_maison": 5, "median_price": 899000.0, "median_price_per_sqm": 4516.901408450704, "turnover_score": 19.4, "turnover_rank": 10, "first_year": 2023, "last_year": 2025, "years_active": 2}}, {"type": "Feature", "geometry": {"type": "Point", "coordinates": [2.693436, 48.860089]}, "properties": {"street_name": "LE VILLAGE", "sales": 7, "sales_appt": 0, "sales_maison": 0, "median_price": 290000.0, "median_price_per_sqm": null, "turnover_score": 19.4, "turnover_rank": 10, "first_year": 2021, "last_year": 2024, "years_active": 4}}, {"type": "Feature", "geometry": {"type": "Point", "coordinates": [2.6946125, 48.859995]}, "properties": {"street_name": "IMP DU HAUT VILLIERS", "sales": 6, "sales_appt": 0, "sales_maison": 4, "median_price": 362140.0, "median_price_per_sqm": 3526.153846153846, "turnover_score": 16.7, "turnover_rank": 11, "first_year": 2022, "last_year": 2023, "years_active": 2}}, {"type": "Feature", "geometry": {"type": "Point", "coordinates": [2.704418, 48.855227]}, "properties": {"street_name": "RUE HERMIERES", "sales": 6, "sales_appt": 0, "sales_maison": 2, "median_price": 349000.0, "median_price_per_sqm": 3642.391304347826, "turnover_score": 16.7, "turnover_rank": 11, "first_year": 2021, "last_year": 2022, "years_active": 2}}, {"type": "Feature", "geometry": {"type": "Point", "coordinates": [2.691319, 48.861698000000004]}, "properties": {"street_name": "RUE DES PIERRES", "sales": 6, "sales_appt": 0, "sales_maison": 1, "median_price": 395000.0, "median_price_per_sqm": 3354.4303797468356, "turnover_score": 16.7, "turnover_rank": 11, "first_year": 2021, "last_year": 2021, "years_active": 1}}, {"type": "Feature", "geometry": {"type": "Point", "coordinates": [2.691178, 48.861496]}, "properties": {"street_name": "LES FOURS", "sales": 5, "sales_appt": 0, "sales_maison": 0, "median_price": 260000.0, "median_price_per_sqm": null, "turnover_score": 13.9, "turnover_rank": 12, "first_year": 2021, "last_year": 2025, "years_active": 4}}, {"type": "Feature", "geometry": {"type": "Point", "coordinates": [2.696324, 48.866454000000004]}, "properties": {"street_name": "CHE DE LA TETE NOIRE", "sales": 4, "sales_appt": 0, "sales_maison": 0, "median_price": 191500.0, "median_price_per_sqm": null, "turnover_score": 11.1, "turnover_rank": 13, "first_year": 2022, "last_year": 2022, "years_active": 1}}, {"type": "Feature", "geometry": {"type": "Point", "coordinates": [2.69085, 48.858107]}, "properties": {"street_name": "RUE DES BLANCHETS", "sales": 4, "sales_appt": 0, "sales_maison": 2, "median_price": 845000.0, "median_price_per_sqm": 3380.0, "turnover_score": 11.1, "turnover_rank": 13, "first_year": 2021, "last_year": 2021, "years_active": 1}}, {"type": "Feature", "geometry": {"type": "Point", "coordinates": [2.705234, 48.860128]}, "properties": {"street_name": "CHE NEUF", "sales": 4, "sales_appt": 0, "sales_maison": 2, "median_price": 950000.0, "median_price_per_sqm": 3492.6470588235293, "turnover_score": 11.1, "turnover_rank": 13, "first_year": 2025, "last_year": 2025, "years_active": 1}}, {"type": "Feature", "geometry": {"type": "Point", "coordinates": [2.69545, 48.864543499999996]}, "properties": {"street_name": "LE CLOS SAINT PAIRES", "sales": 4, "sales_appt": 0, "sales_maison": 0, "median_price": 17000.0, "median_price_per_sqm": null, "turnover_score": 11.1, "turnover_rank": 13, "first_year": 2022, "last_year": 2023, "years_active": 2}}, {"type": "Feature", "geometry": {"type": "Point", "coordinates": [2.693389, 48.860142]}, "properties": {"street_name": "IMP DU MOULIN", "sales": 3, "sales_appt": 0, "sales_maison": 2, "median_price": 290000.0, "median_price_per_sqm": 3976.3581488933605, "turnover_score": 8.3, "turnover_rank": 14, "first_year": 2021, "last_year": 2024, "years_active": 2}}, {"type": "Feature", "geometry": {"type": "Point", "coordinates": [2.688855, 48.857023]}, "properties": {"street_name": "LE POMMIER DE MALINGRE", "sales": 3, "sales_appt": 0, "sales_maison": 0, "median_price": 525000.0, "median_price_per_sqm": null, "turnover_score": 8.3, "turnover_rank": 14, "first_year": 2021, "last_year": 2021, "years_active": 1}}, {"type": "Feature", "geometry": {"type": "Point", "coordinates": [2.694352, 48.859456]}, "properties": {"street_name": "RUE DU CLOS DE LA SARGE", "sales": 3, "sales_appt": 0, "sales_maison": 1, "median_price": 393000.0, "median_price_per_sqm": 5171.0526315789475, "turnover_score": 8.3, "turnover_rank": 14, "first_year": 2023, "last_year": 2023, "years_active": 1}}, {"type": "Feature", "geometry": {"type": "Point", "coordinates": [2.684883, 48.851704]}, "properties": {"street_name": "LE CLOS BERTAIL", "sales": 3, "sales_appt": 0, "sales_maison": 0, "median_price": 2402.0, "median_price_per_sqm": null, "turnover_score": 8.3, "turnover_rank": 14, "first_year": 2024, "last_year": 2024, "years_active": 1}}, {"type": "Feature", "geometry": {"type": "Point", "coordinates": [2.705698, 48.8600495]}, "properties": {"street_name": "CHEM NEUF", "sales": 2, "sales_appt": 0, "sales_maison": 0, "median_price": 950000.0, "median_price_per_sqm": null, "turnover_score": 5.6, "turnover_rank": 15, "first_year": 2025, "last_year": 2025, "years_active": 1}}, {"type": "Feature", "geometry": {"type": "Point", "coordinates": [2.690948, 48.859792]}, "properties": {"street_name": "IMP VICTOR HUGO", "sales": 2, "sales_appt": 2, "sales_maison": 0, "median_price": 330000.0, "median_price_per_sqm": 7425.0, "turnover_score": 5.6, "turnover_rank": 15, "first_year": 2024, "last_year": 2024, "years_active": 1}}, {"type": "Feature", "geometry": {"type": "Point", "coordinates": [2.709429, 48.859501]}, "properties": {"street_name": "LE MOULIN DE LA SAULE", "sales": 1, "sales_appt": 0, "sales_maison": 0, "median_price": 9.0, "median_price_per_sqm": null, "turnover_score": 2.8, "turnover_rank": 16, "first_year": 2024, "last_year": 2024, "years_active": 1}}, {"type": "Feature", "geometry": {"type": "Point", "coordinates": [2.700281, 48.859551]}, "properties": {"street_name": "LES GERMINAS", "sales": 1, "sales_appt": 0, "sales_maison": 0, "median_price": 1410.0, "median_price_per_sqm": null, "turnover_score": 2.8, "turnover_rank": 16, "first_year": 2023, "last_year": 2023, "years_active": 1}}, {"type": "Feature", "geometry": {"type": "Point", "coordinates": [2.694297, 48.862415]}, "properties": {"street_name": "RUE DU CALVAIRE", "sales": 1, "sales_appt": 0, "sales_maison": 1, "median_price": 494000.0, "median_price_per_sqm": 5678.16091954023, "turnover_score": 2.8, "turnover_rank": 16, "first_year": 2022, "last_year": 2022, "years_active": 1}}, {"type": "Feature", "geometry": {"type": "Point", "coordinates": [2.690392, 48.859406]}, "properties": {"street_name": "RUE VICTOR HUGO", "sales": 1, "sales_appt": 1, "sales_maison": 0, "median_price": 216000.0, "median_price_per_sqm": 2918.9189189189187, "turnover_score": 2.8, "turnover_rank": 16, "first_year": 2021, "last_year": 2021, "years_active": 1}}]}