{"type": "FeatureCollection", "features": [{"type": "Feature", "geometry": {"type": "Point", "coordinates": [3.486361, 48.627178]}, "properties": {"street_name": "RUE DU LONGUET", "sales": 15, "sales_appt": 0, "sales_maison": 9, "median_price": 158000.0, "median_price_per_sqm": 1750.0, "turnover_score": 100.0, "turnover_rank": 1, "first_year": 2021, "last_year": 2025, "years_active": 4}}, {"type": "Feature", "geometry": {"type": "Point", "coordinates": [3.470566, 48.61125]}, "properties": {"street_name": "ECURIE", "sales": 13, "sales_appt": 0, "sales_maison": 0, "median_price": 160000.0, "median_price_per_sqm": null, "turnover_score": 86.7, "turnover_rank": 2, "first_year": 2021, "last_year": 2025, "years_active": 4}}, {"type": "Feature", "geometry": {"type": "Point", "coordinates": [3.481555, 48.627167]}, "properties": {"street_name": "LOUAN", "sales": 13, "sales_appt": 0, "sales_maison": 0, "median_price": 145000.0, "median_price_per_sqm": null, "turnover_score": 86.7, "turnover_rank": 2, "first_year": 2021, "last_year": 2024, "years_active": 3}}, {"type": "Feature", "geometry": {"type": "Point", "coordinates": [3.5177695, 48.6164225]}, "properties": {"street_name": "LE VILLAGE", "sales": 12, "sales_appt": 0, "sales_maison": 0, "median_price": 35000.0, "median_price_per_sqm": null, "turnover_score": 80.0, "turnover_rank": 3, "first_year": 2021, "last_year": 2025, "years_active": 5}}, {"type": "Feature", "geometry": {"type": "Point", "coordinates": [3.472453, 48.592536]}, "properties": {"street_name": "LA QUEUE AUX BOIS", "sales": 11, "sales_appt": 0, "sales_maison": 0, "median_price": 217000.0, "median_price_per_sqm": null, "turnover_score": 73.3, "turnover_rank": 4, "first_year": 2022, "last_year": 2024, "years_active": 3}}, {"type": "Feature", "geometry": {"type": "Point", "coordinates": [3.472168, 48.610812]}, "properties": {"street_name": "RUE DES BLES D'OR", "sales": 10, "sales_appt": 0, "sales_maison": 4, "median_price": 150000.0, "median_price_per_sqm": 2234.5075955997904, "turnover_score": 66.7, "turnover_rank": 5, "first_year": 2021, "last_year": 2025, "years_active": 3}}, {"type": "Feature", "geometry": {"type": "Point", "coordinates": [3.472659, 48.592074]}, "properties": {"street_name": "RUE DE VILLEGRUIS", "sales": 9, "sales_appt": 0, "sales_maison": 2, "median_price": 114880.0, "median_price_per_sqm": 1484.0631578947368, "turnover_score": 60.0, "turnover_rank": 6, "first_year": 2022, "last_year": 2023, "years_active": 2}}, {"type": "Feature", "geometry": {"type": "Point", "coordinates": [3.481339, 48.62629]}, "properties": {"street_name": "RUE DE MONTAIGUILLON", "sales": 9, "sales_appt": 0, "sales_maison": 4, "median_price": 140000.0, "median_price_per_sqm": 1196.5811965811965, "turnover_score": 60.0, "turnover_rank": 6, "first_year": 2021, "last_year": 2025, "years_active": 3}}, {"type": "Feature", "geometry": {"type": "Point", "coordinates": [3.47094, 48.607396]}, "properties": {"street_name": "LE CHEMIN D ECURIE", "sales": 8, "sales_appt": 0, "sales_maison": 0, "median_price": 49221.6, "median_price_per_sqm": null, "turnover_score": 53.3, "turnover_rank": 7, "first_year": 2021, "last_year": 2022, "years_active": 2}}, {"type": "Feature", "geometry": {"type": "Point", "coordinates": [3.481355, 48.627729]}, "properties": {"street_name": "RUE VERTE", "sales": 7, "sales_appt": 0, "sales_maison": 4, "median_price": 147500.0, "median_price_per_sqm": 1214.367816091954, "turnover_score": 46.7, "turnover_rank": 8, "first_year": 2023, "last_year": 2024, "years_active": 2}}, {"type": "Feature", "geometry": {"type": "Point", "coordinates": [3.474915, 48.626748]}, "properties": {"street_name": "RUE DE BRASSEAUX", "sales": 7, "sales_appt": 0, "sales_maison": 3, "median_price": 221900.0, "median_price_per_sqm": 2521.590909090909, "turnover_score": 46.7, "turnover_rank": 8, "first_year": 2021, "last_year": 2022, "years_active": 2}}, {"type": "Feature", "geometry": {"type": "Point", "coordinates": [3.4984045000000004, 48.6210535]}, "properties": {"street_name": "LE SABLE", "sales": 6, "sales_appt": 0, "sales_maison": 0, "median_price": 46031.5, "median_price_per_sqm": null, "turnover_score": 40.0, "turnover_rank": 9, "first_year": 2023, "last_year": 2023, "years_active": 1}}, {"type": "Feature", "geometry": {"type": "Point", "coordinates": [3.465854, 48.60308]}, "properties": {"street_name": "VILLEGRUIS", "sales": 6, "sales_appt": 0, "sales_maison": 0, "median_price": 110000.0, "median_price_per_sqm": null, "turnover_score": 40.0, "turnover_rank": 9, "first_year": 2021, "last_year": 2022, "years_active": 2}}, {"type": "Feature", "geometry": {"type": "Point", "coordinates": [3.466396, 48.60302]}, "properties": {"street_name": "RUE SAINT MEDARD", "sales": 6, "sales_appt": 0, "sales_maison": 3, "median_price": 275275.0, "median_price_per_sqm": 1653.8461538461538, "turnover_score": 40.0, "turnover_rank": 9, "first_year": 2021, "last_year": 2022, "years_active": 2}}, {"type": "Feature", "geometry": {"type": "Point", "coordinates": [3.525306, 48.6146]}, "properties": {"street_name": "LES FOSSES SAINT JEAN", "sales": 6, "sales_appt": 0, "sales_maison": 0, "median_price": 78450.0, "median_price_per_sqm": null, "turnover_score": 40.0, "turnover_rank": 9, "first_year": 2023, "last_year": 2023, "years_active": 1}}, {"type": "Feature", "geometry": {"type": "Point", "coordinates": [3.446931, 48.600456]}, "properties": {"street_name": "LES PLEUX DE VILLEGRUIS", "sales": 5, "sales_appt": 0, "sales_maison": 0, "median_price": 9500.0, "median_price_per_sqm": null, "turnover_score": 33.3, "turnover_rank": 10, "first_year": 2022, "last_year": 2022, "years_active": 1}}, {"type": "Feature", "geometry": {"type": "Point", "coordinates": [3.475158, 48.625935]}, "properties": {"street_name": "LES PETITS PRES", "sales": 5, "sales_appt": 0, "sales_maison": 0, "median_price": 90000.0, "median_price_per_sqm": null, "turnover_score": 33.3, "turnover_rank": 10, "first_year": 2021, "last_year": 2023, "years_active": 3}}, {"type": "Feature", "geometry": {"type": "Point", "coordinates": [3.489261, 48.629548]}, "properties": {"street_name": "BOIS DE MONTAIGUILLON", "sales": 5, "sales_appt": 0, "sales_maison": 0, "median_price": 300000.0, "median_price_per_sqm": 1390.3222107556473, "turnover_score": 33.3, "turnover_rank": 10, "first_year": 2024, "last_year": 2025, "years_active": 2}}, {"type": "Feature", "geometry": {"type": "Point", "coordinates": [3.469716, 48.602655]}, "properties": {"street_name": "RUE DE LA GARENNE", "sales": 4, "sales_appt": 0, "sales_maison": 2, "median_price": 140000.0, "median_price_per_sqm": 1891.8918918918919, "turnover_score": 26.7, "turnover_rank": 11, "first_year": 2021, "last_year": 2021, "years_active": 1}}, {"type": "Feature", "geometry": {"type": "Point", "coordinates": [3.454215, 48.618012]}, "properties": {"street_name": "LES DEUX CENTS ARPENTS", "sales": 4, "sales_appt": 0, "sales_maison": 0, "median_price": 2896481.0, "median_price_per_sqm": null, "turnover_score": 26.7, "turnover_rank": 11, "first_year": 2022, "last_year": 2022, "years_active": 1}}, {"type": "Feature", "geometry": {"type": "Point", "coordinates": [3.462402, 48.610193]}, "properties": {"street_name": "LA COUTURE", "sales": 4, "sales_appt": 0, "sales_maison": 0, "median_price": 2896481.0, "median_price_per_sqm": null, "turnover_score": 26.7, "turnover_rank": 11, "first_year": 2022, "last_year": 2022, "years_active": 1}}, {"type": "Feature", "geometry": {"type": "Point", "coordinates": [3.461541, 48.619111]}, "properties": {"street_name": "LES MARGUERITES", "sales": 4, "sales_appt": 0, "sales_maison": 0, "median_price": 2896481.0, "median_price_per_sqm": null, "turnover_score": 26.7, "turnover_rank": 11, "first_year": 2022, "last_year": 2022, "years_active": 1}}, {"type": "Feature", "geometry": {"type": "Point", "coordinates": [3.4708285, 48.613444]}, "properties": {"street_name": "RUE DU GUE", "sales": 4, "sales_appt": 0, "sales_maison": 1, "median_price": 92500.0, "median_price_per_sqm": 2416.6666666666665, "turnover_score": 26.7, "turnover_rank": 11, "first_year": 2022, "last_year": 2023, "years_active": 2}}, {"type": "Feature", "geometry": {"type": "Point", "coordinates": [3.469999, 48.592774]}, "properties": {"street_name": "RUE DE LA PIE CULTIVEE", "sales": 4, "sales_appt": 0, "sales_maison": 2, "median_price": 234500.0, "median_price_per_sqm": 1674.9240121580547, "turnover_score": 26.7, "turnover_rank": 11, "first_year": 2022, "last_year": 2024, "years_active": 2}}, {"type": "Feature", "geometry": {"type": "Point", "coordinates": [3.4715730000000002, 48.628003]}, "properties": {"street_name": "LE MERISIER ROUGE", "sales": 4, "sales_appt": 0, "sales_maison": 0, "median_price": 62556.0, "median_price_per_sqm": null, "turnover_score": 26.7, "turnover_rank": 11, "first_year": 2022, "last_year": 2022, "years_active": 1}}, {"type": "Feature", "geometry": {"type": "Point", "coordinates": [3.480022, 48.607924]}, "properties": {"street_name": "LA CROTTE DE POULE", "sales": 4, "sales_appt": 0, "sales_maison": 0, "median_price": 2896481.0, "median_price_per_sqm": null, "turnover_score": 26.7, "turnover_rank": 11, "first_year": 2022, "last_year": 2022, "years_active": 1}}, {"type": "Feature", "geometry": {"type": "Point", "coordinates": [3.474833, 48.593633]}, "properties": {"street_name": "RUE DU CHATEAU", "sales": 3, "sales_appt": 0, "sales_maison": 2, "median_price": 217000.0, "median_price_per_sqm": 1783.0851470026728, "turnover_score": 20.0, "turnover_rank": 12, "first_year": 2021, "last_year": 2024, "years_active": 2}}, {"type": "Feature", "geometry": {"type": "Point", "coordinates": [3.518413, 48.615443]}, "properties": {"street_name": "RUE BABEL", "sales": 3, "sales_appt": 0, "sales_maison": 1, "median_price": 260000.0, "median_price_per_sqm": 2363.6363636363635, "turnover_score": 20.0, "turnover_rank": 12, "first_year": 2021, "last_year": 2021, "years_active": 1}}, {"type": "Feature", "geometry": {"type": "Point", "coordinates": [3.463785, 48.60833]}, "properties": {"street_name": "LE CLOSEAU", "sales": 3, "sales_appt": 0, "sales_maison": 0, "median_price": 2896481.0, "median_price_per_sqm": null, "turnover_score": 20.0, "turnover_rank": 12, "first_year": 2022, "last_year": 2022, "years_active": 1}}, {"type": "Feature", "geometry": {"type": "Point", "coordinates": [3.473509, 48.630179]}, "properties": {"street_name": "LA SENTE COLIN", "sales": 3, "sales_appt": 0, "sales_maison": 0, "median_price": 62556.0, "median_price_per_sqm": null, "turnover_score": 20.0, "turnover_rank": 12, "first_year": 2022, "last_year": 2022, "years_active": 1}}, {"type": "Feature", "geometry": {"type": "Point", "coordinates": [3.460729, 48.595486]}, "properties": {"street_name": "LA GARENNE", "sales": 3, "sales_appt": 0, "sales_maison": 0, "median_price": 10213.0, "median_price_per_sqm": null, "turnover_score": 20.0, "turnover_rank": 12, "first_year": 2021, "last_year": 2022, "years_active": 2}}, {"type": "Feature", "geometry": {"type": "Point", "coordinates": [3.464345, 48.633046]}, "properties": {"street_name": "LA FOSSE DU TAUX", "sales": 3, "sales_appt": 0, "sales_maison": 0, "median_price": 62556.0, "median_price_per_sqm": null, "turnover_score": 20.0, "turnover_rank": 12, "first_year": 2022, "last_year": 2024, "years_active": 2}}, {"type": "Feature", "geometry": {"type": "Point", "coordinates": [3.495791, 48.613955]}, "properties": {"street_name": "LA GARENNE DU MOULIN DE LO", "sales": 3, "sales_appt": 0, "sales_maison": 0, "median_price": 22913.6, "median_price_per_sqm": null, "turnover_score": 20.0, "turnover_rank": 12, "first_year": 2022, "last_year": 2022, "years_active": 1}}, {"type": "Feature", "geometry": {"type": "Point", "coordinates": [3.453968, 48.605112]}, "properties": {"street_name": "LE NOYER PRECHEUR", "sales": 3, "sales_appt": 0, "sales_maison": 0, "median_price": 2896481.0, "median_price_per_sqm": null, "turnover_score": 20.0, "turnover_rank": 12, "first_year": 2022, "last_year": 2022, "years_active": 1}}, {"type": "Feature", "geometry": {"type": "Point", "coordinates": [3.486397, 48.627087]}, "properties": {"street_name": "SOUS LES BOIS", "sales": 3, "sales_appt": 0, "sales_maison": 0, "median_price": 62556.0, "median_price_per_sqm": null, "turnover_score": 20.0, "turnover_rank": 12, "first_year": 2022, "last_year": 2024, "years_active": 3}}, {"type": "Feature", "geometry": {"type": "Point", "coordinates": [3.480937, 48.624309]}, "properties": {"street_name": "RUE PERRE", "sales": 2, "sales_appt": 0, "sales_maison": 1, "median_price": 145000.0, "median_price_per_sqm": 1178.861788617886, "turnover_score": 13.3, "turnover_rank": 13, "first_year": 2021, "last_year": 2021, "years_active": 1}}, {"type": "Feature", "geometry": {"type": "Point", "coordinates": [3.473195, 48.592352]}, "properties": {"street_name": "CHEM DE FRESNOY", "sales": 2, "sales_appt": 0, "sales_maison": 0, "median_price": 38000.0, "median_price_per_sqm": null, "turnover_score": 13.3, "turnover_rank": 13, "first_year": 2022, "last_year": 2022, "years_active": 1}}, {"type": "Feature", "geometry": {"type": "Point", "coordinates": [3.457386, 48.624218]}, "properties": {"street_name": "L EPINOTTE", "sales": 2, "sales_appt": 0, "sales_maison": 0, "median_price": 62556.0, "median_price_per_sqm": null, "turnover_score": 13.3, "turnover_rank": 13, "first_year": 2022, "last_year": 2022, "years_active": 1}}, {"type": "Feature", "geometry": {"type": "Point", "coordinates": [3.470816, 48.591725]}, "properties": {"street_name": "RUE DE LA TREILLE", "sales": 2, "sales_appt": 0, "sales_maison": 1, "median_price": 258600.0, "median_price_per_sqm": 1724.0, "turnover_score": 13.3, "turnover_rank": 13, "first_year": 2022, "last_year": 2022, "years_active": 1}}, {"type": "Feature", "geometry": {"type": "Point", "coordinates": [3.517472, 48.616227]}, "properties": {"street_name": "RLE DU PONT", "sales": 2, "sales_appt": 0, "sales_maison": 1, "median_price": 158900.0, "median_price_per_sqm": 1059.3333333333333, "turnover_score": 13.3, "turnover_rank": 13, "first_year": 2021, "last_year": 2021, "years_active": 1}}, {"type": "Feature", "geometry": {"type": "Point", "coordinates": [3.491187, 48.6177175]}, "properties": {"street_name": "LES SABLES", "sales": 2, "sales_appt": 0, "sales_maison": 0, "median_price": 112928.915, "median_price_per_sqm": null, "turnover_score": 13.3, "turnover_rank": 13, "first_year": 2021, "last_year": 2023, "years_active": 2}}, {"type": "Feature", "geometry": {"type": "Point", "coordinates": [3.479422, 48.624833]}, "properties": {"street_name": "RUE D'ECURY", "sales": 2, "sales_appt": 0, "sales_maison": 1, "median_price": 130000.0, "median_price_per_sqm": 560.3448275862069, "turnover_score": 13.3, "turnover_rank": 13, "first_year": 2025, "last_year": 2025, "years_active": 1}}, {"type": "Feature", "geometry": {"type": "Point", "coordinates": [3.515143, 48.617452]}, "properties": {"street_name": "RUE DE LA FORGE", "sales": 2, "sales_appt": 0, "sales_maison": 1, "median_price": 185000.0, "median_price_per_sqm": 1927.0833333333333, "turnover_score": 13.3, "turnover_rank": 13, "first_year": 2025, "last_year": 2025, "years_active": 1}}, {"type": "Feature", "geometry": {"type": "Point", "coordinates": [3.469309, 48.604753]}, "properties": {"street_name": "RUE SAINTE SYRE", "sales": 2, "sales_appt": 0, "sales_maison": 2, "median_price": 175000.0, "median_price_per_sqm": 1944.4444444444443, "turnover_score": 13.3, "turnover_rank": 13, "first_year": 2025, "last_year": 2025, "years_active": 1}}, {"type": "Feature", "geometry": {"type": "Point", "coordinates": [3.5184935, 48.61659]}, "properties": {"street_name": "RUE FLORIA", "sales": 2, "sales_appt": 0, "sales_maison": 2, "median_price": 56000.0, "median_price_per_sqm": 1040.0, "turnover_score": 13.3, "turnover_rank": 13, "first_year": 2022, "last_year": 2025, "years_active": 2}}, {"type": "Feature", "geometry": {"type": "Point", "coordinates": [3.4738685, 48.6110965]}, "properties": {"street_name": "DERRIERE LES CLOS", "sales": 2, "sales_appt": 0, "sales_maison": 0, "median_price": 1528240.5, "median_price_per_sqm": null, "turnover_score": 13.3, "turnover_rank": 13, "first_year": 2022, "last_year": 2023, "years_active": 2}}, {"type": "Feature", "geometry": {"type": "Point", "coordinates": [3.489115, 48.615391]}, "properties": {"street_name": "LA FONTAINE D HOUSSEAU", "sales": 2, "sales_appt": 0, "sales_maison": 0, "median_price": 1453240.5, "median_price_per_sqm": null, "turnover_score": 13.3, "turnover_rank": 13, "first_year": 2022, "last_year": 2022, "years_active": 1}}, {"type": "Feature", "geometry": {"type": "Point", "coordinates": [3.476649, 48.605235]}, "properties": {"street_name": "LE CHEMIN DE LA BARRIERE", "sales": 2, "sales_appt": 0, "sales_maison": 0, "median_price": 2896481.0, "median_price_per_sqm": null, "turnover_score": 13.3, "turnover_rank": 13, "first_year": 2022, "last_year": 2022, "years_active": 1}}, {"type": "Feature", "geometry": {"type": "Point", "coordinates": [3.5200575, 48.6162585]}, "properties": {"street_name": "LE BOIS DES FOSSES", "sales": 2, "sales_appt": 0, "sales_maison": 0, "median_price": 18500.0, "median_price_per_sqm": null, "turnover_score": 13.3, "turnover_rank": 13, "first_year": 2022, "last_year": 2022, "years_active": 1}}, {"type": "Feature", "geometry": {"type": "Point", "coordinates": [3.480871, 48.62836]}, "properties": {"street_name": "LE CHEMIN D EN BAS", "sales": 2, "sales_appt": 0, "sales_maison": 0, "median_price": 62556.0, "median_price_per_sqm": null, "turnover_score": 13.3, "turnover_rank": 13, "first_year": 2022, "last_year": 2022, "years_active": 1}}, {"type": "Feature", "geometry": {"type": "Point", "coordinates": [3.511079, 48.594512]}, "properties": {"street_name": "CHEMIN PERRE", "sales": 2, "sales_appt": 0, "sales_maison": 0, "median_price": 7562.0, "median_price_per_sqm": null, "turnover_score": 13.3, "turnover_rank": 13, "first_year": 2023, "last_year": 2023, "years_active": 1}}, {"type": "Feature", "geometry": {"type": "Point", "coordinates": [3.44822, 48.631209]}, "properties": {"street_name": "BEAUMONT", "sales": 1, "sales_appt": 0, "sales_maison": 0, "median_price": 215644.83, "median_price_per_sqm": null, "turnover_score": 6.7, "turnover_rank": 14, "first_year": 2023, "last_year": 2023, "years_active": 1}}, {"type": "Feature", "geometry": {"type": "Point", "coordinates": [3.471408, 48.604447]}, "properties": {"street_name": "LE VIDE BOUTEILLE", "sales": 1, "sales_appt": 0, "sales_maison": 0, "median_price": 15000.0, "median_price_per_sqm": null, "turnover_score": 6.7, "turnover_rank": 14, "first_year": 2025, "last_year": 2025, "years_active": 1}}, {"type": "Feature", "geometry": {"type": "Point", "coordinates": [3.473607, 48.591374]}, "properties": {"street_name": "LES COURRIERS", "sales": 1, "sales_appt": 0, "sales_maison": 0, "median_price": 1382.01, "median_price_per_sqm": null, "turnover_score": 6.7, "turnover_rank": 14, "first_year": 2022, "last_year": 2022, "years_active": 1}}, {"type": "Feature", "geometry": {"type": "Point", "coordinates": [3.48215, 48.62572]}, "properties": {"street_name": "LE TAILLIS", "sales": 1, "sales_appt": 0, "sales_maison": 0, "median_price": 95000.0, "median_price_per_sqm": null, "turnover_score": 6.7, "turnover_rank": 14, "first_year": 2021, "last_year": 2021, "years_active": 1}}, {"type": "Feature", "geometry": {"type": "Point", "coordinates": [3.445953, 48.62477]}, "properties": {"street_name": "FOND DE LOUAN", "sales": 1, "sales_appt": 0, "sales_maison": 0, "median_price": 7000.0, "median_price_per_sqm": null, "turnover_score": 6.7, "turnover_rank": 14, "first_year": 2021, "last_year": 2021, "years_active": 1}}, {"type": "Feature", "geometry": {"type": "Point", "coordinates": [3.490693, 48.62935]}, "properties": {"street_name": "ETANG DE LA RESERVE", "sales": 1, "sales_appt": 0, "sales_maison": 0, "median_price": 300000.0, "median_price_per_sqm": null, "turnover_score": 6.7, "turnover_rank": 14, "first_year": 2025, "last_year": 2025, "years_active": 1}}, {"type": "Feature", "geometry": {"type": "Point", "coordinates": [3.509946, 48.626269]}, "properties": {"street_name": "LA CROTTE", "sales": 1, "sales_appt": 0, "sales_maison": 0, "median_price": 10944.0, "median_price_per_sqm": null, "turnover_score": 6.7, "turnover_rank": 14, "first_year": 2023, "last_year": 2023, "years_active": 1}}, {"type": "Feature", "geometry": {"type": "Point", "coordinates": [3.477568, 48.614596]}, "properties": {"street_name": "LA CAILLOTTE", "sales": 1, "sales_appt": 0, "sales_maison": 0, "median_price": 2896481.0, "median_price_per_sqm": null, "turnover_score": 6.7, "turnover_rank": 14, "first_year": 2022, "last_year": 2022, "years_active": 1}}, {"type": "Feature", "geometry": {"type": "Point", "coordinates": [3.475986, 48.631105]}, "properties": {"street_name": "CHEMIN D EN BAS", "sales": 1, "sales_appt": 0, "sales_maison": 0, "median_price": 61320.0, "median_price_per_sqm": null, "turnover_score": 6.7, "turnover_rank": 14, "first_year": 2023, "last_year": 2023, "years_active": 1}}, {"type": "Feature", "geometry": {"type": "Point", "coordinates": [3.506796, 48.591466]}, "properties": {"street_name": "CULOTTE", "sales": 1, "sales_appt": 0, "sales_maison": 0, "median_price": 5992.0, "median_price_per_sqm": null, "turnover_score": 6.7, "turnover_rank": 14, "first_year": 2023, "last_year": 2023, "years_active": 1}}, {"type": "Feature", "geometry": {"type": "Point", "coordinates": [3.44789, 48.604693]}, "properties": {"street_name": "LE POTEAU DE MARIVAL", "sales": 1, "sales_appt": 0, "sales_maison": 0, "median_price": 12310.0, "median_price_per_sqm": null, "turnover_score": 6.7, "turnover_rank": 14, "first_year": 2022, "last_year": 2022, "years_active": 1}}, {"type": "Feature", "geometry": {"type": "Point", "coordinates": [3.49232, 48.629542]}, "properties": {"street_name": "MONTAIGUILLON", "sales": 1, "sales_appt": 0, "sales_maison": 0, "median_price": 300000.0, "median_price_per_sqm": null, "turnover_score": 6.7, "turnover_rank": 14, "first_year": 2025, "last_year": 2025, "years_active": 1}}, {"type": "Feature", "geometry": {"type": "Point", "coordinates": [3.503219, 48.619179]}, "properties": {"street_name": "LES PRES DE LA FONTAINE", "sales": 1, "sales_appt": 0, "sales_maison": 0, "median_price": 2082.8, "median_price_per_sqm": null, "turnover_score": 6.7, "turnover_rank": 14, "first_year": 2021, "last_year": 2021, "years_active": 1}}, {"type": "Feature", "geometry": {"type": "Point", "coordinates": [3.470107, 48.610865]}, "properties": {"street_name": "RUE DES CLOS", "sales": 1, "sales_appt": 0, "sales_maison": 0, "median_price": 2896481.0, "median_price_per_sqm": null, "turnover_score": 6.7, "turnover_rank": 14, "first_year": 2022, "last_year": 2022, "years_active": 1}}, {"type": "Feature", "geometry": {"type": "Point", "coordinates": [3.468095, 48.602751]}, "properties": {"street_name": "RUE DE LA VALLEE DES PRES", "sales": 1, "sales_appt": 0, "sales_maison": 1, "median_price": 135000.0, "median_price_per_sqm": 1038.4615384615386, "turnover_score": 6.7, "turnover_rank": 14, "first_year": 2022, "last_year": 2022, "years_active": 1}}, {"type": "Feature", "geometry": {"type": "Point", "coordinates": [3.518433, 48.61525]}, "properties": {"street_name": "RUE DES SAINFOINS", "sales": 1, "sales_appt": 0, "sales_maison": 0, "median_price": 58000.0, "median_price_per_sqm": null, "turnover_score": 6.7, "turnover_rank": 14, "first_year": 2021, "last_year": 2021, "years_active": 1}}]}