{"type": "FeatureCollection", "features": [{"type": "Feature", "geometry": {"type": "Point", "coordinates": [2.628084, 48.732349]}, "properties": {"year": 2021, "valeur_fonciere": 335350.0, "type_local": null, "surface_reelle_bati": null, "nombre_pieces_principales": null, "adresse_nom_voie": "FEROLLES", "price_per_sqm": null, "date_iso": "2021-02-25", "parcelle": "771800000B0712", "addr_num": ""}}, {"type": "Feature", "geometry": {"type": "Point", "coordinates": [2.628315, 48.732418]}, "properties": {"year": 2021, "valeur_fonciere": 335350.0, "type_local": "Maison", "surface_reelle_bati": 92.0, "nombre_pieces_principales": 3.0, "adresse_nom_voie": "GR GRANDE RUE", "price_per_sqm": 3645.108695652174, "date_iso": "2021-02-25", "parcelle": "771800000B0729", "addr_num": "43"}}, {"type": "Feature", "geometry": {"type": "Point", "coordinates": [2.628183, 48.732371]}, "properties": {"year": 2021, "valeur_fonciere": 335350.0, "type_local": null, "surface_reelle_bati": null, "nombre_pieces_principales": null, "adresse_nom_voie": "FEROLLES", "price_per_sqm": null, "date_iso": "2021-02-25", "parcelle": "771800000B0746", "addr_num": ""}}, {"type": "Feature", "geometry": {"type": "Point", "coordinates": [2.625896, 48.732425]}, "properties": {"year": 2021, "valeur_fonciere": 405900.0, "type_local": "Maison", "surface_reelle_bati": 200.0, "nombre_pieces_principales": 6.0, "adresse_nom_voie": "RUE DES BALAIS", "price_per_sqm": 2029.5, "date_iso": "2021-02-25", "parcelle": "771800000B0394", "addr_num": "4"}}, {"type": "Feature", "geometry": {"type": "Point", "coordinates": [2.632709, 48.731889]}, "properties": {"year": 2021, "valeur_fonciere": 200000.0, "type_local": null, "surface_reelle_bati": null, "nombre_pieces_principales": null, "adresse_nom_voie": "GR GRANDE RUE", "price_per_sqm": null, "date_iso": "2021-04-14", "parcelle": "771800000B0733", "addr_num": "58"}}, {"type": "Feature", "geometry": {"type": "Point", "coordinates": [2.668274, 48.74025]}, "properties": {"year": 2021, "valeur_fonciere": 1320000.0, "type_local": null, "surface_reelle_bati": null, "nombre_pieces_principales": null, "adresse_nom_voie": "LE BERVILLIERS", "price_per_sqm": null, "date_iso": "2021-03-25", "parcelle": "771800000A0194", "addr_num": "5001"}}, {"type": "Feature", "geometry": {"type": "Point", "coordinates": [2.669379, 48.740495]}, "properties": {"year": 2021, "valeur_fonciere": 1320000.0, "type_local": "Dépendance", "surface_reelle_bati": null, "nombre_pieces_principales": 0.0, "adresse_nom_voie": "LE BERVILLIERS", "price_per_sqm": null, "date_iso": "2021-03-25", "parcelle": "771800000A0228", "addr_num": "5001"}}, {"type": "Feature", "geometry": {"type": "Point", "coordinates": [2.669379, 48.740495]}, "properties": {"year": 2021, "valeur_fonciere": 1320000.0, "type_local": "Local industriel. commercial ou assimilé", "surface_reelle_bati": 5603.0, "nombre_pieces_principales": 0.0, "adresse_nom_voie": "LE BERVILLIERS", "price_per_sqm": 235.58807781545602, "date_iso": "2021-03-25", "parcelle": "771800000A0228", "addr_num": "5001"}}, {"type": "Feature", "geometry": {"type": "Point", "coordinates": [2.624703, 48.732515]}, "properties": {"year": 2021, "valeur_fonciere": 500000.0, "type_local": "Maison", "surface_reelle_bati": 143.0, "nombre_pieces_principales": 5.0, "adresse_nom_voie": "IMP DU PRESBYTERE", "price_per_sqm": 3496.5034965034965, "date_iso": "2021-04-21", "parcelle": "771800000B0612", "addr_num": "2"}}, {"type": "Feature", "geometry": {"type": "Point", "coordinates": [2.624703, 48.732515]}, "properties": {"year": 2021, "valeur_fonciere": 500000.0, "type_local": "Maison", "surface_reelle_bati": 143.0, "nombre_pieces_principales": 5.0, "adresse_nom_voie": "IMP DU PRESBYTERE", "price_per_sqm": 3496.5034965034965, "date_iso": "2021-04-21", "parcelle": "771800000B0612", "addr_num": "2"}}, {"type": "Feature", "geometry": {"type": "Point", "coordinates": [2.644116, 48.740544]}, "properties": {"year": 2021, "valeur_fonciere": 400000.0, "type_local": null, "surface_reelle_bati": null, "nombre_pieces_principales": null, "adresse_nom_voie": "VC FERME DE BEAUROSE", "price_per_sqm": null, "date_iso": "2021-05-26", "parcelle": "771800000A0045", "addr_num": ""}}, {"type": "Feature", "geometry": {"type": "Point", "coordinates": [2.644211, 48.740749]}, "properties": {"year": 2021, "valeur_fonciere": 400000.0, "type_local": null, "surface_reelle_bati": null, "nombre_pieces_principales": null, "adresse_nom_voie": "VC FERME DE BEAUROSE", "price_per_sqm": null, "date_iso": "2021-05-26", "parcelle": "771800000A0046", "addr_num": ""}}, {"type": "Feature", "geometry": {"type": "Point", "coordinates": [2.643638, 48.739814]}, "properties": {"year": 2021, "valeur_fonciere": 400000.0, "type_local": null, "surface_reelle_bati": null, "nombre_pieces_principales": null, "adresse_nom_voie": "VC FERME DE BEAUROSE", "price_per_sqm": null, "date_iso": "2021-05-26", "parcelle": "771800000A0048", "addr_num": ""}}, {"type": "Feature", "geometry": {"type": "Point", "coordinates": [2.642298, 48.741565]}, "properties": {"year": 2021, "valeur_fonciere": 400000.0, "type_local": null, "surface_reelle_bati": null, "nombre_pieces_principales": null, "adresse_nom_voie": "VC FERME DE BEAUROSE", "price_per_sqm": null, "date_iso": "2021-05-26", "parcelle": "771800000A0050", "addr_num": ""}}, {"type": "Feature", "geometry": {"type": "Point", "coordinates": [2.644126, 48.739233]}, "properties": {"year": 2021, "valeur_fonciere": 400000.0, "type_local": null, "surface_reelle_bati": null, "nombre_pieces_principales": null, "adresse_nom_voie": "VC FERME DE BEAUROSE", "price_per_sqm": null, "date_iso": "2021-05-26", "parcelle": "771800000A0197", "addr_num": ""}}, {"type": "Feature", "geometry": {"type": "Point", "coordinates": [2.64272, 48.74012]}, "properties": {"year": 2021, "valeur_fonciere": 400000.0, "type_local": null, "surface_reelle_bati": null, "nombre_pieces_principales": null, "adresse_nom_voie": "VC FERME DE BEAUROSE", "price_per_sqm": null, "date_iso": "2021-05-26", "parcelle": "771800000A0200", "addr_num": ""}}, {"type": "Feature", "geometry": {"type": "Point", "coordinates": [2.644186, 48.740567]}, "properties": {"year": 2021, "valeur_fonciere": 400000.0, "type_local": "Local industriel. commercial ou assimilé", "surface_reelle_bati": 1650.0, "nombre_pieces_principales": 0.0, "adresse_nom_voie": "VC FERME DE BEAUROSE", "price_per_sqm": 242.42424242424244, "date_iso": "2021-05-26", "parcelle": "771800000A0208", "addr_num": "5074"}}, {"type": "Feature", "geometry": {"type": "Point", "coordinates": [2.644186, 48.740567]}, "properties": {"year": 2021, "valeur_fonciere": 400000.0, "type_local": "Maison", "surface_reelle_bati": 250.0, "nombre_pieces_principales": 11.0, "adresse_nom_voie": "VC FERME DE BEAUROSE", "price_per_sqm": 1600.0, "date_iso": "2021-05-26", "parcelle": "771800000A0208", "addr_num": "5074"}}, {"type": "Feature", "geometry": {"type": "Point", "coordinates": [2.644196, 48.740155]}, "properties": {"year": 2021, "valeur_fonciere": 400000.0, "type_local": null, "surface_reelle_bati": null, "nombre_pieces_principales": null, "adresse_nom_voie": "VC FERME DE BEAUROSE", "price_per_sqm": null, "date_iso": "2021-05-26", "parcelle": "771800000A0209", "addr_num": ""}}, {"type": "Feature", "geometry": {"type": "Point", "coordinates": [2.630631, 48.731907]}, "properties": {"year": 2021, "valeur_fonciere": 275000.0, "type_local": "Dépendance", "surface_reelle_bati": null, "nombre_pieces_principales": 0.0, "adresse_nom_voie": "GR GRANDE RUE", "price_per_sqm": null, "date_iso": "2021-07-20", "parcelle": "771800000B0778", "addr_num": "73"}}, {"type": "Feature", "geometry": {"type": "Point", "coordinates": [2.630631, 48.731907]}, "properties": {"year": 2021, "valeur_fonciere": 275000.0, "type_local": "Dépendance", "surface_reelle_bati": null, "nombre_pieces_principales": 0.0, "adresse_nom_voie": "GR GRANDE RUE", "price_per_sqm": null, "date_iso": "2021-07-20", "parcelle": "771800000B0778", "addr_num": "73"}}, {"type": "Feature", "geometry": {"type": "Point", "coordinates": [2.630631, 48.731907]}, "properties": {"year": 2021, "valeur_fonciere": 275000.0, "type_local": "Dépendance", "surface_reelle_bati": null, "nombre_pieces_principales": 0.0, "adresse_nom_voie": "GR GRANDE RUE", "price_per_sqm": null, "date_iso": "2021-07-20", "parcelle": "771800000B0778", "addr_num": "73"}}, {"type": "Feature", "geometry": {"type": "Point", "coordinates": [2.630631, 48.731907]}, "properties": {"year": 2021, "valeur_fonciere": 275000.0, "type_local": "Maison", "surface_reelle_bati": 88.0, "nombre_pieces_principales": 5.0, "adresse_nom_voie": "GR GRANDE RUE", "price_per_sqm": 3125.0, "date_iso": "2021-07-20", "parcelle": "771800000B0778", "addr_num": "73"}}, {"type": "Feature", "geometry": {"type": "Point", "coordinates": [2.624368, 48.732362]}, "properties": {"year": 2021, "valeur_fonciere": 515000.0, "type_local": "Maison", "surface_reelle_bati": 154.0, "nombre_pieces_principales": 6.0, "adresse_nom_voie": "CHE DES GRIMPERIAUX", "price_per_sqm": 3344.155844155844, "date_iso": "2021-07-15", "parcelle": "771800000B0609", "addr_num": "2"}}, {"type": "Feature", "geometry": {"type": "Point", "coordinates": [2.624368, 48.732362]}, "properties": {"year": 2021, "valeur_fonciere": 515000.0, "type_local": "Maison", "surface_reelle_bati": 154.0, "nombre_pieces_principales": 6.0, "adresse_nom_voie": "CHE DES GRIMPERIAUX", "price_per_sqm": 3344.155844155844, "date_iso": "2021-07-15", "parcelle": "771800000B0609", "addr_num": "2"}}, {"type": "Feature", "geometry": {"type": "Point", "coordinates": [2.631283, 48.731712]}, "properties": {"year": 2021, "valeur_fonciere": 436600.0, "type_local": null, "surface_reelle_bati": null, "nombre_pieces_principales": null, "adresse_nom_voie": "GR GRANDE RUE", "price_per_sqm": null, "date_iso": "2021-07-26", "parcelle": "771800000B0453", "addr_num": ""}}, {"type": "Feature", "geometry": {"type": "Point", "coordinates": [2.631357, 48.731616]}, "properties": {"year": 2021, "valeur_fonciere": 436600.0, "type_local": "Maison", "surface_reelle_bati": 138.0, "nombre_pieces_principales": 7.0, "adresse_nom_voie": "GR GRANDE RUE", "price_per_sqm": 3163.768115942029, "date_iso": "2021-07-26", "parcelle": "771800000B0461", "addr_num": "81"}}, {"type": "Feature", "geometry": {"type": "Point", "coordinates": [2.631357, 48.731616]}, "properties": {"year": 2021, "valeur_fonciere": 436600.0, "type_local": "Maison", "surface_reelle_bati": 138.0, "nombre_pieces_principales": 7.0, "adresse_nom_voie": "GR GRANDE RUE", "price_per_sqm": 3163.768115942029, "date_iso": "2021-07-26", "parcelle": "771800000B0461", "addr_num": "81"}}, {"type": "Feature", "geometry": {"type": "Point", "coordinates": [2.625788, 48.730863]}, "properties": {"year": 2021, "valeur_fonciere": 986704.0, "type_local": "Maison", "surface_reelle_bati": 227.0, "nombre_pieces_principales": 5.0, "adresse_nom_voie": "CHE DU GRAND ORME", "price_per_sqm": 4346.713656387666, "date_iso": "2021-08-30", "parcelle": "771800000C0364", "addr_num": "8"}}, {"type": "Feature", "geometry": {"type": "Point", "coordinates": [2.630518, 48.731601]}, "properties": {"year": 2021, "valeur_fonciere": 254000.0, "type_local": null, "surface_reelle_bati": null, "nombre_pieces_principales": null, "adresse_nom_voie": "GR GRANDE RUE", "price_per_sqm": null, "date_iso": "2021-11-30", "parcelle": "771800000B0779", "addr_num": "73"}}, {"type": "Feature", "geometry": {"type": "Point", "coordinates": [2.630736, 48.731898]}, "properties": {"year": 2021, "valeur_fonciere": 254000.0, "type_local": null, "surface_reelle_bati": null, "nombre_pieces_principales": null, "adresse_nom_voie": "GR GRANDE RUE", "price_per_sqm": null, "date_iso": "2021-11-30", "parcelle": "771800000B0781", "addr_num": "73"}}, {"type": "Feature", "geometry": {"type": "Point", "coordinates": [2.63179, 48.732121]}, "properties": {"year": 2022, "valeur_fonciere": 414000.0, "type_local": null, "surface_reelle_bati": null, "nombre_pieces_principales": null, "adresse_nom_voie": "FEROLLES", "price_per_sqm": null, "date_iso": "2022-01-17", "parcelle": "771800000B0466", "addr_num": ""}}, {"type": "Feature", "geometry": {"type": "Point", "coordinates": [2.631713, 48.732076]}, "properties": {"year": 2022, "valeur_fonciere": 414000.0, "type_local": "Maison", "surface_reelle_bati": 70.0, "nombre_pieces_principales": 5.0, "adresse_nom_voie": "GR GRANDE RUE", "price_per_sqm": 5914.285714285715, "date_iso": "2022-01-17", "parcelle": "771800000B0467", "addr_num": "50"}}, {"type": "Feature", "geometry": {"type": "Point", "coordinates": [2.630586, 48.731977]}, "properties": {"year": 2022, "valeur_fonciere": 330000.0, "type_local": "Maison", "surface_reelle_bati": 48.0, "nombre_pieces_principales": 3.0, "adresse_nom_voie": "GR GRANDE RUE", "price_per_sqm": 6875.0, "date_iso": "2022-03-15", "parcelle": "771800000B0210", "addr_num": "71"}}, {"type": "Feature", "geometry": {"type": "Point", "coordinates": [2.630533, 48.73194]}, "properties": {"year": 2022, "valeur_fonciere": 330000.0, "type_local": null, "surface_reelle_bati": null, "nombre_pieces_principales": null, "adresse_nom_voie": "FEROLLES", "price_per_sqm": null, "date_iso": "2022-03-15", "parcelle": "771800000B0693", "addr_num": ""}}, {"type": "Feature", "geometry": {"type": "Point", "coordinates": [2.628534, 48.731151]}, "properties": {"year": 2022, "valeur_fonciere": 263000.0, "type_local": null, "surface_reelle_bati": null, "nombre_pieces_principales": null, "adresse_nom_voie": "FEROLLES", "price_per_sqm": null, "date_iso": "2022-03-18", "parcelle": "771800000B0788", "addr_num": ""}}, {"type": "Feature", "geometry": {"type": "Point", "coordinates": [2.628626, 48.731125]}, "properties": {"year": 2022, "valeur_fonciere": 263000.0, "type_local": "Maison", "surface_reelle_bati": 78.0, "nombre_pieces_principales": 3.0, "adresse_nom_voie": "CHE DES CLOS", "price_per_sqm": 3371.7948717948716, "date_iso": "2022-03-18", "parcelle": "771800000B0790", "addr_num": "10"}}, {"type": "Feature", "geometry": {"type": "Point", "coordinates": [2.629989, 48.730625]}, "properties": {"year": 2022, "valeur_fonciere": 550000.0, "type_local": "Maison", "surface_reelle_bati": 140.0, "nombre_pieces_principales": 6.0, "adresse_nom_voie": "CHE DES CLOS", "price_per_sqm": 3928.5714285714284, "date_iso": "2022-04-21", "parcelle": "771800000C0340", "addr_num": "15"}}, {"type": "Feature", "geometry": {"type": "Point", "coordinates": [2.629989, 48.730625]}, "properties": {"year": 2022, "valeur_fonciere": 550000.0, "type_local": "Maison", "surface_reelle_bati": 140.0, "nombre_pieces_principales": 6.0, "adresse_nom_voie": "CHE DES CLOS", "price_per_sqm": 3928.5714285714284, "date_iso": "2022-04-21", "parcelle": "771800000C0340", "addr_num": "15"}}, {"type": "Feature", "geometry": {"type": "Point", "coordinates": [2.632544, 48.730555]}, "properties": {"year": 2022, "valeur_fonciere": 725000.0, "type_local": "Maison", "surface_reelle_bati": 231.0, "nombre_pieces_principales": 6.0, "adresse_nom_voie": "ALL DU REVEILLON", "price_per_sqm": 3138.5281385281387, "date_iso": "2022-07-07", "parcelle": "771800000B0481", "addr_num": "1"}}, {"type": "Feature", "geometry": {"type": "Point", "coordinates": [2.632544, 48.730555]}, "properties": {"year": 2022, "valeur_fonciere": 725000.0, "type_local": "Maison", "surface_reelle_bati": 231.0, "nombre_pieces_principales": 6.0, "adresse_nom_voie": "ALL DU REVEILLON", "price_per_sqm": 3138.5281385281387, "date_iso": "2022-07-07", "parcelle": "771800000B0481", "addr_num": "1"}}, {"type": "Feature", "geometry": {"type": "Point", "coordinates": [2.632072, 48.73013]}, "properties": {"year": 2022, "valeur_fonciere": 600000.0, "type_local": "Maison", "surface_reelle_bati": 123.0, "nombre_pieces_principales": 5.0, "adresse_nom_voie": "CHE DES CLOS", "price_per_sqm": 4878.048780487805, "date_iso": "2022-07-18", "parcelle": "771800000C0312", "addr_num": "27"}}, {"type": "Feature", "geometry": {"type": "Point", "coordinates": [2.632072, 48.73013]}, "properties": {"year": 2022, "valeur_fonciere": 600000.0, "type_local": "Dépendance", "surface_reelle_bati": null, "nombre_pieces_principales": 0.0, "adresse_nom_voie": "CHE DES CLOS", "price_per_sqm": null, "date_iso": "2022-07-18", "parcelle": "771800000C0312", "addr_num": "27"}}, {"type": "Feature", "geometry": {"type": "Point", "coordinates": [2.632072, 48.73013]}, "properties": {"year": 2022, "valeur_fonciere": 600000.0, "type_local": "Maison", "surface_reelle_bati": 123.0, "nombre_pieces_principales": 5.0, "adresse_nom_voie": "CHE DES CLOS", "price_per_sqm": 4878.048780487805, "date_iso": "2022-07-18", "parcelle": "771800000C0312", "addr_num": "27"}}, {"type": "Feature", "geometry": {"type": "Point", "coordinates": [2.632072, 48.73013]}, "properties": {"year": 2022, "valeur_fonciere": 600000.0, "type_local": "Dépendance", "surface_reelle_bati": null, "nombre_pieces_principales": 0.0, "adresse_nom_voie": "CHE DES CLOS", "price_per_sqm": null, "date_iso": "2022-07-18", "parcelle": "771800000C0312", "addr_num": "27"}}, {"type": "Feature", "geometry": {"type": "Point", "coordinates": [2.63356, 48.731324]}, "properties": {"year": 2022, "valeur_fonciere": 393000.0, "type_local": "Maison", "surface_reelle_bati": 105.0, "nombre_pieces_principales": 4.0, "adresse_nom_voie": "IMP DE LA BORDE", "price_per_sqm": 3742.8571428571427, "date_iso": "2022-07-18", "parcelle": "771800000B0624", "addr_num": "4"}}, {"type": "Feature", "geometry": {"type": "Point", "coordinates": [2.62365, 48.732306]}, "properties": {"year": 2022, "valeur_fonciere": 650000.0, "type_local": "Maison", "surface_reelle_bati": 195.0, "nombre_pieces_principales": 7.0, "adresse_nom_voie": "CHE DES GRIMPERIAUX", "price_per_sqm": 3333.3333333333335, "date_iso": "2022-07-12", "parcelle": "771800000B0748", "addr_num": "6"}}, {"type": "Feature", "geometry": {"type": "Point", "coordinates": [2.621758, 48.73146]}, "properties": {"year": 2022, "valeur_fonciere": 2000.0, "type_local": null, "surface_reelle_bati": null, "nombre_pieces_principales": null, "adresse_nom_voie": "LES GLAISIERES", "price_per_sqm": null, "date_iso": "2022-10-07", "parcelle": "771800000C0060", "addr_num": ""}}, {"type": "Feature", "geometry": {"type": "Point", "coordinates": [2.650286, 48.732733]}, "properties": {"year": 2022, "valeur_fonciere": 20700.0, "type_local": null, "surface_reelle_bati": null, "nombre_pieces_principales": null, "adresse_nom_voie": "LA GRANDE AUNAIE", "price_per_sqm": null, "date_iso": "2022-10-19", "parcelle": "771800000B0281", "addr_num": ""}}, {"type": "Feature", "geometry": {"type": "Point", "coordinates": [2.650286, 48.732733]}, "properties": {"year": 2022, "valeur_fonciere": 20700.0, "type_local": null, "surface_reelle_bati": null, "nombre_pieces_principales": null, "adresse_nom_voie": "LA GRANDE AUNAIE", "price_per_sqm": null, "date_iso": "2022-10-19", "parcelle": "771800000B0281", "addr_num": ""}}, {"type": "Feature", "geometry": {"type": "Point", "coordinates": [2.632408, 48.732194]}, "properties": {"year": 2022, "valeur_fonciere": 150000.0, "type_local": null, "surface_reelle_bati": null, "nombre_pieces_principales": null, "adresse_nom_voie": "IMP DU BIEF", "price_per_sqm": null, "date_iso": "2022-10-27", "parcelle": "771800000B0784", "addr_num": "1"}}, {"type": "Feature", "geometry": {"type": "Point", "coordinates": [2.667688, 48.739725]}, "properties": {"year": 2022, "valeur_fonciere": 432000.0, "type_local": "Maison", "surface_reelle_bati": 150.0, "nombre_pieces_principales": 3.0, "adresse_nom_voie": "LE BERVILLIERS", "price_per_sqm": 2880.0, "date_iso": "2022-03-03", "parcelle": "771800000A0227", "addr_num": ""}}, {"type": "Feature", "geometry": {"type": "Point", "coordinates": [2.623839, 48.731944]}, "properties": {"year": 2022, "valeur_fonciere": 150000.0, "type_local": null, "surface_reelle_bati": null, "nombre_pieces_principales": null, "adresse_nom_voie": "FEROLLES", "price_per_sqm": null, "date_iso": "2022-12-19", "parcelle": "771800000B0753", "addr_num": ""}}, {"type": "Feature", "geometry": {"type": "Point", "coordinates": [2.623839, 48.731944]}, "properties": {"year": 2022, "valeur_fonciere": 150000.0, "type_local": null, "surface_reelle_bati": null, "nombre_pieces_principales": null, "adresse_nom_voie": "FEROLLES", "price_per_sqm": null, "date_iso": "2022-12-19", "parcelle": "771800000B0753", "addr_num": ""}}, {"type": "Feature", "geometry": {"type": "Point", "coordinates": [2.624074, 48.731947]}, "properties": {"year": 2022, "valeur_fonciere": 298000.0, "type_local": "Maison", "surface_reelle_bati": 156.0, "nombre_pieces_principales": 5.0, "adresse_nom_voie": "CHE DU GRAND ORME", "price_per_sqm": 1910.2564102564102, "date_iso": "2022-12-19", "parcelle": "771800000B0754", "addr_num": "19"}}, {"type": "Feature", "geometry": {"type": "Point", "coordinates": [2.656438, 48.733545]}, "properties": {"year": 2023, "valeur_fonciere": 4000.0, "type_local": null, "surface_reelle_bati": null, "nombre_pieces_principales": null, "adresse_nom_voie": "LA MARE AU POULET", "price_per_sqm": null, "date_iso": "2023-03-13", "parcelle": "771800000A0069", "addr_num": ""}}, {"type": "Feature", "geometry": {"type": "Point", "coordinates": [2.619499, 48.736913]}, "properties": {"year": 2023, "valeur_fonciere": 500.0, "type_local": null, "surface_reelle_bati": null, "nombre_pieces_principales": null, "adresse_nom_voie": "LE CLOS VIMONT", "price_per_sqm": null, "date_iso": "2023-03-21", "parcelle": "771800000B0035", "addr_num": ""}}, {"type": "Feature", "geometry": {"type": "Point", "coordinates": [2.668002, 48.7405]}, "properties": {"year": 2023, "valeur_fonciere": 150000.0, "type_local": "Dépendance", "surface_reelle_bati": null, "nombre_pieces_principales": 0.0, "adresse_nom_voie": "LE BERVILLIERS", "price_per_sqm": null, "date_iso": "2023-04-04", "parcelle": "771800000A0260", "addr_num": "5003"}}, {"type": "Feature", "geometry": {"type": "Point", "coordinates": [2.668002, 48.7405]}, "properties": {"year": 2023, "valeur_fonciere": 150000.0, "type_local": "Maison", "surface_reelle_bati": 70.0, "nombre_pieces_principales": 3.0, "adresse_nom_voie": "LE BERVILLIERS", "price_per_sqm": 2142.8571428571427, "date_iso": "2023-04-04", "parcelle": "771800000A0260", "addr_num": "5003"}}, {"type": "Feature", "geometry": {"type": "Point", "coordinates": [2.62915, 48.730661]}, "properties": {"year": 2023, "valeur_fonciere": 790000.0, "type_local": "Maison", "surface_reelle_bati": 205.0, "nombre_pieces_principales": 8.0, "adresse_nom_voie": "CHE DES CLOS", "price_per_sqm": 3853.6585365853657, "date_iso": "2023-04-14", "parcelle": "771800000C0339", "addr_num": "11"}}, {"type": "Feature", "geometry": {"type": "Point", "coordinates": [2.62915, 48.730661]}, "properties": {"year": 2023, "valeur_fonciere": 790000.0, "type_local": "Maison", "surface_reelle_bati": 205.0, "nombre_pieces_principales": 8.0, "adresse_nom_voie": "CHE DES CLOS", "price_per_sqm": 3853.6585365853657, "date_iso": "2023-04-14", "parcelle": "771800000C0339", "addr_num": "11"}}, {"type": "Feature", "geometry": {"type": "Point", "coordinates": [2.629212, 48.732354]}, "properties": {"year": 2023, "valeur_fonciere": 232000.0, "type_local": "Maison", "surface_reelle_bati": 70.0, "nombre_pieces_principales": 3.0, "adresse_nom_voie": "GR GRANDE RUE", "price_per_sqm": 3314.285714285714, "date_iso": "2023-06-09", "parcelle": "771800000B0651", "addr_num": "16"}}, {"type": "Feature", "geometry": {"type": "Point", "coordinates": [2.633748, 48.732191]}, "properties": {"year": 2023, "valeur_fonciere": 782000.0, "type_local": null, "surface_reelle_bati": null, "nombre_pieces_principales": null, "adresse_nom_voie": "RLE BARROT", "price_per_sqm": null, "date_iso": "2023-08-09", "parcelle": "771800000B0411", "addr_num": "5"}}, {"type": "Feature", "geometry": {"type": "Point", "coordinates": [2.633843, 48.732282]}, "properties": {"year": 2023, "valeur_fonciere": 782000.0, "type_local": "Maison", "surface_reelle_bati": 166.0, "nombre_pieces_principales": 6.0, "adresse_nom_voie": "RLE BARROT", "price_per_sqm": 4710.843373493976, "date_iso": "2023-08-09", "parcelle": "771800000B0706", "addr_num": "7"}}, {"type": "Feature", "geometry": {"type": "Point", "coordinates": [2.633843, 48.732282]}, "properties": {"year": 2023, "valeur_fonciere": 782000.0, "type_local": "Dépendance", "surface_reelle_bati": null, "nombre_pieces_principales": 0.0, "adresse_nom_voie": "RLE BARROT", "price_per_sqm": null, "date_iso": "2023-08-09", "parcelle": "771800000B0706", "addr_num": "7"}}, {"type": "Feature", "geometry": {"type": "Point", "coordinates": [2.633843, 48.732282]}, "properties": {"year": 2023, "valeur_fonciere": 782000.0, "type_local": "Dépendance", "surface_reelle_bati": null, "nombre_pieces_principales": 0.0, "adresse_nom_voie": "RLE BARROT", "price_per_sqm": null, "date_iso": "2023-08-09", "parcelle": "771800000B0706", "addr_num": "7"}}, {"type": "Feature", "geometry": {"type": "Point", "coordinates": [2.633843, 48.732282]}, "properties": {"year": 2023, "valeur_fonciere": 782000.0, "type_local": "Maison", "surface_reelle_bati": 166.0, "nombre_pieces_principales": 6.0, "adresse_nom_voie": "RLE BARROT", "price_per_sqm": 4710.843373493976, "date_iso": "2023-08-09", "parcelle": "771800000B0706", "addr_num": "7"}}, {"type": "Feature", "geometry": {"type": "Point", "coordinates": [2.633843, 48.732282]}, "properties": {"year": 2023, "valeur_fonciere": 782000.0, "type_local": "Dépendance", "surface_reelle_bati": null, "nombre_pieces_principales": 0.0, "adresse_nom_voie": "RLE BARROT", "price_per_sqm": null, "date_iso": "2023-08-09", "parcelle": "771800000B0706", "addr_num": "7"}}, {"type": "Feature", "geometry": {"type": "Point", "coordinates": [2.633843, 48.732282]}, "properties": {"year": 2023, "valeur_fonciere": 782000.0, "type_local": "Dépendance", "surface_reelle_bati": null, "nombre_pieces_principales": 0.0, "adresse_nom_voie": "RLE BARROT", "price_per_sqm": null, "date_iso": "2023-08-09", "parcelle": "771800000B0706", "addr_num": "7"}}, {"type": "Feature", "geometry": {"type": "Point", "coordinates": [2.628101, 48.731294]}, "properties": {"year": 2023, "valeur_fonciere": 360000.0, "type_local": null, "surface_reelle_bati": null, "nombre_pieces_principales": null, "adresse_nom_voie": "FEROLLES", "price_per_sqm": null, "date_iso": "2023-08-22", "parcelle": "771800000B0680", "addr_num": ""}}, {"type": "Feature", "geometry": {"type": "Point", "coordinates": [2.627907, 48.731378]}, "properties": {"year": 2023, "valeur_fonciere": 360000.0, "type_local": "Maison", "surface_reelle_bati": 89.0, "nombre_pieces_principales": 4.0, "adresse_nom_voie": "CHE DES CLOS", "price_per_sqm": 4044.9438202247193, "date_iso": "2023-08-22", "parcelle": "771800000B0795", "addr_num": "4"}}, {"type": "Feature", "geometry": {"type": "Point", "coordinates": [2.627907, 48.731378]}, "properties": {"year": 2023, "valeur_fonciere": 360000.0, "type_local": "Maison", "surface_reelle_bati": 89.0, "nombre_pieces_principales": 4.0, "adresse_nom_voie": "CHE DES CLOS", "price_per_sqm": 4044.9438202247193, "date_iso": "2023-08-22", "parcelle": "771800000B0795", "addr_num": "4"}}, {"type": "Feature", "geometry": {"type": "Point", "coordinates": [2.627686, 48.73141]}, "properties": {"year": 2023, "valeur_fonciere": 360000.0, "type_local": null, "surface_reelle_bati": null, "nombre_pieces_principales": null, "adresse_nom_voie": "CHE DES CLOS", "price_per_sqm": null, "date_iso": "2023-08-22", "parcelle": "771800000B0796", "addr_num": "4"}}, {"type": "Feature", "geometry": {"type": "Point", "coordinates": [2.620525, 48.734916]}, "properties": {"year": 2023, "valeur_fonciere": 15000.0, "type_local": null, "surface_reelle_bati": null, "nombre_pieces_principales": null, "adresse_nom_voie": "LE MONT A L ANON", "price_per_sqm": null, "date_iso": "2023-12-01", "parcelle": "771800000B0088", "addr_num": ""}}, {"type": "Feature", "geometry": {"type": "Point", "coordinates": [2.620606, 48.733981]}, "properties": {"year": 2023, "valeur_fonciere": 15000.0, "type_local": null, "surface_reelle_bati": null, "nombre_pieces_principales": null, "adresse_nom_voie": "LE PRE LONG", "price_per_sqm": null, "date_iso": "2023-12-01", "parcelle": "771800000B0116", "addr_num": ""}}, {"type": "Feature", "geometry": {"type": "Point", "coordinates": [2.620739, 48.731084]}, "properties": {"year": 2023, "valeur_fonciere": 15000.0, "type_local": null, "surface_reelle_bati": null, "nombre_pieces_principales": null, "adresse_nom_voie": "LES GLAISIERES", "price_per_sqm": null, "date_iso": "2023-12-01", "parcelle": "771800000C0052", "addr_num": ""}}, {"type": "Feature", "geometry": {"type": "Point", "coordinates": [2.621045, 48.731317]}, "properties": {"year": 2023, "valeur_fonciere": 15000.0, "type_local": null, "surface_reelle_bati": null, "nombre_pieces_principales": null, "adresse_nom_voie": "LES GLAISIERES", "price_per_sqm": null, "date_iso": "2023-12-01", "parcelle": "771800000C0054", "addr_num": ""}}, {"type": "Feature", "geometry": {"type": "Point", "coordinates": [2.621329, 48.730789]}, "properties": {"year": 2023, "valeur_fonciere": 15000.0, "type_local": null, "surface_reelle_bati": null, "nombre_pieces_principales": null, "adresse_nom_voie": "LES GLAISIERES", "price_per_sqm": null, "date_iso": "2023-12-01", "parcelle": "771800000C0056", "addr_num": ""}}, {"type": "Feature", "geometry": {"type": "Point", "coordinates": [2.621017, 48.731437]}, "properties": {"year": 2023, "valeur_fonciere": 15000.0, "type_local": "Dépendance", "surface_reelle_bati": null, "nombre_pieces_principales": 0.0, "adresse_nom_voie": "LES GLAISIERES", "price_per_sqm": null, "date_iso": "2023-12-01", "parcelle": "771800000C0258", "addr_num": "5073"}}, {"type": "Feature", "geometry": {"type": "Point", "coordinates": [2.668274, 48.74025]}, "properties": {"year": 2024, "valeur_fonciere": 70000.0, "type_local": null, "surface_reelle_bati": null, "nombre_pieces_principales": null, "adresse_nom_voie": "LE BERVILLIERS", "price_per_sqm": null, "date_iso": "2024-01-19", "parcelle": "771800000A0194", "addr_num": "5001"}}, {"type": "Feature", "geometry": {"type": "Point", "coordinates": [2.670675, 48.741408]}, "properties": {"year": 2024, "valeur_fonciere": 70000.0, "type_local": null, "surface_reelle_bati": null, "nombre_pieces_principales": null, "adresse_nom_voie": "LE BERVILLIERS", "price_per_sqm": null, "date_iso": "2024-01-19", "parcelle": "771800000A0261", "addr_num": "5001"}}, {"type": "Feature", "geometry": {"type": "Point", "coordinates": [2.632762, 48.729991]}, "properties": {"year": 2024, "valeur_fonciere": 540000.0, "type_local": "Maison", "surface_reelle_bati": 146.0, "nombre_pieces_principales": 5.0, "adresse_nom_voie": "CHE DES CLOS", "price_per_sqm": 3698.6301369863013, "date_iso": "2024-03-14", "parcelle": "771800000C0310", "addr_num": "31"}}, {"type": "Feature", "geometry": {"type": "Point", "coordinates": [2.632762, 48.729991]}, "properties": {"year": 2024, "valeur_fonciere": 540000.0, "type_local": "Maison", "surface_reelle_bati": 146.0, "nombre_pieces_principales": 5.0, "adresse_nom_voie": "CHE DES CLOS", "price_per_sqm": 3698.6301369863013, "date_iso": "2024-03-14", "parcelle": "771800000C0310", "addr_num": "31"}}, {"type": "Feature", "geometry": {"type": "Point", "coordinates": [2.627686, 48.73141]}, "properties": {"year": 2024, "valeur_fonciere": 170000.0, "type_local": null, "surface_reelle_bati": null, "nombre_pieces_principales": null, "adresse_nom_voie": "CHE DES CLOS", "price_per_sqm": null, "date_iso": "2024-05-22", "parcelle": "771800000B0796", "addr_num": "4"}}, {"type": "Feature", "geometry": {"type": "Point", "coordinates": [2.630251, 48.731857]}, "properties": {"year": 2024, "valeur_fonciere": 220000.0, "type_local": null, "surface_reelle_bati": null, "nombre_pieces_principales": null, "adresse_nom_voie": "FEROLLES", "price_per_sqm": null, "date_iso": "2024-05-23", "parcelle": "771800000B0213", "addr_num": ""}}, {"type": "Feature", "geometry": {"type": "Point", "coordinates": [2.630188, 48.732035]}, "properties": {"year": 2024, "valeur_fonciere": 220000.0, "type_local": "Maison", "surface_reelle_bati": 42.0, "nombre_pieces_principales": 3.0, "adresse_nom_voie": "GR GRANDE RUE", "price_per_sqm": 5238.0952380952385, "date_iso": "2024-05-23", "parcelle": "771800000B0214", "addr_num": "65"}}, {"type": "Feature", "geometry": {"type": "Point", "coordinates": [2.630228, 48.731581]}, "properties": {"year": 2024, "valeur_fonciere": 220000.0, "type_local": null, "surface_reelle_bati": null, "nombre_pieces_principales": null, "adresse_nom_voie": "FEROLLES", "price_per_sqm": null, "date_iso": "2024-05-23", "parcelle": "771800000B0539", "addr_num": ""}}, {"type": "Feature", "geometry": {"type": "Point", "coordinates": [2.63065, 48.732361]}, "properties": {"year": 2024, "valeur_fonciere": 417850.0, "type_local": "Dépendance", "surface_reelle_bati": null, "nombre_pieces_principales": 0.0, "adresse_nom_voie": "GR GRANDE RUE", "price_per_sqm": null, "date_iso": "2024-06-24", "parcelle": "771800000B0675", "addr_num": "36"}}, {"type": "Feature", "geometry": {"type": "Point", "coordinates": [2.63065, 48.732361]}, "properties": {"year": 2024, "valeur_fonciere": 417850.0, "type_local": "Maison", "surface_reelle_bati": 90.0, "nombre_pieces_principales": 4.0, "adresse_nom_voie": "GR GRANDE RUE", "price_per_sqm": 4642.777777777777, "date_iso": "2024-06-24", "parcelle": "771800000B0675", "addr_num": "36"}}, {"type": "Feature", "geometry": {"type": "Point", "coordinates": [2.63065, 48.732361]}, "properties": {"year": 2024, "valeur_fonciere": 417850.0, "type_local": "Dépendance", "surface_reelle_bati": null, "nombre_pieces_principales": 0.0, "adresse_nom_voie": "GR GRANDE RUE", "price_per_sqm": null, "date_iso": "2024-06-24", "parcelle": "771800000B0675", "addr_num": "36"}}, {"type": "Feature", "geometry": {"type": "Point", "coordinates": [2.63065, 48.732361]}, "properties": {"year": 2024, "valeur_fonciere": 417850.0, "type_local": "Maison", "surface_reelle_bati": 90.0, "nombre_pieces_principales": 4.0, "adresse_nom_voie": "GR GRANDE RUE", "price_per_sqm": 4642.777777777777, "date_iso": "2024-06-24", "parcelle": "771800000B0675", "addr_num": "36"}}, {"type": "Feature", "geometry": {"type": "Point", "coordinates": [2.628101, 48.731294]}, "properties": {"year": 2024, "valeur_fonciere": 99900.0, "type_local": null, "surface_reelle_bati": null, "nombre_pieces_principales": null, "adresse_nom_voie": "FEROLLES", "price_per_sqm": null, "date_iso": "2024-10-14", "parcelle": "771800000B0680", "addr_num": ""}}, {"type": "Feature", "geometry": {"type": "Point", "coordinates": [2.627907, 48.731378]}, "properties": {"year": 2024, "valeur_fonciere": 99900.0, "type_local": "Maison", "surface_reelle_bati": 89.0, "nombre_pieces_principales": 4.0, "adresse_nom_voie": "CHE DES CLOS", "price_per_sqm": 1122.4719101123596, "date_iso": "2024-10-14", "parcelle": "771800000B0795", "addr_num": "4"}}, {"type": "Feature", "geometry": {"type": "Point", "coordinates": [2.627907, 48.731378]}, "properties": {"year": 2024, "valeur_fonciere": 99900.0, "type_local": "Maison", "surface_reelle_bati": 89.0, "nombre_pieces_principales": 4.0, "adresse_nom_voie": "CHE DES CLOS", "price_per_sqm": 1122.4719101123596, "date_iso": "2024-10-14", "parcelle": "771800000B0795", "addr_num": "4"}}, {"type": "Feature", "geometry": {"type": "Point", "coordinates": [2.628085, 48.731422]}, "properties": {"year": 2024, "valeur_fonciere": 99900.0, "type_local": null, "surface_reelle_bati": null, "nombre_pieces_principales": null, "adresse_nom_voie": "CHE DES CLOS", "price_per_sqm": null, "date_iso": "2024-10-14", "parcelle": "771800000B0798", "addr_num": "4"}}, {"type": "Feature", "geometry": {"type": "Point", "coordinates": [2.628005, 48.731226]}, "properties": {"year": 2024, "valeur_fonciere": 99900.0, "type_local": null, "surface_reelle_bati": null, "nombre_pieces_principales": null, "adresse_nom_voie": "CHE DES CLOS", "price_per_sqm": null, "date_iso": "2024-10-14", "parcelle": "771800000B0799", "addr_num": "4"}}, {"type": "Feature", "geometry": {"type": "Point", "coordinates": [2.632214, 48.743452]}, "properties": {"year": 2024, "valeur_fonciere": 4330.0, "type_local": null, "surface_reelle_bati": null, "nombre_pieces_principales": null, "adresse_nom_voie": "L ORME MAROTO", "price_per_sqm": null, "date_iso": "2024-11-28", "parcelle": "771800000A0013", "addr_num": ""}}, {"type": "Feature", "geometry": {"type": "Point", "coordinates": [2.644116, 48.740544]}, "properties": {"year": 2025, "valeur_fonciere": 2700000.0, "type_local": null, "surface_reelle_bati": null, "nombre_pieces_principales": null, "adresse_nom_voie": "VC FERME DE BEAUROSE", "price_per_sqm": null, "date_iso": "2025-02-04", "parcelle": "771800000A0045", "addr_num": ""}}, {"type": "Feature", "geometry": {"type": "Point", "coordinates": [2.644211, 48.740749]}, "properties": {"year": 2025, "valeur_fonciere": 2700000.0, "type_local": null, "surface_reelle_bati": null, "nombre_pieces_principales": null, "adresse_nom_voie": "VC FERME DE BEAUROSE", "price_per_sqm": null, "date_iso": "2025-02-04", "parcelle": "771800000A0046", "addr_num": ""}}, {"type": "Feature", "geometry": {"type": "Point", "coordinates": [2.643638, 48.739814]}, "properties": {"year": 2025, "valeur_fonciere": 2700000.0, "type_local": null, "surface_reelle_bati": null, "nombre_pieces_principales": null, "adresse_nom_voie": "VC FERME DE BEAUROSE", "price_per_sqm": null, "date_iso": "2025-02-04", "parcelle": "771800000A0048", "addr_num": ""}}, {"type": "Feature", "geometry": {"type": "Point", "coordinates": [2.642298, 48.741565]}, "properties": {"year": 2025, "valeur_fonciere": 2700000.0, "type_local": null, "surface_reelle_bati": null, "nombre_pieces_principales": null, "adresse_nom_voie": "VC FERME DE BEAUROSE", "price_per_sqm": null, "date_iso": "2025-02-04", "parcelle": "771800000A0050", "addr_num": ""}}, {"type": "Feature", "geometry": {"type": "Point", "coordinates": [2.644126, 48.739233]}, "properties": {"year": 2025, "valeur_fonciere": 2700000.0, "type_local": null, "surface_reelle_bati": null, "nombre_pieces_principales": null, "adresse_nom_voie": "VC FERME DE BEAUROSE", "price_per_sqm": null, "date_iso": "2025-02-04", "parcelle": "771800000A0197", "addr_num": ""}}, {"type": "Feature", "geometry": {"type": "Point", "coordinates": [2.64272, 48.74012]}, "properties": {"year": 2025, "valeur_fonciere": 2700000.0, "type_local": null, "surface_reelle_bati": null, "nombre_pieces_principales": null, "adresse_nom_voie": "VC FERME DE BEAUROSE", "price_per_sqm": null, "date_iso": "2025-02-04", "parcelle": "771800000A0200", "addr_num": ""}}, {"type": "Feature", "geometry": {"type": "Point", "coordinates": [2.644186, 48.740567]}, "properties": {"year": 2025, "valeur_fonciere": 2700000.0, "type_local": "Local industriel. commercial ou assimilé", "surface_reelle_bati": 1650.0, "nombre_pieces_principales": 0.0, "adresse_nom_voie": "VC FERME DE BEAUROSE", "price_per_sqm": 1636.3636363636363, "date_iso": "2025-02-04", "parcelle": "771800000A0208", "addr_num": "5074"}}, {"type": "Feature", "geometry": {"type": "Point", "coordinates": [2.644186, 48.740567]}, "properties": {"year": 2025, "valeur_fonciere": 2700000.0, "type_local": "Maison", "surface_reelle_bati": 250.0, "nombre_pieces_principales": 11.0, "adresse_nom_voie": "VC FERME DE BEAUROSE", "price_per_sqm": 10800.0, "date_iso": "2025-02-04", "parcelle": "771800000A0208", "addr_num": "5074"}}, {"type": "Feature", "geometry": {"type": "Point", "coordinates": [2.644196, 48.740155]}, "properties": {"year": 2025, "valeur_fonciere": 2700000.0, "type_local": null, "surface_reelle_bati": null, "nombre_pieces_principales": null, "adresse_nom_voie": "VC FERME DE BEAUROSE", "price_per_sqm": null, "date_iso": "2025-02-04", "parcelle": "771800000A0209", "addr_num": ""}}, {"type": "Feature", "geometry": {"type": "Point", "coordinates": [2.627881, 48.732796]}, "properties": {"year": 2025, "valeur_fonciere": 365000.0, "type_local": "Maison", "surface_reelle_bati": 104.0, "nombre_pieces_principales": 5.0, "adresse_nom_voie": "GR GRANDE RUE", "price_per_sqm": 3509.6153846153848, "date_iso": "2025-02-14", "parcelle": "771800000B0444", "addr_num": "8"}}, {"type": "Feature", "geometry": {"type": "Point", "coordinates": [2.628101, 48.731294]}, "properties": {"year": 2025, "valeur_fonciere": 95000.0, "type_local": null, "surface_reelle_bati": null, "nombre_pieces_principales": null, "adresse_nom_voie": "FEROLLES", "price_per_sqm": null, "date_iso": "2025-02-12", "parcelle": "771800000B0680", "addr_num": ""}}, {"type": "Feature", "geometry": {"type": "Point", "coordinates": [2.628085, 48.731422]}, "properties": {"year": 2025, "valeur_fonciere": 95000.0, "type_local": null, "surface_reelle_bati": null, "nombre_pieces_principales": null, "adresse_nom_voie": "CHE DES CLOS", "price_per_sqm": null, "date_iso": "2025-02-12", "parcelle": "771800000B0798", "addr_num": "4"}}, {"type": "Feature", "geometry": {"type": "Point", "coordinates": [2.644828, 48.728739]}, "properties": {"year": 2025, "valeur_fonciere": 400000.0, "type_local": "Maison", "surface_reelle_bati": 112.0, "nombre_pieces_principales": 5.0, "adresse_nom_voie": "RUE DE SAINT JULIEN", "price_per_sqm": 3571.4285714285716, "date_iso": "2025-03-31", "parcelle": "771800000B0687", "addr_num": "7"}}, {"type": "Feature", "geometry": {"type": "Point", "coordinates": [2.646531, 48.74145]}, "properties": {"year": 2025, "valeur_fonciere": 106400.0, "type_local": null, "surface_reelle_bati": null, "nombre_pieces_principales": null, "adresse_nom_voie": "VC FERME DE BEAUROSE", "price_per_sqm": null, "date_iso": "2025-04-15", "parcelle": "771800000A0198", "addr_num": ""}}, {"type": "Feature", "geometry": {"type": "Point", "coordinates": [2.635914, 48.746497]}, "properties": {"year": 2025, "valeur_fonciere": 18862.92, "type_local": null, "surface_reelle_bati": null, "nombre_pieces_principales": null, "adresse_nom_voie": "LES ESSARTS", "price_per_sqm": null, "date_iso": "2025-03-11", "parcelle": "771800000A0252", "addr_num": ""}}, {"type": "Feature", "geometry": {"type": "Point", "coordinates": [2.63499, 48.745001]}, "properties": {"year": 2025, "valeur_fonciere": 18862.92, "type_local": null, "surface_reelle_bati": null, "nombre_pieces_principales": null, "adresse_nom_voie": "LES ESSARTS", "price_per_sqm": null, "date_iso": "2025-03-11", "parcelle": "771800000A0253", "addr_num": ""}}, {"type": "Feature", "geometry": {"type": "Point", "coordinates": [2.636985, 48.747684]}, "properties": {"year": 2025, "valeur_fonciere": 18862.92, "type_local": null, "surface_reelle_bati": null, "nombre_pieces_principales": null, "adresse_nom_voie": "LES ESSARTS", "price_per_sqm": null, "date_iso": "2025-03-11", "parcelle": "771800000A0255", "addr_num": ""}}, {"type": "Feature", "geometry": {"type": "Point", "coordinates": [2.636369, 48.747023]}, "properties": {"year": 2025, "valeur_fonciere": 18862.92, "type_local": null, "surface_reelle_bati": null, "nombre_pieces_principales": null, "adresse_nom_voie": "LES ESSARTS", "price_per_sqm": null, "date_iso": "2025-03-11", "parcelle": "771800000A0256", "addr_num": ""}}, {"type": "Feature", "geometry": {"type": "Point", "coordinates": [2.63305, 48.741576]}, "properties": {"year": 2025, "valeur_fonciere": 18862.92, "type_local": null, "surface_reelle_bati": null, "nombre_pieces_principales": null, "adresse_nom_voie": "LES ESSARTS", "price_per_sqm": null, "date_iso": "2025-03-11", "parcelle": "771800000A0258", "addr_num": ""}}, {"type": "Feature", "geometry": {"type": "Point", "coordinates": [2.634061, 48.734082]}, "properties": {"year": 2025, "valeur_fonciere": 18862.92, "type_local": null, "surface_reelle_bati": null, "nombre_pieces_principales": null, "adresse_nom_voie": "LES FRICHES", "price_per_sqm": null, "date_iso": "2025-03-11", "parcelle": "771800000B0785", "addr_num": ""}}, {"type": "Feature", "geometry": {"type": "Point", "coordinates": [2.642608, 48.72674]}, "properties": {"year": 2025, "valeur_fonciere": 480100.0, "type_local": null, "surface_reelle_bati": null, "nombre_pieces_principales": null, "adresse_nom_voie": "RTE DE CHEVRY", "price_per_sqm": null, "date_iso": "2025-07-31", "parcelle": "771800000B0342", "addr_num": ""}}, {"type": "Feature", "geometry": {"type": "Point", "coordinates": [2.642743, 48.726869]}, "properties": {"year": 2025, "valeur_fonciere": 480100.0, "type_local": "Maison", "surface_reelle_bati": 74.0, "nombre_pieces_principales": 4.0, "adresse_nom_voie": "LA CROIX DESERTE", "price_per_sqm": 6487.8378378378375, "date_iso": "2025-07-31", "parcelle": "771800000B0378", "addr_num": "5088"}}, {"type": "Feature", "geometry": {"type": "Point", "coordinates": [2.642743, 48.726869]}, "properties": {"year": 2025, "valeur_fonciere": 480100.0, "type_local": "Dépendance", "surface_reelle_bati": null, "nombre_pieces_principales": 0.0, "adresse_nom_voie": "LA CROIX DESERTE", "price_per_sqm": null, "date_iso": "2025-07-31", "parcelle": "771800000B0378", "addr_num": "5088"}}, {"type": "Feature", "geometry": {"type": "Point", "coordinates": [2.642743, 48.726869]}, "properties": {"year": 2025, "valeur_fonciere": 480100.0, "type_local": "Dépendance", "surface_reelle_bati": null, "nombre_pieces_principales": 0.0, "adresse_nom_voie": "LA CROIX DESERTE", "price_per_sqm": null, "date_iso": "2025-07-31", "parcelle": "771800000B0378", "addr_num": "5088"}}, {"type": "Feature", "geometry": {"type": "Point", "coordinates": [2.642743, 48.726869]}, "properties": {"year": 2025, "valeur_fonciere": 480100.0, "type_local": "Dépendance", "surface_reelle_bati": null, "nombre_pieces_principales": 0.0, "adresse_nom_voie": "LA CROIX DESERTE", "price_per_sqm": null, "date_iso": "2025-07-31", "parcelle": "771800000B0378", "addr_num": "5088"}}, {"type": "Feature", "geometry": {"type": "Point", "coordinates": [2.642743, 48.726869]}, "properties": {"year": 2025, "valeur_fonciere": 480100.0, "type_local": "Dépendance", "surface_reelle_bati": null, "nombre_pieces_principales": 0.0, "adresse_nom_voie": "LA CROIX DESERTE", "price_per_sqm": null, "date_iso": "2025-07-31", "parcelle": "771800000B0378", "addr_num": "5088"}}, {"type": "Feature", "geometry": {"type": "Point", "coordinates": [2.642743, 48.726869]}, "properties": {"year": 2025, "valeur_fonciere": 480100.0, "type_local": "Dépendance", "surface_reelle_bati": null, "nombre_pieces_principales": 0.0, "adresse_nom_voie": "LA CROIX DESERTE", "price_per_sqm": null, "date_iso": "2025-07-31", "parcelle": "771800000B0378", "addr_num": "5088"}}, {"type": "Feature", "geometry": {"type": "Point", "coordinates": [2.642743, 48.726869]}, "properties": {"year": 2025, "valeur_fonciere": 480100.0, "type_local": "Maison", "surface_reelle_bati": 74.0, "nombre_pieces_principales": 4.0, "adresse_nom_voie": "LA CROIX DESERTE", "price_per_sqm": 6487.8378378378375, "date_iso": "2025-07-31", "parcelle": "771800000B0378", "addr_num": "5088"}}, {"type": "Feature", "geometry": {"type": "Point", "coordinates": [2.642743, 48.726869]}, "properties": {"year": 2025, "valeur_fonciere": 480100.0, "type_local": "Dépendance", "surface_reelle_bati": null, "nombre_pieces_principales": 0.0, "adresse_nom_voie": "LA CROIX DESERTE", "price_per_sqm": null, "date_iso": "2025-07-31", "parcelle": "771800000B0378", "addr_num": "5088"}}, {"type": "Feature", "geometry": {"type": "Point", "coordinates": [2.625713, 48.732494]}, "properties": {"year": 2025, "valeur_fonciere": 200000.0, "type_local": "Maison", "surface_reelle_bati": 46.0, "nombre_pieces_principales": 6.0, "adresse_nom_voie": "RUE DES BALAIS", "price_per_sqm": 4347.826086956522, "date_iso": "2025-10-09", "parcelle": "771800000B0343", "addr_num": "6"}}, {"type": "Feature", "geometry": {"type": "Point", "coordinates": [2.625713, 48.732494]}, "properties": {"year": 2025, "valeur_fonciere": 200000.0, "type_local": "Maison", "surface_reelle_bati": 46.0, "nombre_pieces_principales": 6.0, "adresse_nom_voie": "RUE DES BALAIS", "price_per_sqm": 4347.826086956522, "date_iso": "2025-10-09", "parcelle": "771800000B0343", "addr_num": "6"}}, {"type": "Feature", "geometry": {"type": "Point", "coordinates": [2.629369, 48.730636]}, "properties": {"year": 2025, "valeur_fonciere": 550000.0, "type_local": null, "surface_reelle_bati": null, "nombre_pieces_principales": null, "adresse_nom_voie": "LA TERRE AUX ECUS", "price_per_sqm": null, "date_iso": "2025-10-22", "parcelle": "771800000C0322", "addr_num": ""}}, {"type": "Feature", "geometry": {"type": "Point", "coordinates": [2.629512, 48.730632]}, "properties": {"year": 2025, "valeur_fonciere": 550000.0, "type_local": null, "surface_reelle_bati": null, "nombre_pieces_principales": null, "adresse_nom_voie": "LA TERRE AUX ECUS", "price_per_sqm": null, "date_iso": "2025-10-22", "parcelle": "771800000C0323", "addr_num": ""}}, {"type": "Feature", "geometry": {"type": "Point", "coordinates": [2.629635, 48.73065]}, "properties": {"year": 2025, "valeur_fonciere": 550000.0, "type_local": "Dépendance", "surface_reelle_bati": null, "nombre_pieces_principales": 0.0, "adresse_nom_voie": "CHE DES CLOS", "price_per_sqm": null, "date_iso": "2025-10-22", "parcelle": "771800000C0326", "addr_num": "13"}}, {"type": "Feature", "geometry": {"type": "Point", "coordinates": [2.629635, 48.73065]}, "properties": {"year": 2025, "valeur_fonciere": 550000.0, "type_local": "Maison", "surface_reelle_bati": 185.0, "nombre_pieces_principales": 6.0, "adresse_nom_voie": "CHE DES CLOS", "price_per_sqm": 2972.972972972973, "date_iso": "2025-10-22", "parcelle": "771800000C0326", "addr_num": "13"}}, {"type": "Feature", "geometry": {"type": "Point", "coordinates": [2.63251, 48.732601]}, "properties": {"year": 2025, "valeur_fonciere": 530000.0, "type_local": "Maison", "surface_reelle_bati": 192.0, "nombre_pieces_principales": 6.0, "adresse_nom_voie": "IMP DU BIEF", "price_per_sqm": 2760.4166666666665, "date_iso": "2025-11-07", "parcelle": "771800000B0641", "addr_num": "3"}}, {"type": "Feature", "geometry": {"type": "Point", "coordinates": [2.632589, 48.732501]}, "properties": {"year": 2025, "valeur_fonciere": 530000.0, "type_local": null, "surface_reelle_bati": null, "nombre_pieces_principales": null, "adresse_nom_voie": "FEROLLES", "price_per_sqm": null, "date_iso": "2025-11-07", "parcelle": "771800000B0645", "addr_num": ""}}, {"type": "Feature", "geometry": {"type": "Point", "coordinates": [2.633966, 48.730716]}, "properties": {"year": 2025, "valeur_fonciere": 415000.0, "type_local": "Maison", "surface_reelle_bati": 110.0, "nombre_pieces_principales": 4.0, "adresse_nom_voie": "CHE DE LA BORDE GRAPIN", "price_per_sqm": 3772.7272727272725, "date_iso": "2025-10-31", "parcelle": "771800000B0634", "addr_num": "9001"}}, {"type": "Feature", "geometry": {"type": "Point", "coordinates": [2.624428, 48.732054]}, "properties": {"year": 2025, "valeur_fonciere": 550000.0, "type_local": "Dépendance", "surface_reelle_bati": null, "nombre_pieces_principales": 0.0, "adresse_nom_voie": "IMP DU PRESBYTERE", "price_per_sqm": null, "date_iso": "2025-12-19", "parcelle": "771800000B0607", "addr_num": "6"}}, {"type": "Feature", "geometry": {"type": "Point", "coordinates": [2.624428, 48.732054]}, "properties": {"year": 2025, "valeur_fonciere": 550000.0, "type_local": "Maison", "surface_reelle_bati": 147.0, "nombre_pieces_principales": 6.0, "adresse_nom_voie": "IMP DU PRESBYTERE", "price_per_sqm": 3741.496598639456, "date_iso": "2025-12-19", "parcelle": "771800000B0607", "addr_num": "6"}}, {"type": "Feature", "geometry": {"type": "Point", "coordinates": [2.624428, 48.732054]}, "properties": {"year": 2025, "valeur_fonciere": 550000.0, "type_local": "Maison", "surface_reelle_bati": 147.0, "nombre_pieces_principales": 6.0, "adresse_nom_voie": "IMP DU PRESBYTERE", "price_per_sqm": 3741.496598639456, "date_iso": "2025-12-19", "parcelle": "771800000B0607", "addr_num": "6"}}, {"type": "Feature", "geometry": {"type": "Point", "coordinates": [2.624428, 48.732054]}, "properties": {"year": 2025, "valeur_fonciere": 550000.0, "type_local": "Dépendance", "surface_reelle_bati": null, "nombre_pieces_principales": 0.0, "adresse_nom_voie": "IMP DU PRESBYTERE", "price_per_sqm": null, "date_iso": "2025-12-19", "parcelle": "771800000B0607", "addr_num": "6"}}]}