{"type": "FeatureCollection", "features": [{"type": "Feature", "geometry": {"type": "Point", "coordinates": [2.7909604999999997, 49.0006285]}, "properties": {"street_name": "RUE DE MEAUX", "sales": 30, "sales_appt": 0, "sales_maison": 18, "median_price": 275000.0, "median_price_per_sqm": 3268.3276640977947, "turnover_score": 100.0, "turnover_rank": 1, "first_year": 2021, "last_year": 2025, "years_active": 5}}, {"type": "Feature", "geometry": {"type": "Point", "coordinates": [2.78533, 48.99851]}, "properties": {"street_name": "RUE DU BORDEAU", "sales": 23, "sales_appt": 0, "sales_maison": 12, "median_price": 293250.0, "median_price_per_sqm": 2402.7278177458033, "turnover_score": 76.7, "turnover_rank": 2, "first_year": 2021, "last_year": 2025, "years_active": 4}}, {"type": "Feature", "geometry": {"type": "Point", "coordinates": [2.788514, 49.0013395]}, "properties": {"street_name": "RUE DU TILLET", "sales": 20, "sales_appt": 5, "sales_maison": 7, "median_price": 142125.0, "median_price_per_sqm": 2347.523219814241, "turnover_score": 66.7, "turnover_rank": 3, "first_year": 2021, "last_year": 2025, "years_active": 4}}, {"type": "Feature", "geometry": {"type": "Point", "coordinates": [2.7903085, 49.000388]}, "properties": {"street_name": "IVERNY", "sales": 16, "sales_appt": 0, "sales_maison": 0, "median_price": 232500.0, "median_price_per_sqm": null, "turnover_score": 53.3, "turnover_rank": 4, "first_year": 2021, "last_year": 2025, "years_active": 5}}, {"type": "Feature", "geometry": {"type": "Point", "coordinates": [2.788551, 48.99787]}, "properties": {"street_name": "RUE DU FRESNE", "sales": 14, "sales_appt": 0, "sales_maison": 8, "median_price": 260000.0, "median_price_per_sqm": 3096.708953851811, "turnover_score": 46.7, "turnover_rank": 5, "first_year": 2021, "last_year": 2023, "years_active": 3}}, {"type": "Feature", "geometry": {"type": "Point", "coordinates": [2.7894959999999998, 49.0002705]}, "properties": {"street_name": "RUE FORTIERE", "sales": 10, "sales_appt": 0, "sales_maison": 6, "median_price": 235000.0, "median_price_per_sqm": 1920.0, "turnover_score": 33.3, "turnover_rank": 6, "first_year": 2021, "last_year": 2024, "years_active": 3}}, {"type": "Feature", "geometry": {"type": "Point", "coordinates": [2.7879445, 48.997432]}, "properties": {"street_name": "RUE ALPHONSE TELLIER", "sales": 8, "sales_appt": 0, "sales_maison": 4, "median_price": 398690.0, "median_price_per_sqm": 2976.461709830131, "turnover_score": 26.7, "turnover_rank": 7, "first_year": 2021, "last_year": 2025, "years_active": 2}}, {"type": "Feature", "geometry": {"type": "Point", "coordinates": [2.7848415, 48.999129499999995]}, "properties": {"street_name": "LES CROCHETS", "sales": 2, "sales_appt": 0, "sales_maison": 0, "median_price": 604100.0, "median_price_per_sqm": null, "turnover_score": 6.7, "turnover_rank": 8, "first_year": 2025, "last_year": 2025, "years_active": 1}}, {"type": "Feature", "geometry": {"type": "Point", "coordinates": [2.7913015000000003, 49.0012565]}, "properties": {"street_name": "RLE BICHETTE", "sales": 2, "sales_appt": 0, "sales_maison": 1, "median_price": 320000.0, "median_price_per_sqm": 2480.6201550387595, "turnover_score": 6.7, "turnover_rank": 8, "first_year": 2024, "last_year": 2024, "years_active": 1}}, {"type": "Feature", "geometry": {"type": "Point", "coordinates": [2.789763, 48.998832]}, "properties": {"street_name": "LE GRAND PRE", "sales": 1, "sales_appt": 0, "sales_maison": 0, "median_price": 70000.0, "median_price_per_sqm": null, "turnover_score": 3.3, "turnover_rank": 9, "first_year": 2022, "last_year": 2022, "years_active": 1}}]}