{"type": "FeatureCollection", "features": [{"type": "Feature", "geometry": {"type": "Point", "coordinates": [2.530933, 48.460896]}, "properties": {"id_parcelle": "77065000AC0637", "address": "13 CHE DE BOIGNY", "sales": 27, "median_price": 177968.0, "median_price_per_sqm": 3253.968253968254, "median_rooms": 0.0, "first_sale": "2021-07-16", "last_sale": "2025-08-28"}}, {"type": "Feature", "geometry": {"type": "Point", "coordinates": [2.529891, 48.460208]}, "properties": {"id_parcelle": "77065000AC0011", "address": "20 RUE DE LA MAIRIE", "sales": 9, "median_price": 604500.0, "median_price_per_sqm": 3364.3109987357775, "median_rooms": 0.0, "first_sale": "2021-09-08", "last_sale": "2023-08-28"}}, {"type": "Feature", "geometry": {"type": "Point", "coordinates": [2.537484, 48.456422]}, "properties": {"id_parcelle": "77065000AC0586", "address": "2 RUE DES PATIS", "sales": 6, "median_price": 440000.0, "median_price_per_sqm": 7333.333333333334, "median_rooms": 3.0, "first_sale": "2025-09-16", "last_sale": "2025-09-16"}}, {"type": "Feature", "geometry": {"type": "Point", "coordinates": [2.522857, 48.458933]}, "properties": {"id_parcelle": "770650000B0545", "address": "3 CHE DE LA NOIROLLE", "sales": 5, "median_price": 156700.0, "median_price_per_sqm": 3264.5833333333335, "median_rooms": 0.0, "first_sale": "2023-02-07", "last_sale": "2024-03-07"}}, {"type": "Feature", "geometry": {"type": "Point", "coordinates": [2.53636, 48.460059]}, "properties": {"id_parcelle": "77065000AC0081", "address": "7 RUE DE LA CHARBONNIERE", "sales": 5, "median_price": 1334105.0, "median_price_per_sqm": 3625.2853260869565, "median_rooms": 0.0, "first_sale": "2023-07-25", "last_sale": "2023-07-25"}}, {"type": "Feature", "geometry": {"type": "Point", "coordinates": [2.527325, 48.460124]}, "properties": {"id_parcelle": "77065000AB0559", "address": "2 RUE DU BOIS BEAUDOIN", "sales": 4, "median_price": 169000.0, "median_price_per_sqm": 3072.7272727272725, "median_rooms": 0.0, "first_sale": "2024-09-04", "last_sale": "2024-09-04"}}, {"type": "Feature", "geometry": {"type": "Point", "coordinates": [2.525659, 48.460082]}, "properties": {"id_parcelle": "77065000AB0545", "address": "13 RUE DU BOIS BAUDOIN", "sales": 4, "median_price": 170000.0, "median_price_per_sqm": 1416.6666666666667, "median_rooms": 2.0, "first_sale": "2021-05-20", "last_sale": "2021-05-20"}}, {"type": "Feature", "geometry": {"type": "Point", "coordinates": [2.535477, 48.461263]}, "properties": {"id_parcelle": "770650000D0076", "address": "14 ALL DES SOURCES", "sales": 4, "median_price": 1120000.0, "median_price_per_sqm": 3733.3333333333335, "median_rooms": 0.0, "first_sale": "2021-04-29", "last_sale": "2021-04-29"}}, {"type": "Feature", "geometry": {"type": "Point", "coordinates": [2.541571, 48.454462]}, "properties": {"id_parcelle": "770650000D0289", "address": "5 RTE DE FONTAINEBLEAU", "sales": 4, "median_price": 250000.0, "median_price_per_sqm": 1700.6802721088436, "median_rooms": 1.5, "first_sale": "2022-12-28", "last_sale": "2022-12-28"}}, {"type": "Feature", "geometry": {"type": "Point", "coordinates": [2.528968, 48.458114]}, "properties": {"id_parcelle": "770650000E0069", "address": "24 RUE E GOERG", "sales": 4, "median_price": 43123.0, "median_price_per_sqm": 262.9451219512195, "median_rooms": 0.0, "first_sale": "2025-07-11", "last_sale": "2025-07-11"}}, {"type": "Feature", "geometry": {"type": "Point", "coordinates": [2.527366, 48.460817]}, "properties": {"id_parcelle": "77065000AB0386", "address": "2 RTE DE MILLY", "sales": 4, "median_price": 4165000.0, "median_price_per_sqm": 18429.203539823007, "median_rooms": 4.5, "first_sale": "2024-09-18", "last_sale": "2024-09-18"}}, {"type": "Feature", "geometry": {"type": "Point", "coordinates": [2.537025, 48.459421]}, "properties": {"id_parcelle": "77065000AC0691", "address": "53 RTE DE FONTAINEBLEAU", "sales": 4, "median_price": 345000.0, "median_price_per_sqm": 2141.0163075131045, "median_rooms": 1.0, "first_sale": "2021-08-27", "last_sale": "2022-12-07"}}, {"type": "Feature", "geometry": {"type": "Point", "coordinates": [2.536814, 48.459366]}, "properties": {"id_parcelle": "77065000AC0686", "address": "CELY", "sales": 4, "median_price": 337500.0, "median_price_per_sqm": null, "median_rooms": null, "first_sale": "2021-08-27", "last_sale": "2022-12-30"}}, {"type": "Feature", "geometry": {"type": "Point", "coordinates": [2.537619, 48.459214]}, "properties": {"id_parcelle": "77065000AC0108", "address": "5 RUE DE L EGLISE", "sales": 4, "median_price": 140000.0, "median_price_per_sqm": 1000.0, "median_rooms": 0.0, "first_sale": "2023-12-04", "last_sale": "2023-12-04"}}, {"type": "Feature", "geometry": {"type": "Point", "coordinates": [2.536099, 48.458439]}, "properties": {"id_parcelle": "77065000AC0714", "address": "5 RUE DE LA MESSE", "sales": 4, "median_price": 210000.0, "median_price_per_sqm": 5115.384615384615, "median_rooms": 0.5, "first_sale": "2025-02-10", "last_sale": "2025-02-10"}}, {"type": "Feature", "geometry": {"type": "Point", "coordinates": [2.538778, 48.459126]}, "properties": {"id_parcelle": "77065000AC0526", "address": "15 RUE DE FLEURY", "sales": 4, "median_price": 604500.0, "median_price_per_sqm": 2878.5714285714284, "median_rooms": 0.0, "first_sale": "2025-12-22", "last_sale": "2025-12-22"}}, {"type": "Feature", "geometry": {"type": "Point", "coordinates": [2.538916, 48.459809]}, "properties": {"id_parcelle": "77065000AC0106", "address": "3 RUE DE LA FONTAINE AU GUE", "sales": 3, "median_price": 714160.0, "median_price_per_sqm": 5451.603053435115, "median_rooms": 0.0, "first_sale": "2025-07-22", "last_sale": "2025-07-22"}}, {"type": "Feature", "geometry": {"type": "Point", "coordinates": [2.522136, 48.462836]}, "properties": {"id_parcelle": "77065000AB0476", "address": "32 RUE DU BOIS BAUDOIN", "sales": 3, "median_price": 736638.0, "median_price_per_sqm": 3428.0772727272724, "median_rooms": 0.0, "first_sale": "2021-11-17", "last_sale": "2021-11-17"}}, {"type": "Feature", "geometry": {"type": "Point", "coordinates": [2.523057, 48.458971]}, "properties": {"id_parcelle": "770650000B0544", "address": "3 CHE DE LA NOIROLLE", "sales": 3, "median_price": 460000.0, "median_price_per_sqm": 4088.8888888888887, "median_rooms": 2.0, "first_sale": "2023-02-07", "last_sale": "2023-02-07"}}, {"type": "Feature", "geometry": {"type": "Point", "coordinates": [2.537643, 48.458621]}, "properties": {"id_parcelle": "77065000AC0192", "address": "40 RTE DE FONTAINEBLEAU", "sales": 3, "median_price": 550000.0, "median_price_per_sqm": 2894.7368421052633, "median_rooms": 0.0, "first_sale": "2021-06-14", "last_sale": "2021-06-14"}}, {"type": "Feature", "geometry": {"type": "Point", "coordinates": [2.529453, 48.459894]}, "properties": {"id_parcelle": "77065000AB0514", "address": "21 RUE DE LA MAIRIE", "sales": 3, "median_price": 425000.0, "median_price_per_sqm": 2470.9302325581393, "median_rooms": 0.0, "first_sale": "2024-06-19", "last_sale": "2024-06-19"}}, {"type": "Feature", "geometry": {"type": "Point", "coordinates": [2.518292, 48.465726]}, "properties": {"id_parcelle": "770650000A0138", "address": "LES FRILLANS", "sales": 2, "median_price": 315000.0, "median_price_per_sqm": null, "median_rooms": null, "first_sale": "2022-03-08", "last_sale": "2023-06-01"}}, {"type": "Feature", "geometry": {"type": "Point", "coordinates": [2.518229, 48.465665]}, "properties": {"id_parcelle": "770650000A0139", "address": "LES FRILLANS", "sales": 2, "median_price": 315000.0, "median_price_per_sqm": null, "median_rooms": null, "first_sale": "2022-03-08", "last_sale": "2023-06-01"}}, {"type": "Feature", "geometry": {"type": "Point", "coordinates": [2.538557, 48.456636]}, "properties": {"id_parcelle": "770650000D0467", "address": "MOULIN DES MARAIS", "sales": 2, "median_price": 159575.0, "median_price_per_sqm": null, "median_rooms": null, "first_sale": "2022-03-10", "last_sale": "2022-06-16"}}, {"type": "Feature", "geometry": {"type": "Point", "coordinates": [2.539928, 48.456507]}, "properties": {"id_parcelle": "770650000D0340", "address": "15 RTE DE FONTAINEBLEAU", "sales": 2, "median_price": 375000.0, "median_price_per_sqm": 2500.0, "median_rooms": 3.0, "first_sale": "2021-06-17", "last_sale": "2021-06-17"}}, {"type": "Feature", "geometry": {"type": "Point", "coordinates": [2.535456, 48.461285]}, "properties": {"id_parcelle": "770650000D0444", "address": "14 ALL DES SOURCES", "sales": 2, "median_price": 1120000.0, "median_price_per_sqm": null, "median_rooms": null, "first_sale": "2021-04-29", "last_sale": "2021-04-29"}}, {"type": "Feature", "geometry": {"type": "Point", "coordinates": [2.542824, 48.461384]}, "properties": {"id_parcelle": "770650000C0753", "address": "27 RUE DE LA FONTAINE AU GUE", "sales": 2, "median_price": 278000.0, "median_price_per_sqm": 4633.333333333333, "median_rooms": 1.5, "first_sale": "2022-03-23", "last_sale": "2022-03-23"}}, {"type": "Feature", "geometry": {"type": "Point", "coordinates": [2.541431, 48.460435]}, "properties": {"id_parcelle": "770650000C0653", "address": "12 RUE DE LA FONTAINE AU GUE", "sales": 2, "median_price": 300000.0, "median_price_per_sqm": 4054.054054054054, "median_rooms": 1.0, "first_sale": "2025-01-28", "last_sale": "2025-01-28"}}, {"type": "Feature", "geometry": {"type": "Point", "coordinates": [2.53985, 48.462617]}, "properties": {"id_parcelle": "770650000C0777", "address": "CHE DES TARDIVOIS", "sales": 2, "median_price": 1420.0, "median_price_per_sqm": null, "median_rooms": null, "first_sale": "2022-05-03", "last_sale": "2022-06-28"}}, {"type": "Feature", "geometry": {"type": "Point", "coordinates": [2.538408, 48.456712]}, "properties": {"id_parcelle": "770650000D0293", "address": "25 RTE DE FONTAINEBLEAU", "sales": 2, "median_price": 319000.0, "median_price_per_sqm": 3987.5, "median_rooms": 2.0, "first_sale": "2022-06-16", "last_sale": "2022-06-16"}}, {"type": "Feature", "geometry": {"type": "Point", "coordinates": [2.51986, 48.466986]}, "properties": {"id_parcelle": "770650000A1163", "address": "LE JARDIN NEUF", "sales": 2, "median_price": 370000.0, "median_price_per_sqm": null, "median_rooms": null, "first_sale": "2023-01-17", "last_sale": "2023-01-17"}}, {"type": "Feature", "geometry": {"type": "Point", "coordinates": [2.521281, 48.465382]}, "properties": {"id_parcelle": "770650000A1107", "address": "4 RTE DE SAINT GERMAIN", "sales": 2, "median_price": 600000.0, "median_price_per_sqm": 3703.703703703704, "median_rooms": 6.0, "first_sale": "2023-09-20", "last_sale": "2023-09-20"}}, {"type": "Feature", "geometry": {"type": "Point", "coordinates": [2.518514, 48.466098]}, "properties": {"id_parcelle": "770650000A1040", "address": "2 RUE DES JARDINS NEUFS", "sales": 2, "median_price": 130000.0, "median_price_per_sqm": 1150.4424778761063, "median_rooms": 3.0, "first_sale": "2024-05-07", "last_sale": "2024-05-07"}}, {"type": "Feature", "geometry": {"type": "Point", "coordinates": [2.520576, 48.465024]}, "properties": {"id_parcelle": "770650000A1085", "address": "2 RTE DE SAINT GERMAIN", "sales": 2, "median_price": 445000.0, "median_price_per_sqm": 1772.9083665338646, "median_rooms": 2.0, "first_sale": "2025-07-11", "last_sale": "2025-07-11"}}, {"type": "Feature", "geometry": {"type": "Point", "coordinates": [2.528341, 48.458615]}, "properties": {"id_parcelle": "77065000AB0542", "address": "11 RUE E GOERG", "sales": 2, "median_price": 270000.0, "median_price_per_sqm": 3068.181818181818, "median_rooms": 5.0, "first_sale": "2021-02-01", "last_sale": "2021-02-01"}}, {"type": "Feature", "geometry": {"type": "Point", "coordinates": [2.527865, 48.461206]}, "properties": {"id_parcelle": "77065000AB0452", "address": "2 RTE DE MILLY", "sales": 2, "median_price": 4165000.0, "median_price_per_sqm": 16005.524576621232, "median_rooms": 7.5, "first_sale": "2024-09-18", "last_sale": "2024-09-18"}}, {"type": "Feature", "geometry": {"type": "Point", "coordinates": [2.524257, 48.461886]}, "properties": {"id_parcelle": "77065000AB0336", "address": "22 RUE DU BOIS BAUDOIN", "sales": 2, "median_price": 545000.0, "median_price_per_sqm": 3633.3333333333335, "median_rooms": 4.0, "first_sale": "2022-08-17", "last_sale": "2022-08-17"}}, {"type": "Feature", "geometry": {"type": "Point", "coordinates": [2.527487, 48.460254]}, "properties": {"id_parcelle": "77065000AB0391", "address": "2 CHE DU PRESSOIR", "sales": 2, "median_price": 4165000.0, "median_price_per_sqm": 31553.030303030304, "median_rooms": 2.0, "first_sale": "2024-09-18", "last_sale": "2024-09-18"}}, {"type": "Feature", "geometry": {"type": "Point", "coordinates": [2.519683, 48.462451]}, "properties": {"id_parcelle": "77065000AB0297", "address": "3 CHE DE LA CAILLOUTERIE", "sales": 2, "median_price": 630000.0, "median_price_per_sqm": 2625.0, "median_rooms": 7.0, "first_sale": "2021-01-21", "last_sale": "2021-01-21"}}, {"type": "Feature", "geometry": {"type": "Point", "coordinates": [2.527157, 48.460414]}, "properties": {"id_parcelle": "77065000AB0066", "address": "LES PRES GUERIN", "sales": 2, "median_price": 4165000.0, "median_price_per_sqm": null, "median_rooms": null, "first_sale": "2024-09-18", "last_sale": "2024-09-18"}}, {"type": "Feature", "geometry": {"type": "Point", "coordinates": [2.525904, 48.459155]}, "properties": {"id_parcelle": "77065000AB0108", "address": "25 RTE DE MILLY", "sales": 2, "median_price": 420000.0, "median_price_per_sqm": 6217.549881999571, "median_rooms": 3.0, "first_sale": "2025-09-08", "last_sale": "2025-09-08"}}, {"type": "Feature", "geometry": {"type": "Point", "coordinates": [2.520209, 48.463713]}, "properties": {"id_parcelle": "77065000AB0217", "address": "LE BOIS BAUDOIN", "sales": 2, "median_price": 71500.0, "median_price_per_sqm": null, "median_rooms": null, "first_sale": "2022-05-05", "last_sale": "2022-10-21"}}, {"type": "Feature", "geometry": {"type": "Point", "coordinates": [2.525312, 48.458432]}, "properties": {"id_parcelle": "770650000E0900", "address": "4 RUE E GOERG", "sales": 2, "median_price": 465000.0, "median_price_per_sqm": 3720.0, "median_rooms": 2.5, "first_sale": "2022-03-01", "last_sale": "2022-03-01"}}, {"type": "Feature", "geometry": {"type": "Point", "coordinates": [2.536633, 48.461822]}, "properties": {"id_parcelle": "770650000D0506", "address": "AU DESSUS DU PRESSOIR", "sales": 2, "median_price": 11000.0, "median_price_per_sqm": null, "median_rooms": null, "first_sale": "2023-01-18", "last_sale": "2024-05-25"}}, {"type": "Feature", "geometry": {"type": "Point", "coordinates": [2.538694, 48.456657]}, "properties": {"id_parcelle": "770650000D0469", "address": "MOULIN DES MARAIS", "sales": 2, "median_price": 170075.0, "median_price_per_sqm": null, "median_rooms": null, "first_sale": "2023-12-19", "last_sale": "2024-08-22"}}, {"type": "Feature", "geometry": {"type": "Point", "coordinates": [2.527198, 48.462729]}, "properties": {"id_parcelle": "77065000AB0045", "address": "LES PRES GUERIN", "sales": 2, "median_price": 4165000.0, "median_price_per_sqm": null, "median_rooms": null, "first_sale": "2024-09-18", "last_sale": "2024-09-18"}}, {"type": "Feature", "geometry": {"type": "Point", "coordinates": [2.539062, 48.456407]}, "properties": {"id_parcelle": "770650000D0318", "address": "21 RTE DE FONTAINEBLEAU", "sales": 2, "median_price": 472170.0, "median_price_per_sqm": 3497.5555555555557, "median_rooms": 3.0, "first_sale": "2023-01-26", "last_sale": "2023-01-26"}}, {"type": "Feature", "geometry": {"type": "Point", "coordinates": [2.530072, 48.460383]}, "properties": {"id_parcelle": "77065000AC0012", "address": "CELY", "sales": 2, "median_price": 487250.0, "median_price_per_sqm": null, "median_rooms": null, "first_sale": "2021-09-08", "last_sale": "2023-08-28"}}, {"type": "Feature", "geometry": {"type": "Point", "coordinates": [2.530349, 48.460593]}, "properties": {"id_parcelle": "77065000AC0013", "address": "CELY", "sales": 2, "median_price": 487250.0, "median_price_per_sqm": null, "median_rooms": null, "first_sale": "2021-09-08", "last_sale": "2023-08-28"}}, {"type": "Feature", "geometry": {"type": "Point", "coordinates": [2.52526, 48.4605]}, "properties": {"id_parcelle": "77065000AB0546", "address": "1 RUE DE LA FONTAINE SAINT MARC", "sales": 2, "median_price": 420000.0, "median_price_per_sqm": null, "median_rooms": null, "first_sale": "2021-06-28", "last_sale": "2021-06-28"}}, {"type": "Feature", "geometry": {"type": "Point", "coordinates": [2.531522, 48.460652]}, "properties": {"id_parcelle": "77065000AC0368", "address": "CELY", "sales": 2, "median_price": 130000.0, "median_price_per_sqm": null, "median_rooms": null, "first_sale": "2021-04-01", "last_sale": "2021-04-01"}}, {"type": "Feature", "geometry": {"type": "Point", "coordinates": [2.537398, 48.458065]}, "properties": {"id_parcelle": "77065000AC0182", "address": "37 RTE DE FONTAINEBLEAU", "sales": 2, "median_price": 479254.0, "median_price_per_sqm": 2995.3375, "median_rooms": 2.0, "first_sale": "2024-02-14", "last_sale": "2024-02-14"}}, {"type": "Feature", "geometry": {"type": "Point", "coordinates": [2.536865, 48.458501]}, "properties": {"id_parcelle": "77065000AC0176", "address": "45 RTE DE FONTAINEBLEAU", "sales": 2, "median_price": 425000.0, "median_price_per_sqm": 5902.777777777777, "median_rooms": 2.0, "first_sale": "2021-09-24", "last_sale": "2021-09-24"}}, {"type": "Feature", "geometry": {"type": "Point", "coordinates": [2.536169, 48.459725]}, "properties": {"id_parcelle": "77065000AC0074", "address": "4 RUE DE LA SALLE", "sales": 2, "median_price": 170000.0, "median_price_per_sqm": 3541.6666666666665, "median_rooms": 2.0, "first_sale": "2024-05-03", "last_sale": "2024-05-03"}}, {"type": "Feature", "geometry": {"type": "Point", "coordinates": [2.524624, 48.460793]}, "properties": {"id_parcelle": "77065000AB0563", "address": "21 RUE DU BOIS BAUDOIN", "sales": 2, "median_price": 307000.0, "median_price_per_sqm": 4651.515151515152, "median_rooms": 2.5, "first_sale": "2023-02-21", "last_sale": "2023-02-21"}}, {"type": "Feature", "geometry": {"type": "Point", "coordinates": [2.530347, 48.460895]}, "properties": {"id_parcelle": "77065000AC0006", "address": "17 CHE DE BOIGNY", "sales": 2, "median_price": 280000.0, "median_price_per_sqm": 4444.444444444444, "median_rooms": 4.0, "first_sale": "2025-08-29", "last_sale": "2025-08-29"}}, {"type": "Feature", "geometry": {"type": "Point", "coordinates": [2.533257, 48.457093]}, "properties": {"id_parcelle": "77065000AC0604", "address": "26 RUE DU FIEF", "sales": 2, "median_price": 337000.0, "median_price_per_sqm": 3438.7755102040815, "median_rooms": 4.0, "first_sale": "2022-06-20", "last_sale": "2022-06-20"}}, {"type": "Feature", "geometry": {"type": "Point", "coordinates": [2.539272, 48.457007]}, "properties": {"id_parcelle": "77065000AC0511", "address": "1 RUE DE FLEURY", "sales": 2, "median_price": 400000.0, "median_price_per_sqm": 3361.344537815126, "median_rooms": 5.0, "first_sale": "2022-06-20", "last_sale": "2022-06-20"}}, {"type": "Feature", "geometry": {"type": "Point", "coordinates": [2.530201, 48.458341]}, "properties": {"id_parcelle": "77065000AC0682", "address": "9 RUE CANET", "sales": 2, "median_price": 422000.0, "median_price_per_sqm": 2813.3333333333335, "median_rooms": 6.0, "first_sale": "2021-10-15", "last_sale": "2021-10-15"}}, {"type": "Feature", "geometry": {"type": "Point", "coordinates": [2.533791, 48.458589]}, "properties": {"id_parcelle": "77065000AC0665", "address": "29 RUE DE LA MESSE", "sales": 2, "median_price": 244900.0, "median_price_per_sqm": 3061.25, "median_rooms": 2.0, "first_sale": "2022-08-04", "last_sale": "2022-08-04"}}, {"type": "Feature", "geometry": {"type": "Point", "coordinates": [2.536889, 48.459274]}, "properties": {"id_parcelle": "77065000AC0690", "address": "CELY", "sales": 2, "median_price": 346500.0, "median_price_per_sqm": null, "median_rooms": null, "first_sale": "2021-08-27", "last_sale": "2022-12-30"}}, {"type": "Feature", "geometry": {"type": "Point", "coordinates": [2.536946, 48.459444]}, "properties": {"id_parcelle": "77065000AC0687", "address": "CELY", "sales": 2, "median_price": 337500.0, "median_price_per_sqm": null, "median_rooms": null, "first_sale": "2021-08-27", "last_sale": "2022-12-07"}}, {"type": "Feature", "geometry": {"type": "Point", "coordinates": [2.537009, 48.459254]}, "properties": {"id_parcelle": "77065000AC0694", "address": "53 RTE DE FONTAINEBLEAU", "sales": 2, "median_price": 346500.0, "median_price_per_sqm": 3222.222222222222, "median_rooms": 5.0, "first_sale": "2021-08-27", "last_sale": "2022-12-30"}}, {"type": "Feature", "geometry": {"type": "Point", "coordinates": [2.545443, 48.466865]}, "properties": {"id_parcelle": "77065000ZA0101", "address": "LE VEAU", "sales": 2, "median_price": 85548.0, "median_price_per_sqm": null, "median_rooms": null, "first_sale": "2021-04-30", "last_sale": "2021-04-30"}}, {"type": "Feature", "geometry": {"type": "Point", "coordinates": [2.532243, 48.456235]}, "properties": {"id_parcelle": "77065000ZC0305", "address": "5072 CHE DES ROCHETTES", "sales": 2, "median_price": 199000.0, "median_price_per_sqm": 3618.181818181818, "median_rooms": 3.0, "first_sale": "2024-09-30", "last_sale": "2024-09-30"}}, {"type": "Feature", "geometry": {"type": "Point", "coordinates": [2.507778, 48.456977]}, "properties": {"id_parcelle": "77065000ZD0002", "address": "LA GENETRIERE", "sales": 2, "median_price": 2000.0, "median_price_per_sqm": null, "median_rooms": null, "first_sale": "2023-03-15", "last_sale": "2023-03-15"}}]}