{"type": "FeatureCollection", "features": [{"type": "Feature", "geometry": {"type": "Point", "coordinates": [3.237687, 48.852273]}, "properties": {"id_parcelle": "77385000ZE0201", "address": "342 RUE DE LA PAIX", "sales": 26, "median_price": 627500.0, "median_price_per_sqm": 3984.848484848485, "median_rooms": 0.0, "first_sale": "2021-07-29", "last_sale": "2023-12-21"}}, {"type": "Feature", "geometry": {"type": "Point", "coordinates": [3.232904, 48.84524]}, "properties": {"id_parcelle": "77385000AE0358", "address": "40 RUE DES MOLINOTS", "sales": 21, "median_price": 82000.0, "median_price_per_sqm": null, "median_rooms": 0.0, "first_sale": "2021-10-14", "last_sale": "2021-10-14"}}, {"type": "Feature", "geometry": {"type": "Point", "coordinates": [3.232006, 48.84923]}, "properties": {"id_parcelle": "77385000AC0708", "address": "5079 RUE DE L ARQUEBUSE", "sales": 20, "median_price": 200000.0, "median_price_per_sqm": null, "median_rooms": 0.0, "first_sale": "2021-03-11", "last_sale": "2021-03-11"}}, {"type": "Feature", "geometry": {"type": "Point", "coordinates": [3.229802, 48.846331]}, "properties": {"id_parcelle": "77385000AC0633", "address": "9 RUE SAINT LOUIS", "sales": 8, "median_price": 226900.0, "median_price_per_sqm": 1718.939393939394, "median_rooms": 0.0, "first_sale": "2025-06-30", "last_sale": "2025-06-30"}}, {"type": "Feature", "geometry": {"type": "Point", "coordinates": [3.230286, 48.846555]}, "properties": {"id_parcelle": "77385000AC0392", "address": "4 RUE ST LOUIS", "sales": 7, "median_price": 140000.0, "median_price_per_sqm": 1580.4509493670885, "median_rooms": 0.0, "first_sale": "2021-06-10", "last_sale": "2022-06-10"}}, {"type": "Feature", "geometry": {"type": "Point", "coordinates": [3.237006, 48.852313]}, "properties": {"id_parcelle": "77385000ZE0200", "address": "342 RUE DE LA PAIX", "sales": 6, "median_price": 600000.0, "median_price_per_sqm": 6060.606060606061, "median_rooms": 5.0, "first_sale": "2021-07-29", "last_sale": "2024-03-08"}}, {"type": "Feature", "geometry": {"type": "Point", "coordinates": [3.227171, 48.847326]}, "properties": {"id_parcelle": "77385000AC0764", "address": "9 AV DU GENERAL DE GAULLE", "sales": 6, "median_price": 530000.0, "median_price_per_sqm": 2038.4615384615386, "median_rooms": 0.0, "first_sale": "2021-06-29", "last_sale": "2021-06-29"}}, {"type": "Feature", "geometry": {"type": "Point", "coordinates": [3.230226, 48.853806]}, "properties": {"id_parcelle": "77385000ZD0080", "address": "40 RUE PASTEUR", "sales": 6, "median_price": 200000.0, "median_price_per_sqm": 1694.915254237288, "median_rooms": 0.0, "first_sale": "2025-03-12", "last_sale": "2025-03-12"}}, {"type": "Feature", "geometry": {"type": "Point", "coordinates": [3.234427, 48.841376]}, "properties": {"id_parcelle": "77385000AE0378", "address": "9 RUE DE LA CHANTERELLE", "sales": 6, "median_price": 260000.0, "median_price_per_sqm": 2626.2626262626263, "median_rooms": 0.0, "first_sale": "2023-01-24", "last_sale": "2023-01-24"}}, {"type": "Feature", "geometry": {"type": "Point", "coordinates": [3.23544, 48.867612]}, "properties": {"id_parcelle": "773850000Y0237", "address": "26 LA BOYERE", "sales": 6, "median_price": 185000.0, "median_price_per_sqm": 2283.9506172839506, "median_rooms": 0.0, "first_sale": "2022-08-22", "last_sale": "2022-08-22"}}, {"type": "Feature", "geometry": {"type": "Point", "coordinates": [3.234313, 48.832053]}, "properties": {"id_parcelle": "77385000VA0130", "address": "2 LE BOIS MAUGE", "sales": 6, "median_price": 220000.0, "median_price_per_sqm": 2340.425531914894, "median_rooms": 0.0, "first_sale": "2021-10-27", "last_sale": "2021-10-27"}}, {"type": "Feature", "geometry": {"type": "Point", "coordinates": [3.232625, 48.84571]}, "properties": {"id_parcelle": "77385000AE0391", "address": "8 RUE DE L ABBE RONDEAU", "sales": 5, "median_price": 115000.0, "median_price_per_sqm": 1467.2157622739019, "median_rooms": 0.0, "first_sale": "2024-06-27", "last_sale": "2024-06-27"}}, {"type": "Feature", "geometry": {"type": "Point", "coordinates": [3.230223, 48.841365]}, "properties": {"id_parcelle": "77385000AE0182", "address": "11 RUE MOLIERE", "sales": 4, "median_price": 262960.0, "median_price_per_sqm": 2228.4745762711864, "median_rooms": 0.0, "first_sale": "2023-07-07", "last_sale": "2023-07-07"}}, {"type": "Feature", "geometry": {"type": "Point", "coordinates": [3.233898, 48.846209]}, "properties": {"id_parcelle": "77385000AC0236", "address": "17 RUE DES MOLINOTS", "sales": 4, "median_price": 221500.0, "median_price_per_sqm": 2356.3829787234044, "median_rooms": 3.5, "first_sale": "2022-04-15", "last_sale": "2024-10-24"}}, {"type": "Feature", "geometry": {"type": "Point", "coordinates": [3.231635, 48.846819]}, "properties": {"id_parcelle": "77385000AC0307", "address": "5247 RUE SALADINE", "sales": 4, "median_price": 60000.0, "median_price_per_sqm": null, "median_rooms": 0.0, "first_sale": "2022-03-19", "last_sale": "2024-01-18"}}, {"type": "Feature", "geometry": {"type": "Point", "coordinates": [3.233022, 48.847182]}, "properties": {"id_parcelle": "77385000AC0209", "address": "18 RUE DU DOCTEUR FARNY", "sales": 4, "median_price": 174650.0, "median_price_per_sqm": 3559.7853535353534, "median_rooms": 0.5, "first_sale": "2021-09-29", "last_sale": "2021-09-29"}}, {"type": "Feature", "geometry": {"type": "Point", "coordinates": [3.235032, 48.867194]}, "properties": {"id_parcelle": "773850000Y0234", "address": "20 LA BOYERE", "sales": 4, "median_price": 214600.0, "median_price_per_sqm": 2411.2359550561796, "median_rooms": 1.5, "first_sale": "2024-03-14", "last_sale": "2024-03-14"}}, {"type": "Feature", "geometry": {"type": "Point", "coordinates": [3.231608, 48.847527]}, "properties": {"id_parcelle": "77385000AC0773", "address": "23 COUR MICHAUD", "sales": 4, "median_price": 94000.0, "median_price_per_sqm": 2226.8673355629876, "median_rooms": 1.0, "first_sale": "2022-05-24", "last_sale": "2022-05-24"}}, {"type": "Feature", "geometry": {"type": "Point", "coordinates": [3.233721, 48.869316]}, "properties": {"id_parcelle": "773850000Y0208", "address": "60 LA BOYERE", "sales": 4, "median_price": 255000.0, "median_price_per_sqm": 2198.2758620689656, "median_rooms": 3.0, "first_sale": "2021-07-08", "last_sale": "2021-07-08"}}, {"type": "Feature", "geometry": {"type": "Point", "coordinates": [3.22996, 48.851711]}, "properties": {"id_parcelle": "77385000AB0168", "address": "9 RUE PASTEUR", "sales": 4, "median_price": 241000.0, "median_price_per_sqm": 2648.3516483516487, "median_rooms": 4.0, "first_sale": "2023-03-06", "last_sale": "2025-09-30"}}, {"type": "Feature", "geometry": {"type": "Point", "coordinates": [3.229311, 48.851771]}, "properties": {"id_parcelle": "77385000AB0173", "address": "20 AV DE LA MARNE", "sales": 4, "median_price": 349000.0, "median_price_per_sqm": 2017.3410404624278, "median_rooms": 3.0, "first_sale": "2023-04-07", "last_sale": "2023-04-07"}}, {"type": "Feature", "geometry": {"type": "Point", "coordinates": [3.234331, 48.844204]}, "properties": {"id_parcelle": "77385000AE0049", "address": "5623 AV DE LA REPUBLIQUE", "sales": 4, "median_price": 117000.0, "median_price_per_sqm": 4680.0, "median_rooms": 0.0, "first_sale": "2025-10-20", "last_sale": "2025-10-20"}}, {"type": "Feature", "geometry": {"type": "Point", "coordinates": [3.231816, 48.842326]}, "properties": {"id_parcelle": "77385000AE0124", "address": "10 RUE DE LA MADELEINE", "sales": 4, "median_price": 212000.0, "median_price_per_sqm": 3072.463768115942, "median_rooms": 1.5, "first_sale": "2021-10-29", "last_sale": "2021-10-29"}}, {"type": "Feature", "geometry": {"type": "Point", "coordinates": [3.234065, 48.845658]}, "properties": {"id_parcelle": "77385000AE0036", "address": "34 RUE DES MOLINOTS", "sales": 4, "median_price": 160000.0, "median_price_per_sqm": 2025.3164556962026, "median_rooms": 0.0, "first_sale": "2024-09-23", "last_sale": "2024-09-23"}}, {"type": "Feature", "geometry": {"type": "Point", "coordinates": [3.235674, 48.844327]}, "properties": {"id_parcelle": "77385000AD0139", "address": "3 AV DE LA REPUBLIQUE", "sales": 4, "median_price": 175000.0, "median_price_per_sqm": 1041.6666666666667, "median_rooms": 3.0, "first_sale": "2025-01-15", "last_sale": "2025-01-15"}}, {"type": "Feature", "geometry": {"type": "Point", "coordinates": [3.22796, 48.842107]}, "properties": {"id_parcelle": "77385000ZI0051", "address": "7 RUE DE ST AILE", "sales": 4, "median_price": 315000.0, "median_price_per_sqm": 2250.0, "median_rooms": 3.0, "first_sale": "2021-12-13", "last_sale": "2021-12-13"}}, {"type": "Feature", "geometry": {"type": "Point", "coordinates": [3.22866, 48.841178]}, "properties": {"id_parcelle": "77385000AE0355", "address": "41 AV DE LA LIBERATION", "sales": 4, "median_price": 170000.0, "median_price_per_sqm": 2179.4871794871797, "median_rooms": 2.0, "first_sale": "2024-07-12", "last_sale": "2024-07-12"}}, {"type": "Feature", "geometry": {"type": "Point", "coordinates": [3.228645, 48.843127]}, "properties": {"id_parcelle": "77385000AE0268", "address": "2 RUE DE SAINT AILE", "sales": 4, "median_price": 199000.0, "median_price_per_sqm": 1913.4615384615386, "median_rooms": 1.5, "first_sale": "2025-08-28", "last_sale": "2025-08-28"}}, {"type": "Feature", "geometry": {"type": "Point", "coordinates": [3.234882, 48.842363]}, "properties": {"id_parcelle": "77385000AE0529", "address": "22 AV DE LA REPUBLIQUE", "sales": 4, "median_price": 255000.0, "median_price_per_sqm": 1821.4285714285713, "median_rooms": 3.0, "first_sale": "2023-05-26", "last_sale": "2023-05-26"}}, {"type": "Feature", "geometry": {"type": "Point", "coordinates": [3.235354, 48.841706]}, "properties": {"id_parcelle": "77385000AE0410", "address": "28 AV DE LA REPUBLIQUE", "sales": 4, "median_price": 149000.0, "median_price_per_sqm": 2328.125, "median_rooms": 1.5, "first_sale": "2021-10-29", "last_sale": "2021-10-29"}}, {"type": "Feature", "geometry": {"type": "Point", "coordinates": [3.242387, 48.843682]}, "properties": {"id_parcelle": "77385000ZH0106", "address": "49 RUE JEAN MOULIN", "sales": 4, "median_price": 389000.0, "median_price_per_sqm": 2222.8571428571427, "median_rooms": 3.5, "first_sale": "2023-03-31", "last_sale": "2023-03-31"}}, {"type": "Feature", "geometry": {"type": "Point", "coordinates": [3.233559, 48.842017]}, "properties": {"id_parcelle": "77385000AE0370", "address": "15 RUE DE LA MADELEINE", "sales": 4, "median_price": 211000.0, "median_price_per_sqm": 1953.7037037037037, "median_rooms": 2.5, "first_sale": "2025-02-26", "last_sale": "2025-02-26"}}, {"type": "Feature", "geometry": {"type": "Point", "coordinates": [3.234015, 48.845306]}, "properties": {"id_parcelle": "77385000AE0439", "address": "38 RUE DES MOLINOTS", "sales": 3, "median_price": 80000.0, "median_price_per_sqm": 1066.6666666666667, "median_rooms": 0.0, "first_sale": "2021-09-03", "last_sale": "2021-09-03"}}, {"type": "Feature", "geometry": {"type": "Point", "coordinates": [3.2339, 48.845786]}, "properties": {"id_parcelle": "77385000AE0033", "address": "28 RUE DES MOLINOTS", "sales": 3, "median_price": 215000.0, "median_price_per_sqm": 1791.6666666666667, "median_rooms": 0.0, "first_sale": "2023-07-04", "last_sale": "2023-07-04"}}, {"type": "Feature", "geometry": {"type": "Point", "coordinates": [3.228069, 48.840063]}, "properties": {"id_parcelle": "77385000VA0215", "address": "51 AV DE LA LIBERATION", "sales": 3, "median_price": 330000.0, "median_price_per_sqm": 1152.1570870911294, "median_rooms": 0.0, "first_sale": "2023-10-09", "last_sale": "2023-10-09"}}, {"type": "Feature", "geometry": {"type": "Point", "coordinates": [3.234578, 48.853036]}, "properties": {"id_parcelle": "77385000ZD0140", "address": "5001 LE PRE ANCEL", "sales": 3, "median_price": 2500000.0, "median_price_per_sqm": 21139.18114346301, "median_rooms": 0.0, "first_sale": "2021-07-20", "last_sale": "2021-07-20"}}, {"type": "Feature", "geometry": {"type": "Point", "coordinates": [3.231543, 48.841458]}, "properties": {"id_parcelle": "77385000AE0174", "address": "RUE VOLTAIRE", "sales": 3, "median_price": 170000.0, "median_price_per_sqm": null, "median_rooms": null, "first_sale": "2023-03-17", "last_sale": "2024-04-02"}}, {"type": "Feature", "geometry": {"type": "Point", "coordinates": [3.232783, 48.845639]}, "properties": {"id_parcelle": "77385000AE0357", "address": "10 RUE DE L ABBE RONDEAU", "sales": 3, "median_price": 110693.0, "median_price_per_sqm": 444.5502008032129, "median_rooms": 0.0, "first_sale": "2023-12-20", "last_sale": "2023-12-20"}}, {"type": "Feature", "geometry": {"type": "Point", "coordinates": [3.23224, 48.846304]}, "properties": {"id_parcelle": "77385000AE0001", "address": "1 RUE DE L HOTEL DE VILLE", "sales": 3, "median_price": 180000.0, "median_price_per_sqm": 3250.0, "median_rooms": 0.0, "first_sale": "2022-06-16", "last_sale": "2022-06-16"}}, {"type": "Feature", "geometry": {"type": "Point", "coordinates": [3.231783, 48.847529]}, "properties": {"id_parcelle": "77385000AC0617", "address": "29 RUE ST NICOLAS", "sales": 3, "median_price": 152000.0, "median_price_per_sqm": 3749.163879598662, "median_rooms": 1.0, "first_sale": "2023-08-02", "last_sale": "2023-08-02"}}, {"type": "Feature", "geometry": {"type": "Point", "coordinates": [3.232779, 48.846257]}, "properties": {"id_parcelle": "77385000AE0017", "address": "19 PL DU MARCHE", "sales": 3, "median_price": 70000.0, "median_price_per_sqm": 736.8421052631579, "median_rooms": 0.0, "first_sale": "2025-08-29", "last_sale": "2025-08-29"}}, {"type": "Feature", "geometry": {"type": "Point", "coordinates": [3.230971, 48.849122]}, "properties": {"id_parcelle": "77385000AC0023", "address": "25 RUE DU FBG ST NICOLAS", "sales": 3, "median_price": 189000.0, "median_price_per_sqm": 3780.0, "median_rooms": 2.0, "first_sale": "2023-05-04", "last_sale": "2023-05-04"}}, {"type": "Feature", "geometry": {"type": "Point", "coordinates": [3.233955, 48.847643]}, "properties": {"id_parcelle": "77385000AC0152", "address": "8 PROM DU NORD", "sales": 3, "median_price": 205000.0, "median_price_per_sqm": 2733.3333333333335, "median_rooms": 0.0, "first_sale": "2021-10-26", "last_sale": "2021-10-26"}}, {"type": "Feature", "geometry": {"type": "Point", "coordinates": [3.231575, 48.846809]}, "properties": {"id_parcelle": "77385000AC0309", "address": "REBAIS", "sales": 3, "median_price": 83000.0, "median_price_per_sqm": null, "median_rooms": null, "first_sale": "2021-05-21", "last_sale": "2024-01-30"}}, {"type": "Feature", "geometry": {"type": "Point", "coordinates": [3.228495, 48.847583]}, "properties": {"id_parcelle": "77385000AC0060", "address": "12 AV DU GENERAL DE GAULLE", "sales": 3, "median_price": 230000.0, "median_price_per_sqm": 1597.2222222222222, "median_rooms": 0.0, "first_sale": "2021-11-24", "last_sale": "2021-11-24"}}, {"type": "Feature", "geometry": {"type": "Point", "coordinates": [3.22791, 48.848064]}, "properties": {"id_parcelle": "77385000AC0048", "address": "32 AV DU GENERAL DE GAULLE", "sales": 3, "median_price": 135000.0, "median_price_per_sqm": 1646.341463414634, "median_rooms": 0.0, "first_sale": "2021-10-26", "last_sale": "2021-10-26"}}, {"type": "Feature", "geometry": {"type": "Point", "coordinates": [3.231683, 48.847265]}, "properties": {"id_parcelle": "77385000AC0334", "address": "5230 COUR DU POT D ETAIN", "sales": 3, "median_price": 220000.0, "median_price_per_sqm": 2444.4444444444443, "median_rooms": 0.0, "first_sale": "2023-09-29", "last_sale": "2023-09-29"}}, {"type": "Feature", "geometry": {"type": "Point", "coordinates": [3.239575, 48.87778]}, "properties": {"id_parcelle": "773850000Y0126", "address": "LE PRE CAMBRET NORD", "sales": 2, "median_price": 274000.0, "median_price_per_sqm": null, "median_rooms": null, "first_sale": "2023-09-21", "last_sale": "2023-09-21"}}, {"type": "Feature", "geometry": {"type": "Point", "coordinates": [3.239246, 48.87763]}, "properties": {"id_parcelle": "773850000Y0129", "address": "LE PRE CAMBRET NORD", "sales": 2, "median_price": 274000.0, "median_price_per_sqm": null, "median_rooms": null, "first_sale": "2023-09-21", "last_sale": "2023-09-21"}}, {"type": "Feature", "geometry": {"type": "Point", "coordinates": [3.229372, 48.853229]}, "properties": {"id_parcelle": "77385000AB0004", "address": "27 RUE PASTEUR", "sales": 2, "median_price": 346000.0, "median_price_per_sqm": 2189.8734177215188, "median_rooms": 7.0, "first_sale": "2022-07-19", "last_sale": "2022-07-19"}}, {"type": "Feature", "geometry": {"type": "Point", "coordinates": [3.230571, 48.850453]}, "properties": {"id_parcelle": "77385000AB0020", "address": "2 AV DE LA MARNE", "sales": 2, "median_price": 250000.0, "median_price_per_sqm": 1648.8008720930231, "median_rooms": 2.0, "first_sale": "2021-10-29", "last_sale": "2021-10-29"}}, {"type": "Feature", "geometry": {"type": "Point", "coordinates": [3.235691, 48.869665]}, "properties": {"id_parcelle": "773850000Y0297", "address": "LA BOYERE", "sales": 2, "median_price": 70000.0, "median_price_per_sqm": null, "median_rooms": null, "first_sale": "2023-05-30", "last_sale": "2023-05-30"}}, {"type": "Feature", "geometry": {"type": "Point", "coordinates": [3.234929, 48.86897]}, "properties": {"id_parcelle": "773850000Y0195", "address": "54 LA BOYERE", "sales": 2, "median_price": 190000.0, "median_price_per_sqm": 1919.1919191919192, "median_rooms": 4.0, "first_sale": "2021-11-29", "last_sale": "2021-11-29"}}, {"type": "Feature", "geometry": {"type": "Point", "coordinates": [3.235255, 48.847892]}, "properties": {"id_parcelle": "77385000AC0568", "address": "19 PROM DU NORD", "sales": 2, "median_price": 280930.0, "median_price_per_sqm": 3229.080459770115, "median_rooms": 5.0, "first_sale": "2022-09-27", "last_sale": "2022-09-27"}}, {"type": "Feature", "geometry": {"type": "Point", "coordinates": [3.228317, 48.84528]}, "properties": {"id_parcelle": "77385000AC0543", "address": "7 PROM DES REMPARTS", "sales": 2, "median_price": 470000.0, "median_price_per_sqm": 2350.0, "median_rooms": 5.0, "first_sale": "2021-06-21", "last_sale": "2021-06-21"}}, {"type": "Feature", "geometry": {"type": "Point", "coordinates": [3.230963, 48.847764]}, "properties": {"id_parcelle": "77385000AC0499", "address": "REBAIS", "sales": 2, "median_price": 375000.0, "median_price_per_sqm": null, "median_rooms": null, "first_sale": "2022-09-22", "last_sale": "2022-09-22"}}, {"type": "Feature", "geometry": {"type": "Point", "coordinates": [3.234188, 48.846636]}, "properties": {"id_parcelle": "77385000AC0498", "address": "REBAIS", "sales": 2, "median_price": 221500.0, "median_price_per_sqm": null, "median_rooms": null, "first_sale": "2022-04-15", "last_sale": "2024-10-24"}}, {"type": "Feature", "geometry": {"type": "Point", "coordinates": [3.231351, 48.847268]}, "properties": {"id_parcelle": "77385000AC0495", "address": "5233 COUR DU POT D ETAIN", "sales": 2, "median_price": 170000.0, "median_price_per_sqm": null, "median_rooms": 0.0, "first_sale": "2024-01-03", "last_sale": "2024-01-03"}}, {"type": "Feature", "geometry": {"type": "Point", "coordinates": [3.23138, 48.847006]}, "properties": {"id_parcelle": "77385000AC0490", "address": "5236 COUR DU POT D ETAIN", "sales": 2, "median_price": 35000.0, "median_price_per_sqm": null, "median_rooms": 0.0, "first_sale": "2024-05-23", "last_sale": "2024-05-23"}}, {"type": "Feature", "geometry": {"type": "Point", "coordinates": [3.234405, 48.846053]}, "properties": {"id_parcelle": "77385000AC0459", "address": "12 VC DES CROCHETS", "sales": 2, "median_price": 55750.0, "median_price_per_sqm": 1696.4285714285713, "median_rooms": 0.0, "first_sale": "2021-01-26", "last_sale": "2021-10-01"}}, {"type": "Feature", "geometry": {"type": "Point", "coordinates": [3.230958, 48.846286]}, "properties": {"id_parcelle": "77385000AC0415", "address": "10 RUE DE L HOTEL DE VILLE", "sales": 2, "median_price": 136000.0, "median_price_per_sqm": 1416.6666666666665, "median_rooms": 1.0, "first_sale": "2021-09-07", "last_sale": "2021-09-07"}}, {"type": "Feature", "geometry": {"type": "Point", "coordinates": [3.231908, 48.847119]}, "properties": {"id_parcelle": "77385000AC0330", "address": "5 RUE ST NICOLAS", "sales": 2, "median_price": 170000.0, "median_price_per_sqm": 2304.029304029304, "median_rooms": 2.0, "first_sale": "2024-01-03", "last_sale": "2024-01-03"}}, {"type": "Feature", "geometry": {"type": "Point", "coordinates": [3.232611, 48.847501]}, "properties": {"id_parcelle": "77385000AC0269", "address": "15 RUE DU DOCTEUR FARNY", "sales": 2, "median_price": 124000.0, "median_price_per_sqm": null, "median_rooms": 0.0, "first_sale": "2024-04-19", "last_sale": "2024-04-19"}}, {"type": "Feature", "geometry": {"type": "Point", "coordinates": [3.232286, 48.847158]}, "properties": {"id_parcelle": "77385000AC0289", "address": "12 RUE ST NICOLAS", "sales": 2, "median_price": 160700.0, "median_price_per_sqm": 2114.4736842105262, "median_rooms": 3.0, "first_sale": "2021-03-25", "last_sale": "2024-07-26"}}, {"type": "Feature", "geometry": {"type": "Point", "coordinates": [3.231839, 48.84683]}, "properties": {"id_parcelle": "77385000AC0303", "address": "6 RUE SALADINE", "sales": 2, "median_price": 128000.0, "median_price_per_sqm": 1292.9292929292928, "median_rooms": 2.5, "first_sale": "2021-05-21", "last_sale": "2021-05-21"}}, {"type": "Feature", "geometry": {"type": "Point", "coordinates": [3.233326, 48.846371]}, "properties": {"id_parcelle": "77385000AC0244", "address": "7 RUE DES MOLINOTS", "sales": 2, "median_price": 89000.0, "median_price_per_sqm": 1483.3333333333333, "median_rooms": 1.5, "first_sale": "2022-02-14", "last_sale": "2022-02-14"}}, {"type": "Feature", "geometry": {"type": "Point", "coordinates": [3.233273, 48.84664]}, "properties": {"id_parcelle": "77385000AC0252", "address": "22 PL DU MARCHE", "sales": 2, "median_price": 48000.0, "median_price_per_sqm": 979.5918367346939, "median_rooms": 1.0, "first_sale": "2022-07-11", "last_sale": "2022-07-11"}}, {"type": "Feature", "geometry": {"type": "Point", "coordinates": [3.232712, 48.846913]}, "properties": {"id_parcelle": "77385000AC0256", "address": "1 PL DU MARCHE", "sales": 2, "median_price": 180000.0, "median_price_per_sqm": 2475.4098360655735, "median_rooms": 2.0, "first_sale": "2025-09-12", "last_sale": "2025-09-12"}}, {"type": "Feature", "geometry": {"type": "Point", "coordinates": [3.232508, 48.847192]}, "properties": {"id_parcelle": "77385000AC0265", "address": "5505 COUR DU MOUTON", "sales": 2, "median_price": 35000.0, "median_price_per_sqm": null, "median_rooms": 0.0, "first_sale": "2025-01-16", "last_sale": "2025-01-16"}}, {"type": "Feature", "geometry": {"type": "Point", "coordinates": [3.231332, 48.848623]}, "properties": {"id_parcelle": "77385000AC0032", "address": "11 RUE DU FBG ST NICOLAS", "sales": 2, "median_price": 124718.11, "median_price_per_sqm": null, "median_rooms": 0.0, "first_sale": "2022-05-31", "last_sale": "2022-06-10"}}, {"type": "Feature", "geometry": {"type": "Point", "coordinates": [3.234719, 48.847241]}, "properties": {"id_parcelle": "77385000AC0158", "address": "14 PROM DU NORD", "sales": 2, "median_price": 468500.0, "median_price_per_sqm": 3904.1666666666665, "median_rooms": 0.0, "first_sale": "2024-11-29", "last_sale": "2024-11-29"}}, {"type": "Feature", "geometry": {"type": "Point", "coordinates": [3.230171, 48.847707]}, "properties": {"id_parcelle": "77385000AC0074", "address": "11 PROM DE L OUEST", "sales": 2, "median_price": 35000.0, "median_price_per_sqm": null, "median_rooms": 0.0, "first_sale": "2023-03-08", "last_sale": "2023-03-08"}}, {"type": "Feature", "geometry": {"type": "Point", "coordinates": [3.234144, 48.846832]}, "properties": {"id_parcelle": "77385000AC0199", "address": "REBAIS", "sales": 2, "median_price": 112000.0, "median_price_per_sqm": null, "median_rooms": null, "first_sale": "2022-06-15", "last_sale": "2025-09-25"}}, {"type": "Feature", "geometry": {"type": "Point", "coordinates": [3.234135, 48.84647]}, "properties": {"id_parcelle": "77385000AC0228", "address": "REBAIS", "sales": 2, "median_price": 221500.0, "median_price_per_sqm": null, "median_rooms": null, "first_sale": "2022-04-15", "last_sale": "2024-10-24"}}, {"type": "Feature", "geometry": {"type": "Point", "coordinates": [3.232982, 48.847007]}, "properties": {"id_parcelle": "77385000AC0214", "address": "12 RUE DU DOCTEUR FARNY", "sales": 2, "median_price": 132000.0, "median_price_per_sqm": 1200.0, "median_rooms": 2.5, "first_sale": "2022-02-16", "last_sale": "2022-02-16"}}, {"type": "Feature", "geometry": {"type": "Point", "coordinates": [3.233193, 48.847091]}, "properties": {"id_parcelle": "77385000AC0211", "address": "22 RLE VERRIER", "sales": 2, "median_price": 129000.0, "median_price_per_sqm": 7543.220338983051, "median_rooms": 0.5, "first_sale": "2023-06-19", "last_sale": "2023-06-19"}}, {"type": "Feature", "geometry": {"type": "Point", "coordinates": [3.235461, 48.867117]}, "properties": {"id_parcelle": "773850000Y0238", "address": "LA BOYERE", "sales": 2, "median_price": 199800.0, "median_price_per_sqm": null, "median_rooms": null, "first_sale": "2022-08-22", "last_sale": "2024-03-14"}}, {"type": "Feature", "geometry": {"type": "Point", "coordinates": [3.229359, 48.853662]}, "properties": {"id_parcelle": "77385000AB0165", "address": "33 RUE PASTEUR", "sales": 2, "median_price": 210000.0, "median_price_per_sqm": 2019.2307692307693, "median_rooms": 5.0, "first_sale": "2023-03-28", "last_sale": "2023-03-28"}}, {"type": "Feature", "geometry": {"type": "Point", "coordinates": [3.231312, 48.850453]}, "properties": {"id_parcelle": "77385000AB0133", "address": "2 RUE PASTEUR", "sales": 2, "median_price": 170000.0, "median_price_per_sqm": 977.0114942528736, "median_rooms": 6.0, "first_sale": "2022-03-11", "last_sale": "2022-03-11"}}, {"type": "Feature", "geometry": {"type": "Point", "coordinates": [3.228116, 48.852237]}, "properties": {"id_parcelle": "77385000AB0261", "address": "38 AV DE LA MARNE", "sales": 2, "median_price": 189000.0, "median_price_per_sqm": 2223.529411764706, "median_rooms": 5.0, "first_sale": "2021-07-05", "last_sale": "2021-07-05"}}, {"type": "Feature", "geometry": {"type": "Point", "coordinates": [3.226705, 48.847966]}, "properties": {"id_parcelle": "77385000AC0005", "address": "9 RUE DU MONTCEL", "sales": 2, "median_price": 125000.0, "median_price_per_sqm": 2016.1290322580646, "median_rooms": 1.5, "first_sale": "2025-06-13", "last_sale": "2025-06-13"}}, {"type": "Feature", "geometry": {"type": "Point", "coordinates": [3.231048, 48.848826]}, "properties": {"id_parcelle": "77385000AC0028", "address": "5495 RUE DU FBG ST NICOLAS", "sales": 2, "median_price": 134000.0, "median_price_per_sqm": null, "median_rooms": 0.0, "first_sale": "2022-05-27", "last_sale": "2022-05-27"}}, {"type": "Feature", "geometry": {"type": "Point", "coordinates": [3.231248, 48.848801]}, "properties": {"id_parcelle": "77385000AC0029", "address": "19 RUE DU FAUBOURG SAINT NICOLAS", "sales": 2, "median_price": 194000.0, "median_price_per_sqm": 1227.8481012658228, "median_rooms": 2.5, "first_sale": "2025-06-10", "last_sale": "2025-06-10"}}, {"type": "Feature", "geometry": {"type": "Point", "coordinates": [3.23145, 48.848605]}, "properties": {"id_parcelle": "77385000AC0030", "address": "7 RUE DU FBG ST NICOLAS", "sales": 2, "median_price": 105000.0, "median_price_per_sqm": 3332.608695652174, "median_rooms": 0.5, "first_sale": "2021-02-24", "last_sale": "2021-02-24"}}, {"type": "Feature", "geometry": {"type": "Point", "coordinates": [3.231393, 48.848611]}, "properties": {"id_parcelle": "77385000AC0031", "address": "9 RUE DU FBG ST NICOLAS", "sales": 2, "median_price": 124718.11, "median_price_per_sqm": 1834.0898529411766, "median_rooms": 2.0, "first_sale": "2022-05-31", "last_sale": "2022-06-10"}}, {"type": "Feature", "geometry": {"type": "Point", "coordinates": [3.227713, 48.84274]}, "properties": {"id_parcelle": "77385000AE0349", "address": "8 RUE DE SAINT AILE", "sales": 2, "median_price": 340000.0, "median_price_per_sqm": 2023.8095238095239, "median_rooms": 6.0, "first_sale": "2025-09-30", "last_sale": "2025-09-30"}}, {"type": "Feature", "geometry": {"type": "Point", "coordinates": [3.229827, 48.844818]}, "properties": {"id_parcelle": "77385000AE0237", "address": "12 AV DE LA LIBERATION", "sales": 2, "median_price": 279000.0, "median_price_per_sqm": 4201.426630434782, "median_rooms": 3.0, "first_sale": "2023-07-17", "last_sale": "2023-07-17"}}, {"type": "Feature", "geometry": {"type": "Point", "coordinates": [3.232565, 48.841577]}, "properties": {"id_parcelle": "77385000AE0172", "address": "19 RUE DE LA MADELEINE", "sales": 2, "median_price": 215000.0, "median_price_per_sqm": 1653.8461538461538, "median_rooms": 1.5, "first_sale": "2025-03-11", "last_sale": "2025-03-11"}}, {"type": "Feature", "geometry": {"type": "Point", "coordinates": [3.234562, 48.844439]}, "properties": {"id_parcelle": "77385000AE0045", "address": "8 AV DE LA REPUBLIQUE", "sales": 2, "median_price": 117000.0, "median_price_per_sqm": 1560.5074821080025, "median_rooms": 2.0, "first_sale": "2025-10-20", "last_sale": "2025-10-20"}}, {"type": "Feature", "geometry": {"type": "Point", "coordinates": [3.233228, 48.846113]}, "properties": {"id_parcelle": "77385000AE0025", "address": "14 RUE DES MOLINOTS", "sales": 2, "median_price": 125000.0, "median_price_per_sqm": 1288.659793814433, "median_rooms": 2.5, "first_sale": "2024-10-01", "last_sale": "2024-10-01"}}, {"type": "Feature", "geometry": {"type": "Point", "coordinates": [3.232816, 48.846184]}, "properties": {"id_parcelle": "77385000AE0015", "address": "REBAIS", "sales": 2, "median_price": 107750.0, "median_price_per_sqm": null, "median_rooms": null, "first_sale": "2024-01-04", "last_sale": "2025-08-29"}}, {"type": "Feature", "geometry": {"type": "Point", "coordinates": [3.235924, 48.842082]}, "properties": {"id_parcelle": "77385000AD0201", "address": "27 AV DE LA REPUBLIQUE", "sales": 2, "median_price": 207000.0, "median_price_per_sqm": 2587.5, "median_rooms": 3.0, "first_sale": "2024-08-08", "last_sale": "2024-08-08"}}, {"type": "Feature", "geometry": {"type": "Point", "coordinates": [3.233692, 48.846446]}, "properties": {"id_parcelle": "77385000AC0639", "address": "3 RUE DES MOLINOTS", "sales": 2, "median_price": 160000.0, "median_price_per_sqm": 551.7241379310345, "median_rooms": 0.0, "first_sale": "2022-05-16", "last_sale": "2022-05-16"}}, {"type": "Feature", "geometry": {"type": "Point", "coordinates": [3.231702, 48.848116]}, "properties": {"id_parcelle": "77385000AC0728", "address": "47 RUE ST NICOLAS", "sales": 2, "median_price": 200000.0, "median_price_per_sqm": 1515.1515151515152, "median_rooms": 2.5, "first_sale": "2022-05-11", "last_sale": "2022-05-11"}}, {"type": "Feature", "geometry": {"type": "Point", "coordinates": [3.22963, 48.84769]}, "properties": {"id_parcelle": "77385000AC0758", "address": "13 PROM DE L OUEST", "sales": 2, "median_price": 150000.0, "median_price_per_sqm": 892.8571428571429, "median_rooms": 5.0, "first_sale": "2022-02-04", "last_sale": "2022-02-04"}}, {"type": "Feature", "geometry": {"type": "Point", "coordinates": [3.236308, 48.847]}, "properties": {"id_parcelle": "77385000AD0012", "address": "LE CLOS PRAILLY", "sales": 2, "median_price": 199000.0, "median_price_per_sqm": null, "median_rooms": null, "first_sale": "2021-12-14", "last_sale": "2021-12-14"}}, {"type": "Feature", "geometry": {"type": "Point", "coordinates": [3.235418, 48.845958]}, "properties": {"id_parcelle": "77385000AD0021", "address": "8 PROM DE L EST", "sales": 2, "median_price": 175000.0, "median_price_per_sqm": 2187.5, "median_rooms": 3.0, "first_sale": "2021-01-20", "last_sale": "2021-01-20"}}, {"type": "Feature", "geometry": {"type": "Point", "coordinates": [3.23509, 48.844477]}, "properties": {"id_parcelle": "77385000AD0137", "address": "1 AV DE LA REPUBLIQUE", "sales": 2, "median_price": 175000.0, "median_price_per_sqm": 2034.8837209302326, "median_rooms": 4.0, "first_sale": "2025-01-15", "last_sale": "2025-01-15"}}, {"type": "Feature", "geometry": {"type": "Point", "coordinates": [3.235257, 48.845412]}, "properties": {"id_parcelle": "77385000AD0025", "address": "LE CLOS PRAILLY", "sales": 2, "median_price": 64500.0, "median_price_per_sqm": null, "median_rooms": null, "first_sale": "2021-08-05", "last_sale": "2022-05-20"}}, {"type": "Feature", "geometry": {"type": "Point", "coordinates": [3.235157, 48.845028]}, "properties": {"id_parcelle": "77385000AD0271", "address": "4 RUE JEAN MOULIN", "sales": 2, "median_price": 199000.0, "median_price_per_sqm": 5880.774456521739, "median_rooms": 3.5, "first_sale": "2023-06-01", "last_sale": "2023-06-01"}}, {"type": "Feature", "geometry": {"type": "Point", "coordinates": [3.229255, 48.844438]}, "properties": {"id_parcelle": "77385000AE0496", "address": "18 AV DE LA LIBERATION", "sales": 2, "median_price": 228000.0, "median_price_per_sqm": 2590.909090909091, "median_rooms": 2.0, "first_sale": "2023-07-28", "last_sale": "2023-07-28"}}, {"type": "Feature", "geometry": {"type": "Point", "coordinates": [3.239574, 48.867555]}, "properties": {"id_parcelle": "77385000ZC0050", "address": "5634 LES HARDILLONS", "sales": 2, "median_price": 3000.0, "median_price_per_sqm": null, "median_rooms": 0.0, "first_sale": "2021-06-24", "last_sale": "2021-06-24"}}, {"type": "Feature", "geometry": {"type": "Point", "coordinates": [3.22475, 48.863183]}, "properties": {"id_parcelle": "77385000ZC0043", "address": "25 BOULIVILLERS", "sales": 2, "median_price": 4647.5, "median_price_per_sqm": null, "median_rooms": 0.0, "first_sale": "2022-11-24", "last_sale": "2022-11-24"}}, {"type": "Feature", "geometry": {"type": "Point", "coordinates": [3.229884, 48.83938]}, "properties": {"id_parcelle": "77385000VA0218", "address": "21 RUE MOLIERE", "sales": 2, "median_price": 80000.0, "median_price_per_sqm": 522.875816993464, "median_rooms": 2.5, "first_sale": "2022-07-26", "last_sale": "2022-07-26"}}, {"type": "Feature", "geometry": {"type": "Point", "coordinates": [3.227784, 48.832163]}, "properties": {"id_parcelle": "77385000VA0005", "address": "LE CHP DU RANCHARD", "sales": 2, "median_price": 82798.0, "median_price_per_sqm": null, "median_rooms": null, "first_sale": "2021-01-14", "last_sale": "2021-01-14"}}, {"type": "Feature", "geometry": {"type": "Point", "coordinates": [3.230941, 48.84099]}, "properties": {"id_parcelle": "77385000AE0480", "address": "14 RUE VOLTAIRE", "sales": 2, "median_price": 215000.0, "median_price_per_sqm": 2500.0, "median_rooms": 5.0, "first_sale": "2021-10-26", "last_sale": "2021-10-26"}}, {"type": "Feature", "geometry": {"type": "Point", "coordinates": [3.230986, 48.851108]}, "properties": {"id_parcelle": "77385000ZD0194", "address": "12 RUE PASTEUR", "sales": 2, "median_price": 215000.0, "median_price_per_sqm": null, "median_rooms": null, "first_sale": "2024-12-06", "last_sale": "2024-12-06"}}, {"type": "Feature", "geometry": {"type": "Point", "coordinates": [3.235653, 48.849786]}, "properties": {"id_parcelle": "77385000ZE0203", "address": "1 AV JEAN DE LA FONTAINE", "sales": 2, "median_price": 145150.0, "median_price_per_sqm": 2247.9591836734694, "median_rooms": 5.0, "first_sale": "2021-07-15", "last_sale": "2025-09-03"}}, {"type": "Feature", "geometry": {"type": "Point", "coordinates": [3.230879, 48.851375]}, "properties": {"id_parcelle": "77385000ZD0185", "address": "12 RUE PASTEUR", "sales": 2, "median_price": 234000.0, "median_price_per_sqm": 2186.9158878504672, "median_rooms": 4.0, "first_sale": "2024-01-04", "last_sale": "2024-01-04"}}, {"type": "Feature", "geometry": {"type": "Point", "coordinates": [3.241311, 48.843645]}, "properties": {"id_parcelle": "77385000ZH0088", "address": "39 RUE JEAN MOULIN", "sales": 2, "median_price": 249000.0, "median_price_per_sqm": 2057.8512396694214, "median_rooms": 6.0, "first_sale": "2021-09-17", "last_sale": "2021-09-17"}}, {"type": "Feature", "geometry": {"type": "Point", "coordinates": [3.241942, 48.843401]}, "properties": {"id_parcelle": "77385000ZH0108", "address": "43 RUE JEAN MOULIN", "sales": 2, "median_price": 200000.0, "median_price_per_sqm": 1212.121212121212, "median_rooms": 5.0, "first_sale": "2021-04-19", "last_sale": "2021-04-19"}}, {"type": "Feature", "geometry": {"type": "Point", "coordinates": [3.23763, 48.840207]}, "properties": {"id_parcelle": "77385000ZH0139", "address": "112 RUE BLANCHE BARNAC", "sales": 2, "median_price": 315050.0, "median_price_per_sqm": 1932.8220858895706, "median_rooms": 7.0, "first_sale": "2024-10-22", "last_sale": "2024-10-22"}}, {"type": "Feature", "geometry": {"type": "Point", "coordinates": [3.237736, 48.840476]}, "properties": {"id_parcelle": "77385000ZH0137", "address": "142 RUE BLANCHE BARNAC", "sales": 2, "median_price": 214000.0, "median_price_per_sqm": 2708.8607594936707, "median_rooms": 4.0, "first_sale": "2021-08-12", "last_sale": "2021-08-12"}}, {"type": "Feature", "geometry": {"type": "Point", "coordinates": [3.227158, 48.842329]}, "properties": {"id_parcelle": "77385000ZI0030", "address": "14 RUE DE ST AILE", "sales": 2, "median_price": 278200.0, "median_price_per_sqm": 3161.3636363636365, "median_rooms": 3.0, "first_sale": "2021-08-10", "last_sale": "2021-08-10"}}, {"type": "Feature", "geometry": {"type": "Point", "coordinates": [3.228546, 48.842212]}, "properties": {"id_parcelle": "77385000ZI0053", "address": "30 AV DE LA LIBERATION", "sales": 2, "median_price": 178000.0, "median_price_per_sqm": 2119.0476190476193, "median_rooms": 2.5, "first_sale": "2023-03-01", "last_sale": "2023-03-01"}}, {"type": "Feature", "geometry": {"type": "Point", "coordinates": [3.226667, 48.840446]}, "properties": {"id_parcelle": "77385000ZI0064", "address": "2 ALL GEORGES DUHAMEL", "sales": 2, "median_price": 208000.0, "median_price_per_sqm": 1824.561403508772, "median_rooms": 2.5, "first_sale": "2021-08-23", "last_sale": "2021-08-23"}}, {"type": "Feature", "geometry": {"type": "Point", "coordinates": [3.228468, 48.841932]}, "properties": {"id_parcelle": "77385000ZI0075", "address": "32 AV DE LA LIBERATION", "sales": 2, "median_price": 166300.0, "median_price_per_sqm": 1788.1720430107528, "median_rooms": 1.5, "first_sale": "2023-03-09", "last_sale": "2023-03-09"}}]}