{"type": "FeatureCollection", "features": [{"type": "Feature", "geometry": {"type": "Point", "coordinates": [2.870427, 48.954681]}, "properties": {"street_name": "RUE SADI CARNOT", "sales": 179, "sales_appt": 64, "sales_maison": 13, "median_price": 276650.0, "median_price_per_sqm": 3849.051282051282, "turnover_score": 100.0, "turnover_rank": 1, "first_year": 2021, "last_year": 2025, "years_active": 5}}, {"type": "Feature", "geometry": {"type": "Point", "coordinates": [2.868924, 48.955064]}, "properties": {"street_name": "RUE DE LA CHAUSSEE DE PARIS", "sales": 129, "sales_appt": 60, "sales_maison": 0, "median_price": 230000.0, "median_price_per_sqm": 72547.7469892473, "turnover_score": 72.1, "turnover_rank": 2, "first_year": 2021, "last_year": 2025, "years_active": 5}}, {"type": "Feature", "geometry": {"type": "Point", "coordinates": [2.86895, 48.949546]}, "properties": {"street_name": "RUE ARISTIDE BRIAND", "sales": 125, "sales_appt": 42, "sales_maison": 22, "median_price": 180000.0, "median_price_per_sqm": 3455.3030303030305, "turnover_score": 69.8, "turnover_rank": 3, "first_year": 2021, "last_year": 2025, "years_active": 5}}, {"type": "Feature", "geometry": {"type": "Point", "coordinates": [2.863439, 48.941661]}, "properties": {"street_name": "RUE THIERS", "sales": 88, "sales_appt": 35, "sales_maison": 21, "median_price": 253425.0, "median_price_per_sqm": 153398.88023809524, "turnover_score": 49.2, "turnover_rank": 4, "first_year": 2021, "last_year": 2025, "years_active": 5}}, {"type": "Feature", "geometry": {"type": "Point", "coordinates": [2.864018, 48.944367]}, "properties": {"street_name": "PL PICARD", "sales": 70, "sales_appt": 16, "sales_maison": 1, "median_price": 12885505.94, "median_price_per_sqm": 143172.2882222222, "turnover_score": 39.1, "turnover_rank": 5, "first_year": 2021, "last_year": 2025, "years_active": 3}}, {"type": "Feature", "geometry": {"type": "Point", "coordinates": [2.860449, 48.942608]}, "properties": {"street_name": "RUE BOUCHARD", "sales": 58, "sales_appt": 15, "sales_maison": 16, "median_price": 12885505.94, "median_price_per_sqm": 144780.96561797752, "turnover_score": 32.4, "turnover_rank": 6, "first_year": 2021, "last_year": 2025, "years_active": 5}}, {"type": "Feature", "geometry": {"type": "Point", "coordinates": [2.864514, 48.943774]}, "properties": {"street_name": "AV DU PARC", "sales": 57, "sales_appt": 22, "sales_maison": 0, "median_price": 12885505.94, "median_price_per_sqm": 184078.65628571427, "turnover_score": 31.8, "turnover_rank": 7, "first_year": 2021, "last_year": 2025, "years_active": 3}}, {"type": "Feature", "geometry": {"type": "Point", "coordinates": [2.86079, 48.943555]}, "properties": {"street_name": "RUE DE L ARQUEBUSE", "sales": 37, "sales_appt": 4, "sales_maison": 15, "median_price": 240000.0, "median_price_per_sqm": 3383.0188679245284, "turnover_score": 20.7, "turnover_rank": 8, "first_year": 2021, "last_year": 2025, "years_active": 5}}, {"type": "Feature", "geometry": {"type": "Point", "coordinates": [2.869494, 48.95225]}, "properties": {"street_name": "RUE PIERRE SIMON GIRARD", "sales": 35, "sales_appt": 10, "sales_maison": 6, "median_price": 222000.0, "median_price_per_sqm": 3487.282120395328, "turnover_score": 19.6, "turnover_rank": 9, "first_year": 2021, "last_year": 2025, "years_active": 5}}, {"type": "Feature", "geometry": {"type": "Point", "coordinates": [2.865003, 48.942757]}, "properties": {"street_name": "RUE DE LA MARNE", "sales": 34, "sales_appt": 14, "sales_maison": 2, "median_price": 162537.5, "median_price_per_sqm": 3006.9679054054054, "turnover_score": 19.0, "turnover_rank": 10, "first_year": 2021, "last_year": 2025, "years_active": 5}}, {"type": "Feature", "geometry": {"type": "Point", "coordinates": [2.85973, 48.945535]}, "properties": {"street_name": "RUE HENRI DE FRANCE", "sales": 26, "sales_appt": 0, "sales_maison": 0, "median_price": 1830000.0, "median_price_per_sqm": 1159.6958174904944, "turnover_score": 14.5, "turnover_rank": 11, "first_year": 2022, "last_year": 2025, "years_active": 3}}, {"type": "Feature", "geometry": {"type": "Point", "coordinates": [2.8691855, 48.945951]}, "properties": {"street_name": "RUE JEAN PIERRE PLICQUE", "sales": 26, "sales_appt": 0, "sales_maison": 4, "median_price": 335000.0, "median_price_per_sqm": 1802.0259336099584, "turnover_score": 14.5, "turnover_rank": 11, "first_year": 2021, "last_year": 2025, "years_active": 5}}, {"type": "Feature", "geometry": {"type": "Point", "coordinates": [2.866922, 48.954162]}, "properties": {"street_name": "RUE BENJAMIN DELESSERT", "sales": 24, "sales_appt": 11, "sales_maison": 2, "median_price": 206000.0, "median_price_per_sqm": 3727.2727272727275, "turnover_score": 13.4, "turnover_rank": 12, "first_year": 2021, "last_year": 2025, "years_active": 5}}, {"type": "Feature", "geometry": {"type": "Point", "coordinates": [2.864711, 48.9493]}, "properties": {"street_name": "RUE DE LA MAILLETTE", "sales": 22, "sales_appt": 7, "sales_maison": 2, "median_price": 209990.0, "median_price_per_sqm": 3410.0, "turnover_score": 12.3, "turnover_rank": 13, "first_year": 2021, "last_year": 2025, "years_active": 5}}, {"type": "Feature", "geometry": {"type": "Point", "coordinates": [2.857671, 48.936822]}, "properties": {"street_name": "RUE JEAN-PAUL SARTRE", "sales": 21, "sales_appt": 0, "sales_maison": 13, "median_price": 339000.0, "median_price_per_sqm": 2922.4137931034484, "turnover_score": 11.7, "turnover_rank": 14, "first_year": 2021, "last_year": 2025, "years_active": 4}}, {"type": "Feature", "geometry": {"type": "Point", "coordinates": [2.863768, 48.946698]}, "properties": {"street_name": "RUE DES VIGNES", "sales": 19, "sales_appt": 0, "sales_maison": 12, "median_price": 290000.0, "median_price_per_sqm": 3197.6827094474156, "turnover_score": 10.6, "turnover_rank": 15, "first_year": 2021, "last_year": 2025, "years_active": 4}}, {"type": "Feature", "geometry": {"type": "Point", "coordinates": [2.864577, 48.948584]}, "properties": {"street_name": "RUE PARMENTIER", "sales": 19, "sales_appt": 0, "sales_maison": 3, "median_price": 1726332.0, "median_price_per_sqm": 3493.3333333333335, "turnover_score": 10.6, "turnover_rank": 15, "first_year": 2021, "last_year": 2025, "years_active": 4}}, {"type": "Feature", "geometry": {"type": "Point", "coordinates": [2.8566375, 48.9460755]}, "properties": {"street_name": "RUE RENE LEGUEU", "sales": 16, "sales_appt": 0, "sales_maison": 2, "median_price": 3000000.0, "median_price_per_sqm": 774.1650077416501, "turnover_score": 8.9, "turnover_rank": 16, "first_year": 2022, "last_year": 2025, "years_active": 3}}, {"type": "Feature", "geometry": {"type": "Point", "coordinates": [2.864272, 48.94907]}, "properties": {"street_name": "RUE DES RAGUINS", "sales": 16, "sales_appt": 0, "sales_maison": 0, "median_price": 1726332.0, "median_price_per_sqm": 3665.248407643312, "turnover_score": 8.9, "turnover_rank": 16, "first_year": 2021, "last_year": 2025, "years_active": 4}}, {"type": "Feature", "geometry": {"type": "Point", "coordinates": [2.8647080000000003, 48.953823]}, "properties": {"street_name": "RUE DES PEUPLIERS", "sales": 12, "sales_appt": 0, "sales_maison": 11, "median_price": 303750.0, "median_price_per_sqm": 3342.696629213483, "turnover_score": 6.7, "turnover_rank": 17, "first_year": 2021, "last_year": 2025, "years_active": 4}}, {"type": "Feature", "geometry": {"type": "Point", "coordinates": [2.860238, 48.945536]}, "properties": {"street_name": "LES BRINCHES", "sales": 11, "sales_appt": 0, "sales_maison": 0, "median_price": 302623.5, "median_price_per_sqm": null, "turnover_score": 6.1, "turnover_rank": 18, "first_year": 2022, "last_year": 2022, "years_active": 1}}, {"type": "Feature", "geometry": {"type": "Point", "coordinates": [2.855987, 48.94045]}, "properties": {"street_name": "RUE DU MOULIN A VENT", "sales": 11, "sales_appt": 0, "sales_maison": 7, "median_price": 329000.0, "median_price_per_sqm": 4506.8493150684935, "turnover_score": 6.1, "turnover_rank": 18, "first_year": 2021, "last_year": 2024, "years_active": 3}}, {"type": "Feature", "geometry": {"type": "Point", "coordinates": [2.861857, 48.943042]}, "properties": {"street_name": "RUE DU GENERAL DE GAULLE", "sales": 10, "sales_appt": 3, "sales_maison": 1, "median_price": 168000.0, "median_price_per_sqm": 3688.9412202380954, "turnover_score": 5.6, "turnover_rank": 19, "first_year": 2021, "last_year": 2025, "years_active": 3}}, {"type": "Feature", "geometry": {"type": "Point", "coordinates": [2.859742, 48.939871999999994]}, "properties": {"street_name": "RUE DE LAGNY", "sales": 10, "sales_appt": 0, "sales_maison": 8, "median_price": 340000.0, "median_price_per_sqm": 2912.0, "turnover_score": 5.6, "turnover_rank": 19, "first_year": 2021, "last_year": 2025, "years_active": 4}}, {"type": "Feature", "geometry": {"type": "Point", "coordinates": [2.85779, 48.939987]}, "properties": {"street_name": "RUE DE CHAUCONIN", "sales": 8, "sales_appt": 0, "sales_maison": 5, "median_price": 350000.0, "median_price_per_sqm": 3655.9139784946237, "turnover_score": 4.5, "turnover_rank": 20, "first_year": 2021, "last_year": 2025, "years_active": 4}}, {"type": "Feature", "geometry": {"type": "Point", "coordinates": [2.873535, 48.949999500000004]}, "properties": {"street_name": "RUE GAMBETTA", "sales": 8, "sales_appt": 0, "sales_maison": 0, "median_price": 1475000.0, "median_price_per_sqm": 5267.857142857143, "turnover_score": 4.5, "turnover_rank": 20, "first_year": 2023, "last_year": 2023, "years_active": 1}}, {"type": "Feature", "geometry": {"type": "Point", "coordinates": [2.860081, 48.9469115]}, "properties": {"street_name": "LE COLOMBIER", "sales": 8, "sales_appt": 0, "sales_maison": 0, "median_price": 561212.6, "median_price_per_sqm": null, "turnover_score": 4.5, "turnover_rank": 20, "first_year": 2021, "last_year": 2024, "years_active": 3}}, {"type": "Feature", "geometry": {"type": "Point", "coordinates": [2.863835, 48.945287]}, "properties": {"street_name": "RUE DE LA CLOCHE", "sales": 7, "sales_appt": 0, "sales_maison": 5, "median_price": 12885505.94, "median_price_per_sqm": 135636.90463157895, "turnover_score": 3.9, "turnover_rank": 21, "first_year": 2024, "last_year": 2025, "years_active": 2}}, {"type": "Feature", "geometry": {"type": "Point", "coordinates": [2.853358, 48.932838]}, "properties": {"street_name": "FOND DE L EPINETTE", "sales": 7, "sales_appt": 0, "sales_maison": 0, "median_price": 143960.0, "median_price_per_sqm": null, "turnover_score": 3.9, "turnover_rank": 21, "first_year": 2021, "last_year": 2024, "years_active": 2}}, {"type": "Feature", "geometry": {"type": "Point", "coordinates": [2.8578145, 48.9447915]}, "properties": {"street_name": "LES POINTES", "sales": 6, "sales_appt": 0, "sales_maison": 0, "median_price": 325839.66, "median_price_per_sqm": null, "turnover_score": 3.4, "turnover_rank": 22, "first_year": 2021, "last_year": 2021, "years_active": 1}}, {"type": "Feature", "geometry": {"type": "Point", "coordinates": [2.8620384999999997, 48.9483285]}, "properties": {"street_name": "LES PLANTES", "sales": 6, "sales_appt": 0, "sales_maison": 0, "median_price": 493498.0, "median_price_per_sqm": null, "turnover_score": 3.4, "turnover_rank": 22, "first_year": 2021, "last_year": 2024, "years_active": 2}}, {"type": "Feature", "geometry": {"type": "Point", "coordinates": [2.854266, 48.9446855]}, "properties": {"street_name": "LES ROSSIGNY", "sales": 6, "sales_appt": 0, "sales_maison": 0, "median_price": 81480.0, "median_price_per_sqm": null, "turnover_score": 3.4, "turnover_rank": 22, "first_year": 2021, "last_year": 2024, "years_active": 2}}, {"type": "Feature", "geometry": {"type": "Point", "coordinates": [2.860146, 48.941111]}, "properties": {"street_name": "RUE GEORGES CLEMENCEAU", "sales": 6, "sales_appt": 0, "sales_maison": 5, "median_price": 320000.0, "median_price_per_sqm": 3750.0, "turnover_score": 3.4, "turnover_rank": 22, "first_year": 2021, "last_year": 2025, "years_active": 4}}, {"type": "Feature", "geometry": {"type": "Point", "coordinates": [2.85186, 48.931611]}, "properties": {"street_name": "LE BOIS DE L EPINETTE", "sales": 5, "sales_appt": 0, "sales_maison": 0, "median_price": 143960.0, "median_price_per_sqm": null, "turnover_score": 2.8, "turnover_rank": 23, "first_year": 2021, "last_year": 2021, "years_active": 1}}, {"type": "Feature", "geometry": {"type": "Point", "coordinates": [2.861081, 48.942683]}, "properties": {"street_name": "RUE JACQUES BREL", "sales": 5, "sales_appt": 0, "sales_maison": 3, "median_price": 280000.0, "median_price_per_sqm": 3244.4444444444443, "turnover_score": 2.8, "turnover_rank": 23, "first_year": 2021, "last_year": 2022, "years_active": 2}}, {"type": "Feature", "geometry": {"type": "Point", "coordinates": [2.859731, 48.945477]}, "properties": {"street_name": "LES BANNES", "sales": 5, "sales_appt": 0, "sales_maison": 0, "median_price": 302623.5, "median_price_per_sqm": null, "turnover_score": 2.8, "turnover_rank": 23, "first_year": 2021, "last_year": 2022, "years_active": 2}}, {"type": "Feature", "geometry": {"type": "Point", "coordinates": [2.863167, 48.951336]}, "properties": {"street_name": "RUE ALEXANDER FLEMING", "sales": 5, "sales_appt": 0, "sales_maison": 0, "median_price": 2311101.0, "median_price_per_sqm": null, "turnover_score": 2.8, "turnover_rank": 23, "first_year": 2022, "last_year": 2022, "years_active": 1}}, {"type": "Feature", "geometry": {"type": "Point", "coordinates": [2.862805, 48.940694]}, "properties": {"street_name": "RUE SIMONE VEIL", "sales": 4, "sales_appt": 0, "sales_maison": 4, "median_price": 235244.16499999998, "median_price_per_sqm": 2868.831280487805, "turnover_score": 2.2, "turnover_rank": 24, "first_year": 2024, "last_year": 2025, "years_active": 2}}, {"type": "Feature", "geometry": {"type": "Point", "coordinates": [2.8682615, 48.950999499999995]}, "properties": {"street_name": "RUE MARIE CURIE", "sales": 4, "sales_appt": 0, "sales_maison": 3, "median_price": 456000.0, "median_price_per_sqm": 3331.4685314685316, "turnover_score": 2.2, "turnover_rank": 24, "first_year": 2024, "last_year": 2024, "years_active": 1}}, {"type": "Feature", "geometry": {"type": "Point", "coordinates": [2.8397205000000003, 48.9322675]}, "properties": {"street_name": "LE BATEAU", "sales": 4, "sales_appt": 0, "sales_maison": 0, "median_price": 143960.0, "median_price_per_sqm": null, "turnover_score": 2.2, "turnover_rank": 24, "first_year": 2021, "last_year": 2024, "years_active": 2}}, {"type": "Feature", "geometry": {"type": "Point", "coordinates": [2.872937, 48.953448]}, "properties": {"street_name": "RUE DE VENISE", "sales": 4, "sales_appt": 0, "sales_maison": 1, "median_price": 249000.0, "median_price_per_sqm": 3830.769230769231, "turnover_score": 2.2, "turnover_rank": 24, "first_year": 2023, "last_year": 2023, "years_active": 1}}, {"type": "Feature", "geometry": {"type": "Point", "coordinates": [2.86267, 48.947281000000004]}, "properties": {"street_name": "RUE DU PRE TILLET", "sales": 4, "sales_appt": 0, "sales_maison": 2, "median_price": 316000.0, "median_price_per_sqm": 3959.1614906832297, "turnover_score": 2.2, "turnover_rank": 24, "first_year": 2022, "last_year": 2022, "years_active": 1}}, {"type": "Feature", "geometry": {"type": "Point", "coordinates": [2.833035, 48.93987]}, "properties": {"street_name": "L ORME DE VIGNELY", "sales": 3, "sales_appt": 0, "sales_maison": 0, "median_price": 8338.0, "median_price_per_sqm": null, "turnover_score": 1.7, "turnover_rank": 25, "first_year": 2021, "last_year": 2025, "years_active": 3}}, {"type": "Feature", "geometry": {"type": "Point", "coordinates": [2.864018, 48.944367]}, "properties": {"street_name": "RUE DES ECOLES", "sales": 3, "sales_appt": 0, "sales_maison": 0, "median_price": 12885505.94, "median_price_per_sqm": null, "turnover_score": 1.7, "turnover_rank": 25, "first_year": 2025, "last_year": 2025, "years_active": 1}}, {"type": "Feature", "geometry": {"type": "Point", "coordinates": [2.864931, 48.954917]}, "properties": {"street_name": "RUE DES PINS NOIRS", "sales": 3, "sales_appt": 0, "sales_maison": 3, "median_price": 315000.0, "median_price_per_sqm": 3539.325842696629, "turnover_score": 1.7, "turnover_rank": 25, "first_year": 2025, "last_year": 2025, "years_active": 1}}, {"type": "Feature", "geometry": {"type": "Point", "coordinates": [2.867295, 48.953537]}, "properties": {"street_name": "RUE PIERRE MENDES FRANCE", "sales": 3, "sales_appt": 0, "sales_maison": 3, "median_price": 367000.0, "median_price_per_sqm": 3528.846153846154, "turnover_score": 1.7, "turnover_rank": 25, "first_year": 2021, "last_year": 2021, "years_active": 1}}, {"type": "Feature", "geometry": {"type": "Point", "coordinates": [2.858732, 48.939749]}, "properties": {"street_name": "RUE RESIDENCE DE LA MADELAINE", "sales": 3, "sales_appt": 0, "sales_maison": 2, "median_price": 165000.0, "median_price_per_sqm": 2583.333333333333, "turnover_score": 1.7, "turnover_rank": 25, "first_year": 2021, "last_year": 2025, "years_active": 2}}, {"type": "Feature", "geometry": {"type": "Point", "coordinates": [2.854609, 48.943316]}, "properties": {"street_name": "LES PIERRAILLES", "sales": 3, "sales_appt": 0, "sales_maison": 0, "median_price": 143960.0, "median_price_per_sqm": null, "turnover_score": 1.7, "turnover_rank": 25, "first_year": 2021, "last_year": 2021, "years_active": 1}}, {"type": "Feature", "geometry": {"type": "Point", "coordinates": [2.860412, 48.95023]}, "properties": {"street_name": "LES MONTANS", "sales": 3, "sales_appt": 0, "sales_maison": 0, "median_price": 3324587.8, "median_price_per_sqm": null, "turnover_score": 1.7, "turnover_rank": 25, "first_year": 2022, "last_year": 2022, "years_active": 1}}, {"type": "Feature", "geometry": {"type": "Point", "coordinates": [2.855201, 48.949184]}, "properties": {"street_name": "LE MONT", "sales": 3, "sales_appt": 0, "sales_maison": 0, "median_price": 1201518.0, "median_price_per_sqm": null, "turnover_score": 1.7, "turnover_rank": 25, "first_year": 2022, "last_year": 2022, "years_active": 1}}, {"type": "Feature", "geometry": {"type": "Point", "coordinates": [2.841622, 48.944013]}, "properties": {"street_name": "LA FOSSE MARNIERE", "sales": 3, "sales_appt": 0, "sales_maison": 0, "median_price": 19000.0, "median_price_per_sqm": null, "turnover_score": 1.7, "turnover_rank": 25, "first_year": 2024, "last_year": 2024, "years_active": 1}}, {"type": "Feature", "geometry": {"type": "Point", "coordinates": [2.854352, 48.940353]}, "properties": {"street_name": "LE MOULIN A VENT", "sales": 3, "sales_appt": 0, "sales_maison": 0, "median_price": 143960.0, "median_price_per_sqm": null, "turnover_score": 1.7, "turnover_rank": 25, "first_year": 2021, "last_year": 2024, "years_active": 2}}, {"type": "Feature", "geometry": {"type": "Point", "coordinates": [2.857228, 48.932709]}, "properties": {"street_name": "LA NOUE", "sales": 3, "sales_appt": 0, "sales_maison": 0, "median_price": 19000.0, "median_price_per_sqm": null, "turnover_score": 1.7, "turnover_rank": 25, "first_year": 2024, "last_year": 2024, "years_active": 1}}, {"type": "Feature", "geometry": {"type": "Point", "coordinates": [2.843606, 48.936128]}, "properties": {"street_name": "LE CORNOUILLER", "sales": 3, "sales_appt": 0, "sales_maison": 0, "median_price": 50425.9, "median_price_per_sqm": null, "turnover_score": 1.7, "turnover_rank": 25, "first_year": 2024, "last_year": 2025, "years_active": 2}}, {"type": "Feature", "geometry": {"type": "Point", "coordinates": [2.859797, 48.939096]}, "properties": {"street_name": "RUE DES CLOSEAUX", "sales": 3, "sales_appt": 0, "sales_maison": 3, "median_price": 369000.0, "median_price_per_sqm": 4290.697674418605, "turnover_score": 1.7, "turnover_rank": 25, "first_year": 2022, "last_year": 2023, "years_active": 2}}, {"type": "Feature", "geometry": {"type": "Point", "coordinates": [2.836267, 48.939764]}, "properties": {"street_name": "LE NOYER GILLET", "sales": 2, "sales_appt": 0, "sales_maison": 0, "median_price": 81480.0, "median_price_per_sqm": null, "turnover_score": 1.1, "turnover_rank": 26, "first_year": 2021, "last_year": 2024, "years_active": 2}}, {"type": "Feature", "geometry": {"type": "Point", "coordinates": [2.859949, 48.941117500000004]}, "properties": {"street_name": "RUE DU GENERAL GALLIENI", "sales": 2, "sales_appt": 0, "sales_maison": 1, "median_price": 319300.0, "median_price_per_sqm": 4416.901408450704, "turnover_score": 1.1, "turnover_rank": 26, "first_year": 2021, "last_year": 2022, "years_active": 2}}, {"type": "Feature", "geometry": {"type": "Point", "coordinates": [2.865888, 48.95505]}, "properties": {"street_name": "RUE DES SORBIERS", "sales": 2, "sales_appt": 0, "sales_maison": 2, "median_price": 296000.0, "median_price_per_sqm": 3404.3621943159287, "turnover_score": 1.1, "turnover_rank": 26, "first_year": 2021, "last_year": 2024, "years_active": 2}}, {"type": "Feature", "geometry": {"type": "Point", "coordinates": [2.8557, 48.949835]}, "properties": {"street_name": "RUTEL", "sales": 2, "sales_appt": 1, "sales_maison": 0, "median_price": 1201518.0, "median_price_per_sqm": 14453.559042488803, "turnover_score": 1.1, "turnover_rank": 26, "first_year": 2022, "last_year": 2022, "years_active": 1}}, {"type": "Feature", "geometry": {"type": "Point", "coordinates": [2.863087, 48.942111499999996]}, "properties": {"street_name": "PL DU MARECHAL FOCH", "sales": 2, "sales_appt": 0, "sales_maison": 2, "median_price": 148000.0, "median_price_per_sqm": 3059.314954051796, "turnover_score": 1.1, "turnover_rank": 26, "first_year": 2022, "last_year": 2025, "years_active": 2}}, {"type": "Feature", "geometry": {"type": "Point", "coordinates": [2.855307, 48.942775]}, "properties": {"street_name": "LES GRONGNARDS", "sales": 2, "sales_appt": 0, "sales_maison": 0, "median_price": 19000.0, "median_price_per_sqm": null, "turnover_score": 1.1, "turnover_rank": 26, "first_year": 2024, "last_year": 2024, "years_active": 1}}, {"type": "Feature", "geometry": {"type": "Point", "coordinates": [2.835988, 48.936239]}, "properties": {"street_name": "LE COUDE DE VIGNELY", "sales": 2, "sales_appt": 0, "sales_maison": 0, "median_price": 5419.0, "median_price_per_sqm": null, "turnover_score": 1.1, "turnover_rank": 26, "first_year": 2024, "last_year": 2025, "years_active": 2}}, {"type": "Feature", "geometry": {"type": "Point", "coordinates": [2.858069, 48.9363345]}, "properties": {"street_name": "LA MADELAINE SUD", "sales": 2, "sales_appt": 0, "sales_maison": 0, "median_price": 39500.0, "median_price_per_sqm": null, "turnover_score": 1.1, "turnover_rank": 26, "first_year": 2022, "last_year": 2024, "years_active": 2}}, {"type": "Feature", "geometry": {"type": "Point", "coordinates": [2.8432815, 48.9286765]}, "properties": {"street_name": "LA BUTTE D ISLES", "sales": 2, "sales_appt": 0, "sales_maison": 0, "median_price": 143960.0, "median_price_per_sqm": null, "turnover_score": 1.1, "turnover_rank": 26, "first_year": 2021, "last_year": 2021, "years_active": 1}}, {"type": "Feature", "geometry": {"type": "Point", "coordinates": [2.8459265, 48.938669]}, "properties": {"street_name": "LA POIN LA RIGAUDE", "sales": 2, "sales_appt": 0, "sales_maison": 0, "median_price": 73230.0, "median_price_per_sqm": null, "turnover_score": 1.1, "turnover_rank": 26, "first_year": 2021, "last_year": 2024, "years_active": 2}}, {"type": "Feature", "geometry": {"type": "Point", "coordinates": [2.8611630000000003, 48.9409495]}, "properties": {"street_name": "RUE PASTEUR", "sales": 2, "sales_appt": 0, "sales_maison": 0, "median_price": 71000.0, "median_price_per_sqm": null, "turnover_score": 1.1, "turnover_rank": 26, "first_year": 2022, "last_year": 2022, "years_active": 1}}, {"type": "Feature", "geometry": {"type": "Point", "coordinates": [2.8599205000000003, 48.945513]}, "properties": {"street_name": "LES BONTANTES", "sales": 2, "sales_appt": 0, "sales_maison": 0, "median_price": 201749.0, "median_price_per_sqm": null, "turnover_score": 1.1, "turnover_rank": 26, "first_year": 2022, "last_year": 2022, "years_active": 1}}, {"type": "Feature", "geometry": {"type": "Point", "coordinates": [2.840785, 48.936481]}, "properties": {"street_name": "LES VINGT ARPENTS", "sales": 2, "sales_appt": 0, "sales_maison": 0, "median_price": 50425.9, "median_price_per_sqm": null, "turnover_score": 1.1, "turnover_rank": 26, "first_year": 2024, "last_year": 2024, "years_active": 1}}, {"type": "Feature", "geometry": {"type": "Point", "coordinates": [2.859089, 48.939129]}, "properties": {"street_name": "RUE DE L'ETRIER", "sales": 2, "sales_appt": 0, "sales_maison": 1, "median_price": 290000.0, "median_price_per_sqm": 2900.0, "turnover_score": 1.1, "turnover_rank": 26, "first_year": 2022, "last_year": 2022, "years_active": 1}}, {"type": "Feature", "geometry": {"type": "Point", "coordinates": [2.87121, 48.95111]}, "properties": {"street_name": "AV LOUISE", "sales": 1, "sales_appt": 0, "sales_maison": 1, "median_price": 229500.0, "median_price_per_sqm": 2868.75, "turnover_score": 0.6, "turnover_rank": 27, "first_year": 2025, "last_year": 2025, "years_active": 1}}, {"type": "Feature", "geometry": {"type": "Point", "coordinates": [2.849119, 48.934895]}, "properties": {"street_name": "LE MONT GRIVAT", "sales": 1, "sales_appt": 0, "sales_maison": 0, "median_price": 143960.0, "median_price_per_sqm": null, "turnover_score": 0.6, "turnover_rank": 27, "first_year": 2021, "last_year": 2021, "years_active": 1}}, {"type": "Feature", "geometry": {"type": "Point", "coordinates": [2.837738, 48.930418]}, "properties": {"street_name": "LA FOSSE LAPIN", "sales": 1, "sales_appt": 0, "sales_maison": 0, "median_price": 143960.0, "median_price_per_sqm": null, "turnover_score": 0.6, "turnover_rank": 27, "first_year": 2021, "last_year": 2021, "years_active": 1}}, {"type": "Feature", "geometry": {"type": "Point", "coordinates": [2.86472, 48.945749]}, "properties": {"street_name": "LA CLOCHE", "sales": 1, "sales_appt": 0, "sales_maison": 0, "median_price": 95000.0, "median_price_per_sqm": null, "turnover_score": 0.6, "turnover_rank": 27, "first_year": 2024, "last_year": 2024, "years_active": 1}}, {"type": "Feature", "geometry": {"type": "Point", "coordinates": [2.853846, 48.942654]}, "properties": {"street_name": "LA MOLETTE", "sales": 1, "sales_appt": 0, "sales_maison": 0, "median_price": 143960.0, "median_price_per_sqm": null, "turnover_score": 0.6, "turnover_rank": 27, "first_year": 2021, "last_year": 2021, "years_active": 1}}, {"type": "Feature", "geometry": {"type": "Point", "coordinates": [2.8623, 48.937572]}, "properties": {"street_name": "LA MADELAINE NORD", "sales": 1, "sales_appt": 0, "sales_maison": 0, "median_price": 15.0, "median_price_per_sqm": null, "turnover_score": 0.6, "turnover_rank": 27, "first_year": 2022, "last_year": 2022, "years_active": 1}}, {"type": "Feature", "geometry": {"type": "Point", "coordinates": [2.847911, 48.943972]}, "properties": {"street_name": "L ENFER", "sales": 1, "sales_appt": 0, "sales_maison": 0, "median_price": 19000.0, "median_price_per_sqm": null, "turnover_score": 0.6, "turnover_rank": 27, "first_year": 2024, "last_year": 2024, "years_active": 1}}, {"type": "Feature", "geometry": {"type": "Point", "coordinates": [2.858566, 48.948817]}, "properties": {"street_name": "LES SEIZE ARPENTS", "sales": 1, "sales_appt": 0, "sales_maison": 0, "median_price": 3324587.8, "median_price_per_sqm": null, "turnover_score": 0.6, "turnover_rank": 27, "first_year": 2022, "last_year": 2022, "years_active": 1}}, {"type": "Feature", "geometry": {"type": "Point", "coordinates": [2.855827, 48.942072]}, "properties": {"street_name": "LE PRE TILLET", "sales": 1, "sales_appt": 0, "sales_maison": 0, "median_price": 19000.0, "median_price_per_sqm": null, "turnover_score": 0.6, "turnover_rank": 27, "first_year": 2024, "last_year": 2024, "years_active": 1}}, {"type": "Feature", "geometry": {"type": "Point", "coordinates": [2.861096, 48.939452]}, "properties": {"street_name": "RUE DE LA MADELEINE", "sales": 1, "sales_appt": 0, "sales_maison": 1, "median_price": 238771.0, "median_price_per_sqm": 3511.3382352941176, "turnover_score": 0.6, "turnover_rank": 27, "first_year": 2021, "last_year": 2021, "years_active": 1}}, {"type": "Feature", "geometry": {"type": "Point", "coordinates": [2.866593, 48.951426]}, "properties": {"street_name": "RES BEL AIR", "sales": 1, "sales_appt": 0, "sales_maison": 1, "median_price": 305000.0, "median_price_per_sqm": 3315.217391304348, "turnover_score": 0.6, "turnover_rank": 27, "first_year": 2024, "last_year": 2024, "years_active": 1}}, {"type": "Feature", "geometry": {"type": "Point", "coordinates": [2.857485, 48.942745]}, "properties": {"street_name": "LES MARMOUZES", "sales": 1, "sales_appt": 0, "sales_maison": 0, "median_price": 500.0, "median_price_per_sqm": null, "turnover_score": 0.6, "turnover_rank": 27, "first_year": 2023, "last_year": 2023, "years_active": 1}}, {"type": "Feature", "geometry": {"type": "Point", "coordinates": [2.833379, 48.941576]}, "properties": {"street_name": "LE PAVE DE VIGNELY", "sales": 1, "sales_appt": 0, "sales_maison": 0, "median_price": 143960.0, "median_price_per_sqm": null, "turnover_score": 0.6, "turnover_rank": 27, "first_year": 2021, "last_year": 2021, "years_active": 1}}, {"type": "Feature", "geometry": {"type": "Point", "coordinates": [2.833739, 48.933876]}, "properties": {"street_name": "LES HAUTS BOCHETS", "sales": 1, "sales_appt": 0, "sales_maison": 0, "median_price": 19000.0, "median_price_per_sqm": null, "turnover_score": 0.6, "turnover_rank": 27, "first_year": 2024, "last_year": 2024, "years_active": 1}}, {"type": "Feature", "geometry": {"type": "Point", "coordinates": [2.866499, 48.947616]}, "properties": {"street_name": "RUE RESIDENCE RIVES DE L OURCQ", "sales": 1, "sales_appt": 0, "sales_maison": 1, "median_price": 335000.0, "median_price_per_sqm": 4466.666666666667, "turnover_score": 0.6, "turnover_rank": 27, "first_year": 2021, "last_year": 2021, "years_active": 1}}, {"type": "Feature", "geometry": {"type": "Point", "coordinates": [2.865891, 48.941693]}, "properties": {"street_name": "VILLENOY", "sales": 1, "sales_appt": 0, "sales_maison": 0, "median_price": 2500.0, "median_price_per_sqm": null, "turnover_score": 0.6, "turnover_rank": 27, "first_year": 2022, "last_year": 2022, "years_active": 1}}, {"type": "Feature", "geometry": {"type": "Point", "coordinates": [2.864896, 48.952708]}, "properties": {"street_name": "VLA DES IRIS", "sales": 1, "sales_appt": 0, "sales_maison": 1, "median_price": 330000.0, "median_price_per_sqm": 3707.8651685393256, "turnover_score": 0.6, "turnover_rank": 27, "first_year": 2023, "last_year": 2023, "years_active": 1}}]}