{"type": "FeatureCollection", "features": [{"type": "Feature", "geometry": {"type": "Point", "coordinates": [2.6809054999999997, 48.626484000000005]}, "properties": {"street_name": "ALL JULES PELLETIER", "sales": 22, "sales_appt": 0, "sales_maison": 5, "median_price": 405000.0, "median_price_per_sqm": 2311.5577889447236, "turnover_score": 100.0, "turnover_rank": 1, "first_year": 2021, "last_year": 2024, "years_active": 3}}, {"type": "Feature", "geometry": {"type": "Point", "coordinates": [2.666567, 48.626671]}, "properties": {"street_name": "LIMOGES", "sales": 21, "sales_appt": 0, "sales_maison": 0, "median_price": 240500.0, "median_price_per_sqm": null, "turnover_score": 95.5, "turnover_rank": 2, "first_year": 2021, "last_year": 2025, "years_active": 5}}, {"type": "Feature", "geometry": {"type": "Point", "coordinates": [2.667013, 48.63438]}, "properties": {"street_name": "LA PLAINE DU BOIS DE L ERA", "sales": 18, "sales_appt": 0, "sales_maison": 0, "median_price": 3860000.0, "median_price_per_sqm": 231600.0, "turnover_score": 81.8, "turnover_rank": 3, "first_year": 2021, "last_year": 2025, "years_active": 5}}, {"type": "Feature", "geometry": {"type": "Point", "coordinates": [2.665401, 48.627029]}, "properties": {"street_name": "RUE DES ECOLES", "sales": 13, "sales_appt": 0, "sales_maison": 5, "median_price": 310000.0, "median_price_per_sqm": 2968.705035971223, "turnover_score": 59.1, "turnover_rank": 4, "first_year": 2021, "last_year": 2025, "years_active": 3}}, {"type": "Feature", "geometry": {"type": "Point", "coordinates": [2.680419, 48.625808]}, "properties": {"street_name": "RUE DE BOUGAINVILLE", "sales": 11, "sales_appt": 0, "sales_maison": 2, "median_price": 370000.0, "median_price_per_sqm": 3850.0, "turnover_score": 50.0, "turnover_rank": 5, "first_year": 2021, "last_year": 2023, "years_active": 3}}, {"type": "Feature", "geometry": {"type": "Point", "coordinates": [2.6652995, 48.632277]}, "properties": {"street_name": "RUE DE LA ROQUETTE", "sales": 10, "sales_appt": 0, "sales_maison": 8, "median_price": 356350.0, "median_price_per_sqm": 3426.4423076923076, "turnover_score": 45.5, "turnover_rank": 6, "first_year": 2021, "last_year": 2025, "years_active": 4}}, {"type": "Feature", "geometry": {"type": "Point", "coordinates": [2.6649665000000002, 48.617295999999996]}, "properties": {"street_name": "AERODROME DE MELUN VILLARO", "sales": 10, "sales_appt": 0, "sales_maison": 0, "median_price": 487575.0, "median_price_per_sqm": 2928.8709677419356, "turnover_score": 45.5, "turnover_rank": 6, "first_year": 2021, "last_year": 2024, "years_active": 3}}, {"type": "Feature", "geometry": {"type": "Point", "coordinates": [2.662845, 48.626731]}, "properties": {"street_name": "COUR DE LA PLANCHETTE", "sales": 10, "sales_appt": 0, "sales_maison": 0, "median_price": 378750.0, "median_price_per_sqm": null, "turnover_score": 45.5, "turnover_rank": 6, "first_year": 2021, "last_year": 2022, "years_active": 2}}, {"type": "Feature", "geometry": {"type": "Point", "coordinates": [2.667305, 48.632489]}, "properties": {"street_name": "RUE DE L INDUSTRIE", "sales": 9, "sales_appt": 0, "sales_maison": 0, "median_price": 2591208.0, "median_price_per_sqm": null, "turnover_score": 40.9, "turnover_rank": 7, "first_year": 2021, "last_year": 2023, "years_active": 2}}, {"type": "Feature", "geometry": {"type": "Point", "coordinates": [2.664047, 48.6322]}, "properties": {"street_name": "ALL DES THUYAS", "sales": 9, "sales_appt": 0, "sales_maison": 8, "median_price": 355950.0, "median_price_per_sqm": 3087.1681415929206, "turnover_score": 40.9, "turnover_rank": 7, "first_year": 2021, "last_year": 2024, "years_active": 3}}, {"type": "Feature", "geometry": {"type": "Point", "coordinates": [2.663174, 48.62643]}, "properties": {"street_name": "RUE DE MAUNY", "sales": 9, "sales_appt": 0, "sales_maison": 1, "median_price": 513000.0, "median_price_per_sqm": 2818.6813186813188, "turnover_score": 40.9, "turnover_rank": 7, "first_year": 2021, "last_year": 2023, "years_active": 3}}, {"type": "Feature", "geometry": {"type": "Point", "coordinates": [2.664758, 48.627456]}, "properties": {"street_name": "RUE DE LA SEIGNEURIE", "sales": 8, "sales_appt": 0, "sales_maison": 2, "median_price": 538150.0, "median_price_per_sqm": 2545.250084298078, "turnover_score": 36.4, "turnover_rank": 8, "first_year": 2021, "last_year": 2025, "years_active": 3}}, {"type": "Feature", "geometry": {"type": "Point", "coordinates": [2.681438, 48.625463]}, "properties": {"street_name": "PL LOUIS BULLOT", "sales": 7, "sales_appt": 0, "sales_maison": 3, "median_price": 430000.0, "median_price_per_sqm": 2947.9166666666665, "turnover_score": 31.8, "turnover_rank": 9, "first_year": 2021, "last_year": 2024, "years_active": 3}}, {"type": "Feature", "geometry": {"type": "Point", "coordinates": [2.663005, 48.626725]}, "properties": {"street_name": "VC DE LA PLANCHETTE", "sales": 6, "sales_appt": 0, "sales_maison": 4, "median_price": 378750.0, "median_price_per_sqm": 6693.85593220339, "turnover_score": 27.3, "turnover_rank": 10, "first_year": 2021, "last_year": 2021, "years_active": 1}}, {"type": "Feature", "geometry": {"type": "Point", "coordinates": [2.6648565, 48.631929]}, "properties": {"street_name": "RUE DU PARC", "sales": 6, "sales_appt": 0, "sales_maison": 1, "median_price": 1535604.0, "median_price_per_sqm": 2341.4634146341464, "turnover_score": 27.3, "turnover_rank": 10, "first_year": 2021, "last_year": 2024, "years_active": 4}}, {"type": "Feature", "geometry": {"type": "Point", "coordinates": [2.6483369999999997, 48.630251]}, "properties": {"street_name": "LES BOIS DE LA CHARBONNIER", "sales": 6, "sales_appt": 0, "sales_maison": 0, "median_price": 113000.0, "median_price_per_sqm": null, "turnover_score": 27.3, "turnover_rank": 10, "first_year": 2024, "last_year": 2024, "years_active": 1}}, {"type": "Feature", "geometry": {"type": "Point", "coordinates": [2.665473, 48.628637]}, "properties": {"street_name": "RUE DE LAVAUX", "sales": 5, "sales_appt": 0, "sales_maison": 3, "median_price": 538000.0, "median_price_per_sqm": 3605.8394160583944, "turnover_score": 22.7, "turnover_rank": 11, "first_year": 2022, "last_year": 2025, "years_active": 2}}, {"type": "Feature", "geometry": {"type": "Point", "coordinates": [2.6795765, 48.6263425]}, "properties": {"street_name": "LE RONDEAU", "sales": 4, "sales_appt": 0, "sales_maison": 0, "median_price": 170500.0, "median_price_per_sqm": null, "turnover_score": 18.2, "turnover_rank": 12, "first_year": 2022, "last_year": 2023, "years_active": 2}}, {"type": "Feature", "geometry": {"type": "Point", "coordinates": [2.666664, 48.62553]}, "properties": {"street_name": "VC DE LA FONTAINE", "sales": 3, "sales_appt": 0, "sales_maison": 1, "median_price": 278120.0, "median_price_per_sqm": 2528.3636363636365, "turnover_score": 13.6, "turnover_rank": 13, "first_year": 2025, "last_year": 2025, "years_active": 1}}, {"type": "Feature", "geometry": {"type": "Point", "coordinates": [2.663197, 48.628817]}, "properties": {"street_name": "RUE DES 30 ARPENTS", "sales": 2, "sales_appt": 0, "sales_maison": 2, "median_price": 362000.0, "median_price_per_sqm": 2413.3333333333335, "turnover_score": 9.1, "turnover_rank": 14, "first_year": 2024, "last_year": 2024, "years_active": 1}}, {"type": "Feature", "geometry": {"type": "Point", "coordinates": [2.682571, 48.624542]}, "properties": {"street_name": "LE MARCHAIS DES TROIS FOUR", "sales": 2, "sales_appt": 0, "sales_maison": 0, "median_price": 103774.6, "median_price_per_sqm": null, "turnover_score": 9.1, "turnover_rank": 14, "first_year": 2024, "last_year": 2024, "years_active": 1}}, {"type": "Feature", "geometry": {"type": "Point", "coordinates": [2.666167, 48.632613]}, "properties": {"street_name": "DERRIERE LE PARC DE LIMOGE", "sales": 2, "sales_appt": 0, "sales_maison": 1, "median_price": 1017450.0, "median_price_per_sqm": 9640.222602739726, "turnover_score": 9.1, "turnover_rank": 14, "first_year": 2021, "last_year": 2021, "years_active": 1}}, {"type": "Feature", "geometry": {"type": "Point", "coordinates": [2.659587, 48.61916]}, "properties": {"street_name": "LE CHEMIN DE VILLAROCHE", "sales": 2, "sales_appt": 0, "sales_maison": 0, "median_price": 20000.0, "median_price_per_sqm": null, "turnover_score": 9.1, "turnover_rank": 14, "first_year": 2025, "last_year": 2025, "years_active": 1}}, {"type": "Feature", "geometry": {"type": "Point", "coordinates": [2.665377, 48.626298]}, "properties": {"street_name": "RUE DU CHATEAU D EAU", "sales": 2, "sales_appt": 0, "sales_maison": 1, "median_price": 310000.0, "median_price_per_sqm": 2421.875, "turnover_score": 9.1, "turnover_rank": 14, "first_year": 2024, "last_year": 2024, "years_active": 1}}, {"type": "Feature", "geometry": {"type": "Point", "coordinates": [2.6838215, 48.625535]}, "properties": {"street_name": "SOUS LE PARC DE LA BROSSE", "sales": 2, "sales_appt": 0, "sales_maison": 0, "median_price": 186387.3, "median_price_per_sqm": null, "turnover_score": 9.1, "turnover_rank": 14, "first_year": 2021, "last_year": 2024, "years_active": 2}}, {"type": "Feature", "geometry": {"type": "Point", "coordinates": [2.681965, 48.626326]}, "properties": {"street_name": "RUE FIEF DE LA BROSSE", "sales": 2, "sales_appt": 0, "sales_maison": 2, "median_price": 370000.0, "median_price_per_sqm": 4111.111111111111, "turnover_score": 9.1, "turnover_rank": 14, "first_year": 2021, "last_year": 2021, "years_active": 1}}, {"type": "Feature", "geometry": {"type": "Point", "coordinates": [2.68294, 48.625642]}, "properties": {"street_name": "ALL DES TROENES", "sales": 1, "sales_appt": 0, "sales_maison": 1, "median_price": 269000.0, "median_price_per_sqm": 3586.6666666666665, "turnover_score": 4.5, "turnover_rank": 15, "first_year": 2021, "last_year": 2021, "years_active": 1}}, {"type": "Feature", "geometry": {"type": "Point", "coordinates": [2.665287, 48.627529]}, "properties": {"street_name": "CHE DE LA PROCESSION", "sales": 1, "sales_appt": 0, "sales_maison": 0, "median_price": 160000.0, "median_price_per_sqm": null, "turnover_score": 4.5, "turnover_rank": 15, "first_year": 2025, "last_year": 2025, "years_active": 1}}, {"type": "Feature", "geometry": {"type": "Point", "coordinates": [2.663919, 48.627012]}, "properties": {"street_name": "PL DE L EGLISE", "sales": 1, "sales_appt": 0, "sales_maison": 0, "median_price": 451700.0, "median_price_per_sqm": null, "turnover_score": 4.5, "turnover_rank": 15, "first_year": 2021, "last_year": 2021, "years_active": 1}}, {"type": "Feature", "geometry": {"type": "Point", "coordinates": [2.666394, 48.625042]}, "properties": {"street_name": "LE HAUT DU ROZOIR", "sales": 1, "sales_appt": 0, "sales_maison": 1, "median_price": 425550.0, "median_price_per_sqm": 3223.8636363636365, "turnover_score": 4.5, "turnover_rank": 15, "first_year": 2023, "last_year": 2023, "years_active": 1}}, {"type": "Feature", "geometry": {"type": "Point", "coordinates": [2.667986, 48.631405]}, "properties": {"street_name": "SOUS LE BOIS DE L ERABLE", "sales": 1, "sales_appt": 1, "sales_maison": 0, "median_price": 3477456.0, "median_price_per_sqm": 64397.333333333336, "turnover_score": 4.5, "turnover_rank": 15, "first_year": 2023, "last_year": 2023, "years_active": 1}}, {"type": "Feature", "geometry": {"type": "Point", "coordinates": [2.665767, 48.626771]}, "properties": {"street_name": "VC DU RONDEAU", "sales": 1, "sales_appt": 0, "sales_maison": 1, "median_price": 199000.0, "median_price_per_sqm": 3109.375, "turnover_score": 4.5, "turnover_rank": 15, "first_year": 2025, "last_year": 2025, "years_active": 1}}]}