{"type": "FeatureCollection", "features": [{"type": "Feature", "geometry": {"type": "Point", "coordinates": [2.53263, 48.503557]}, "properties": {"id_parcelle": "774350000A0695", "address": "5 VC DU PRESSOIR", "sales": 8, "median_price": 321000.0, "median_price_per_sqm": 3451.6129032258063, "median_rooms": 0.0, "first_sale": "2024-08-23", "last_sale": "2024-08-23"}}, {"type": "Feature", "geometry": {"type": "Point", "coordinates": [2.537888, 48.505643]}, "properties": {"id_parcelle": "77435000AC0001", "address": "36 VC RES DE MONTGERMONT", "sales": 8, "median_price": 530830.0, "median_price_per_sqm": 3473.004761904762, "median_rooms": 4.5, "first_sale": "2021-01-28", "last_sale": "2025-03-06"}}, {"type": "Feature", "geometry": {"type": "Point", "coordinates": [2.544913, 48.496756]}, "properties": {"id_parcelle": "774350000C0571", "address": "11 RUE D ETRELLES", "sales": 6, "median_price": 660000.0, "median_price_per_sqm": 1987.9518072289156, "median_rooms": 0.0, "first_sale": "2024-01-12", "last_sale": "2024-01-12"}}, {"type": "Feature", "geometry": {"type": "Point", "coordinates": [2.529496, 48.502289]}, "properties": {"id_parcelle": "774350000A0511", "address": "14 RUE DES CLOSEAUX", "sales": 4, "median_price": 680000.0, "median_price_per_sqm": 3777.777777777778, "median_rooms": 4.0, "first_sale": "2022-10-04", "last_sale": "2022-10-04"}}, {"type": "Feature", "geometry": {"type": "Point", "coordinates": [2.529177, 48.506116]}, "properties": {"id_parcelle": "774350000A0065", "address": "16 RUE DU COURTIL BAUDET", "sales": 4, "median_price": 369860.0, "median_price_per_sqm": 3456.6355140186915, "median_rooms": 2.5, "first_sale": "2023-05-17", "last_sale": "2023-05-17"}}, {"type": "Feature", "geometry": {"type": "Point", "coordinates": [2.532924, 48.503409]}, "properties": {"id_parcelle": "774350000A0699", "address": "9 RUE DES GRANGES", "sales": 4, "median_price": 450000.0, "median_price_per_sqm": 2432.4324324324325, "median_rooms": 3.0, "first_sale": "2025-10-03", "last_sale": "2025-10-03"}}, {"type": "Feature", "geometry": {"type": "Point", "coordinates": [2.548059, 48.499256]}, "properties": {"id_parcelle": "77435000AB0044", "address": "14 RUE DES BIBANCONS", "sales": 4, "median_price": 575000.0, "median_price_per_sqm": 2625.5707762557076, "median_rooms": 2.5, "first_sale": "2025-11-26", "last_sale": "2025-11-26"}}, {"type": "Feature", "geometry": {"type": "Point", "coordinates": [2.535583, 48.49547]}, "properties": {"id_parcelle": "77435000ZC0002", "address": "L ORME LEGER", "sales": 4, "median_price": 240000.0, "median_price_per_sqm": null, "median_rooms": null, "first_sale": "2025-12-11", "last_sale": "2025-12-11"}}, {"type": "Feature", "geometry": {"type": "Point", "coordinates": [2.548158, 48.501684]}, "properties": {"id_parcelle": "77435000ZB0108", "address": "LES CAILLOUX", "sales": 4, "median_price": 92200.0, "median_price_per_sqm": null, "median_rooms": null, "first_sale": "2025-12-11", "last_sale": "2025-12-11"}}, {"type": "Feature", "geometry": {"type": "Point", "coordinates": [2.55048, 48.497172]}, "properties": {"id_parcelle": "774350000C0405", "address": "34 RUE DE LA TERRE AUX MOINES", "sales": 4, "median_price": 755000.0, "median_price_per_sqm": 3117.4698795180725, "median_rooms": 2.5, "first_sale": "2021-02-17", "last_sale": "2023-07-11"}}, {"type": "Feature", "geometry": {"type": "Point", "coordinates": [2.530585, 48.504672]}, "properties": {"id_parcelle": "774350000A0599", "address": "14 RUE DES FONTAINES", "sales": 4, "median_price": 380000.0, "median_price_per_sqm": 2923.076923076923, "median_rooms": 2.5, "first_sale": "2025-07-17", "last_sale": "2025-07-17"}}, {"type": "Feature", "geometry": {"type": "Point", "coordinates": [2.529431, 48.504149]}, "properties": {"id_parcelle": "774350000A0414", "address": "13 RUE DES FONTAINES", "sales": 4, "median_price": 519000.0, "median_price_per_sqm": 8238.095238095239, "median_rooms": 0.0, "first_sale": "2023-02-15", "last_sale": "2023-02-15"}}, {"type": "Feature", "geometry": {"type": "Point", "coordinates": [2.54653, 48.49502]}, "properties": {"id_parcelle": "77435000ZC0014", "address": "8 RUE DE LA TERRE AUX MOINES", "sales": 4, "median_price": 450000.0, "median_price_per_sqm": 5232.558139534884, "median_rooms": 2.0, "first_sale": "2021-11-26", "last_sale": "2021-11-26"}}, {"type": "Feature", "geometry": {"type": "Point", "coordinates": [2.528283, 48.501678]}, "properties": {"id_parcelle": "774350000A0535", "address": "3 RUE DES VALLEES", "sales": 3, "median_price": 830000.0, "median_price_per_sqm": 5187.5, "median_rooms": 0.0, "first_sale": "2023-04-14", "last_sale": "2023-04-14"}}, {"type": "Feature", "geometry": {"type": "Point", "coordinates": [2.544079, 48.493914]}, "properties": {"id_parcelle": "774350000C0229", "address": "33 RUE D ETRELLES", "sales": 3, "median_price": 414000.0, "median_price_per_sqm": 3663.716814159292, "median_rooms": 0.0, "first_sale": "2022-08-16", "last_sale": "2022-08-16"}}, {"type": "Feature", "geometry": {"type": "Point", "coordinates": [2.558921, 48.498238]}, "properties": {"id_parcelle": "774350000X0123", "address": "LES GUIGNES CHEVRES", "sales": 3, "median_price": 349455.0, "median_price_per_sqm": null, "median_rooms": null, "first_sale": "2025-12-11", "last_sale": "2025-12-11"}}, {"type": "Feature", "geometry": {"type": "Point", "coordinates": [2.543999, 48.494669]}, "properties": {"id_parcelle": "774350000C0556", "address": "27 RUE D ETRELLES", "sales": 3, "median_price": 260000.0, "median_price_per_sqm": 1666.6666666666667, "median_rooms": 0.0, "first_sale": "2024-06-27", "last_sale": "2024-06-27"}}, {"type": "Feature", "geometry": {"type": "Point", "coordinates": [2.534675, 48.50542]}, "properties": {"id_parcelle": "774350000A0675", "address": "36 RUE DE MONTGERMONT", "sales": 3, "median_price": 1250000.0, "median_price_per_sqm": 18656.716417910447, "median_rooms": 3.0, "first_sale": "2025-06-16", "last_sale": "2025-06-16"}}, {"type": "Feature", "geometry": {"type": "Point", "coordinates": [2.54762, 48.496108]}, "properties": {"id_parcelle": "774350000C0131", "address": "21 RUE DE LA TERRE AUX MOINES", "sales": 3, "median_price": 476800.0, "median_price_per_sqm": 2702.424242424242, "median_rooms": 6.0, "first_sale": "2021-02-11", "last_sale": "2023-03-01"}}, {"type": "Feature", "geometry": {"type": "Point", "coordinates": [2.533455, 48.502673]}, "properties": {"id_parcelle": "774350000A0271", "address": "BRINVILLE", "sales": 2, "median_price": 126000.0, "median_price_per_sqm": null, "median_rooms": null, "first_sale": "2021-09-29", "last_sale": "2025-11-05"}}, {"type": "Feature", "geometry": {"type": "Point", "coordinates": [2.532425, 48.503502]}, "properties": {"id_parcelle": "774350000A0290", "address": "BRINVILLE", "sales": 2, "median_price": 365500.0, "median_price_per_sqm": null, "median_rooms": null, "first_sale": "2022-03-22", "last_sale": "2024-08-23"}}, {"type": "Feature", "geometry": {"type": "Point", "coordinates": [2.532187, 48.50413]}, "properties": {"id_parcelle": "774350000A0552", "address": "3 RUE DU BOIS ROUGE", "sales": 2, "median_price": 380000.0, "median_price_per_sqm": 2248.5207100591715, "median_rooms": 5.0, "first_sale": "2021-10-25", "last_sale": "2021-10-25"}}, {"type": "Feature", "geometry": {"type": "Point", "coordinates": [2.528803, 48.501998]}, "properties": {"id_parcelle": "774350000A0530", "address": "6 RUE DES VALLEES", "sales": 2, "median_price": 439000.0, "median_price_per_sqm": 2907.2847682119204, "median_rooms": 6.0, "first_sale": "2025-10-27", "last_sale": "2025-10-27"}}, {"type": "Feature", "geometry": {"type": "Point", "coordinates": [2.528878, 48.502968]}, "properties": {"id_parcelle": "774350000A0434", "address": "23 RUE DES FONTAINES", "sales": 2, "median_price": 585540.0, "median_price_per_sqm": 3903.6, "median_rooms": 5.0, "first_sale": "2024-03-29", "last_sale": "2024-03-29"}}, {"type": "Feature", "geometry": {"type": "Point", "coordinates": [2.534189, 48.505903]}, "properties": {"id_parcelle": "774350000A0444", "address": "31 RUE DE MONTGERMONT", "sales": 2, "median_price": 281300.0, "median_price_per_sqm": 2557.2727272727275, "median_rooms": 4.0, "first_sale": "2023-03-17", "last_sale": "2023-03-17"}}, {"type": "Feature", "geometry": {"type": "Point", "coordinates": [2.528976, 48.5037]}, "properties": {"id_parcelle": "774350000A0100", "address": "17 RUE DES FONTAINES", "sales": 2, "median_price": 754900.0, "median_price_per_sqm": 4313.714285714285, "median_rooms": 3.0, "first_sale": "2021-07-30", "last_sale": "2021-07-30"}}, {"type": "Feature", "geometry": {"type": "Point", "coordinates": [2.533369, 48.502898]}, "properties": {"id_parcelle": "774350000A0268", "address": "1 RUE DES GRANGES", "sales": 2, "median_price": 580000.0, "median_price_per_sqm": 4833.333333333333, "median_rooms": 3.0, "first_sale": "2021-08-23", "last_sale": "2021-08-23"}}, {"type": "Feature", "geometry": {"type": "Point", "coordinates": [2.544045, 48.495694]}, "properties": {"id_parcelle": "774350000C0154", "address": "3 IMP D ETRELLES", "sales": 2, "median_price": 731850.0, "median_price_per_sqm": 5461.567164179104, "median_rooms": 2.5, "first_sale": "2023-08-04", "last_sale": "2023-08-04"}}, {"type": "Feature", "geometry": {"type": "Point", "coordinates": [2.546967, 48.495834]}, "properties": {"id_parcelle": "774350000C0134", "address": "17 RUE DE LA TERRE AUX MOINES", "sales": 2, "median_price": 410000.0, "median_price_per_sqm": 3727.2727272727275, "median_rooms": 3.0, "first_sale": "2021-08-09", "last_sale": "2021-08-09"}}, {"type": "Feature", "geometry": {"type": "Point", "coordinates": [2.545357, 48.497892]}, "properties": {"id_parcelle": "774350000C0701", "address": "5190 RUE DE LA BRETONNIERE", "sales": 2, "median_price": 567000.0, "median_price_per_sqm": 2362.5, "median_rooms": 5.0, "first_sale": "2023-03-24", "last_sale": "2023-03-24"}}, {"type": "Feature", "geometry": {"type": "Point", "coordinates": [2.544592, 48.496992]}, "properties": {"id_parcelle": "774350000C0680", "address": "9 RUE D ETRELLES", "sales": 2, "median_price": 471300.0, "median_price_per_sqm": 3415.217391304348, "median_rooms": 5.0, "first_sale": "2025-11-14", "last_sale": "2025-11-14"}}, {"type": "Feature", "geometry": {"type": "Point", "coordinates": [2.549169, 48.496972]}, "properties": {"id_parcelle": "774350000C0671", "address": "27 RUE DE LA TERRE AUX MOINES", "sales": 2, "median_price": 463345.0, "median_price_per_sqm": 2895.90625, "median_rooms": 3.0, "first_sale": "2022-03-18", "last_sale": "2022-03-18"}}, {"type": "Feature", "geometry": {"type": "Point", "coordinates": [2.543455, 48.494556]}, "properties": {"id_parcelle": "774350000C0510", "address": "28 RUE D ETRELLES", "sales": 2, "median_price": 357000.0, "median_price_per_sqm": 4301.204819277108, "median_rooms": 2.5, "first_sale": "2021-09-07", "last_sale": "2021-09-07"}}, {"type": "Feature", "geometry": {"type": "Point", "coordinates": [2.53124, 48.504833]}, "properties": {"id_parcelle": "774350000A0606", "address": "9 RUE DU BOIS ROUGE", "sales": 2, "median_price": 406000.0, "median_price_per_sqm": 3222.222222222222, "median_rooms": 4.0, "first_sale": "2023-04-11", "last_sale": "2023-04-11"}}, {"type": "Feature", "geometry": {"type": "Point", "coordinates": [2.547469, 48.496353]}, "properties": {"id_parcelle": "774350000C0130", "address": "SAINT SAUVEUR", "sales": 2, "median_price": 445900.0, "median_price_per_sqm": null, "median_rooms": null, "first_sale": "2021-02-11", "last_sale": "2023-03-01"}}, {"type": "Feature", "geometry": {"type": "Point", "coordinates": [2.550472, 48.500301]}, "properties": {"id_parcelle": "77435000AB0041", "address": "27 RUE DES GRANDES HAIES", "sales": 2, "median_price": 390000.0, "median_price_per_sqm": 5909.090909090909, "median_rooms": 1.5, "first_sale": "2023-06-05", "last_sale": "2023-06-05"}}, {"type": "Feature", "geometry": {"type": "Point", "coordinates": [2.543293, 48.496223]}, "properties": {"id_parcelle": "774350000C0724", "address": "SAINT SAUVEUR", "sales": 2, "median_price": 177500.0, "median_price_per_sqm": null, "median_rooms": null, "first_sale": "2021-12-09", "last_sale": "2021-12-09"}}, {"type": "Feature", "geometry": {"type": "Point", "coordinates": [2.537553, 48.500743]}, "properties": {"id_parcelle": "77435000ZB0066", "address": "2 RUE DU CHEMIN VERT", "sales": 2, "median_price": 335000.0, "median_price_per_sqm": 3418.3673469387754, "median_rooms": 2.5, "first_sale": "2021-07-27", "last_sale": "2021-07-27"}}, {"type": "Feature", "geometry": {"type": "Point", "coordinates": [2.537125, 48.501446]}, "properties": {"id_parcelle": "77435000ZB0063", "address": "4 RUE DU CHEMIN VERT", "sales": 2, "median_price": 416500.0, "median_price_per_sqm": 3131.5789473684213, "median_rooms": 3.0, "first_sale": "2023-12-20", "last_sale": "2023-12-20"}}, {"type": "Feature", "geometry": {"type": "Point", "coordinates": [2.548635, 48.495029]}, "properties": {"id_parcelle": "774350000C0735", "address": "5 RUE DES MARNIERES", "sales": 2, "median_price": 370000.0, "median_price_per_sqm": null, "median_rooms": null, "first_sale": "2022-12-07", "last_sale": "2022-12-07"}}, {"type": "Feature", "geometry": {"type": "Point", "coordinates": [2.530569, 48.505692]}, "properties": {"id_parcelle": "77435000ZB0284", "address": "28 RUE DU BOIS ROUGE", "sales": 2, "median_price": 440000.0, "median_price_per_sqm": 2200.0, "median_rooms": 6.0, "first_sale": "2021-07-23", "last_sale": "2021-07-23"}}, {"type": "Feature", "geometry": {"type": "Point", "coordinates": [2.540035, 48.496072]}, "properties": {"id_parcelle": "77435000ZC0003", "address": "L ORME LEGER", "sales": 2, "median_price": 240000.0, "median_price_per_sqm": null, "median_rooms": null, "first_sale": "2025-12-11", "last_sale": "2025-12-11"}}, {"type": "Feature", "geometry": {"type": "Point", "coordinates": [2.54221, 48.494579]}, "properties": {"id_parcelle": "77435000ZC0010", "address": "L ORME LEGER", "sales": 2, "median_price": 24345.0, "median_price_per_sqm": null, "median_rooms": null, "first_sale": "2025-12-11", "last_sale": "2025-12-11"}}, {"type": "Feature", "geometry": {"type": "Point", "coordinates": [2.549152, 48.49513]}, "properties": {"id_parcelle": "77435000ZC0030", "address": "LES DINES CHEVRES", "sales": 2, "median_price": 461000.0, "median_price_per_sqm": null, "median_rooms": null, "first_sale": "2022-05-20", "last_sale": "2022-12-07"}}, {"type": "Feature", "geometry": {"type": "Point", "coordinates": [2.549352, 48.490845]}, "properties": {"id_parcelle": "77435000ZC0039", "address": "LES DINES CHEVRES", "sales": 2, "median_price": 18000.0, "median_price_per_sqm": null, "median_rooms": null, "first_sale": "2024-07-17", "last_sale": "2024-07-17"}}]}