{"type": "FeatureCollection", "features": [{"type": "Feature", "geometry": {"type": "Point", "coordinates": [2.873503, 48.976449]}, "properties": {"id_parcelle": "77143000AB0517", "address": "11 PL LOUIS JOUVET", "sales": 72, "median_price": 6119241.89, "median_price_per_sqm": 83840.9643337087, "median_rooms": 0.0, "first_sale": "2021-04-26", "last_sale": "2025-12-31"}}, {"type": "Feature", "geometry": {"type": "Point", "coordinates": [2.87275, 48.975772]}, "properties": {"id_parcelle": "77143000AB0399", "address": "8 RUE JEAN RENOIR", "sales": 24, "median_price": 6119241.89, "median_price_per_sqm": 52301.21273504273, "median_rooms": 4.0, "first_sale": "2025-12-31", "last_sale": "2025-12-31"}}, {"type": "Feature", "geometry": {"type": "Point", "coordinates": [2.865845, 48.977829]}, "properties": {"id_parcelle": "77143000AH0197", "address": "13 RUE DE PANAUTI", "sales": 23, "median_price": 177500.0, "median_price_per_sqm": 2812.5, "median_rooms": 0.0, "first_sale": "2021-01-27", "last_sale": "2025-04-14"}}, {"type": "Feature", "geometry": {"type": "Point", "coordinates": [2.873968, 48.976436]}, "properties": {"id_parcelle": "77143000AB0559", "address": "9001 RUE GEORGES MELIES", "sales": 19, "median_price": 6119241.89, "median_price_per_sqm": 74624.90109756097, "median_rooms": 0.0, "first_sale": "2023-01-13", "last_sale": "2025-12-31"}}, {"type": "Feature", "geometry": {"type": "Point", "coordinates": [2.872002, 48.975838]}, "properties": {"id_parcelle": "77143000AB0489", "address": "26 AV HENRI DUFLOCQ", "sales": 18, "median_price": 6119241.89, "median_price_per_sqm": 66513.49880434782, "median_rooms": 4.0, "first_sale": "2025-12-31", "last_sale": "2025-12-31"}}, {"type": "Feature", "geometry": {"type": "Point", "coordinates": [2.865551, 48.977432]}, "properties": {"id_parcelle": "77143000AH0204", "address": "2 RUE GEORGES BIZET", "sales": 17, "median_price": 133000.0, "median_price_per_sqm": 3187.5, "median_rooms": 0.0, "first_sale": "2021-07-15", "last_sale": "2024-03-25"}}, {"type": "Feature", "geometry": {"type": "Point", "coordinates": [2.866708, 48.975607]}, "properties": {"id_parcelle": "77143000AC0580", "address": "5 RUE CLOS SAINT JACQUES", "sales": 15, "median_price": 157000.0, "median_price_per_sqm": 3616.6666666666665, "median_rooms": 0.0, "first_sale": "2021-10-08", "last_sale": "2025-07-11"}}, {"type": "Feature", "geometry": {"type": "Point", "coordinates": [2.870077, 48.961399]}, "properties": {"id_parcelle": "77143000AE0222", "address": "1 RUE HENRI BARBUSSE", "sales": 13, "median_price": 79000.0, "median_price_per_sqm": 4214.638157894737, "median_rooms": 1.0, "first_sale": "2021-09-28", "last_sale": "2025-11-28"}}, {"type": "Feature", "geometry": {"type": "Point", "coordinates": [2.870165, 48.961573]}, "properties": {"id_parcelle": "77143000AE0209", "address": "17 RUE HENRI BARBUSSE", "sales": 12, "median_price": 127500.0, "median_price_per_sqm": 2719.0144350423097, "median_rooms": 2.0, "first_sale": "2021-06-04", "last_sale": "2025-10-01"}}, {"type": "Feature", "geometry": {"type": "Point", "coordinates": [2.865354, 48.978276]}, "properties": {"id_parcelle": "77143000AH0184", "address": "10 RUE DE PANAUTI", "sales": 10, "median_price": 123500.0, "median_price_per_sqm": 3430.5555555555557, "median_rooms": 0.0, "first_sale": "2021-02-26", "last_sale": "2023-03-17"}}, {"type": "Feature", "geometry": {"type": "Point", "coordinates": [2.877945, 48.975627]}, "properties": {"id_parcelle": "77143000AB0581", "address": "7 RUE DE LA ROCHE", "sales": 8, "median_price": 1199000.0, "median_price_per_sqm": 24529.805996472664, "median_rooms": 1.5, "first_sale": "2024-07-04", "last_sale": "2024-07-04"}}, {"type": "Feature", "geometry": {"type": "Point", "coordinates": [2.878068, 48.978342]}, "properties": {"id_parcelle": "77143000AB0082", "address": "43 RUE JEAN JAURES", "sales": 6, "median_price": 60000.0, "median_price_per_sqm": 2617.881794650561, "median_rooms": 0.0, "first_sale": "2021-01-08", "last_sale": "2024-06-14"}}, {"type": "Feature", "geometry": {"type": "Point", "coordinates": [2.869509, 48.971166]}, "properties": {"id_parcelle": "77143000AD0222", "address": "3 AV HENRI DUFLOCQ", "sales": 6, "median_price": 160000.0, "median_price_per_sqm": 2461.5384615384614, "median_rooms": 0.0, "first_sale": "2023-09-08", "last_sale": "2023-09-08"}}, {"type": "Feature", "geometry": {"type": "Point", "coordinates": [2.8682, 48.971176]}, "properties": {"id_parcelle": "77143000AD0266", "address": "27 AV HENRI MAGISSON", "sales": 6, "median_price": 300000.0, "median_price_per_sqm": 3529.4117647058824, "median_rooms": 0.0, "first_sale": "2022-12-27", "last_sale": "2022-12-27"}}, {"type": "Feature", "geometry": {"type": "Point", "coordinates": [2.865271, 48.977504]}, "properties": {"id_parcelle": "77143000AH0198", "address": "11 RUE DE PANAUTI", "sales": 5, "median_price": 172500.0, "median_price_per_sqm": 2832.03125, "median_rooms": 0.0, "first_sale": "2024-06-27", "last_sale": "2024-09-20"}}, {"type": "Feature", "geometry": {"type": "Point", "coordinates": [2.869024, 48.970788]}, "properties": {"id_parcelle": "77143000AD0412", "address": "19 AV HENRI MAGISSON", "sales": 4, "median_price": 278150.0, "median_price_per_sqm": 2439.9122807017543, "median_rooms": 2.5, "first_sale": "2024-08-02", "last_sale": "2024-08-02"}}, {"type": "Feature", "geometry": {"type": "Point", "coordinates": [2.864557, 48.971436]}, "properties": {"id_parcelle": "77143000AD0319", "address": "11 ALL DES BERSONNES", "sales": 4, "median_price": 435000.0, "median_price_per_sqm": 2652.439024390244, "median_rooms": 3.0, "first_sale": "2025-05-21", "last_sale": "2025-05-21"}}, {"type": "Feature", "geometry": {"type": "Point", "coordinates": [2.866083, 48.977301]}, "properties": {"id_parcelle": "77143000AH0182", "address": "37 RUE DE FLORE", "sales": 4, "median_price": 278475.0, "median_price_per_sqm": 3128.9325842696626, "median_rooms": 2.0, "first_sale": "2022-07-09", "last_sale": "2024-07-09"}}, {"type": "Feature", "geometry": {"type": "Point", "coordinates": [2.867771, 48.977879]}, "properties": {"id_parcelle": "77143000AH0143", "address": "9 RUE DE FLORE", "sales": 4, "median_price": 270700.0, "median_price_per_sqm": 3360.625, "median_rooms": 2.0, "first_sale": "2021-04-07", "last_sale": "2024-10-21"}}, {"type": "Feature", "geometry": {"type": "Point", "coordinates": [2.869048, 48.96739]}, "properties": {"id_parcelle": "77143000AE0084", "address": "46 RUE HENRI BARBUSSE", "sales": 4, "median_price": 299900.0, "median_price_per_sqm": 2040.1360544217687, "median_rooms": 2.5, "first_sale": "2025-12-23", "last_sale": "2025-12-23"}}, {"type": "Feature", "geometry": {"type": "Point", "coordinates": [2.869718, 48.975325]}, "properties": {"id_parcelle": "77143000AC0239", "address": "18 RUE GUILLAUME APOLLINAIRE", "sales": 4, "median_price": 419526.0, "median_price_per_sqm": 2527.265060240964, "median_rooms": 3.5, "first_sale": "2022-11-21", "last_sale": "2022-11-21"}}, {"type": "Feature", "geometry": {"type": "Point", "coordinates": [2.877103, 48.977894]}, "properties": {"id_parcelle": "77143000AB0047", "address": "5 RUE JEAN JAURES", "sales": 4, "median_price": 6119241.89, "median_price_per_sqm": 114388.34420510133, "median_rooms": 1.0, "first_sale": "2025-12-31", "last_sale": "2025-12-31"}}, {"type": "Feature", "geometry": {"type": "Point", "coordinates": [2.873238, 48.976175]}, "properties": {"id_parcelle": "77143000AB0397", "address": "2 RUE GEORGES MELIES", "sales": 4, "median_price": 6119241.89, "median_price_per_sqm": 75085.54863520023, "median_rooms": 4.0, "first_sale": "2025-12-31", "last_sale": "2025-12-31"}}, {"type": "Feature", "geometry": {"type": "Point", "coordinates": [2.873771, 48.97624]}, "properties": {"id_parcelle": "77143000AB0562", "address": "18 IMP JEAN GABIN", "sales": 4, "median_price": 6119241.89, "median_price_per_sqm": 68678.36015712682, "median_rooms": 4.0, "first_sale": "2025-12-31", "last_sale": "2025-12-31"}}, {"type": "Feature", "geometry": {"type": "Point", "coordinates": [2.877533, 48.978151]}, "properties": {"id_parcelle": "77143000AB0070", "address": "CREGY", "sales": 4, "median_price": 173500.0, "median_price_per_sqm": null, "median_rooms": null, "first_sale": "2024-01-25", "last_sale": "2025-04-28"}}, {"type": "Feature", "geometry": {"type": "Point", "coordinates": [2.878397, 48.978213]}, "properties": {"id_parcelle": "77143000AB0219", "address": "42 RUE JEAN JAURES", "sales": 3, "median_price": 205000.0, "median_price_per_sqm": 2050.0, "median_rooms": 0.0, "first_sale": "2021-08-12", "last_sale": "2021-08-12"}}, {"type": "Feature", "geometry": {"type": "Point", "coordinates": [2.87718, 48.977999]}, "properties": {"id_parcelle": "77143000AB0383", "address": "22 RUE ROGER SALENGRO", "sales": 3, "median_price": 6119241.89, "median_price_per_sqm": 65098.317978723404, "median_rooms": 3.0, "first_sale": "2025-12-31", "last_sale": "2025-12-31"}}, {"type": "Feature", "geometry": {"type": "Point", "coordinates": [2.866626, 48.97784]}, "properties": {"id_parcelle": "77143000AH0122", "address": "30 RUE DE FLORE", "sales": 3, "median_price": 286000.0, "median_price_per_sqm": 2600.0, "median_rooms": 0.0, "first_sale": "2021-10-20", "last_sale": "2021-10-20"}}, {"type": "Feature", "geometry": {"type": "Point", "coordinates": [2.871813, 48.985889]}, "properties": {"id_parcelle": "77143000ZB0131", "address": "LES SOMMIERS", "sales": 3, "median_price": 485762.0, "median_price_per_sqm": null, "median_rooms": null, "first_sale": "2021-03-03", "last_sale": "2021-03-03"}}, {"type": "Feature", "geometry": {"type": "Point", "coordinates": [2.868386, 48.985659]}, "properties": {"id_parcelle": "77143000ZB0129", "address": "LES SOMMIERS", "sales": 3, "median_price": 485762.0, "median_price_per_sqm": null, "median_rooms": null, "first_sale": "2021-03-03", "last_sale": "2021-03-03"}}, {"type": "Feature", "geometry": {"type": "Point", "coordinates": [2.872592, 48.978215]}, "properties": {"id_parcelle": "77143000AI0031", "address": "13 RUE MICHEL BERGER", "sales": 3, "median_price": 339000.0, "median_price_per_sqm": 3766.6666666666665, "median_rooms": 0.0, "first_sale": "2025-01-06", "last_sale": "2025-01-06"}}, {"type": "Feature", "geometry": {"type": "Point", "coordinates": [2.877929, 48.978252]}, "properties": {"id_parcelle": "77143000AB0068", "address": "41 RUE JEAN JAURES", "sales": 3, "median_price": 180000.0, "median_price_per_sqm": 2117.0051858254105, "median_rooms": 4.0, "first_sale": "2021-02-19", "last_sale": "2024-02-29"}}, {"type": "Feature", "geometry": {"type": "Point", "coordinates": [2.879004, 48.978275]}, "properties": {"id_parcelle": "77143000AB0120", "address": "CREGY", "sales": 2, "median_price": 123493.60500000001, "median_price_per_sqm": null, "median_rooms": null, "first_sale": "2021-06-14", "last_sale": "2025-03-15"}}, {"type": "Feature", "geometry": {"type": "Point", "coordinates": [2.877499, 48.978049]}, "properties": {"id_parcelle": "77143000AB0061", "address": "17 RUE JEAN JAURES", "sales": 2, "median_price": 220000.0, "median_price_per_sqm": 3142.8571428571427, "median_rooms": 2.0, "first_sale": "2024-05-28", "last_sale": "2024-05-28"}}, {"type": "Feature", "geometry": {"type": "Point", "coordinates": [2.87699, 48.977646]}, "properties": {"id_parcelle": "77143000AB0176", "address": "4 RUE JEAN JAURES", "sales": 2, "median_price": 138000.0, "median_price_per_sqm": 2123.076923076923, "median_rooms": 2.0, "first_sale": "2021-07-01", "last_sale": "2021-07-01"}}, {"type": "Feature", "geometry": {"type": "Point", "coordinates": [2.875134, 48.975698]}, "properties": {"id_parcelle": "77143000AB0272", "address": "3 RUE DE LA ROCHE", "sales": 2, "median_price": 310000.0, "median_price_per_sqm": 2649.5726495726494, "median_rooms": 4.0, "first_sale": "2025-10-10", "last_sale": "2025-10-10"}}, {"type": "Feature", "geometry": {"type": "Point", "coordinates": [2.875274, 48.976583]}, "properties": {"id_parcelle": "77143000AB0339", "address": "2 RUE ROGER SALENGRO", "sales": 2, "median_price": 290500.0, "median_price_per_sqm": 3724.358974358974, "median_rooms": 2.0, "first_sale": "2021-09-01", "last_sale": "2021-09-01"}}, {"type": "Feature", "geometry": {"type": "Point", "coordinates": [2.87153, 48.974606]}, "properties": {"id_parcelle": "77143000AB0414", "address": "40 RUE GEORGES MELIES", "sales": 2, "median_price": 380505.0, "median_price_per_sqm": 3224.6186440677966, "median_rooms": 5.0, "first_sale": "2023-04-18", "last_sale": "2025-07-22"}}, {"type": "Feature", "geometry": {"type": "Point", "coordinates": [2.879045, 48.978237]}, "properties": {"id_parcelle": "77143000AB0503", "address": "RUE JEAN JAURES", "sales": 2, "median_price": 123493.60500000001, "median_price_per_sqm": null, "median_rooms": null, "first_sale": "2021-06-14", "last_sale": "2025-03-15"}}, {"type": "Feature", "geometry": {"type": "Point", "coordinates": [2.874428, 48.976189]}, "properties": {"id_parcelle": "77143000AB0563", "address": "2 RUE DE LA ROCHE", "sales": 2, "median_price": 305000.0, "median_price_per_sqm": 3050.0, "median_rooms": 2.5, "first_sale": "2025-08-27", "last_sale": "2025-08-27"}}, {"type": "Feature", "geometry": {"type": "Point", "coordinates": [2.866753, 48.974742]}, "properties": {"id_parcelle": "77143000AC0170", "address": "52 AV HENRI MAGISSON", "sales": 2, "median_price": 253000.0, "median_price_per_sqm": 3776.1194029850744, "median_rooms": 3.0, "first_sale": "2023-11-10", "last_sale": "2023-11-10"}}, {"type": "Feature", "geometry": {"type": "Point", "coordinates": [2.867574, 48.973722]}, "properties": {"id_parcelle": "77143000AC0192", "address": "38 AV HENRI MAGISSON", "sales": 2, "median_price": 255000.0, "median_price_per_sqm": 3984.375, "median_rooms": 1.5, "first_sale": "2022-07-20", "last_sale": "2022-07-20"}}, {"type": "Feature", "geometry": {"type": "Point", "coordinates": [2.877234, 48.978132]}, "properties": {"id_parcelle": "77143000AB0053", "address": "9001 RUE ROGER SALENGRO", "sales": 2, "median_price": 6119241.89, "median_price_per_sqm": null, "median_rooms": 0.0, "first_sale": "2025-12-31", "last_sale": "2025-12-31"}}, {"type": "Feature", "geometry": {"type": "Point", "coordinates": [2.878819, 48.97842]}, "properties": {"id_parcelle": "77143000AB0126", "address": "56 RUE JEAN JAURES", "sales": 2, "median_price": 123493.60500000001, "median_price_per_sqm": 1929.5875781250002, "median_rooms": 3.0, "first_sale": "2021-06-14", "last_sale": "2025-03-15"}}, {"type": "Feature", "geometry": {"type": "Point", "coordinates": [2.872621, 48.97704]}, "properties": {"id_parcelle": "77143000AC0480", "address": "67 AV HENRI DUFLOCQ", "sales": 2, "median_price": 229000.0, "median_price_per_sqm": 2792.682926829268, "median_rooms": 2.5, "first_sale": "2021-06-04", "last_sale": "2021-06-04"}}, {"type": "Feature", "geometry": {"type": "Point", "coordinates": [2.872157, 48.977073]}, "properties": {"id_parcelle": "77143000AC0478", "address": "1 RUE RONSARD", "sales": 2, "median_price": 129870.0, "median_price_per_sqm": 1427.142857142857, "median_rooms": 2.5, "first_sale": "2025-01-21", "last_sale": "2025-01-21"}}, {"type": "Feature", "geometry": {"type": "Point", "coordinates": [2.86772, 48.976564]}, "properties": {"id_parcelle": "77143000AC0454", "address": "23 RUE GEORGES BRASSENS", "sales": 2, "median_price": 314650.0, "median_price_per_sqm": 4086.3636363636365, "median_rooms": 2.0, "first_sale": "2021-07-09", "last_sale": "2021-07-09"}}, {"type": "Feature", "geometry": {"type": "Point", "coordinates": [2.869331, 48.976408]}, "properties": {"id_parcelle": "77143000AC0403", "address": "19 RUE FRANCOIS VILLON", "sales": 2, "median_price": 202800.0, "median_price_per_sqm": 2668.421052631579, "median_rooms": 4.0, "first_sale": "2022-11-24", "last_sale": "2024-10-17"}}, {"type": "Feature", "geometry": {"type": "Point", "coordinates": [2.872348, 48.977298]}, "properties": {"id_parcelle": "77143000AC0385", "address": "6 RUE EMILE ZOLA", "sales": 2, "median_price": 245000.0, "median_price_per_sqm": 3266.6666666666665, "median_rooms": 2.0, "first_sale": "2023-04-11", "last_sale": "2023-04-11"}}, {"type": "Feature", "geometry": {"type": "Point", "coordinates": [2.872281, 48.97724]}, "properties": {"id_parcelle": "77143000AC0384", "address": "8 RUE EMILE ZOLA", "sales": 2, "median_price": 272000.0, "median_price_per_sqm": 3022.222222222222, "median_rooms": 2.5, "first_sale": "2023-08-29", "last_sale": "2023-08-29"}}, {"type": "Feature", "geometry": {"type": "Point", "coordinates": [2.872217, 48.977219]}, "properties": {"id_parcelle": "77143000AC0383", "address": "10 RUE EMILE ZOLA", "sales": 2, "median_price": 276500.0, "median_price_per_sqm": 3686.6666666666665, "median_rooms": 2.0, "first_sale": "2021-08-23", "last_sale": "2021-08-23"}}, {"type": "Feature", "geometry": {"type": "Point", "coordinates": [2.87156, 48.977437]}, "properties": {"id_parcelle": "77143000AC0374", "address": "19 RUE EMILE ZOLA", "sales": 2, "median_price": 272500.0, "median_price_per_sqm": 2570.754716981132, "median_rooms": 3.0, "first_sale": "2025-10-03", "last_sale": "2025-10-03"}}, {"type": "Feature", "geometry": {"type": "Point", "coordinates": [2.871521, 48.97667]}, "properties": {"id_parcelle": "77143000AC0368", "address": "11 RUE RONSARD", "sales": 2, "median_price": 359000.0, "median_price_per_sqm": 3263.6363636363635, "median_rooms": 6.0, "first_sale": "2022-05-27", "last_sale": "2022-05-27"}}, {"type": "Feature", "geometry": {"type": "Point", "coordinates": [2.870592, 48.977178]}, "properties": {"id_parcelle": "77143000AC0359", "address": "6 RUE PAUL CEZANNE", "sales": 2, "median_price": 292000.0, "median_price_per_sqm": 2920.0, "median_rooms": 2.5, "first_sale": "2021-12-01", "last_sale": "2021-12-01"}}, {"type": "Feature", "geometry": {"type": "Point", "coordinates": [2.870672, 48.977099]}, "properties": {"id_parcelle": "77143000AC0358", "address": "4 RUE PAUL CEZANNE", "sales": 2, "median_price": 292000.0, "median_price_per_sqm": 3560.9756097560976, "median_rooms": 2.5, "first_sale": "2025-08-18", "last_sale": "2025-08-18"}}, {"type": "Feature", "geometry": {"type": "Point", "coordinates": [2.870769, 48.976947]}, "properties": {"id_parcelle": "77143000AC0355", "address": "35 RUE EMILE ZOLA", "sales": 2, "median_price": 250000.0, "median_price_per_sqm": 3086.41975308642, "median_rooms": 2.0, "first_sale": "2021-07-09", "last_sale": "2021-07-09"}}, {"type": "Feature", "geometry": {"type": "Point", "coordinates": [2.868948, 48.976013]}, "properties": {"id_parcelle": "77143000AC0353", "address": "63 RUE EMILE ZOLA", "sales": 2, "median_price": 262600.0, "median_price_per_sqm": 3455.2631578947367, "median_rooms": 2.0, "first_sale": "2024-08-31", "last_sale": "2024-08-31"}}, {"type": "Feature", "geometry": {"type": "Point", "coordinates": [2.869056, 48.976035]}, "properties": {"id_parcelle": "77143000AC0352", "address": "61 RUE EMILE ZOLA", "sales": 2, "median_price": 266000.0, "median_price_per_sqm": 3546.6666666666665, "median_rooms": 2.0, "first_sale": "2022-07-06", "last_sale": "2022-07-06"}}, {"type": "Feature", "geometry": {"type": "Point", "coordinates": [2.869335, 48.976157]}, "properties": {"id_parcelle": "77143000AC0349", "address": "55 RUE EMILE ZOLA", "sales": 2, "median_price": 254000.0, "median_price_per_sqm": 3342.1052631578946, "median_rooms": 2.0, "first_sale": "2024-05-06", "last_sale": "2024-05-06"}}, {"type": "Feature", "geometry": {"type": "Point", "coordinates": [2.86855, 48.975046]}, "properties": {"id_parcelle": "77143000AC0254", "address": "23 RUE GUILLAUME APOLLINAIRE", "sales": 2, "median_price": 313100.0, "median_price_per_sqm": 3010.576923076923, "median_rooms": 5.0, "first_sale": "2025-03-04", "last_sale": "2025-03-04"}}, {"type": "Feature", "geometry": {"type": "Point", "coordinates": [2.868635, 48.973875]}, "properties": {"id_parcelle": "77143000AC0206", "address": "39 AV HENRI DUFLOCQ", "sales": 2, "median_price": 385000.0, "median_price_per_sqm": 3208.3333333333335, "median_rooms": 3.0, "first_sale": "2021-12-28", "last_sale": "2021-12-28"}}, {"type": "Feature", "geometry": {"type": "Point", "coordinates": [2.870299, 48.975107]}, "properties": {"id_parcelle": "77143000AC0198", "address": "47 AV HENRI DUFLOCQ", "sales": 2, "median_price": 575000.0, "median_price_per_sqm": 4197.080291970803, "median_rooms": 5.0, "first_sale": "2021-06-23", "last_sale": "2021-06-23"}}, {"type": "Feature", "geometry": {"type": "Point", "coordinates": [2.86632, 48.972107]}, "properties": {"id_parcelle": "77143000AD0387", "address": "18 RUE DES HAUTES PLANTES", "sales": 2, "median_price": 430000.0, "median_price_per_sqm": 3161.764705882353, "median_rooms": 7.0, "first_sale": "2024-02-26", "last_sale": "2024-02-26"}}, {"type": "Feature", "geometry": {"type": "Point", "coordinates": [2.86599, 48.972909]}, "properties": {"id_parcelle": "77143000AD0348", "address": "135 RUE HENRI BARBUSSE", "sales": 2, "median_price": 415000.0, "median_price_per_sqm": 3217.0542635658917, "median_rooms": 6.0, "first_sale": "2022-04-22", "last_sale": "2022-04-22"}}, {"type": "Feature", "geometry": {"type": "Point", "coordinates": [2.865276, 48.973052]}, "properties": {"id_parcelle": "77143000AD0334", "address": "1 ALL DE LA TUILERIE", "sales": 2, "median_price": 440000.0, "median_price_per_sqm": 3165.4676258992804, "median_rooms": 6.0, "first_sale": "2023-09-15", "last_sale": "2023-09-15"}}, {"type": "Feature", "geometry": {"type": "Point", "coordinates": [2.864605, 48.971655]}, "properties": {"id_parcelle": "77143000AD0320", "address": "12 ALL DES BERSONNES", "sales": 2, "median_price": 380000.0, "median_price_per_sqm": 2435.897435897436, "median_rooms": 6.0, "first_sale": "2021-09-07", "last_sale": "2021-09-07"}}, {"type": "Feature", "geometry": {"type": "Point", "coordinates": [2.869825, 48.968219]}, "properties": {"id_parcelle": "77143000AD0041", "address": "LES LARRIS", "sales": 2, "median_price": 1100.0, "median_price_per_sqm": null, "median_rooms": null, "first_sale": "2022-11-17", "last_sale": "2025-06-10"}}, {"type": "Feature", "geometry": {"type": "Point", "coordinates": [2.867547, 48.972221]}, "properties": {"id_parcelle": "77143000AD0114", "address": "49 AV HENRI MAGISSON", "sales": 2, "median_price": 329000.0, "median_price_per_sqm": 2788.135593220339, "median_rooms": 1.5, "first_sale": "2023-08-03", "last_sale": "2023-08-03"}}, {"type": "Feature", "geometry": {"type": "Point", "coordinates": [2.869441, 48.969655]}, "properties": {"id_parcelle": "77143000AD0227", "address": "16 RUE DU COIN", "sales": 2, "median_price": 352000.0, "median_price_per_sqm": 3087.719298245614, "median_rooms": 3.0, "first_sale": "2024-07-24", "last_sale": "2024-07-24"}}, {"type": "Feature", "geometry": {"type": "Point", "coordinates": [2.867322, 48.972525]}, "properties": {"id_parcelle": "77143000AD0117", "address": "53 AV HENRI MAGISSON", "sales": 2, "median_price": 156000.0, "median_price_per_sqm": 4333.333333333333, "median_rooms": 1.5, "first_sale": "2024-02-12", "last_sale": "2024-02-12"}}, {"type": "Feature", "geometry": {"type": "Point", "coordinates": [2.866132, 48.970905]}, "properties": {"id_parcelle": "77143000AD0312", "address": "5 RUE DES HAUTES PLANTES", "sales": 2, "median_price": 415000.0, "median_price_per_sqm": 2626.5822784810125, "median_rooms": 6.0, "first_sale": "2024-06-27", "last_sale": "2024-06-27"}}, {"type": "Feature", "geometry": {"type": "Point", "coordinates": [2.866564, 48.970223]}, "properties": {"id_parcelle": "77143000AD0300", "address": "1 ALL DES LARRIS", "sales": 2, "median_price": 391200.0, "median_price_per_sqm": 3032.5581395348836, "median_rooms": 6.0, "first_sale": "2025-08-08", "last_sale": "2025-08-08"}}, {"type": "Feature", "geometry": {"type": "Point", "coordinates": [2.865893, 48.971252]}, "properties": {"id_parcelle": "77143000AD0314", "address": "9 RUE DES HAUTES PLANTES", "sales": 2, "median_price": 362000.0, "median_price_per_sqm": 2784.6153846153848, "median_rooms": 6.0, "first_sale": "2022-03-28", "last_sale": "2022-03-28"}}, {"type": "Feature", "geometry": {"type": "Point", "coordinates": [2.864782, 48.971172]}, "properties": {"id_parcelle": "77143000AD0318", "address": "9 ALL DES BERSONNES", "sales": 2, "median_price": 325000.0, "median_price_per_sqm": 3611.1111111111113, "median_rooms": 5.0, "first_sale": "2025-04-24", "last_sale": "2025-04-24"}}, {"type": "Feature", "geometry": {"type": "Point", "coordinates": [2.865363, 48.975061]}, "properties": {"id_parcelle": "77143000AC0596", "address": "AV HENRI MAGISSON", "sales": 2, "median_price": 215800.0, "median_price_per_sqm": 3596.6666666666665, "median_rooms": 3.0, "first_sale": "2021-03-05", "last_sale": "2021-03-05"}}, {"type": "Feature", "geometry": {"type": "Point", "coordinates": [2.866472, 48.975195]}, "properties": {"id_parcelle": "77143000AC0557", "address": "56 AV HENRI MAGISSON", "sales": 2, "median_price": 376000.0, "median_price_per_sqm": 1880.0, "median_rooms": 6.0, "first_sale": "2023-11-17", "last_sale": "2023-11-17"}}, {"type": "Feature", "geometry": {"type": "Point", "coordinates": [2.869751, 48.963526]}, "properties": {"id_parcelle": "77143000AE0106", "address": "8 RUE HENRI BARBUSSE", "sales": 2, "median_price": 169500.0, "median_price_per_sqm": 4237.5, "median_rooms": 1.0, "first_sale": "2023-03-24", "last_sale": "2023-03-24"}}, {"type": "Feature", "geometry": {"type": "Point", "coordinates": [2.86951, 48.965051]}, "properties": {"id_parcelle": "77143000AE0101", "address": "24 RUE HENRI BARBUSSE", "sales": 2, "median_price": 250000.0, "median_price_per_sqm": 2659.574468085106, "median_rooms": 2.5, "first_sale": "2022-11-17", "last_sale": "2022-11-17"}}, {"type": "Feature", "geometry": {"type": "Point", "coordinates": [2.868895, 48.96583]}, "properties": {"id_parcelle": "77143000AE0042", "address": "63 RUE HENRI BARBUSSE", "sales": 2, "median_price": 405000.0, "median_price_per_sqm": 3894.230769230769, "median_rooms": 4.0, "first_sale": "2022-10-14", "last_sale": "2022-10-14"}}, {"type": "Feature", "geometry": {"type": "Point", "coordinates": [2.869934, 48.961906]}, "properties": {"id_parcelle": "77143000AE0011", "address": "23 RUE HENRI BARBUSSE", "sales": 2, "median_price": 255000.0, "median_price_per_sqm": 1917.2932330827068, "median_rooms": 3.0, "first_sale": "2024-03-15", "last_sale": "2024-03-15"}}, {"type": "Feature", "geometry": {"type": "Point", "coordinates": [2.867038, 48.973144]}, "properties": {"id_parcelle": "77143000AD0647", "address": "59 AV HENRI MAGISSON", "sales": 2, "median_price": 105000.0, "median_price_per_sqm": null, "median_rooms": 0.0, "first_sale": "2023-01-19", "last_sale": "2023-01-19"}}, {"type": "Feature", "geometry": {"type": "Point", "coordinates": [2.868798, 48.970012]}, "properties": {"id_parcelle": "77143000AD0689", "address": "64 RUE HENRI BARBUSSE", "sales": 2, "median_price": 200000.0, "median_price_per_sqm": 3448.2758620689656, "median_rooms": 1.5, "first_sale": "2022-06-24", "last_sale": "2022-06-24"}}, {"type": "Feature", "geometry": {"type": "Point", "coordinates": [2.868601, 48.971744]}, "properties": {"id_parcelle": "77143000AD0597", "address": "10 AV HENRI MAGISSON", "sales": 2, "median_price": 320000.0, "median_price_per_sqm": 2519.685039370079, "median_rooms": 3.0, "first_sale": "2024-09-05", "last_sale": "2024-09-05"}}, {"type": "Feature", "geometry": {"type": "Point", "coordinates": [2.86949, 48.97312]}, "properties": {"id_parcelle": "77143000AD0556", "address": "3 IMP DE LA PLATRIERE", "sales": 2, "median_price": 379500.0, "median_price_per_sqm": 3388.3928571428573, "median_rooms": 6.0, "first_sale": "2021-08-11", "last_sale": "2021-08-11"}}, {"type": "Feature", "geometry": {"type": "Point", "coordinates": [2.86701, 48.9707]}, "properties": {"id_parcelle": "77143000AD0367", "address": "4 RUE DES HAUTES PLANTES", "sales": 2, "median_price": 359000.0, "median_price_per_sqm": 4079.5454545454545, "median_rooms": 4.0, "first_sale": "2022-11-09", "last_sale": "2022-11-09"}}, {"type": "Feature", "geometry": {"type": "Point", "coordinates": [2.867744, 48.971814]}, "properties": {"id_parcelle": "77143000AD0530", "address": "37 AV HENRI MAGISSON", "sales": 2, "median_price": 250000.0, "median_price_per_sqm": 2551.0204081632655, "median_rooms": 2.0, "first_sale": "2025-11-12", "last_sale": "2025-11-12"}}, {"type": "Feature", "geometry": {"type": "Point", "coordinates": [2.869895, 48.970907]}, "properties": {"id_parcelle": "77143000AD0512", "address": "1 AV HENRI DUFLOCQ", "sales": 2, "median_price": 258000.0, "median_price_per_sqm": 1842.857142857143, "median_rooms": 3.5, "first_sale": "2024-03-22", "last_sale": "2024-03-22"}}, {"type": "Feature", "geometry": {"type": "Point", "coordinates": [2.867807, 48.968721]}, "properties": {"id_parcelle": "77143000AD0393", "address": "1 ALL DE LA ROSERAIE", "sales": 2, "median_price": 350750.0, "median_price_per_sqm": 2875.0, "median_rooms": 4.0, "first_sale": "2025-07-25", "last_sale": "2025-07-25"}}, {"type": "Feature", "geometry": {"type": "Point", "coordinates": [2.867484, 48.965868]}, "properties": {"id_parcelle": "77143000AE0398", "address": "89 RUE DE LA FONTAINE SARRAZIN", "sales": 2, "median_price": 315430.0, "median_price_per_sqm": 3942.875, "median_rooms": 2.0, "first_sale": "2022-07-21", "last_sale": "2022-07-21"}}, {"type": "Feature", "geometry": {"type": "Point", "coordinates": [2.868227, 48.967079]}, "properties": {"id_parcelle": "77143000AE0430", "address": "73 RUE HENRI BARBUSSE", "sales": 2, "median_price": 450600.0, "median_price_per_sqm": 2176.8115942028985, "median_rooms": 6.0, "first_sale": "2024-11-20", "last_sale": "2024-11-20"}}, {"type": "Feature", "geometry": {"type": "Point", "coordinates": [2.869937, 48.961747]}, "properties": {"id_parcelle": "77143000AE0221", "address": "19 RUE HENRI BARBUSSE", "sales": 2, "median_price": 62000.0, "median_price_per_sqm": 3444.4444444444443, "median_rooms": 0.5, "first_sale": "2022-02-04", "last_sale": "2022-02-04"}}, {"type": "Feature", "geometry": {"type": "Point", "coordinates": [2.866595, 48.968228]}, "properties": {"id_parcelle": "77143000AE0234", "address": "7 RUE ERIC TABARLY", "sales": 2, "median_price": 327200.0, "median_price_per_sqm": 3408.3333333333335, "median_rooms": 2.5, "first_sale": "2023-11-24", "last_sale": "2023-11-24"}}, {"type": "Feature", "geometry": {"type": "Point", "coordinates": [2.869002, 48.978239]}, "properties": {"id_parcelle": "77143000AH0172", "address": "1 RUE D ARGINESTI", "sales": 2, "median_price": 327000.0, "median_price_per_sqm": 4360.0, "median_rooms": 1.5, "first_sale": "2023-03-24", "last_sale": "2023-03-24"}}, {"type": "Feature", "geometry": {"type": "Point", "coordinates": [2.867811, 48.97711]}, "properties": {"id_parcelle": "77143000AH0166", "address": "4 RUE DE L ILE DE BEAUTE", "sales": 2, "median_price": 92320.63, "median_price_per_sqm": 1086.1250588235296, "median_rooms": 1.5, "first_sale": "2021-07-15", "last_sale": "2021-07-15"}}, {"type": "Feature", "geometry": {"type": "Point", "coordinates": [2.867418, 48.978125]}, "properties": {"id_parcelle": "77143000AH0129", "address": "18 RUE DE FLORE", "sales": 2, "median_price": 287641.0, "median_price_per_sqm": 2935.112244897959, "median_rooms": 2.0, "first_sale": "2022-07-29", "last_sale": "2022-07-29"}}, {"type": "Feature", "geometry": {"type": "Point", "coordinates": [2.866188, 48.977574]}, "properties": {"id_parcelle": "77143000AH0115", "address": "40 RUE DE FLORE", "sales": 2, "median_price": 275525.0, "median_price_per_sqm": 2504.7727272727275, "median_rooms": 2.5, "first_sale": "2025-08-12", "last_sale": "2025-08-12"}}, {"type": "Feature", "geometry": {"type": "Point", "coordinates": [2.86894, 48.979314]}, "properties": {"id_parcelle": "77143000AH0029", "address": "33 RUE DE GORKHA", "sales": 2, "median_price": 182000.0, "median_price_per_sqm": 1716.9811320754718, "median_rooms": 2.0, "first_sale": "2025-10-03", "last_sale": "2025-10-03"}}, {"type": "Feature", "geometry": {"type": "Point", "coordinates": [2.869912, 48.978837]}, "properties": {"id_parcelle": "77143000AH0065", "address": "30 RUE DE GORKHA", "sales": 2, "median_price": 365000.0, "median_price_per_sqm": 2991.8032786885246, "median_rooms": 7.0, "first_sale": "2021-07-21", "last_sale": "2021-07-21"}}, {"type": "Feature", "geometry": {"type": "Point", "coordinates": [2.868613, 48.967526]}, "properties": {"id_parcelle": "77143000AE0444", "address": "83 RUE HENRI BARBUSSE", "sales": 2, "median_price": 299000.0, "median_price_per_sqm": 2491.6666666666665, "median_rooms": 2.5, "first_sale": "2023-03-15", "last_sale": "2023-03-15"}}, {"type": "Feature", "geometry": {"type": "Point", "coordinates": [2.86877, 48.97927]}, "properties": {"id_parcelle": "77143000AH0028", "address": "31 RUE DE GORKHA", "sales": 2, "median_price": 270000.0, "median_price_per_sqm": 2727.2727272727275, "median_rooms": 5.0, "first_sale": "2022-10-11", "last_sale": "2022-10-11"}}, {"type": "Feature", "geometry": {"type": "Point", "coordinates": [2.872593, 48.979216]}, "properties": {"id_parcelle": "77143000AI0082", "address": "16 RUE ANTONIO VIVALDI", "sales": 2, "median_price": 140800.0, "median_price_per_sqm": 2656.603773584906, "median_rooms": 1.5, "first_sale": "2024-02-20", "last_sale": "2024-02-20"}}, {"type": "Feature", "geometry": {"type": "Point", "coordinates": [2.87168, 48.979163]}, "properties": {"id_parcelle": "77143000AI0078", "address": "8 RUE ANTONIO VIVALDI", "sales": 2, "median_price": 358000.0, "median_price_per_sqm": 2732.8244274809163, "median_rooms": 3.0, "first_sale": "2023-10-18", "last_sale": "2023-10-18"}}, {"type": "Feature", "geometry": {"type": "Point", "coordinates": [2.871129, 48.979899]}, "properties": {"id_parcelle": "77143000AI0189", "address": "17 RUE MAURICE RAVEL", "sales": 2, "median_price": 335000.0, "median_price_per_sqm": 3850.574712643678, "median_rooms": 2.5, "first_sale": "2023-05-22", "last_sale": "2023-05-22"}}, {"type": "Feature", "geometry": {"type": "Point", "coordinates": [2.879466, 48.981046]}, "properties": {"id_parcelle": "77143000ZA0005", "address": "LES LONGUES RAIES", "sales": 2, "median_price": 46800.0, "median_price_per_sqm": null, "median_rooms": null, "first_sale": "2021-05-17", "last_sale": "2021-05-17"}}, {"type": "Feature", "geometry": {"type": "Point", "coordinates": [2.871668, 48.980495]}, "properties": {"id_parcelle": "77143000ZB0010", "address": "LES MARCHOIS", "sales": 2, "median_price": 6000.0, "median_price_per_sqm": null, "median_rooms": null, "first_sale": "2024-01-29", "last_sale": "2024-01-29"}}, {"type": "Feature", "geometry": {"type": "Point", "coordinates": [2.888981, 48.983304]}, "properties": {"id_parcelle": "77143000ZA0122", "address": "L ARCHET", "sales": 2, "median_price": 485762.0, "median_price_per_sqm": null, "median_rooms": null, "first_sale": "2021-03-03", "last_sale": "2021-03-03"}}, {"type": "Feature", "geometry": {"type": "Point", "coordinates": [2.862278, 48.973524]}, "properties": {"id_parcelle": "77143000ZC0043", "address": "1 CHE DE MEAUX", "sales": 2, "median_price": 243000.0, "median_price_per_sqm": 3197.3684210526317, "median_rooms": 2.0, "first_sale": "2025-02-14", "last_sale": "2025-02-14"}}, {"type": "Feature", "geometry": {"type": "Point", "coordinates": [2.862353, 48.972552]}, "properties": {"id_parcelle": "77143000ZC0048", "address": "6 CHE DE MEAUX", "sales": 2, "median_price": 155000.0, "median_price_per_sqm": 1987.179487179487, "median_rooms": 3.0, "first_sale": "2023-04-28", "last_sale": "2023-04-28"}}]}