{"type": "FeatureCollection", "features": [{"type": "Feature", "geometry": {"type": "Point", "coordinates": [2.8386835, 48.975932]}, "properties": {"street_name": "GR GRANDE RUE", "sales": 54, "sales_appt": 3, "sales_maison": 16, "median_price": 238000.0, "median_price_per_sqm": 3120.885714285714, "turnover_score": 100.0, "turnover_rank": 1, "first_year": 2021, "last_year": 2025, "years_active": 5}}, {"type": "Feature", "geometry": {"type": "Point", "coordinates": [2.839337, 48.972746]}, "properties": {"street_name": "RUE CHARLES PEGUY", "sales": 31, "sales_appt": 10, "sales_maison": 2, "median_price": 175000.0, "median_price_per_sqm": 3278.030303030303, "turnover_score": 57.4, "turnover_rank": 2, "first_year": 2021, "last_year": 2025, "years_active": 5}}, {"type": "Feature", "geometry": {"type": "Point", "coordinates": [2.841592, 48.977209]}, "properties": {"street_name": "RUE ST BARTHELEMY", "sales": 31, "sales_appt": 0, "sales_maison": 8, "median_price": 1965.0, "median_price_per_sqm": 3619.325842696629, "turnover_score": 57.4, "turnover_rank": 2, "first_year": 2021, "last_year": 2024, "years_active": 4}}, {"type": "Feature", "geometry": {"type": "Point", "coordinates": [2.8367, 48.973002]}, "properties": {"street_name": "RUE PIERRE CHARTON", "sales": 30, "sales_appt": 0, "sales_maison": 10, "median_price": 220000.0, "median_price_per_sqm": 3215.986394557823, "turnover_score": 55.6, "turnover_rank": 3, "first_year": 2021, "last_year": 2025, "years_active": 5}}, {"type": "Feature", "geometry": {"type": "Point", "coordinates": [2.844238, 48.965559]}, "properties": {"street_name": "RUE FRANCOIS DARU", "sales": 28, "sales_appt": 0, "sales_maison": 10, "median_price": 220000.0, "median_price_per_sqm": 2766.4728682170544, "turnover_score": 51.9, "turnover_rank": 4, "first_year": 2021, "last_year": 2025, "years_active": 5}}, {"type": "Feature", "geometry": {"type": "Point", "coordinates": [2.842686, 48.978257]}, "properties": {"street_name": "RUE DESOYER", "sales": 24, "sales_appt": 4, "sales_maison": 2, "median_price": 224000.0, "median_price_per_sqm": 3854.939668174962, "turnover_score": 44.4, "turnover_rank": 5, "first_year": 2021, "last_year": 2025, "years_active": 5}}, {"type": "Feature", "geometry": {"type": "Point", "coordinates": [2.841695, 48.981363]}, "properties": {"street_name": "RUE GEORGES FRISEZ", "sales": 23, "sales_appt": 0, "sales_maison": 8, "median_price": 230000.0, "median_price_per_sqm": 2378.640776699029, "turnover_score": 42.6, "turnover_rank": 6, "first_year": 2021, "last_year": 2025, "years_active": 5}}, {"type": "Feature", "geometry": {"type": "Point", "coordinates": [2.841322, 48.9771385]}, "properties": {"street_name": "NEUFMONTIERS", "sales": 20, "sales_appt": 0, "sales_maison": 0, "median_price": 200000.0, "median_price_per_sqm": null, "turnover_score": 37.0, "turnover_rank": 7, "first_year": 2021, "last_year": 2025, "years_active": 5}}, {"type": "Feature", "geometry": {"type": "Point", "coordinates": [2.838804, 48.975554]}, "properties": {"street_name": "GRANDE RUE", "sales": 18, "sales_appt": 2, "sales_maison": 2, "median_price": 205000.0, "median_price_per_sqm": 3105.4448225571223, "turnover_score": 33.3, "turnover_rank": 8, "first_year": 2025, "last_year": 2025, "years_active": 1}}, {"type": "Feature", "geometry": {"type": "Point", "coordinates": [2.840831, 48.974229]}, "properties": {"street_name": "ALL DE LA COURTILLE", "sales": 17, "sales_appt": 0, "sales_maison": 7, "median_price": 277000.0, "median_price_per_sqm": 3427.7, "turnover_score": 31.5, "turnover_rank": 9, "first_year": 2021, "last_year": 2025, "years_active": 5}}, {"type": "Feature", "geometry": {"type": "Point", "coordinates": [2.842023, 48.98313]}, "properties": {"street_name": "CHE DE MONTASSIS", "sales": 16, "sales_appt": 0, "sales_maison": 3, "median_price": 228500.0, "median_price_per_sqm": 2296.435272045028, "turnover_score": 29.6, "turnover_rank": 10, "first_year": 2021, "last_year": 2025, "years_active": 4}}, {"type": "Feature", "geometry": {"type": "Point", "coordinates": [2.836136, 48.970689]}, "properties": {"street_name": "RUE DU VIVIER", "sales": 13, "sales_appt": 0, "sales_maison": 9, "median_price": 326600.0, "median_price_per_sqm": 3102.0, "turnover_score": 24.1, "turnover_rank": 11, "first_year": 2021, "last_year": 2025, "years_active": 5}}, {"type": "Feature", "geometry": {"type": "Point", "coordinates": [2.840049, 48.9674355]}, "properties": {"street_name": "RUE LUCIEN ROOS", "sales": 10, "sales_appt": 0, "sales_maison": 5, "median_price": 288000.0, "median_price_per_sqm": 4250.0, "turnover_score": 18.5, "turnover_rank": 12, "first_year": 2023, "last_year": 2025, "years_active": 2}}, {"type": "Feature", "geometry": {"type": "Point", "coordinates": [2.845084, 48.967373]}, "properties": {"street_name": "RUE DES JARDINS", "sales": 9, "sales_appt": 0, "sales_maison": 6, "median_price": 318000.0, "median_price_per_sqm": 3497.5247524752476, "turnover_score": 16.7, "turnover_rank": 13, "first_year": 2021, "last_year": 2025, "years_active": 3}}, {"type": "Feature", "geometry": {"type": "Point", "coordinates": [2.842308, 48.981401]}, "properties": {"street_name": "RUE D OZIERES", "sales": 9, "sales_appt": 0, "sales_maison": 3, "median_price": 409000.0, "median_price_per_sqm": 2638.7096774193546, "turnover_score": 16.7, "turnover_rank": 13, "first_year": 2022, "last_year": 2024, "years_active": 2}}, {"type": "Feature", "geometry": {"type": "Point", "coordinates": [2.8382515, 48.970825]}, "properties": {"street_name": "ALL DE L EPINETTE", "sales": 8, "sales_appt": 0, "sales_maison": 8, "median_price": 338950.0, "median_price_per_sqm": 3000.0, "turnover_score": 14.8, "turnover_rank": 14, "first_year": 2021, "last_year": 2025, "years_active": 4}}, {"type": "Feature", "geometry": {"type": "Point", "coordinates": [2.840778, 48.975688]}, "properties": {"street_name": "RUE DE LA CHANTONNE", "sales": 7, "sales_appt": 0, "sales_maison": 3, "median_price": 260000.0, "median_price_per_sqm": 2524.2718446601943, "turnover_score": 13.0, "turnover_rank": 15, "first_year": 2022, "last_year": 2025, "years_active": 3}}, {"type": "Feature", "geometry": {"type": "Point", "coordinates": [2.841988, 48.975493]}, "properties": {"street_name": "ALL NIVOSE", "sales": 7, "sales_appt": 0, "sales_maison": 2, "median_price": 285000.0, "median_price_per_sqm": 2991.40625, "turnover_score": 13.0, "turnover_rank": 15, "first_year": 2021, "last_year": 2024, "years_active": 3}}, {"type": "Feature", "geometry": {"type": "Point", "coordinates": [2.840078, 48.981167]}, "properties": {"street_name": "RUE DE LA CROISEE", "sales": 7, "sales_appt": 0, "sales_maison": 7, "median_price": 335000.0, "median_price_per_sqm": 3086.9565217391305, "turnover_score": 13.0, "turnover_rank": 15, "first_year": 2021, "last_year": 2025, "years_active": 3}}, {"type": "Feature", "geometry": {"type": "Point", "coordinates": [2.841313, 48.981718]}, "properties": {"street_name": "SEN DE LA LOGE", "sales": 6, "sales_appt": 0, "sales_maison": 4, "median_price": 367000.0, "median_price_per_sqm": 2596.8531468531464, "turnover_score": 11.1, "turnover_rank": 16, "first_year": 2021, "last_year": 2021, "years_active": 1}}, {"type": "Feature", "geometry": {"type": "Point", "coordinates": [2.8411795, 48.9735425]}, "properties": {"street_name": "ALL MARIANNE", "sales": 6, "sales_appt": 0, "sales_maison": 0, "median_price": 1.0, "median_price_per_sqm": null, "turnover_score": 11.1, "turnover_rank": 16, "first_year": 2021, "last_year": 2021, "years_active": 1}}, {"type": "Feature", "geometry": {"type": "Point", "coordinates": [2.8385865, 48.969526]}, "properties": {"street_name": "RUE DU COTEAU", "sales": 6, "sales_appt": 0, "sales_maison": 5, "median_price": 316500.0, "median_price_per_sqm": 4571.428571428572, "turnover_score": 11.1, "turnover_rank": 16, "first_year": 2021, "last_year": 2025, "years_active": 4}}, {"type": "Feature", "geometry": {"type": "Point", "coordinates": [2.842899, 48.977714500000005]}, "properties": {"street_name": "ALL GERMINAL", "sales": 6, "sales_appt": 0, "sales_maison": 0, "median_price": 77407.5, "median_price_per_sqm": null, "turnover_score": 11.1, "turnover_rank": 16, "first_year": 2021, "last_year": 2023, "years_active": 3}}, {"type": "Feature", "geometry": {"type": "Point", "coordinates": [2.835327, 48.971679]}, "properties": {"street_name": "ALL DES TREMBLES", "sales": 5, "sales_appt": 0, "sales_maison": 4, "median_price": 270000.0, "median_price_per_sqm": 2973.809523809524, "turnover_score": 9.3, "turnover_rank": 17, "first_year": 2022, "last_year": 2025, "years_active": 3}}, {"type": "Feature", "geometry": {"type": "Point", "coordinates": [2.84322, 48.976914]}, "properties": {"street_name": "ALL FRUCTIDOR", "sales": 5, "sales_appt": 0, "sales_maison": 0, "median_price": 1.0, "median_price_per_sqm": null, "turnover_score": 9.3, "turnover_rank": 17, "first_year": 2021, "last_year": 2023, "years_active": 2}}, {"type": "Feature", "geometry": {"type": "Point", "coordinates": [2.8417765, 48.979082]}, "properties": {"street_name": "RUE DE L ERMITAGE", "sales": 4, "sales_appt": 0, "sales_maison": 1, "median_price": 157500.0, "median_price_per_sqm": 3352.2727272727275, "turnover_score": 7.4, "turnover_rank": 18, "first_year": 2023, "last_year": 2024, "years_active": 2}}, {"type": "Feature", "geometry": {"type": "Point", "coordinates": [2.84148, 48.975746]}, "properties": {"street_name": "ALL VENDEMIAIRE", "sales": 4, "sales_appt": 0, "sales_maison": 4, "median_price": 362250.0, "median_price_per_sqm": 3716.5841584158416, "turnover_score": 7.4, "turnover_rank": 18, "first_year": 2022, "last_year": 2023, "years_active": 2}}, {"type": "Feature", "geometry": {"type": "Point", "coordinates": [2.8410275, 48.9737975]}, "properties": {"street_name": "ALL PRAIRIAL", "sales": 4, "sales_appt": 0, "sales_maison": 0, "median_price": 1.0, "median_price_per_sqm": null, "turnover_score": 7.4, "turnover_rank": 18, "first_year": 2021, "last_year": 2021, "years_active": 1}}, {"type": "Feature", "geometry": {"type": "Point", "coordinates": [2.84276, 48.9669605]}, "properties": {"street_name": "RUE LUCIEN RAOULT", "sales": 4, "sales_appt": 0, "sales_maison": 2, "median_price": 193749.41499999998, "median_price_per_sqm": 2277.432524390244, "turnover_score": 7.4, "turnover_rank": 18, "first_year": 2024, "last_year": 2024, "years_active": 1}}, {"type": "Feature", "geometry": {"type": "Point", "coordinates": [2.844468, 48.960251]}, "properties": {"street_name": "DERRIERE LA FERME DU PRE", "sales": 3, "sales_appt": 0, "sales_maison": 0, "median_price": 100000.0, "median_price_per_sqm": null, "turnover_score": 5.6, "turnover_rank": 19, "first_year": 2024, "last_year": 2024, "years_active": 1}}, {"type": "Feature", "geometry": {"type": "Point", "coordinates": [2.84139, 48.982501]}, "properties": {"street_name": "IMP DES PRETRESSES", "sales": 3, "sales_appt": 0, "sales_maison": 2, "median_price": 389000.0, "median_price_per_sqm": 2431.25, "turnover_score": 5.6, "turnover_rank": 19, "first_year": 2022, "last_year": 2022, "years_active": 1}}, {"type": "Feature", "geometry": {"type": "Point", "coordinates": [2.829216, 48.97711]}, "properties": {"street_name": "AU-DESSUS DU PARC", "sales": 3, "sales_appt": 0, "sales_maison": 0, "median_price": 185756.0, "median_price_per_sqm": null, "turnover_score": 5.6, "turnover_rank": 19, "first_year": 2025, "last_year": 2025, "years_active": 1}}, {"type": "Feature", "geometry": {"type": "Point", "coordinates": [2.838649, 48.973302]}, "properties": {"street_name": "IMP DE LA GRAND COUR", "sales": 3, "sales_appt": 0, "sales_maison": 2, "median_price": 330000.0, "median_price_per_sqm": 2430.6521739130435, "turnover_score": 5.6, "turnover_rank": 19, "first_year": 2021, "last_year": 2023, "years_active": 2}}, {"type": "Feature", "geometry": {"type": "Point", "coordinates": [2.832522, 48.975087]}, "properties": {"street_name": "LE PRESBYTERE", "sales": 3, "sales_appt": 0, "sales_maison": 0, "median_price": 185756.0, "median_price_per_sqm": null, "turnover_score": 5.6, "turnover_rank": 19, "first_year": 2025, "last_year": 2025, "years_active": 1}}, {"type": "Feature", "geometry": {"type": "Point", "coordinates": [2.860038, 48.955436]}, "properties": {"street_name": "RUE IRENE JOLIOT CURIE", "sales": 3, "sales_appt": 0, "sales_maison": 0, "median_price": 37729976.0, "median_price_per_sqm": 5024.633905979491, "turnover_score": 5.6, "turnover_rank": 19, "first_year": 2022, "last_year": 2022, "years_active": 1}}, {"type": "Feature", "geometry": {"type": "Point", "coordinates": [2.831491, 48.987312]}, "properties": {"street_name": "LA LANDIERE", "sales": 2, "sales_appt": 0, "sales_maison": 0, "median_price": 38000.0, "median_price_per_sqm": null, "turnover_score": 3.7, "turnover_rank": 20, "first_year": 2021, "last_year": 2021, "years_active": 1}}, {"type": "Feature", "geometry": {"type": "Point", "coordinates": [2.838128, 48.969783]}, "properties": {"street_name": "RUE DES PEUPLIERS", "sales": 2, "sales_appt": 0, "sales_maison": 2, "median_price": 332500.0, "median_price_per_sqm": 3694.4444444444443, "turnover_score": 3.7, "turnover_rank": 20, "first_year": 2022, "last_year": 2022, "years_active": 1}}, {"type": "Feature", "geometry": {"type": "Point", "coordinates": [2.8642244999999997, 48.9600025]}, "properties": {"street_name": "LE BASSINET", "sales": 2, "sales_appt": 0, "sales_maison": 0, "median_price": 136888.0, "median_price_per_sqm": null, "turnover_score": 3.7, "turnover_rank": 20, "first_year": 2021, "last_year": 2023, "years_active": 2}}, {"type": "Feature", "geometry": {"type": "Point", "coordinates": [2.831098, 48.973627]}, "properties": {"street_name": "LE PREMIER ETANG", "sales": 2, "sales_appt": 0, "sales_maison": 0, "median_price": 12209.125, "median_price_per_sqm": null, "turnover_score": 3.7, "turnover_rank": 20, "first_year": 2023, "last_year": 2023, "years_active": 1}}, {"type": "Feature", "geometry": {"type": "Point", "coordinates": [2.816121, 48.975871]}, "properties": {"street_name": "L ORME BABOUT", "sales": 2, "sales_appt": 0, "sales_maison": 0, "median_price": 38000.0, "median_price_per_sqm": null, "turnover_score": 3.7, "turnover_rank": 20, "first_year": 2021, "last_year": 2021, "years_active": 1}}, {"type": "Feature", "geometry": {"type": "Point", "coordinates": [2.8433425, 48.966511499999996]}, "properties": {"street_name": "ALL LE CLOS MAURICE", "sales": 2, "sales_appt": 0, "sales_maison": 1, "median_price": 396900.0, "median_price_per_sqm": 3226.829268292683, "turnover_score": 3.7, "turnover_rank": 20, "first_year": 2024, "last_year": 2024, "years_active": 1}}, {"type": "Feature", "geometry": {"type": "Point", "coordinates": [2.839356, 48.970034]}, "properties": {"street_name": "IMP DES ACACIAS", "sales": 2, "sales_appt": 0, "sales_maison": 1, "median_price": 280000.0, "median_price_per_sqm": 3111.1111111111113, "turnover_score": 3.7, "turnover_rank": 20, "first_year": 2021, "last_year": 2021, "years_active": 1}}, {"type": "Feature", "geometry": {"type": "Point", "coordinates": [2.844881, 48.960541]}, "properties": {"street_name": "CHE DU PONT DE LA PLANCHE", "sales": 2, "sales_appt": 0, "sales_maison": 1, "median_price": 100000.0, "median_price_per_sqm": 807.6923076923076, "turnover_score": 3.7, "turnover_rank": 20, "first_year": 2024, "last_year": 2024, "years_active": 1}}, {"type": "Feature", "geometry": {"type": "Point", "coordinates": [2.8422345, 48.9790685]}, "properties": {"street_name": "ALL DU PRE DE LA MARE", "sales": 2, "sales_appt": 0, "sales_maison": 1, "median_price": 211235.0, "median_price_per_sqm": 2469.1411042944787, "turnover_score": 3.7, "turnover_rank": 20, "first_year": 2023, "last_year": 2024, "years_active": 2}}, {"type": "Feature", "geometry": {"type": "Point", "coordinates": [2.843422, 48.977244999999996]}, "properties": {"street_name": "ALL FRIMAIRE", "sales": 2, "sales_appt": 0, "sales_maison": 0, "median_price": 64500.5, "median_price_per_sqm": null, "turnover_score": 3.7, "turnover_rank": 20, "first_year": 2022, "last_year": 2023, "years_active": 2}}, {"type": "Feature", "geometry": {"type": "Point", "coordinates": [2.839828, 48.974905]}, "properties": {"street_name": "ALL DE LA LANDIERE", "sales": 1, "sales_appt": 0, "sales_maison": 1, "median_price": 343040.0, "median_price_per_sqm": 3573.3333333333335, "turnover_score": 1.9, "turnover_rank": 21, "first_year": 2023, "last_year": 2023, "years_active": 1}}, {"type": "Feature", "geometry": {"type": "Point", "coordinates": [2.837434, 48.971541]}, "properties": {"street_name": "ALL DE L ORMELET", "sales": 1, "sales_appt": 0, "sales_maison": 1, "median_price": 358000.0, "median_price_per_sqm": 2691.7293233082705, "turnover_score": 1.9, "turnover_rank": 21, "first_year": 2023, "last_year": 2023, "years_active": 1}}, {"type": "Feature", "geometry": {"type": "Point", "coordinates": [2.843086, 48.975294]}, "properties": {"street_name": "ALL MESSIDOR", "sales": 1, "sales_appt": 0, "sales_maison": 1, "median_price": 315000.0, "median_price_per_sqm": 3058.252427184466, "turnover_score": 1.9, "turnover_rank": 21, "first_year": 2022, "last_year": 2022, "years_active": 1}}, {"type": "Feature", "geometry": {"type": "Point", "coordinates": [2.861622, 48.962013]}, "properties": {"street_name": "LA FEMME PENDUE", "sales": 1, "sales_appt": 0, "sales_maison": 0, "median_price": 107971.2, "median_price_per_sqm": null, "turnover_score": 1.9, "turnover_rank": 21, "first_year": 2023, "last_year": 2023, "years_active": 1}}, {"type": "Feature", "geometry": {"type": "Point", "coordinates": [2.860822, 48.962284]}, "properties": {"street_name": "LA COUTURE AU LARD", "sales": 1, "sales_appt": 0, "sales_maison": 0, "median_price": 1165274.6, "median_price_per_sqm": null, "turnover_score": 1.9, "turnover_rank": 21, "first_year": 2023, "last_year": 2023, "years_active": 1}}, {"type": "Feature", "geometry": {"type": "Point", "coordinates": [2.85784, 48.97644]}, "properties": {"street_name": "L ORMELET", "sales": 1, "sales_appt": 0, "sales_maison": 0, "median_price": 16500.0, "median_price_per_sqm": null, "turnover_score": 1.9, "turnover_rank": 21, "first_year": 2025, "last_year": 2025, "years_active": 1}}, {"type": "Feature", "geometry": {"type": "Point", "coordinates": [2.834717, 48.972677]}, "properties": {"street_name": "IMP DU LAVOIR", "sales": 1, "sales_appt": 0, "sales_maison": 1, "median_price": 370000.0, "median_price_per_sqm": 3303.5714285714284, "turnover_score": 1.9, "turnover_rank": 21, "first_year": 2022, "last_year": 2022, "years_active": 1}}, {"type": "Feature", "geometry": {"type": "Point", "coordinates": [2.842839, 48.978956]}, "properties": {"street_name": "IMP DES COQUELICOTS", "sales": 1, "sales_appt": 0, "sales_maison": 1, "median_price": 427400.0, "median_price_per_sqm": 3392.063492063492, "turnover_score": 1.9, "turnover_rank": 21, "first_year": 2021, "last_year": 2021, "years_active": 1}}, {"type": "Feature", "geometry": {"type": "Point", "coordinates": [2.83902, 48.968636]}, "properties": {"street_name": "IMP DES ORMES", "sales": 1, "sales_appt": 0, "sales_maison": 1, "median_price": 350000.0, "median_price_per_sqm": 2692.3076923076924, "turnover_score": 1.9, "turnover_rank": 21, "first_year": 2024, "last_year": 2024, "years_active": 1}}, {"type": "Feature", "geometry": {"type": "Point", "coordinates": [2.844934, 48.965552]}, "properties": {"street_name": "CHAUCONIN", "sales": 1, "sales_appt": 0, "sales_maison": 0, "median_price": 220000.0, "median_price_per_sqm": null, "turnover_score": 1.9, "turnover_rank": 21, "first_year": 2025, "last_year": 2025, "years_active": 1}}, {"type": "Feature", "geometry": {"type": "Point", "coordinates": [2.843176, 48.976042]}, "properties": {"street_name": "LE CHIEN DARDEZ", "sales": 1, "sales_appt": 0, "sales_maison": 1, "median_price": 334000.0, "median_price_per_sqm": 3274.5098039215686, "turnover_score": 1.9, "turnover_rank": 21, "first_year": 2021, "last_year": 2021, "years_active": 1}}, {"type": "Feature", "geometry": {"type": "Point", "coordinates": [2.829465, 48.969416]}, "properties": {"street_name": "LES RUAUX", "sales": 1, "sales_appt": 0, "sales_maison": 0, "median_price": 14418.25, "median_price_per_sqm": null, "turnover_score": 1.9, "turnover_rank": 21, "first_year": 2023, "last_year": 2023, "years_active": 1}}, {"type": "Feature", "geometry": {"type": "Point", "coordinates": [2.84333, 48.978269]}, "properties": {"street_name": "RTE DE VARREDDES", "sales": 1, "sales_appt": 0, "sales_maison": 1, "median_price": 300000.0, "median_price_per_sqm": 3333.3333333333335, "turnover_score": 1.9, "turnover_rank": 21, "first_year": 2023, "last_year": 2023, "years_active": 1}}, {"type": "Feature", "geometry": {"type": "Point", "coordinates": [2.822003, 48.976671]}, "properties": {"street_name": "LES ETANGS", "sales": 1, "sales_appt": 0, "sales_maison": 0, "median_price": 185756.0, "median_price_per_sqm": null, "turnover_score": 1.9, "turnover_rank": 21, "first_year": 2025, "last_year": 2025, "years_active": 1}}, {"type": "Feature", "geometry": {"type": "Point", "coordinates": [2.841692, 48.983217]}, "properties": {"street_name": "LES PRETRESSES", "sales": 1, "sales_appt": 0, "sales_maison": 0, "median_price": 30000.0, "median_price_per_sqm": null, "turnover_score": 1.9, "turnover_rank": 21, "first_year": 2025, "last_year": 2025, "years_active": 1}}, {"type": "Feature", "geometry": {"type": "Point", "coordinates": [2.844123, 48.978029]}, "properties": {"street_name": "LE PETIT PRE", "sales": 1, "sales_appt": 0, "sales_maison": 0, "median_price": 2500.0, "median_price_per_sqm": null, "turnover_score": 1.9, "turnover_rank": 21, "first_year": 2023, "last_year": 2023, "years_active": 1}}, {"type": "Feature", "geometry": {"type": "Point", "coordinates": [2.840288, 48.966664]}, "properties": {"street_name": "RUE DU MOULIN", "sales": 1, "sales_appt": 0, "sales_maison": 1, "median_price": 334500.0, "median_price_per_sqm": 3801.1363636363635, "turnover_score": 1.9, "turnover_rank": 21, "first_year": 2024, "last_year": 2024, "years_active": 1}}, {"type": "Feature", "geometry": {"type": "Point", "coordinates": [2.835052, 48.97254]}, "properties": {"street_name": "RUE DU LAVOIR", "sales": 1, "sales_appt": 0, "sales_maison": 0, "median_price": 149000.0, "median_price_per_sqm": null, "turnover_score": 1.9, "turnover_rank": 21, "first_year": 2021, "last_year": 2021, "years_active": 1}}, {"type": "Feature", "geometry": {"type": "Point", "coordinates": [2.844912, 48.985035]}, "properties": {"street_name": "SOUS LE BOIS", "sales": 1, "sales_appt": 0, "sales_maison": 0, "median_price": 380.0, "median_price_per_sqm": null, "turnover_score": 1.9, "turnover_rank": 21, "first_year": 2024, "last_year": 2024, "years_active": 1}}]}