{"type": "FeatureCollection", "features": [{"type": "Feature", "geometry": {"type": "Polygon", "coordinates": [[[2.964794, 48.370359], [2.96481, 48.370426], [2.965251, 48.371049], [2.965868, 48.371079], [2.96763, 48.371151], [2.967919, 48.371534], [2.968444, 48.37228], [2.966256, 48.373386], [2.96579, 48.373697], [2.965299, 48.374058], [2.965002, 48.374308], [2.96457, 48.374797], [2.964468, 48.374994], [2.964387, 48.375271], [2.964297, 48.375946], [2.964192, 48.376631], [2.964178, 48.377109], [2.964213, 48.377368], [2.964307, 48.377632], [2.964531, 48.378095], [2.964451, 48.378393], [2.964451, 48.37882], [2.964498, 48.379407], [2.96457, 48.380046], [2.964549, 48.380537], [2.96443, 48.381017], [2.96433, 48.38127], [2.96405, 48.381624], [2.963807, 48.381969], [2.963703, 48.382213], [2.963639, 48.382569], [2.963598, 48.383241], [2.963507, 48.384183], [2.963485, 48.384569], [2.963536, 48.384706], [2.963733, 48.384935], [2.963855, 48.385018], [2.964002, 48.384921], [2.964362, 48.384783], [2.964987, 48.384606], [2.96545, 48.38445], [2.965657, 48.384404], [2.967825, 48.383811], [2.971762, 48.382711], [2.974123, 48.382046], [2.975328, 48.381712], [2.982403, 48.379732], [2.984165, 48.379242], [2.984695, 48.37914], [2.985042, 48.379106], [2.985782, 48.379092], [2.986234, 48.379128], [2.986673, 48.379191], [2.987531, 48.379172], [2.990055, 48.379085], [2.990325, 48.379041], [2.991831, 48.378625], [2.992047, 48.378581], [2.993065, 48.378453], [2.993002, 48.37819], [2.99306, 48.377377], [2.993268, 48.37566], [2.993303, 48.374656], [2.993406, 48.374306], [2.993734, 48.373591], [2.993749, 48.373386], [2.993837, 48.371508], [2.993816, 48.371265], [2.993832, 48.370816], [2.993736, 48.37009], [2.993793, 48.369295], [2.993759, 48.368937], [2.99375, 48.368265], [2.993684, 48.368087], [2.995482, 48.368042], [2.995498, 48.36775], [2.995601, 48.366456], [2.995594, 48.366009], [2.996953, 48.365989], [2.997952, 48.366091], [2.998954, 48.366338], [2.999795, 48.36662], [3.000744, 48.367065], [3.001342, 48.367439], [3.001643, 48.367725], [3.002193, 48.368477], [3.002305, 48.368872], [3.002722, 48.369787], [3.002864, 48.370361], [3.003094, 48.371385], [3.003096, 48.371637], [3.003376, 48.372337], [3.003651, 48.372821], [3.004146, 48.373447], [3.004774, 48.374037], [3.005262, 48.374303], [3.005886, 48.374534], [3.006861, 48.374798], [3.007456, 48.374884], [3.008023, 48.374882], [3.008399, 48.374825], [3.009692, 48.374567], [3.01074, 48.374146], [3.011196, 48.373911], [3.011758, 48.373565], [3.012184, 48.373185], [3.013488, 48.371775], [3.01386, 48.371198], [3.01399, 48.370927], [3.01412, 48.370513], [3.014143, 48.370189], [3.014139, 48.369865], [3.014025, 48.369416], [3.013886, 48.369057], [3.013747, 48.368806], [3.01347, 48.368215], [3.013055, 48.367462], [3.012778, 48.366906], [3.01272, 48.366619], [3.012821, 48.366079], [3.012817, 48.365737], [3.013076, 48.364908], [3.013311, 48.36426], [3.013594, 48.363781], [3.013845, 48.363462], [3.011792, 48.363078], [3.011692, 48.362782], [3.011073, 48.362346], [3.010666, 48.36193], [3.011253, 48.36172], [3.012797, 48.361265], [3.012801, 48.360718], [3.012862, 48.360327], [3.012831, 48.360154], [3.012686, 48.359812], [3.012664, 48.359604], [3.01271, 48.35946], [3.012976, 48.358952], [3.013277, 48.35821], [3.013304, 48.358061], [3.013276, 48.357847], [3.013126, 48.357615], [3.012592, 48.357148], [3.012301, 48.356865], [3.012006, 48.356613], [3.011489, 48.356201], [3.010536, 48.355593], [3.009344, 48.354864], [3.009114, 48.354748], [3.008596, 48.354531], [3.007964, 48.354356], [3.00757, 48.354219], [3.006991, 48.353875], [3.005765, 48.353258], [3.005451, 48.353037], [3.005654, 48.352818], [3.0057, 48.352649], [3.004653, 48.352086], [3.004759, 48.35206], [3.00512, 48.351878], [3.005174, 48.351773], [3.005109, 48.351523], [3.005079, 48.351135], [3.004793, 48.35083], [3.004726, 48.350664], [3.004989, 48.35033], [3.005302, 48.350104], [3.005442, 48.350045], [3.005618, 48.35005], [3.006509, 48.350126], [3.006897, 48.3496], [3.007054, 48.349355], [3.007159, 48.349042], [3.00716, 48.348844], [3.007074, 48.348683], [3.006692, 48.348342], [3.006653, 48.348187], [3.006776, 48.348072], [3.00722, 48.347824], [3.007525, 48.347604], [3.008075, 48.347274], [3.008553, 48.346944], [3.008797, 48.346941], [3.008988, 48.346824], [3.009168, 48.346657], [3.009376, 48.346364], [3.009469, 48.346052], [3.009848, 48.346036], [3.01007, 48.345838], [3.010396, 48.345461], [3.01046, 48.34524], [3.010429, 48.344872], [3.010437, 48.344611], [3.010549, 48.344588], [3.011594, 48.343351], [3.011652, 48.343349], [3.011601, 48.342803], [3.011687, 48.342354], [3.011636, 48.342352], [3.011691, 48.340902], [3.010808, 48.340687], [3.010584, 48.340654], [3.010323, 48.340666], [3.009634, 48.340512], [3.009266, 48.340411], [3.008515, 48.34028], [3.008142, 48.340196], [3.00719, 48.33983], [3.005637, 48.339194], [3.005106, 48.338892], [3.005005, 48.338803], [3.004783, 48.338707], [3.004233, 48.338294], [3.004065, 48.338198], [3.003733, 48.338071], [3.002564, 48.337762], [3.002182, 48.337631], [3.001573, 48.337393], [3.001158, 48.337312], [3.000741, 48.337274], [3.000503, 48.337221], [2.999024, 48.336511], [2.999204, 48.336811], [2.999273, 48.337105], [2.999217, 48.337541], [2.998945, 48.338267], [2.998895, 48.338546], [2.998915, 48.338848], [2.99898, 48.339053], [2.999339, 48.339974], [2.999439, 48.340186], [2.999347, 48.340295], [2.99969, 48.341666], [2.99973, 48.342032], [2.99969, 48.3424], [2.999525, 48.343142], [2.999614, 48.345336], [2.999803, 48.345575], [3.00008, 48.345974], [3.000202, 48.346224], [3.000339, 48.346625], [3.000362, 48.346966], [3.000301, 48.347259], [3.000128, 48.347583], [3.000027, 48.347855], [2.999973, 48.348105], [2.999861, 48.348429], [2.999224, 48.349752], [2.998815, 48.350717], [2.998002, 48.352485], [2.997682, 48.353079], [2.997508, 48.353373], [2.99701, 48.354132], [2.996706, 48.354564], [2.996674, 48.354744], [2.994617, 48.355202], [2.991234, 48.355949], [2.98685, 48.356921], [2.98631, 48.357028], [2.984076, 48.357516], [2.98368, 48.35761], [2.982544, 48.357851], [2.9805, 48.358302], [2.97838, 48.358774], [2.976567, 48.359172], [2.974555, 48.359621], [2.973897, 48.359756], [2.971497, 48.360207], [2.971715, 48.360689], [2.972266, 48.361788], [2.972433, 48.362089], [2.9728, 48.362674], [2.973028, 48.362999], [2.973349, 48.363407], [2.974029, 48.3641], [2.974256, 48.364365], [2.974341, 48.36452], [2.974631, 48.36523], [2.974784, 48.365496], [2.974923, 48.365619], [2.975211, 48.365757], [2.975397, 48.365893], [2.97534, 48.366], [2.973885, 48.36645], [2.973619, 48.365979], [2.970431, 48.366691], [2.969907, 48.366149], [2.967614, 48.36664], [2.967597, 48.366855], [2.967495, 48.367074], [2.967151, 48.36744], [2.966828, 48.367692], [2.966494, 48.367908], [2.965896, 48.368237], [2.965487, 48.368512], [2.96515, 48.368835], [2.964954, 48.369121], [2.964789, 48.369414], [2.964684, 48.369756], [2.964674, 48.370157], [2.964794, 48.370359]]]}, "properties": {"code_iris": "770610000", "nom_iris": "Cannes-Écluse (commune entière)", "type_iris": "Z", "lat": 48.3608, "lng": 2.9888, "dvf_sales_total": 499, "dvf_sales_appt": 0, "dvf_sales_maison": 0, "dvf_median_price": 173250.0, "dvf_median_ppsqm": 2382.165605095541, "dvf_by_year": "[{\"year\": 2021, \"sales\": 110, \"median_price\": 192000.0}, {\"year\": 2022, \"sales\": 131, \"median_price\": 185000.0}, {\"year\": 2023, \"sales\": 128, \"median_price\": 155000.0}, {\"year\": 2024, \"sales\": 62, \"median_price\": 182500.0}, {\"year\": 2025, \"sales\": 68, \"median_price\": 155000.0}]", "population": 2742, "n_log": null, "n_rp": null, "pct_proprio": null, "pct_hlm": null, "pct_appart": null, "pct_cadres": null, "pct_bac5p": null, "pct_etrangers": null, "pct_0_14": null, "pct_65p": null, "bpe_total": null, "bpe_commerces": null, "bpe_enseignement": null, "bpe_sante": null, "dpe": null, "attractivity_score": null, "rank_attractivity_score": null, "rank_total_attractivity_score": 1, "commune_avg": null, "is_stub": true}}]}