{"type": "FeatureCollection", "features": [{"type": "Feature", "geometry": {"type": "Point", "coordinates": [2.993004, 48.36741]}, "properties": {"street_name": "RUE DES BORDES", "sales": 85, "sales_appt": 24, "sales_maison": 7, "median_price": 184000.0, "median_price_per_sqm": 2738.2897603485835, "turnover_score": 100.0, "turnover_rank": 1, "first_year": 2021, "last_year": 2025, "years_active": 5}}, {"type": "Feature", "geometry": {"type": "Point", "coordinates": [2.9819455, 48.3647845]}, "properties": {"street_name": "RUE DESIRE THOISON", "sales": 84, "sales_appt": 27, "sales_maison": 19, "median_price": 170000.0, "median_price_per_sqm": 4000.0, "turnover_score": 98.8, "turnover_rank": 2, "first_year": 2021, "last_year": 2025, "years_active": 5}}, {"type": "Feature", "geometry": {"type": "Point", "coordinates": [2.987923, 48.367636]}, "properties": {"street_name": "LES BORDES", "sales": 27, "sales_appt": 0, "sales_maison": 0, "median_price": 147500.0, "median_price_per_sqm": null, "turnover_score": 31.8, "turnover_rank": 3, "first_year": 2021, "last_year": 2025, "years_active": 5}}, {"type": "Feature", "geometry": {"type": "Point", "coordinates": [2.9762155000000003, 48.364056]}, "properties": {"street_name": "RUE DE LA COUTURE", "sales": 26, "sales_appt": 0, "sales_maison": 13, "median_price": 198000.0, "median_price_per_sqm": 2357.1428571428573, "turnover_score": 30.6, "turnover_rank": 4, "first_year": 2021, "last_year": 2025, "years_active": 5}}, {"type": "Feature", "geometry": {"type": "Point", "coordinates": [2.977165, 48.364733]}, "properties": {"street_name": "RUE MESSIDOR", "sales": 21, "sales_appt": 0, "sales_maison": 9, "median_price": 190000.0, "median_price_per_sqm": 2226.190476190476, "turnover_score": 24.7, "turnover_rank": 5, "first_year": 2021, "last_year": 2025, "years_active": 5}}, {"type": "Feature", "geometry": {"type": "Point", "coordinates": [2.99009, 48.364616]}, "properties": {"street_name": "CANNES ECLUSES", "sales": 17, "sales_appt": 0, "sales_maison": 0, "median_price": 155000.0, "median_price_per_sqm": null, "turnover_score": 20.0, "turnover_rank": 6, "first_year": 2021, "last_year": 2025, "years_active": 5}}, {"type": "Feature", "geometry": {"type": "Point", "coordinates": [2.991753, 48.364592]}, "properties": {"street_name": "RUE ST GEORGES", "sales": 15, "sales_appt": 0, "sales_maison": 7, "median_price": 172000.0, "median_price_per_sqm": 2041.6666666666667, "turnover_score": 17.6, "turnover_rank": 7, "first_year": 2021, "last_year": 2024, "years_active": 4}}, {"type": "Feature", "geometry": {"type": "Point", "coordinates": [2.986106, 48.37715]}, "properties": {"street_name": "LE SUSARD", "sales": 14, "sales_appt": 0, "sales_maison": 0, "median_price": 22000.0, "median_price_per_sqm": null, "turnover_score": 16.5, "turnover_rank": 8, "first_year": 2021, "last_year": 2023, "years_active": 2}}, {"type": "Feature", "geometry": {"type": "Point", "coordinates": [2.992914, 48.362506]}, "properties": {"street_name": "RUE DE LA PRAIRIE", "sales": 13, "sales_appt": 0, "sales_maison": 10, "median_price": 175000.0, "median_price_per_sqm": 2466.4835164835167, "turnover_score": 15.3, "turnover_rank": 9, "first_year": 2021, "last_year": 2025, "years_active": 4}}, {"type": "Feature", "geometry": {"type": "Point", "coordinates": [2.981469, 48.362437]}, "properties": {"street_name": "CHE DES CAILLOUX", "sales": 13, "sales_appt": 0, "sales_maison": 8, "median_price": 160500.0, "median_price_per_sqm": 1789.3835616438355, "turnover_score": 15.3, "turnover_rank": 9, "first_year": 2021, "last_year": 2025, "years_active": 4}}, {"type": "Feature", "geometry": {"type": "Point", "coordinates": [2.985463, 48.367401]}, "properties": {"street_name": "QUAI DE L YONNE", "sales": 12, "sales_appt": 2, "sales_maison": 2, "median_price": 148000.0, "median_price_per_sqm": 2762.6096491228072, "turnover_score": 14.1, "turnover_rank": 10, "first_year": 2021, "last_year": 2024, "years_active": 3}}, {"type": "Feature", "geometry": {"type": "Point", "coordinates": [3.0075615, 48.3623295]}, "properties": {"street_name": "LES PLANTES", "sales": 10, "sales_appt": 0, "sales_maison": 0, "median_price": 188000.0, "median_price_per_sqm": null, "turnover_score": 11.8, "turnover_rank": 11, "first_year": 2022, "last_year": 2023, "years_active": 2}}, {"type": "Feature", "geometry": {"type": "Point", "coordinates": [2.985694, 48.36862]}, "properties": {"street_name": "RUE DE BRAY", "sales": 10, "sales_appt": 0, "sales_maison": 7, "median_price": 153500.0, "median_price_per_sqm": 2382.165605095541, "turnover_score": 11.8, "turnover_rank": 11, "first_year": 2021, "last_year": 2022, "years_active": 2}}, {"type": "Feature", "geometry": {"type": "Point", "coordinates": [2.984676, 48.364351]}, "properties": {"street_name": "RUE CHAUDE", "sales": 9, "sales_appt": 1, "sales_maison": 3, "median_price": 135000.0, "median_price_per_sqm": 2293.478260869565, "turnover_score": 10.6, "turnover_rank": 12, "first_year": 2021, "last_year": 2024, "years_active": 4}}, {"type": "Feature", "geometry": {"type": "Point", "coordinates": [2.984515, 48.36984]}, "properties": {"street_name": "LES SITEAUX", "sales": 9, "sales_appt": 0, "sales_maison": 0, "median_price": 374000.0, "median_price_per_sqm": null, "turnover_score": 10.6, "turnover_rank": 12, "first_year": 2021, "last_year": 2023, "years_active": 2}}, {"type": "Feature", "geometry": {"type": "Point", "coordinates": [2.979667, 48.362046500000005]}, "properties": {"street_name": "CHE DES GRAVIERS", "sales": 8, "sales_appt": 0, "sales_maison": 6, "median_price": 277000.0, "median_price_per_sqm": 1778.9260284810125, "turnover_score": 9.4, "turnover_rank": 13, "first_year": 2021, "last_year": 2023, "years_active": 3}}, {"type": "Feature", "geometry": {"type": "Point", "coordinates": [2.990893, 48.363502]}, "properties": {"street_name": "RUE DES VIGNES", "sales": 7, "sales_appt": 0, "sales_maison": 6, "median_price": 177000.0, "median_price_per_sqm": 1984.9439775910364, "turnover_score": 8.2, "turnover_rank": 14, "first_year": 2021, "last_year": 2025, "years_active": 3}}, {"type": "Feature", "geometry": {"type": "Point", "coordinates": [2.983849, 48.363806]}, "properties": {"street_name": "LA GARENNE", "sales": 6, "sales_appt": 0, "sales_maison": 0, "median_price": 133000.0, "median_price_per_sqm": null, "turnover_score": 7.1, "turnover_rank": 15, "first_year": 2021, "last_year": 2023, "years_active": 3}}, {"type": "Feature", "geometry": {"type": "Point", "coordinates": [2.975512, 48.362998]}, "properties": {"street_name": "CHE DU GRAND FOSSARD", "sales": 6, "sales_appt": 0, "sales_maison": 4, "median_price": 209000.0, "median_price_per_sqm": 2342.948717948718, "turnover_score": 7.1, "turnover_rank": 15, "first_year": 2022, "last_year": 2024, "years_active": 3}}, {"type": "Feature", "geometry": {"type": "Point", "coordinates": [2.992168, 48.364861]}, "properties": {"street_name": "RUE SAINT GEORGES", "sales": 6, "sales_appt": 0, "sales_maison": 2, "median_price": 155000.0, "median_price_per_sqm": 2041.4152840623428, "turnover_score": 7.1, "turnover_rank": 15, "first_year": 2025, "last_year": 2025, "years_active": 1}}, {"type": "Feature", "geometry": {"type": "Point", "coordinates": [2.977076, 48.380436]}, "properties": {"street_name": "LA PETITE MARE", "sales": 5, "sales_appt": 0, "sales_maison": 0, "median_price": 35000.0, "median_price_per_sqm": null, "turnover_score": 5.9, "turnover_rank": 16, "first_year": 2022, "last_year": 2023, "years_active": 2}}, {"type": "Feature", "geometry": {"type": "Point", "coordinates": [2.980788, 48.362909]}, "properties": {"street_name": "RUE DE LA GARENNE", "sales": 5, "sales_appt": 0, "sales_maison": 3, "median_price": 230000.0, "median_price_per_sqm": 2192.0286649562063, "turnover_score": 5.9, "turnover_rank": 16, "first_year": 2021, "last_year": 2024, "years_active": 3}}, {"type": "Feature", "geometry": {"type": "Point", "coordinates": [2.984592, 48.363054]}, "properties": {"street_name": "RUE DE LA GLACIERE", "sales": 5, "sales_appt": 3, "sales_maison": 2, "median_price": 119200.0, "median_price_per_sqm": 1530.3076923076924, "turnover_score": 5.9, "turnover_rank": 16, "first_year": 2021, "last_year": 2024, "years_active": 3}}, {"type": "Feature", "geometry": {"type": "Point", "coordinates": [2.981387, 48.36569]}, "properties": {"street_name": "CC DE LA GRANDE RUELLE AU GUE", "sales": 5, "sales_appt": 1, "sales_maison": 0, "median_price": 50000.0, "median_price_per_sqm": 1315.7894736842106, "turnover_score": 5.9, "turnover_rank": 16, "first_year": 2021, "last_year": 2022, "years_active": 2}}, {"type": "Feature", "geometry": {"type": "Point", "coordinates": [2.99354, 48.364298]}, "properties": {"street_name": "CHE DES BUTTES", "sales": 5, "sales_appt": 0, "sales_maison": 2, "median_price": 160300.0, "median_price_per_sqm": 2231.439393939394, "turnover_score": 5.9, "turnover_rank": 16, "first_year": 2025, "last_year": 2025, "years_active": 1}}, {"type": "Feature", "geometry": {"type": "Point", "coordinates": [2.987928, 48.362096]}, "properties": {"street_name": "LES FAINEANTES", "sales": 5, "sales_appt": 0, "sales_maison": 0, "median_price": 600000.0, "median_price_per_sqm": null, "turnover_score": 5.9, "turnover_rank": 16, "first_year": 2022, "last_year": 2023, "years_active": 2}}, {"type": "Feature", "geometry": {"type": "Point", "coordinates": [2.968525, 48.368635]}, "properties": {"street_name": "RTE DE MONTEREAU", "sales": 4, "sales_appt": 0, "sales_maison": 0, "median_price": 550000.0, "median_price_per_sqm": null, "turnover_score": 4.7, "turnover_rank": 17, "first_year": 2021, "last_year": 2022, "years_active": 2}}, {"type": "Feature", "geometry": {"type": "Point", "coordinates": [2.9935975, 48.364816000000005]}, "properties": {"street_name": "RUE HAUTE", "sales": 4, "sales_appt": 0, "sales_maison": 1, "median_price": 186000.0, "median_price_per_sqm": 2352.9411764705883, "turnover_score": 4.7, "turnover_rank": 17, "first_year": 2022, "last_year": 2025, "years_active": 2}}, {"type": "Feature", "geometry": {"type": "Point", "coordinates": [2.984592, 48.363054]}, "properties": {"street_name": "SQ BRUSSEAU", "sales": 4, "sales_appt": 4, "sales_maison": 0, "median_price": 99805.0, "median_price_per_sqm": 1591.5162503357506, "turnover_score": 4.7, "turnover_rank": 17, "first_year": 2021, "last_year": 2023, "years_active": 2}}, {"type": "Feature", "geometry": {"type": "Point", "coordinates": [2.989308, 48.363728]}, "properties": {"street_name": "CHE DE LA CROIX SAINT ROCH", "sales": 3, "sales_appt": 0, "sales_maison": 2, "median_price": 195000.0, "median_price_per_sqm": 3020.605112154408, "turnover_score": 3.5, "turnover_rank": 18, "first_year": 2021, "last_year": 2025, "years_active": 2}}, {"type": "Feature", "geometry": {"type": "Point", "coordinates": [2.971647, 48.367291]}, "properties": {"street_name": "LES PIECES DU MOULIN", "sales": 3, "sales_appt": 0, "sales_maison": 0, "median_price": 11801.5, "median_price_per_sqm": null, "turnover_score": 3.5, "turnover_rank": 18, "first_year": 2021, "last_year": 2022, "years_active": 2}}, {"type": "Feature", "geometry": {"type": "Point", "coordinates": [2.976362, 48.368591]}, "properties": {"street_name": "LA VALLEE DU MOULIN", "sales": 3, "sales_appt": 0, "sales_maison": 0, "median_price": 1420.0, "median_price_per_sqm": null, "turnover_score": 3.5, "turnover_rank": 18, "first_year": 2023, "last_year": 2023, "years_active": 1}}, {"type": "Feature", "geometry": {"type": "Point", "coordinates": [2.988856, 48.373389]}, "properties": {"street_name": "LES VIGNES DES BORDES", "sales": 3, "sales_appt": 0, "sales_maison": 0, "median_price": 40000.0, "median_price_per_sqm": null, "turnover_score": 3.5, "turnover_rank": 18, "first_year": 2023, "last_year": 2023, "years_active": 1}}, {"type": "Feature", "geometry": {"type": "Point", "coordinates": [2.989956, 48.361835]}, "properties": {"street_name": "RUE DE LA PLAINE", "sales": 3, "sales_appt": 0, "sales_maison": 2, "median_price": 230000.0, "median_price_per_sqm": 2539.924186842749, "turnover_score": 3.5, "turnover_rank": 18, "first_year": 2021, "last_year": 2024, "years_active": 2}}, {"type": "Feature", "geometry": {"type": "Point", "coordinates": [2.984116, 48.368037]}, "properties": {"street_name": "RUE DU GORD DE L YONNE", "sales": 3, "sales_appt": 0, "sales_maison": 3, "median_price": 198000.0, "median_price_per_sqm": 3245.901639344262, "turnover_score": 3.5, "turnover_rank": 18, "first_year": 2021, "last_year": 2025, "years_active": 2}}, {"type": "Feature", "geometry": {"type": "Point", "coordinates": [2.972466, 48.360167]}, "properties": {"street_name": "D 606", "sales": 2, "sales_appt": 1, "sales_maison": 0, "median_price": 65000.0, "median_price_per_sqm": 1857.142857142857, "turnover_score": 2.4, "turnover_rank": 19, "first_year": 2024, "last_year": 2024, "years_active": 1}}, {"type": "Feature", "geometry": {"type": "Point", "coordinates": [2.991722, 48.362108]}, "properties": {"street_name": "CHE DES PALIS", "sales": 2, "sales_appt": 0, "sales_maison": 1, "median_price": 155000.0, "median_price_per_sqm": 1614.5833333333333, "turnover_score": 2.4, "turnover_rank": 19, "first_year": 2023, "last_year": 2023, "years_active": 1}}, {"type": "Feature", "geometry": {"type": "Point", "coordinates": [2.974337, 48.364137]}, "properties": {"street_name": "RUE DU PORT", "sales": 2, "sales_appt": 0, "sales_maison": 1, "median_price": 170000.0, "median_price_per_sqm": 1770.8333333333333, "turnover_score": 2.4, "turnover_rank": 19, "first_year": 2024, "last_year": 2024, "years_active": 1}}, {"type": "Feature", "geometry": {"type": "Point", "coordinates": [2.992909, 48.368621]}, "properties": {"street_name": "RUE DU FORT VENDREST", "sales": 2, "sales_appt": 0, "sales_maison": 2, "median_price": 241000.0, "median_price_per_sqm": 2114.035087719298, "turnover_score": 2.4, "turnover_rank": 19, "first_year": 2021, "last_year": 2021, "years_active": 1}}, {"type": "Feature", "geometry": {"type": "Point", "coordinates": [3.0096410000000002, 48.343734]}, "properties": {"street_name": "LES ROCHES", "sales": 2, "sales_appt": 0, "sales_maison": 0, "median_price": 44000.0, "median_price_per_sqm": null, "turnover_score": 2.4, "turnover_rank": 19, "first_year": 2025, "last_year": 2025, "years_active": 1}}, {"type": "Feature", "geometry": {"type": "Point", "coordinates": [2.9795125000000002, 48.364434]}, "properties": {"street_name": "RUE DU VERGER", "sales": 2, "sales_appt": 0, "sales_maison": 2, "median_price": 228747.8, "median_price_per_sqm": 1919.5939839572193, "turnover_score": 2.4, "turnover_rank": 19, "first_year": 2022, "last_year": 2025, "years_active": 2}}, {"type": "Feature", "geometry": {"type": "Point", "coordinates": [2.983725, 48.359295]}, "properties": {"street_name": "RUE DES TOURNESOLS", "sales": 2, "sales_appt": 0, "sales_maison": 0, "median_price": 60000.0, "median_price_per_sqm": 66.66666666666667, "turnover_score": 2.4, "turnover_rank": 19, "first_year": 2025, "last_year": 2025, "years_active": 1}}, {"type": "Feature", "geometry": {"type": "Point", "coordinates": [2.995644, 48.364284]}, "properties": {"street_name": "LES BUTTES", "sales": 2, "sales_appt": 0, "sales_maison": 0, "median_price": 1615.05, "median_price_per_sqm": null, "turnover_score": 2.4, "turnover_rank": 19, "first_year": 2025, "last_year": 2025, "years_active": 1}}, {"type": "Feature", "geometry": {"type": "Point", "coordinates": [2.974324, 48.381599]}, "properties": {"street_name": "LE PETIT NOYER", "sales": 2, "sales_appt": 0, "sales_maison": 0, "median_price": 35000.0, "median_price_per_sqm": null, "turnover_score": 2.4, "turnover_rank": 19, "first_year": 2022, "last_year": 2022, "years_active": 1}}, {"type": "Feature", "geometry": {"type": "Point", "coordinates": [2.9771085, 48.3771165]}, "properties": {"street_name": "LE CIMETIERE AUX VACHES", "sales": 2, "sales_appt": 0, "sales_maison": 0, "median_price": 40000.0, "median_price_per_sqm": null, "turnover_score": 2.4, "turnover_rank": 19, "first_year": 2023, "last_year": 2023, "years_active": 1}}, {"type": "Feature", "geometry": {"type": "Point", "coordinates": [2.973168, 48.377858]}, "properties": {"street_name": "LES BAGNEUX", "sales": 2, "sales_appt": 0, "sales_maison": 0, "median_price": 40000.0, "median_price_per_sqm": null, "turnover_score": 2.4, "turnover_rank": 19, "first_year": 2023, "last_year": 2023, "years_active": 1}}, {"type": "Feature", "geometry": {"type": "Point", "coordinates": [2.9794575, 48.3795645]}, "properties": {"street_name": "LES PATURES DES BORDES", "sales": 2, "sales_appt": 0, "sales_maison": 0, "median_price": 1541.0, "median_price_per_sqm": null, "turnover_score": 2.4, "turnover_rank": 19, "first_year": 2025, "last_year": 2025, "years_active": 1}}, {"type": "Feature", "geometry": {"type": "Point", "coordinates": [2.984103, 48.362632]}, "properties": {"street_name": "CHE DE LA GARENNE", "sales": 1, "sales_appt": 0, "sales_maison": 1, "median_price": 224000.0, "median_price_per_sqm": 3246.376811594203, "turnover_score": 1.2, "turnover_rank": 20, "first_year": 2021, "last_year": 2021, "years_active": 1}}, {"type": "Feature", "geometry": {"type": "Point", "coordinates": [2.979838, 48.361048]}, "properties": {"street_name": "LES CAILLOUX", "sales": 1, "sales_appt": 0, "sales_maison": 0, "median_price": 401825.0, "median_price_per_sqm": null, "turnover_score": 1.2, "turnover_rank": 20, "first_year": 2024, "last_year": 2024, "years_active": 1}}, {"type": "Feature", "geometry": {"type": "Point", "coordinates": [2.981908, 48.364786]}, "properties": {"street_name": "LE VILLAGE", "sales": 1, "sales_appt": 0, "sales_maison": 0, "median_price": 320000.0, "median_price_per_sqm": null, "turnover_score": 1.2, "turnover_rank": 20, "first_year": 2025, "last_year": 2025, "years_active": 1}}, {"type": "Feature", "geometry": {"type": "Point", "coordinates": [2.972855, 48.360139]}, "properties": {"street_name": "LE GRAND FOSSARD", "sales": 1, "sales_appt": 0, "sales_maison": 1, "median_price": 180000.0, "median_price_per_sqm": 1836.734693877551, "turnover_score": 1.2, "turnover_rank": 20, "first_year": 2023, "last_year": 2023, "years_active": 1}}, {"type": "Feature", "geometry": {"type": "Point", "coordinates": [2.98578, 48.370774]}, "properties": {"street_name": "LE PORT AUX OIES", "sales": 1, "sales_appt": 0, "sales_maison": 0, "median_price": 374000.0, "median_price_per_sqm": null, "turnover_score": 1.2, "turnover_rank": 20, "first_year": 2021, "last_year": 2021, "years_active": 1}}, {"type": "Feature", "geometry": {"type": "Point", "coordinates": [2.991511, 48.368527]}, "properties": {"street_name": "LE FORT VENDREST", "sales": 1, "sales_appt": 0, "sales_maison": 0, "median_price": 40000.0, "median_price_per_sqm": null, "turnover_score": 1.2, "turnover_rank": 20, "first_year": 2023, "last_year": 2023, "years_active": 1}}, {"type": "Feature", "geometry": {"type": "Point", "coordinates": [2.975513, 48.362298]}, "properties": {"street_name": "ALL DES SABLES", "sales": 1, "sales_appt": 0, "sales_maison": 1, "median_price": 217500.0, "median_price_per_sqm": 1941.9642857142858, "turnover_score": 1.2, "turnover_rank": 20, "first_year": 2025, "last_year": 2025, "years_active": 1}}, {"type": "Feature", "geometry": {"type": "Point", "coordinates": [2.973681, 48.362182]}, "properties": {"street_name": "ALL DES TILLEULS", "sales": 1, "sales_appt": 0, "sales_maison": 1, "median_price": 169900.0, "median_price_per_sqm": 2295.945945945946, "turnover_score": 1.2, "turnover_rank": 20, "first_year": 2024, "last_year": 2024, "years_active": 1}}, {"type": "Feature", "geometry": {"type": "Point", "coordinates": [2.975409, 48.365371]}, "properties": {"street_name": "LA COUTURE", "sales": 1, "sales_appt": 0, "sales_maison": 0, "median_price": 152000.0, "median_price_per_sqm": null, "turnover_score": 1.2, "turnover_rank": 20, "first_year": 2022, "last_year": 2022, "years_active": 1}}, {"type": "Feature", "geometry": {"type": "Point", "coordinates": [2.994063, 48.36211]}, "properties": {"street_name": "ALL DES BELLES PRISES", "sales": 1, "sales_appt": 0, "sales_maison": 1, "median_price": 217000.0, "median_price_per_sqm": 2358.695652173913, "turnover_score": 1.2, "turnover_rank": 20, "first_year": 2024, "last_year": 2024, "years_active": 1}}, {"type": "Feature", "geometry": {"type": "Point", "coordinates": [3.009506, 48.357298]}, "properties": {"street_name": "BOIS DES REMISES", "sales": 1, "sales_appt": 0, "sales_maison": 0, "median_price": 188000.0, "median_price_per_sqm": null, "turnover_score": 1.2, "turnover_rank": 20, "first_year": 2023, "last_year": 2023, "years_active": 1}}, {"type": "Feature", "geometry": {"type": "Point", "coordinates": [2.990249, 48.370491]}, "properties": {"street_name": "LES RENTIERES", "sales": 1, "sales_appt": 0, "sales_maison": 0, "median_price": 22000.0, "median_price_per_sqm": null, "turnover_score": 1.2, "turnover_rank": 20, "first_year": 2021, "last_year": 2021, "years_active": 1}}, {"type": "Feature", "geometry": {"type": "Point", "coordinates": [2.979553, 48.36633]}, "properties": {"street_name": "RUE ALEXANDRE JOZON", "sales": 1, "sales_appt": 0, "sales_maison": 1, "median_price": 205000.0, "median_price_per_sqm": 2562.5, "turnover_score": 1.2, "turnover_rank": 20, "first_year": 2022, "last_year": 2022, "years_active": 1}}, {"type": "Feature", "geometry": {"type": "Point", "coordinates": [2.977328, 48.366319]}, "properties": {"street_name": "RUE DE L'ORANGERIE", "sales": 1, "sales_appt": 0, "sales_maison": 1, "median_price": 145000.0, "median_price_per_sqm": 1986.3013698630136, "turnover_score": 1.2, "turnover_rank": 20, "first_year": 2023, "last_year": 2023, "years_active": 1}}, {"type": "Feature", "geometry": {"type": "Point", "coordinates": [2.986871, 48.362608]}, "properties": {"street_name": "RUE DU CHATEAU", "sales": 1, "sales_appt": 0, "sales_maison": 1, "median_price": 220000.0, "median_price_per_sqm": 2178.2178217821784, "turnover_score": 1.2, "turnover_rank": 20, "first_year": 2024, "last_year": 2024, "years_active": 1}}, {"type": "Feature", "geometry": {"type": "Point", "coordinates": [2.981387, 48.36569]}, "properties": {"street_name": "RUE DU GUE", "sales": 1, "sales_appt": 0, "sales_maison": 0, "median_price": 6500.0, "median_price_per_sqm": null, "turnover_score": 1.2, "turnover_rank": 20, "first_year": 2025, "last_year": 2025, "years_active": 1}}, {"type": "Feature", "geometry": {"type": "Point", "coordinates": [2.9842, 48.365387]}, "properties": {"street_name": "RUE DU VIEUX CIMETIERE", "sales": 1, "sales_appt": 0, "sales_maison": 1, "median_price": 130000.0, "median_price_per_sqm": 1444.4444444444443, "turnover_score": 1.2, "turnover_rank": 20, "first_year": 2023, "last_year": 2023, "years_active": 1}}]}