{"type": "FeatureCollection", "features": [{"type": "Feature", "geometry": {"type": "Point", "coordinates": [3.0798940000000004, 48.689075]}, "properties": {"street_name": "VAUDOY-EN-BRIE", "sales": 30, "sales_appt": 0, "sales_maison": 0, "median_price": 159000.0, "median_price_per_sqm": null, "turnover_score": 100.0, "turnover_rank": 1, "first_year": 2021, "last_year": 2025, "years_active": 5}}, {"type": "Feature", "geometry": {"type": "Point", "coordinates": [3.079017, 48.688296]}, "properties": {"street_name": "GR GRANDE RUE", "sales": 27, "sales_appt": 1, "sales_maison": 10, "median_price": 170000.0, "median_price_per_sqm": 2428.5714285714284, "turnover_score": 90.0, "turnover_rank": 2, "first_year": 2021, "last_year": 2025, "years_active": 5}}, {"type": "Feature", "geometry": {"type": "Point", "coordinates": [3.080333, 48.685199499999996]}, "properties": {"street_name": "RUE DE LA MALADRERIE", "sales": 26, "sales_appt": 0, "sales_maison": 14, "median_price": 291200.0, "median_price_per_sqm": 2187.5, "turnover_score": 86.7, "turnover_rank": 3, "first_year": 2021, "last_year": 2025, "years_active": 5}}, {"type": "Feature", "geometry": {"type": "Point", "coordinates": [3.081194, 48.690822]}, "properties": {"street_name": "RUE DE COULOMMIERS", "sales": 15, "sales_appt": 0, "sales_maison": 4, "median_price": 206000.0, "median_price_per_sqm": 1739.9103139013453, "turnover_score": 50.0, "turnover_rank": 4, "first_year": 2021, "last_year": 2024, "years_active": 3}}, {"type": "Feature", "geometry": {"type": "Point", "coordinates": [3.076616, 48.689689]}, "properties": {"street_name": "RUE DU MAROY", "sales": 11, "sales_appt": 0, "sales_maison": 4, "median_price": 216000.0, "median_price_per_sqm": 2366.162953731111, "turnover_score": 36.7, "turnover_rank": 5, "first_year": 2021, "last_year": 2025, "years_active": 4}}, {"type": "Feature", "geometry": {"type": "Point", "coordinates": [3.077767, 48.692458]}, "properties": {"street_name": "RUE DE TOUQUIN", "sales": 10, "sales_appt": 0, "sales_maison": 2, "median_price": 225000.0, "median_price_per_sqm": 3536.964285714286, "turnover_score": 33.3, "turnover_rank": 6, "first_year": 2021, "last_year": 2025, "years_active": 3}}, {"type": "Feature", "geometry": {"type": "Point", "coordinates": [3.079075, 48.684858]}, "properties": {"street_name": "RUE DU LUXEMBOURG", "sales": 8, "sales_appt": 0, "sales_maison": 2, "median_price": 450000.0, "median_price_per_sqm": 2102.803738317757, "turnover_score": 26.7, "turnover_rank": 7, "first_year": 2024, "last_year": 2024, "years_active": 1}}, {"type": "Feature", "geometry": {"type": "Point", "coordinates": [3.07993, 48.688495]}, "properties": {"street_name": "PL DE L EGLISE", "sales": 7, "sales_appt": 3, "sales_maison": 1, "median_price": 295000.0, "median_price_per_sqm": 3352.2727272727275, "turnover_score": 23.3, "turnover_rank": 8, "first_year": 2023, "last_year": 2023, "years_active": 1}}, {"type": "Feature", "geometry": {"type": "Point", "coordinates": [3.0946285, 48.703596000000005]}, "properties": {"street_name": "LES TAILLIS", "sales": 6, "sales_appt": 0, "sales_maison": 1, "median_price": 112000.0, "median_price_per_sqm": 2621.951219512195, "turnover_score": 20.0, "turnover_rank": 9, "first_year": 2022, "last_year": 2023, "years_active": 2}}, {"type": "Feature", "geometry": {"type": "Point", "coordinates": [3.079166, 48.6886815]}, "properties": {"street_name": "RUE DU REVEILLON", "sales": 6, "sales_appt": 0, "sales_maison": 3, "median_price": 297500.0, "median_price_per_sqm": 2228.3464566929133, "turnover_score": 20.0, "turnover_rank": 9, "first_year": 2021, "last_year": 2025, "years_active": 2}}, {"type": "Feature", "geometry": {"type": "Point", "coordinates": [3.0921895, 48.705147999999994]}, "properties": {"street_name": "LES SABLONS", "sales": 6, "sales_appt": 0, "sales_maison": 0, "median_price": 177332.75, "median_price_per_sqm": null, "turnover_score": 20.0, "turnover_rank": 9, "first_year": 2022, "last_year": 2023, "years_active": 2}}, {"type": "Feature", "geometry": {"type": "Point", "coordinates": [3.082636, 48.687865]}, "properties": {"street_name": "CHE DES CARRIERES", "sales": 5, "sales_appt": 0, "sales_maison": 2, "median_price": 420000.0, "median_price_per_sqm": 3589.74358974359, "turnover_score": 16.7, "turnover_rank": 10, "first_year": 2025, "last_year": 2025, "years_active": 1}}, {"type": "Feature", "geometry": {"type": "Point", "coordinates": [3.082528, 48.69015]}, "properties": {"street_name": "RUE MICHAUD", "sales": 5, "sales_appt": 0, "sales_maison": 2, "median_price": 312000.0, "median_price_per_sqm": 4031.2018965517245, "turnover_score": 16.7, "turnover_rank": 10, "first_year": 2021, "last_year": 2023, "years_active": 2}}, {"type": "Feature", "geometry": {"type": "Point", "coordinates": [3.081456, 48.688942]}, "properties": {"street_name": "RUE DU TOUR DE L EGLISE", "sales": 5, "sales_appt": 0, "sales_maison": 3, "median_price": 240000.0, "median_price_per_sqm": 2608.695652173913, "turnover_score": 16.7, "turnover_rank": 10, "first_year": 2021, "last_year": 2023, "years_active": 2}}, {"type": "Feature", "geometry": {"type": "Point", "coordinates": [3.091938, 48.690985]}, "properties": {"street_name": "LES CARRIERES", "sales": 5, "sales_appt": 0, "sales_maison": 2, "median_price": 320000.0, "median_price_per_sqm": 4000.0, "turnover_score": 16.7, "turnover_rank": 10, "first_year": 2023, "last_year": 2025, "years_active": 2}}, {"type": "Feature", "geometry": {"type": "Point", "coordinates": [3.080587, 48.689674499999995]}, "properties": {"street_name": "RUE DE LA FONTAINE", "sales": 4, "sales_appt": 0, "sales_maison": 2, "median_price": 295000.0, "median_price_per_sqm": 2699.1869918699185, "turnover_score": 13.3, "turnover_rank": 11, "first_year": 2022, "last_year": 2025, "years_active": 2}}, {"type": "Feature", "geometry": {"type": "Point", "coordinates": [3.078962, 48.685752]}, "properties": {"street_name": "RUE CREUSE", "sales": 4, "sales_appt": 0, "sales_maison": 2, "median_price": 280400.0, "median_price_per_sqm": 3298.823529411765, "turnover_score": 13.3, "turnover_rank": 11, "first_year": 2023, "last_year": 2023, "years_active": 1}}, {"type": "Feature", "geometry": {"type": "Point", "coordinates": [3.071005, 48.686921]}, "properties": {"street_name": "LA MARE AUX SANGSUES", "sales": 4, "sales_appt": 0, "sales_maison": 0, "median_price": 57335.9, "median_price_per_sqm": null, "turnover_score": 13.3, "turnover_rank": 11, "first_year": 2024, "last_year": 2024, "years_active": 1}}, {"type": "Feature", "geometry": {"type": "Point", "coordinates": [3.075901, 48.687421]}, "properties": {"street_name": "RUE DE PARIS", "sales": 4, "sales_appt": 0, "sales_maison": 2, "median_price": 250000.0, "median_price_per_sqm": 2784.94623655914, "turnover_score": 13.3, "turnover_rank": 11, "first_year": 2021, "last_year": 2025, "years_active": 2}}, {"type": "Feature", "geometry": {"type": "Point", "coordinates": [3.083477, 48.690043]}, "properties": {"street_name": "RUE TIBAUST BOULIN", "sales": 4, "sales_appt": 0, "sales_maison": 2, "median_price": 245000.0, "median_price_per_sqm": 2168.141592920354, "turnover_score": 13.3, "turnover_rank": 11, "first_year": 2022, "last_year": 2022, "years_active": 1}}, {"type": "Feature", "geometry": {"type": "Point", "coordinates": [3.080039, 48.692072]}, "properties": {"street_name": "RUE PETITE", "sales": 3, "sales_appt": 0, "sales_maison": 3, "median_price": 320000.0, "median_price_per_sqm": 2461.5384615384614, "turnover_score": 10.0, "turnover_rank": 12, "first_year": 2024, "last_year": 2025, "years_active": 2}}, {"type": "Feature", "geometry": {"type": "Point", "coordinates": [3.084999, 48.685724]}, "properties": {"street_name": "LE MOULIN", "sales": 3, "sales_appt": 0, "sales_maison": 0, "median_price": 40000.0, "median_price_per_sqm": null, "turnover_score": 10.0, "turnover_rank": 12, "first_year": 2023, "last_year": 2025, "years_active": 2}}, {"type": "Feature", "geometry": {"type": "Point", "coordinates": [3.082726, 48.6893]}, "properties": {"street_name": "RLE A FLOT", "sales": 3, "sales_appt": 0, "sales_maison": 3, "median_price": 352000.0, "median_price_per_sqm": 2256.4102564102564, "turnover_score": 10.0, "turnover_rank": 12, "first_year": 2023, "last_year": 2025, "years_active": 2}}, {"type": "Feature", "geometry": {"type": "Point", "coordinates": [3.098801, 48.696277]}, "properties": {"street_name": "LA HAUTE VOIE", "sales": 3, "sales_appt": 0, "sales_maison": 0, "median_price": 57335.9, "median_price_per_sqm": null, "turnover_score": 10.0, "turnover_rank": 12, "first_year": 2024, "last_year": 2024, "years_active": 1}}, {"type": "Feature", "geometry": {"type": "Point", "coordinates": [3.076964, 48.691872]}, "properties": {"street_name": "LA GARENNE", "sales": 3, "sales_appt": 0, "sales_maison": 0, "median_price": 4518.0, "median_price_per_sqm": null, "turnover_score": 10.0, "turnover_rank": 12, "first_year": 2021, "last_year": 2022, "years_active": 2}}, {"type": "Feature", "geometry": {"type": "Point", "coordinates": [3.079589, 48.692534]}, "properties": {"street_name": "RUE DE FAREMOUTIERS", "sales": 3, "sales_appt": 0, "sales_maison": 3, "median_price": 219900.0, "median_price_per_sqm": 2177.227722772277, "turnover_score": 10.0, "turnover_rank": 12, "first_year": 2022, "last_year": 2024, "years_active": 2}}, {"type": "Feature", "geometry": {"type": "Point", "coordinates": [3.079753, 48.689156]}, "properties": {"street_name": "RUE DU CHATEAU", "sales": 2, "sales_appt": 0, "sales_maison": 1, "median_price": 222000.0, "median_price_per_sqm": 2055.5555555555557, "turnover_score": 6.7, "turnover_rank": 13, "first_year": 2022, "last_year": 2022, "years_active": 1}}, {"type": "Feature", "geometry": {"type": "Point", "coordinates": [3.081139, 48.688101]}, "properties": {"street_name": "RUE DE LA POSTE", "sales": 2, "sales_appt": 0, "sales_maison": 1, "median_price": 259000.0, "median_price_per_sqm": 2466.6666666666665, "turnover_score": 6.7, "turnover_rank": 13, "first_year": 2022, "last_year": 2022, "years_active": 1}}, {"type": "Feature", "geometry": {"type": "Point", "coordinates": [3.064772, 48.675621]}, "properties": {"street_name": "LA FONTAINE SAINT-MARTIN", "sales": 2, "sales_appt": 0, "sales_maison": 0, "median_price": 308000.0, "median_price_per_sqm": null, "turnover_score": 6.7, "turnover_rank": 13, "first_year": 2021, "last_year": 2021, "years_active": 1}}, {"type": "Feature", "geometry": {"type": "Point", "coordinates": [3.081962, 48.686822]}, "properties": {"street_name": "CHEM DES GRANDS FOSSES", "sales": 2, "sales_appt": 0, "sales_maison": 1, "median_price": 234000.0, "median_price_per_sqm": 3250.0, "turnover_score": 6.7, "turnover_rank": 13, "first_year": 2024, "last_year": 2024, "years_active": 1}}, {"type": "Feature", "geometry": {"type": "Point", "coordinates": [3.077914, 48.709146000000004]}, "properties": {"street_name": "BOIS POULET", "sales": 2, "sales_appt": 0, "sales_maison": 0, "median_price": 6247.14, "median_price_per_sqm": null, "turnover_score": 6.7, "turnover_rank": 13, "first_year": 2024, "last_year": 2024, "years_active": 1}}, {"type": "Feature", "geometry": {"type": "Point", "coordinates": [3.077273, 48.68983]}, "properties": {"street_name": "RUE DE LA GARENNE", "sales": 2, "sales_appt": 0, "sales_maison": 1, "median_price": 250000.0, "median_price_per_sqm": 2232.1428571428573, "turnover_score": 6.7, "turnover_rank": 13, "first_year": 2022, "last_year": 2022, "years_active": 1}}, {"type": "Feature", "geometry": {"type": "Point", "coordinates": [3.064609, 48.675494]}, "properties": {"street_name": "LE JARIEL", "sales": 2, "sales_appt": 0, "sales_maison": 1, "median_price": 308000.0, "median_price_per_sqm": 1711.111111111111, "turnover_score": 6.7, "turnover_rank": 13, "first_year": 2021, "last_year": 2021, "years_active": 1}}, {"type": "Feature", "geometry": {"type": "Point", "coordinates": [3.0807275, 48.6882975]}, "properties": {"street_name": "RUE DE LA MAIRIE", "sales": 2, "sales_appt": 0, "sales_maison": 2, "median_price": 211000.0, "median_price_per_sqm": 2120.9595959595963, "turnover_score": 6.7, "turnover_rank": 13, "first_year": 2021, "last_year": 2021, "years_active": 1}}, {"type": "Feature", "geometry": {"type": "Point", "coordinates": [3.078852, 48.685859]}, "properties": {"street_name": "LA HAIE PIE", "sales": 1, "sales_appt": 0, "sales_maison": 0, "median_price": 280400.0, "median_price_per_sqm": null, "turnover_score": 3.3, "turnover_rank": 14, "first_year": 2023, "last_year": 2023, "years_active": 1}}, {"type": "Feature", "geometry": {"type": "Point", "coordinates": [3.07734, 48.688103]}, "properties": {"street_name": "GRANDE RUE", "sales": 1, "sales_appt": 0, "sales_maison": 1, "median_price": 154500.0, "median_price_per_sqm": 4828.125, "turnover_score": 3.3, "turnover_rank": 14, "first_year": 2025, "last_year": 2025, "years_active": 1}}, {"type": "Feature", "geometry": {"type": "Point", "coordinates": [3.118458, 48.696577]}, "properties": {"street_name": "LES PRES HAUTS", "sales": 1, "sales_appt": 0, "sales_maison": 0, "median_price": 212600.0, "median_price_per_sqm": null, "turnover_score": 3.3, "turnover_rank": 14, "first_year": 2025, "last_year": 2025, "years_active": 1}}, {"type": "Feature", "geometry": {"type": "Point", "coordinates": [3.090429, 48.670226]}, "properties": {"street_name": "LUGINS", "sales": 1, "sales_appt": 0, "sales_maison": 0, "median_price": 2000.0, "median_price_per_sqm": null, "turnover_score": 3.3, "turnover_rank": 14, "first_year": 2021, "last_year": 2021, "years_active": 1}}, {"type": "Feature", "geometry": {"type": "Point", "coordinates": [3.057936, 48.707103]}, "properties": {"street_name": "MONTJEMBERT", "sales": 1, "sales_appt": 0, "sales_maison": 0, "median_price": 8520.0, "median_price_per_sqm": null, "turnover_score": 3.3, "turnover_rank": 14, "first_year": 2021, "last_year": 2021, "years_active": 1}}, {"type": "Feature", "geometry": {"type": "Point", "coordinates": [3.075729, 48.684232]}, "properties": {"street_name": "LA RUE DE FORTUIT", "sales": 1, "sales_appt": 0, "sales_maison": 0, "median_price": 5000.0, "median_price_per_sqm": null, "turnover_score": 3.3, "turnover_rank": 14, "first_year": 2022, "last_year": 2022, "years_active": 1}}, {"type": "Feature", "geometry": {"type": "Point", "coordinates": [3.093316, 48.703963]}, "properties": {"street_name": "SENTE DES PRES", "sales": 1, "sales_appt": 0, "sales_maison": 0, "median_price": 112000.0, "median_price_per_sqm": null, "turnover_score": 3.3, "turnover_rank": 14, "first_year": 2022, "last_year": 2022, "years_active": 1}}, {"type": "Feature", "geometry": {"type": "Point", "coordinates": [3.052122, 48.676807]}, "properties": {"street_name": "VAUJARD", "sales": 1, "sales_appt": 0, "sales_maison": 0, "median_price": 3000.0, "median_price_per_sqm": null, "turnover_score": 3.3, "turnover_rank": 14, "first_year": 2022, "last_year": 2022, "years_active": 1}}]}