{"type": "FeatureCollection", "features": [{"type": "Feature", "geometry": {"type": "Point", "coordinates": [3.456487, 48.542387500000004]}, "properties": {"street_name": "CHALAUTRE LA GRANDE", "sales": 32, "sales_appt": 0, "sales_maison": 1, "median_price": 104000.0, "median_price_per_sqm": 1359.4771241830065, "turnover_score": 100.0, "turnover_rank": 1, "first_year": 2021, "last_year": 2024, "years_active": 4}}, {"type": "Feature", "geometry": {"type": "Point", "coordinates": [3.457363, 48.5419855]}, "properties": {"street_name": "RUE DE L AVENIR", "sales": 22, "sales_appt": 3, "sales_maison": 8, "median_price": 215000.0, "median_price_per_sqm": 1753.4297520661157, "turnover_score": 68.8, "turnover_rank": 2, "first_year": 2021, "last_year": 2024, "years_active": 4}}, {"type": "Feature", "geometry": {"type": "Point", "coordinates": [3.452041, 48.545875]}, "properties": {"street_name": "VALLEE AU ZABLE", "sales": 15, "sales_appt": 0, "sales_maison": 0, "median_price": 12000.0, "median_price_per_sqm": null, "turnover_score": 46.9, "turnover_rank": 3, "first_year": 2021, "last_year": 2025, "years_active": 4}}, {"type": "Feature", "geometry": {"type": "Point", "coordinates": [3.4561475, 48.5468525]}, "properties": {"street_name": "LES CACREES", "sales": 14, "sales_appt": 0, "sales_maison": 0, "median_price": 8872.4, "median_price_per_sqm": null, "turnover_score": 43.8, "turnover_rank": 4, "first_year": 2021, "last_year": 2025, "years_active": 3}}, {"type": "Feature", "geometry": {"type": "Point", "coordinates": [3.472944, 48.552332]}, "properties": {"street_name": "RUE COURTELLEMONT", "sales": 13, "sales_appt": 0, "sales_maison": 5, "median_price": 149800.0, "median_price_per_sqm": 1896.2025316455697, "turnover_score": 40.6, "turnover_rank": 5, "first_year": 2023, "last_year": 2025, "years_active": 2}}, {"type": "Feature", "geometry": {"type": "Point", "coordinates": [3.459122, 48.537196]}, "properties": {"street_name": "RUE D ORDON", "sales": 10, "sales_appt": 0, "sales_maison": 7, "median_price": 220000.0, "median_price_per_sqm": 1241.3793103448277, "turnover_score": 31.2, "turnover_rank": 6, "first_year": 2021, "last_year": 2025, "years_active": 2}}, {"type": "Feature", "geometry": {"type": "Point", "coordinates": [3.4728595, 48.5522385]}, "properties": {"street_name": "FOUCHERES", "sales": 10, "sales_appt": 0, "sales_maison": 1, "median_price": 80039.0, "median_price_per_sqm": 1318.1818181818182, "turnover_score": 31.2, "turnover_rank": 6, "first_year": 2021, "last_year": 2025, "years_active": 4}}, {"type": "Feature", "geometry": {"type": "Point", "coordinates": [3.444909, 48.531330499999996]}, "properties": {"street_name": "LA CHASSIEUSE", "sales": 10, "sales_appt": 0, "sales_maison": 0, "median_price": 12000.0, "median_price_per_sqm": null, "turnover_score": 31.2, "turnover_rank": 6, "first_year": 2021, "last_year": 2025, "years_active": 3}}, {"type": "Feature", "geometry": {"type": "Point", "coordinates": [3.454053, 48.547602]}, "properties": {"street_name": "LES CHAISES", "sales": 9, "sales_appt": 0, "sales_maison": 0, "median_price": 15000.0, "median_price_per_sqm": null, "turnover_score": 28.1, "turnover_rank": 7, "first_year": 2021, "last_year": 2025, "years_active": 5}}, {"type": "Feature", "geometry": {"type": "Point", "coordinates": [3.455376, 48.540336]}, "properties": {"street_name": "LES LONGS CHAMPS", "sales": 9, "sales_appt": 0, "sales_maison": 0, "median_price": 1000.0, "median_price_per_sqm": null, "turnover_score": 28.1, "turnover_rank": 7, "first_year": 2021, "last_year": 2025, "years_active": 3}}, {"type": "Feature", "geometry": {"type": "Point", "coordinates": [3.461533, 48.547285]}, "properties": {"street_name": "LES GILBOUTS", "sales": 7, "sales_appt": 0, "sales_maison": 0, "median_price": 13700.0, "median_price_per_sqm": null, "turnover_score": 21.9, "turnover_rank": 8, "first_year": 2021, "last_year": 2025, "years_active": 4}}, {"type": "Feature", "geometry": {"type": "Point", "coordinates": [3.438139, 48.564551]}, "properties": {"street_name": "GRIGNE DENT", "sales": 5, "sales_appt": 0, "sales_maison": 0, "median_price": 786155.0, "median_price_per_sqm": null, "turnover_score": 15.6, "turnover_rank": 9, "first_year": 2021, "last_year": 2021, "years_active": 1}}, {"type": "Feature", "geometry": {"type": "Point", "coordinates": [3.460987, 48.566442]}, "properties": {"street_name": "LES HOUCHES", "sales": 5, "sales_appt": 0, "sales_maison": 0, "median_price": 12000.0, "median_price_per_sqm": null, "turnover_score": 15.6, "turnover_rank": 9, "first_year": 2022, "last_year": 2025, "years_active": 2}}, {"type": "Feature", "geometry": {"type": "Point", "coordinates": [3.459001, 48.542081]}, "properties": {"street_name": "RUE DE LA GRANDE COUR", "sales": 5, "sales_appt": 0, "sales_maison": 1, "median_price": 159000.0, "median_price_per_sqm": 2092.1052631578946, "turnover_score": 15.6, "turnover_rank": 9, "first_year": 2023, "last_year": 2023, "years_active": 1}}, {"type": "Feature", "geometry": {"type": "Point", "coordinates": [3.453029, 48.543966]}, "properties": {"street_name": "LES PLEUX PHILBERT", "sales": 5, "sales_appt": 0, "sales_maison": 0, "median_price": 10000.0, "median_price_per_sqm": null, "turnover_score": 15.6, "turnover_rank": 9, "first_year": 2023, "last_year": 2025, "years_active": 2}}, {"type": "Feature", "geometry": {"type": "Point", "coordinates": [3.45384, 48.547468]}, "properties": {"street_name": "RUE DES VERGERS", "sales": 4, "sales_appt": 0, "sales_maison": 0, "median_price": 28500.0, "median_price_per_sqm": null, "turnover_score": 12.5, "turnover_rank": 10, "first_year": 2022, "last_year": 2024, "years_active": 2}}, {"type": "Feature", "geometry": {"type": "Point", "coordinates": [3.4516255, 48.543124]}, "properties": {"street_name": "LES CHAMPS FROIDS", "sales": 4, "sales_appt": 0, "sales_maison": 0, "median_price": 1200.0, "median_price_per_sqm": null, "turnover_score": 12.5, "turnover_rank": 10, "first_year": 2021, "last_year": 2025, "years_active": 3}}, {"type": "Feature", "geometry": {"type": "Point", "coordinates": [3.4514945, 48.5439755]}, "properties": {"street_name": "LE PEUPLIN", "sales": 4, "sales_appt": 0, "sales_maison": 0, "median_price": 3000.0, "median_price_per_sqm": null, "turnover_score": 12.5, "turnover_rank": 10, "first_year": 2021, "last_year": 2022, "years_active": 2}}, {"type": "Feature", "geometry": {"type": "Point", "coordinates": [3.448939, 48.542431500000006]}, "properties": {"street_name": "LE GROS FOSSE", "sales": 4, "sales_appt": 0, "sales_maison": 0, "median_price": 3000.0, "median_price_per_sqm": null, "turnover_score": 12.5, "turnover_rank": 10, "first_year": 2021, "last_year": 2021, "years_active": 1}}, {"type": "Feature", "geometry": {"type": "Point", "coordinates": [3.4531885, 48.548137499999996]}, "properties": {"street_name": "RUE DE LA FORET", "sales": 4, "sales_appt": 0, "sales_maison": 2, "median_price": 142750.0, "median_price_per_sqm": 2191.7092924126173, "turnover_score": 12.5, "turnover_rank": 10, "first_year": 2021, "last_year": 2024, "years_active": 2}}, {"type": "Feature", "geometry": {"type": "Point", "coordinates": [3.455216, 48.5340585]}, "properties": {"street_name": "LES PAROIS", "sales": 4, "sales_appt": 0, "sales_maison": 0, "median_price": 7500.0, "median_price_per_sqm": null, "turnover_score": 12.5, "turnover_rank": 10, "first_year": 2021, "last_year": 2025, "years_active": 2}}, {"type": "Feature", "geometry": {"type": "Point", "coordinates": [3.4591054999999997, 48.5417135]}, "properties": {"street_name": "RUE BEAUREGARD", "sales": 4, "sales_appt": 0, "sales_maison": 2, "median_price": 120000.0, "median_price_per_sqm": 1786.046511627907, "turnover_score": 12.5, "turnover_rank": 10, "first_year": 2021, "last_year": 2022, "years_active": 2}}, {"type": "Feature", "geometry": {"type": "Point", "coordinates": [3.4491959999999997, 48.541557499999996]}, "properties": {"street_name": "LES PLANTERAUX", "sales": 4, "sales_appt": 0, "sales_maison": 0, "median_price": 8350.0, "median_price_per_sqm": null, "turnover_score": 12.5, "turnover_rank": 10, "first_year": 2021, "last_year": 2023, "years_active": 2}}, {"type": "Feature", "geometry": {"type": "Point", "coordinates": [3.459999, 48.543769499999996]}, "properties": {"street_name": "RUE DE L ARRET", "sales": 4, "sales_appt": 0, "sales_maison": 1, "median_price": 76000.0, "median_price_per_sqm": 1718.75, "turnover_score": 12.5, "turnover_rank": 10, "first_year": 2021, "last_year": 2024, "years_active": 2}}, {"type": "Feature", "geometry": {"type": "Point", "coordinates": [3.454396, 48.5484675]}, "properties": {"street_name": "RUE FLEURIE", "sales": 4, "sales_appt": 0, "sales_maison": 2, "median_price": 65000.0, "median_price_per_sqm": 1203.7037037037037, "turnover_score": 12.5, "turnover_rank": 10, "first_year": 2021, "last_year": 2025, "years_active": 3}}, {"type": "Feature", "geometry": {"type": "Point", "coordinates": [3.453025, 48.566254]}, "properties": {"street_name": "PUITS JOLLY", "sales": 3, "sales_appt": 0, "sales_maison": 0, "median_price": 94500.0, "median_price_per_sqm": null, "turnover_score": 9.4, "turnover_rank": 11, "first_year": 2022, "last_year": 2024, "years_active": 2}}, {"type": "Feature", "geometry": {"type": "Point", "coordinates": [3.434516, 48.559302]}, "properties": {"street_name": "PUITS FROUX", "sales": 3, "sales_appt": 0, "sales_maison": 0, "median_price": 786155.0, "median_price_per_sqm": null, "turnover_score": 9.4, "turnover_rank": 11, "first_year": 2021, "last_year": 2021, "years_active": 1}}, {"type": "Feature", "geometry": {"type": "Point", "coordinates": [3.440284, 48.549646]}, "properties": {"street_name": "LE BUISSON DE L EPOUSEE", "sales": 3, "sales_appt": 0, "sales_maison": 0, "median_price": 28335.0, "median_price_per_sqm": null, "turnover_score": 9.4, "turnover_rank": 11, "first_year": 2021, "last_year": 2021, "years_active": 1}}, {"type": "Feature", "geometry": {"type": "Point", "coordinates": [3.459539, 48.545434]}, "properties": {"street_name": "LES BENOIS", "sales": 3, "sales_appt": 0, "sales_maison": 0, "median_price": 3000.0, "median_price_per_sqm": null, "turnover_score": 9.4, "turnover_rank": 11, "first_year": 2021, "last_year": 2021, "years_active": 1}}, {"type": "Feature", "geometry": {"type": "Point", "coordinates": [3.460764, 48.544873]}, "properties": {"street_name": "LES GIBOULTS", "sales": 3, "sales_appt": 0, "sales_maison": 0, "median_price": 13700.0, "median_price_per_sqm": null, "turnover_score": 9.4, "turnover_rank": 11, "first_year": 2023, "last_year": 2023, "years_active": 1}}, {"type": "Feature", "geometry": {"type": "Point", "coordinates": [3.467249, 48.556538]}, "properties": {"street_name": "LES COURRIERS", "sales": 3, "sales_appt": 0, "sales_maison": 0, "median_price": 94500.0, "median_price_per_sqm": null, "turnover_score": 9.4, "turnover_rank": 11, "first_year": 2022, "last_year": 2025, "years_active": 2}}, {"type": "Feature", "geometry": {"type": "Point", "coordinates": [3.459377, 48.545054]}, "properties": {"street_name": "LA COTE AU ROI", "sales": 3, "sales_appt": 0, "sales_maison": 0, "median_price": 3000.0, "median_price_per_sqm": null, "turnover_score": 9.4, "turnover_rank": 11, "first_year": 2021, "last_year": 2025, "years_active": 2}}, {"type": "Feature", "geometry": {"type": "Point", "coordinates": [3.460552, 48.547537]}, "properties": {"street_name": "LA RUE DE PUITS JOLLY", "sales": 3, "sales_appt": 0, "sales_maison": 0, "median_price": 28335.0, "median_price_per_sqm": null, "turnover_score": 9.4, "turnover_rank": 11, "first_year": 2021, "last_year": 2021, "years_active": 1}}, {"type": "Feature", "geometry": {"type": "Point", "coordinates": [3.45065, 48.538415]}, "properties": {"street_name": "LA FONTAINE SAINT MARTIN", "sales": 3, "sales_appt": 0, "sales_maison": 0, "median_price": 13700.0, "median_price_per_sqm": null, "turnover_score": 9.4, "turnover_rank": 11, "first_year": 2023, "last_year": 2025, "years_active": 2}}, {"type": "Feature", "geometry": {"type": "Point", "coordinates": [3.4523, 48.564752]}, "properties": {"street_name": "RUE DU PRIEURE", "sales": 3, "sales_appt": 0, "sales_maison": 3, "median_price": 179000.0, "median_price_per_sqm": 2486.1111111111113, "turnover_score": 9.4, "turnover_rank": 11, "first_year": 2023, "last_year": 2024, "years_active": 2}}, {"type": "Feature", "geometry": {"type": "Point", "coordinates": [3.4559, 48.543554]}, "properties": {"street_name": "RUE COUR SALLES", "sales": 3, "sales_appt": 0, "sales_maison": 2, "median_price": 95000.0, "median_price_per_sqm": 908.9743589743589, "turnover_score": 9.4, "turnover_rank": 11, "first_year": 2023, "last_year": 2024, "years_active": 2}}, {"type": "Feature", "geometry": {"type": "Point", "coordinates": [3.452839, 48.549255]}, "properties": {"street_name": "RUE DU GUE", "sales": 3, "sales_appt": 0, "sales_maison": 1, "median_price": 104000.0, "median_price_per_sqm": 1704.9180327868853, "turnover_score": 9.4, "turnover_rank": 11, "first_year": 2023, "last_year": 2023, "years_active": 1}}, {"type": "Feature", "geometry": {"type": "Point", "coordinates": [3.459443, 48.540451]}, "properties": {"street_name": "RUE DU FAUBOURG", "sales": 3, "sales_appt": 0, "sales_maison": 1, "median_price": 300000.0, "median_price_per_sqm": 1935.483870967742, "turnover_score": 9.4, "turnover_rank": 11, "first_year": 2022, "last_year": 2022, "years_active": 1}}, {"type": "Feature", "geometry": {"type": "Point", "coordinates": [3.460864, 48.54201]}, "properties": {"street_name": "RUE DU PARADIS", "sales": 2, "sales_appt": 0, "sales_maison": 1, "median_price": 64500.0, "median_price_per_sqm": 1072.1649484536083, "turnover_score": 6.2, "turnover_rank": 12, "first_year": 2022, "last_year": 2024, "years_active": 2}}, {"type": "Feature", "geometry": {"type": "Point", "coordinates": [3.45344, 48.533411]}, "properties": {"street_name": "LE BOIS RAGOT", "sales": 2, "sales_appt": 0, "sales_maison": 0, "median_price": 77634.0, "median_price_per_sqm": null, "turnover_score": 6.2, "turnover_rank": 12, "first_year": 2021, "last_year": 2021, "years_active": 1}}, {"type": "Feature", "geometry": {"type": "Point", "coordinates": [3.438083, 48.559736]}, "properties": {"street_name": "LES HAUTS FEUILLARDS", "sales": 2, "sales_appt": 0, "sales_maison": 0, "median_price": 786155.0, "median_price_per_sqm": null, "turnover_score": 6.2, "turnover_rank": 12, "first_year": 2021, "last_year": 2021, "years_active": 1}}, {"type": "Feature", "geometry": {"type": "Point", "coordinates": [3.462805, 48.541585]}, "properties": {"street_name": "RUE DES MARRONNIERS", "sales": 2, "sales_appt": 0, "sales_maison": 1, "median_price": 192600.0, "median_price_per_sqm": 2140.0, "turnover_score": 6.2, "turnover_rank": 12, "first_year": 2021, "last_year": 2021, "years_active": 1}}, {"type": "Feature", "geometry": {"type": "Point", "coordinates": [3.4704755, 48.5455825]}, "properties": {"street_name": "LES MARECHAUDES", "sales": 2, "sales_appt": 0, "sales_maison": 0, "median_price": 7600.0, "median_price_per_sqm": null, "turnover_score": 6.2, "turnover_rank": 12, "first_year": 2023, "last_year": 2025, "years_active": 2}}, {"type": "Feature", "geometry": {"type": "Point", "coordinates": [3.4682104999999996, 48.542067]}, "properties": {"street_name": "LE VIVIER", "sales": 2, "sales_appt": 0, "sales_maison": 0, "median_price": 7204.1, "median_price_per_sqm": null, "turnover_score": 6.2, "turnover_rank": 12, "first_year": 2021, "last_year": 2023, "years_active": 2}}, {"type": "Feature", "geometry": {"type": "Point", "coordinates": [3.4665030000000003, 48.5410625]}, "properties": {"street_name": "LE CLOS GAUTHIER", "sales": 2, "sales_appt": 0, "sales_maison": 0, "median_price": 135117.0, "median_price_per_sqm": null, "turnover_score": 6.2, "turnover_rank": 12, "first_year": 2021, "last_year": 2021, "years_active": 1}}, {"type": "Feature", "geometry": {"type": "Point", "coordinates": [3.454852, 48.5452735]}, "properties": {"street_name": "LA FOSSE BOILEAU", "sales": 2, "sales_appt": 0, "sales_maison": 0, "median_price": 12000.0, "median_price_per_sqm": null, "turnover_score": 6.2, "turnover_rank": 12, "first_year": 2025, "last_year": 2025, "years_active": 1}}, {"type": "Feature", "geometry": {"type": "Point", "coordinates": [3.440497, 48.553756]}, "properties": {"street_name": "LA FOSSE GIBOUT", "sales": 2, "sales_appt": 0, "sales_maison": 0, "median_price": 37395.0, "median_price_per_sqm": null, "turnover_score": 6.2, "turnover_rank": 12, "first_year": 2024, "last_year": 2024, "years_active": 1}}, {"type": "Feature", "geometry": {"type": "Point", "coordinates": [3.4608144999999997, 48.538813000000005]}, "properties": {"street_name": "LES CLOS AMONTS", "sales": 2, "sales_appt": 0, "sales_maison": 0, "median_price": 1214.0, "median_price_per_sqm": null, "turnover_score": 6.2, "turnover_rank": 12, "first_year": 2021, "last_year": 2022, "years_active": 2}}, {"type": "Feature", "geometry": {"type": "Point", "coordinates": [3.459773, 48.537374]}, "properties": {"street_name": "LES BELIERS", "sales": 2, "sales_appt": 0, "sales_maison": 0, "median_price": 180000.0, "median_price_per_sqm": null, "turnover_score": 6.2, "turnover_rank": 12, "first_year": 2021, "last_year": 2021, "years_active": 1}}, {"type": "Feature", "geometry": {"type": "Point", "coordinates": [3.467815, 48.566447499999995]}, "properties": {"street_name": "LE POIRIER GUINGUET", "sales": 2, "sales_appt": 0, "sales_maison": 0, "median_price": 94500.0, "median_price_per_sqm": null, "turnover_score": 6.2, "turnover_rank": 12, "first_year": 2022, "last_year": 2022, "years_active": 1}}, {"type": "Feature", "geometry": {"type": "Point", "coordinates": [3.4538320000000002, 48.545506]}, "properties": {"street_name": "LES FARINEAUX", "sales": 2, "sales_appt": 0, "sales_maison": 0, "median_price": 94500.0, "median_price_per_sqm": null, "turnover_score": 6.2, "turnover_rank": 12, "first_year": 2022, "last_year": 2022, "years_active": 1}}, {"type": "Feature", "geometry": {"type": "Point", "coordinates": [3.463749, 48.54075]}, "properties": {"street_name": "RUE DES PRUNIERS", "sales": 2, "sales_appt": 0, "sales_maison": 1, "median_price": 190000.0, "median_price_per_sqm": 1862.7450980392157, "turnover_score": 6.2, "turnover_rank": 12, "first_year": 2025, "last_year": 2025, "years_active": 1}}, {"type": "Feature", "geometry": {"type": "Point", "coordinates": [3.469491, 48.551382]}, "properties": {"street_name": "RUE SAINTE BARBE", "sales": 2, "sales_appt": 0, "sales_maison": 2, "median_price": 130000.0, "median_price_per_sqm": 1477.2727272727273, "turnover_score": 6.2, "turnover_rank": 12, "first_year": 2025, "last_year": 2025, "years_active": 1}}, {"type": "Feature", "geometry": {"type": "Point", "coordinates": [3.460097, 48.540279]}, "properties": {"street_name": "CHALAUTRE", "sales": 1, "sales_appt": 0, "sales_maison": 0, "median_price": 300000.0, "median_price_per_sqm": null, "turnover_score": 3.1, "turnover_rank": 13, "first_year": 2022, "last_year": 2022, "years_active": 1}}, {"type": "Feature", "geometry": {"type": "Point", "coordinates": [3.424456, 48.54547]}, "properties": {"street_name": "LE PRE ROUSSAT", "sales": 1, "sales_appt": 0, "sales_maison": 0, "median_price": 2100.0, "median_price_per_sqm": null, "turnover_score": 3.1, "turnover_rank": 13, "first_year": 2023, "last_year": 2023, "years_active": 1}}, {"type": "Feature", "geometry": {"type": "Point", "coordinates": [3.438733, 48.553453]}, "properties": {"street_name": "LA FEMME MORTE", "sales": 1, "sales_appt": 0, "sales_maison": 0, "median_price": 19562.4, "median_price_per_sqm": null, "turnover_score": 3.1, "turnover_rank": 13, "first_year": 2024, "last_year": 2024, "years_active": 1}}, {"type": "Feature", "geometry": {"type": "Point", "coordinates": [3.449435, 48.536358]}, "properties": {"street_name": "LA CROIX DES CHENES", "sales": 1, "sales_appt": 0, "sales_maison": 0, "median_price": 10000.0, "median_price_per_sqm": null, "turnover_score": 3.1, "turnover_rank": 13, "first_year": 2023, "last_year": 2023, "years_active": 1}}, {"type": "Feature", "geometry": {"type": "Point", "coordinates": [3.472165, 48.558572]}, "properties": {"street_name": "LA SENTE DES CROTTES", "sales": 1, "sales_appt": 0, "sales_maison": 0, "median_price": 18997.0, "median_price_per_sqm": null, "turnover_score": 3.1, "turnover_rank": 13, "first_year": 2025, "last_year": 2025, "years_active": 1}}, {"type": "Feature", "geometry": {"type": "Point", "coordinates": [3.452005, 48.564669]}, "properties": {"street_name": "LA JUSTICE", "sales": 1, "sales_appt": 0, "sales_maison": 0, "median_price": 179000.0, "median_price_per_sqm": null, "turnover_score": 3.1, "turnover_rank": 13, "first_year": 2023, "last_year": 2023, "years_active": 1}}, {"type": "Feature", "geometry": {"type": "Point", "coordinates": [3.472696, 48.564207]}, "properties": {"street_name": "LES ECOUTES", "sales": 1, "sales_appt": 0, "sales_maison": 0, "median_price": 4089.48, "median_price_per_sqm": null, "turnover_score": 3.1, "turnover_rank": 13, "first_year": 2021, "last_year": 2021, "years_active": 1}}, {"type": "Feature", "geometry": {"type": "Point", "coordinates": [3.431234, 48.532538]}, "properties": {"street_name": "LES DEMOISELLES", "sales": 1, "sales_appt": 0, "sales_maison": 0, "median_price": 1000.0, "median_price_per_sqm": null, "turnover_score": 3.1, "turnover_rank": 13, "first_year": 2023, "last_year": 2023, "years_active": 1}}, {"type": "Feature", "geometry": {"type": "Point", "coordinates": [3.466958, 48.547676]}, "properties": {"street_name": "LES CUCHOTS", "sales": 1, "sales_appt": 0, "sales_maison": 0, "median_price": 10000.0, "median_price_per_sqm": null, "turnover_score": 3.1, "turnover_rank": 13, "first_year": 2023, "last_year": 2023, "years_active": 1}}, {"type": "Feature", "geometry": {"type": "Point", "coordinates": [3.461098, 48.549245]}, "properties": {"street_name": "LES GROS POUCES", "sales": 1, "sales_appt": 0, "sales_maison": 0, "median_price": 8872.4, "median_price_per_sqm": null, "turnover_score": 3.1, "turnover_rank": 13, "first_year": 2021, "last_year": 2021, "years_active": 1}}, {"type": "Feature", "geometry": {"type": "Point", "coordinates": [3.456008, 48.537092]}, "properties": {"street_name": "MORLOUP", "sales": 1, "sales_appt": 0, "sales_maison": 0, "median_price": 10000.0, "median_price_per_sqm": null, "turnover_score": 3.1, "turnover_rank": 13, "first_year": 2023, "last_year": 2023, "years_active": 1}}, {"type": "Feature", "geometry": {"type": "Point", "coordinates": [3.453455, 48.542314]}, "properties": {"street_name": "MAISON BRULEE", "sales": 1, "sales_appt": 0, "sales_maison": 0, "median_price": 900.0, "median_price_per_sqm": null, "turnover_score": 3.1, "turnover_rank": 13, "first_year": 2023, "last_year": 2023, "years_active": 1}}, {"type": "Feature", "geometry": {"type": "Point", "coordinates": [3.4642, 48.540249]}, "properties": {"street_name": "RUE DES ACACIAS", "sales": 1, "sales_appt": 0, "sales_maison": 1, "median_price": 190000.0, "median_price_per_sqm": 2183.9080459770116, "turnover_score": 3.1, "turnover_rank": 13, "first_year": 2024, "last_year": 2024, "years_active": 1}}, {"type": "Feature", "geometry": {"type": "Point", "coordinates": [3.453202, 48.549293]}, "properties": {"street_name": "RUE DES CHAMPS", "sales": 1, "sales_appt": 0, "sales_maison": 1, "median_price": 127000.0, "median_price_per_sqm": 1209.5238095238096, "turnover_score": 3.1, "turnover_rank": 13, "first_year": 2023, "last_year": 2023, "years_active": 1}}]}