{"type": "FeatureCollection", "features": [{"type": "Feature", "geometry": {"type": "Point", "coordinates": [2.9283685, 49.004431499999995]}, "properties": {"street_name": "RUE VICTOR CLAIRET", "sales": 84, "sales_appt": 5, "sales_maison": 22, "median_price": 232934.5, "median_price_per_sqm": 2656.8627450980393, "turnover_score": 100.0, "turnover_rank": 1, "first_year": 2021, "last_year": 2025, "years_active": 5}}, {"type": "Feature", "geometry": {"type": "Point", "coordinates": [2.928748, 49.001983]}, "properties": {"street_name": "RUE MOREAU DUCHESNE", "sales": 45, "sales_appt": 3, "sales_maison": 18, "median_price": 199000.0, "median_price_per_sqm": 3092.857142857143, "turnover_score": 53.6, "turnover_rank": 2, "first_year": 2021, "last_year": 2025, "years_active": 5}}, {"type": "Feature", "geometry": {"type": "Point", "coordinates": [2.925159, 49.0013435]}, "properties": {"street_name": "LE VILLAGE OUEST", "sales": 40, "sales_appt": 0, "sales_maison": 0, "median_price": 128000.0, "median_price_per_sqm": null, "turnover_score": 47.6, "turnover_rank": 3, "first_year": 2021, "last_year": 2025, "years_active": 5}}, {"type": "Feature", "geometry": {"type": "Point", "coordinates": [2.93027, 49.001667]}, "properties": {"street_name": "RUE NEUVE", "sales": 36, "sales_appt": 8, "sales_maison": 11, "median_price": 177500.0, "median_price_per_sqm": 3021.978021978022, "turnover_score": 42.9, "turnover_rank": 4, "first_year": 2021, "last_year": 2025, "years_active": 5}}, {"type": "Feature", "geometry": {"type": "Point", "coordinates": [2.934521, 49.007528]}, "properties": {"street_name": "AV GUY DENIS", "sales": 36, "sales_appt": 0, "sales_maison": 7, "median_price": 215000.0, "median_price_per_sqm": 3071.4285714285716, "turnover_score": 42.9, "turnover_rank": 4, "first_year": 2022, "last_year": 2025, "years_active": 4}}, {"type": "Feature", "geometry": {"type": "Point", "coordinates": [2.924911, 49.000754]}, "properties": {"street_name": "RUE D ORSOY", "sales": 33, "sales_appt": 0, "sales_maison": 16, "median_price": 195000.0, "median_price_per_sqm": 2458.243601059135, "turnover_score": 39.3, "turnover_rank": 5, "first_year": 2021, "last_year": 2025, "years_active": 5}}, {"type": "Feature", "geometry": {"type": "Point", "coordinates": [2.9299685, 49.002695]}, "properties": {"street_name": "LE VILLAGE EST", "sales": 32, "sales_appt": 0, "sales_maison": 0, "median_price": 182500.0, "median_price_per_sqm": null, "turnover_score": 38.1, "turnover_rank": 6, "first_year": 2021, "last_year": 2025, "years_active": 5}}, {"type": "Feature", "geometry": {"type": "Point", "coordinates": [2.923012, 49.002776]}, "properties": {"street_name": "RUE DU BOURREAU", "sales": 32, "sales_appt": 2, "sales_maison": 15, "median_price": 243000.0, "median_price_per_sqm": 3333.3333333333335, "turnover_score": 38.1, "turnover_rank": 6, "first_year": 2021, "last_year": 2025, "years_active": 5}}, {"type": "Feature", "geometry": {"type": "Point", "coordinates": [2.933854, 49.006188]}, "properties": {"street_name": "LA COUTURE L EVEQUE", "sales": 28, "sales_appt": 0, "sales_maison": 0, "median_price": 1005000.0, "median_price_per_sqm": null, "turnover_score": 33.3, "turnover_rank": 7, "first_year": 2022, "last_year": 2025, "years_active": 3}}, {"type": "Feature", "geometry": {"type": "Point", "coordinates": [2.933527, 48.999602]}, "properties": {"street_name": "RUE DE L EGLISE", "sales": 21, "sales_appt": 2, "sales_maison": 6, "median_price": 208000.0, "median_price_per_sqm": 2778.8888888888887, "turnover_score": 25.0, "turnover_rank": 8, "first_year": 2021, "last_year": 2025, "years_active": 4}}, {"type": "Feature", "geometry": {"type": "Point", "coordinates": [2.921729, 49.0015605]}, "properties": {"street_name": "AV DES AMERICAINS", "sales": 20, "sales_appt": 0, "sales_maison": 7, "median_price": 232500.0, "median_price_per_sqm": 2480.0, "turnover_score": 23.8, "turnover_rank": 9, "first_year": 2021, "last_year": 2025, "years_active": 5}}, {"type": "Feature", "geometry": {"type": "Point", "coordinates": [2.933868, 49.006138]}, "properties": {"street_name": "ALL DU PETIT SAINT MARTIN", "sales": 19, "sales_appt": 0, "sales_maison": 0, "median_price": 126000.0, "median_price_per_sqm": null, "turnover_score": 22.6, "turnover_rank": 10, "first_year": 2022, "last_year": 2025, "years_active": 4}}, {"type": "Feature", "geometry": {"type": "Point", "coordinates": [2.929632, 48.999313]}, "properties": {"street_name": "PTR PETITE RUE", "sales": 15, "sales_appt": 4, "sales_maison": 4, "median_price": 200000.0, "median_price_per_sqm": 2903.142857142857, "turnover_score": 17.9, "turnover_rank": 11, "first_year": 2021, "last_year": 2025, "years_active": 5}}, {"type": "Feature", "geometry": {"type": "Point", "coordinates": [2.920257, 49.019142]}, "properties": {"street_name": "LE GROS NOYER", "sales": 11, "sales_appt": 0, "sales_maison": 0, "median_price": 155000.0, "median_price_per_sqm": null, "turnover_score": 13.1, "turnover_rank": 12, "first_year": 2021, "last_year": 2023, "years_active": 2}}, {"type": "Feature", "geometry": {"type": "Point", "coordinates": [2.930478, 49.00743]}, "properties": {"street_name": "RUE DES PRES", "sales": 10, "sales_appt": 0, "sales_maison": 8, "median_price": 371000.0, "median_price_per_sqm": 3585.1488095238096, "turnover_score": 11.9, "turnover_rank": 13, "first_year": 2021, "last_year": 2024, "years_active": 3}}, {"type": "Feature", "geometry": {"type": "Point", "coordinates": [2.938189, 49.0080195]}, "properties": {"street_name": "LE NOYER THOMAS", "sales": 10, "sales_appt": 0, "sales_maison": 0, "median_price": 1750.0, "median_price_per_sqm": null, "turnover_score": 11.9, "turnover_rank": 13, "first_year": 2022, "last_year": 2025, "years_active": 3}}, {"type": "Feature", "geometry": {"type": "Point", "coordinates": [2.931695, 49.012383]}, "properties": {"street_name": "LE BAS MONTGAGNANT", "sales": 9, "sales_appt": 0, "sales_maison": 0, "median_price": 1400.0, "median_price_per_sqm": null, "turnover_score": 10.7, "turnover_rank": 14, "first_year": 2023, "last_year": 2025, "years_active": 3}}, {"type": "Feature", "geometry": {"type": "Point", "coordinates": [2.930138, 49.00058]}, "properties": {"street_name": "RUE DU FOUR", "sales": 9, "sales_appt": 0, "sales_maison": 3, "median_price": 185000.0, "median_price_per_sqm": 2129.6296296296296, "turnover_score": 10.7, "turnover_rank": 14, "first_year": 2021, "last_year": 2025, "years_active": 3}}, {"type": "Feature", "geometry": {"type": "Point", "coordinates": [2.924904, 49.005687]}, "properties": {"street_name": "RUE DE L OURCQ", "sales": 9, "sales_appt": 0, "sales_maison": 4, "median_price": 305000.0, "median_price_per_sqm": 3028.8172043010754, "turnover_score": 10.7, "turnover_rank": 14, "first_year": 2022, "last_year": 2025, "years_active": 3}}, {"type": "Feature", "geometry": {"type": "Point", "coordinates": [2.923276, 49.011018]}, "properties": {"street_name": "LE HEDIN", "sales": 9, "sales_appt": 0, "sales_maison": 0, "median_price": 155000.0, "median_price_per_sqm": null, "turnover_score": 10.7, "turnover_rank": 14, "first_year": 2023, "last_year": 2025, "years_active": 2}}, {"type": "Feature", "geometry": {"type": "Point", "coordinates": [2.931609, 49.006828999999996]}, "properties": {"street_name": "RUE DE LA VALLEE", "sales": 8, "sales_appt": 0, "sales_maison": 6, "median_price": 293500.0, "median_price_per_sqm": 2562.5, "turnover_score": 9.5, "turnover_rank": 15, "first_year": 2021, "last_year": 2025, "years_active": 2}}, {"type": "Feature", "geometry": {"type": "Point", "coordinates": [2.9116945000000003, 48.9898855]}, "properties": {"street_name": "LE CLOS CHICOT", "sales": 8, "sales_appt": 0, "sales_maison": 0, "median_price": 985.2, "median_price_per_sqm": null, "turnover_score": 9.5, "turnover_rank": 15, "first_year": 2023, "last_year": 2025, "years_active": 2}}, {"type": "Feature", "geometry": {"type": "Point", "coordinates": [2.91621, 48.99877]}, "properties": {"street_name": "BELLE VUE", "sales": 7, "sales_appt": 0, "sales_maison": 0, "median_price": 1289.0, "median_price_per_sqm": null, "turnover_score": 8.3, "turnover_rank": 16, "first_year": 2025, "last_year": 2025, "years_active": 1}}, {"type": "Feature", "geometry": {"type": "Point", "coordinates": [2.921108, 49.004548]}, "properties": {"street_name": "ALL DES MARAIS", "sales": 7, "sales_appt": 0, "sales_maison": 4, "median_price": 283000.0, "median_price_per_sqm": 3076.086956521739, "turnover_score": 8.3, "turnover_rank": 16, "first_year": 2021, "last_year": 2025, "years_active": 3}}, {"type": "Feature", "geometry": {"type": "Point", "coordinates": [2.935762, 49.00789]}, "properties": {"street_name": "CHE DE LA MALADRERIE", "sales": 7, "sales_appt": 0, "sales_maison": 2, "median_price": 385000.0, "median_price_per_sqm": 3092.243852459016, "turnover_score": 8.3, "turnover_rank": 16, "first_year": 2025, "last_year": 2025, "years_active": 1}}, {"type": "Feature", "geometry": {"type": "Point", "coordinates": [2.932733, 49.005295]}, "properties": {"street_name": "CHE DES RAVETONS", "sales": 6, "sales_appt": 0, "sales_maison": 4, "median_price": 266000.0, "median_price_per_sqm": 3057.4712643678163, "turnover_score": 7.1, "turnover_rank": 17, "first_year": 2023, "last_year": 2025, "years_active": 2}}, {"type": "Feature", "geometry": {"type": "Point", "coordinates": [2.926274, 48.999811]}, "properties": {"street_name": "RUE DU JEU D ARC", "sales": 6, "sales_appt": 0, "sales_maison": 4, "median_price": 270000.0, "median_price_per_sqm": 3940.7467532467535, "turnover_score": 7.1, "turnover_rank": 17, "first_year": 2023, "last_year": 2025, "years_active": 2}}, {"type": "Feature", "geometry": {"type": "Point", "coordinates": [2.920408, 49.012999]}, "properties": {"street_name": "SUR LES BRISE BECHES", "sales": 6, "sales_appt": 0, "sales_maison": 0, "median_price": 681.4, "median_price_per_sqm": null, "turnover_score": 7.1, "turnover_rank": 17, "first_year": 2023, "last_year": 2025, "years_active": 2}}, {"type": "Feature", "geometry": {"type": "Point", "coordinates": [2.9338615, 49.0007435]}, "properties": {"street_name": "RUE DES OTAGES", "sales": 6, "sales_appt": 0, "sales_maison": 1, "median_price": 272500.0, "median_price_per_sqm": 3563.2183908045977, "turnover_score": 7.1, "turnover_rank": 17, "first_year": 2024, "last_year": 2024, "years_active": 1}}, {"type": "Feature", "geometry": {"type": "Point", "coordinates": [2.923857, 49.012707]}, "properties": {"street_name": "LES BRISE BECHES", "sales": 6, "sales_appt": 0, "sales_maison": 0, "median_price": 681.4, "median_price_per_sqm": null, "turnover_score": 7.1, "turnover_rank": 17, "first_year": 2024, "last_year": 2025, "years_active": 2}}, {"type": "Feature", "geometry": {"type": "Point", "coordinates": [2.946196, 49.007338]}, "properties": {"street_name": "LES ILES JUBLINES NORD", "sales": 5, "sales_appt": 0, "sales_maison": 0, "median_price": 400.0, "median_price_per_sqm": null, "turnover_score": 6.0, "turnover_rank": 18, "first_year": 2024, "last_year": 2024, "years_active": 1}}, {"type": "Feature", "geometry": {"type": "Point", "coordinates": [2.935621, 49.000204]}, "properties": {"street_name": "ALL DU MOULIN", "sales": 5, "sales_appt": 0, "sales_maison": 3, "median_price": 296000.0, "median_price_per_sqm": 2573.913043478261, "turnover_score": 6.0, "turnover_rank": 18, "first_year": 2025, "last_year": 2025, "years_active": 1}}, {"type": "Feature", "geometry": {"type": "Point", "coordinates": [2.924512, 49.004072]}, "properties": {"street_name": "ALL DE LA CAVEE", "sales": 5, "sales_appt": 0, "sales_maison": 0, "median_price": 1.0, "median_price_per_sqm": null, "turnover_score": 6.0, "turnover_rank": 18, "first_year": 2023, "last_year": 2023, "years_active": 1}}, {"type": "Feature", "geometry": {"type": "Point", "coordinates": [2.915716, 48.991919]}, "properties": {"street_name": "LA RAIDE VOIE", "sales": 5, "sales_appt": 0, "sales_maison": 0, "median_price": 1289.0, "median_price_per_sqm": null, "turnover_score": 6.0, "turnover_rank": 18, "first_year": 2023, "last_year": 2025, "years_active": 3}}, {"type": "Feature", "geometry": {"type": "Point", "coordinates": [2.918605, 49.008674]}, "properties": {"street_name": "SUR LE CANAL", "sales": 5, "sales_appt": 0, "sales_maison": 0, "median_price": 1400.0, "median_price_per_sqm": null, "turnover_score": 6.0, "turnover_rank": 18, "first_year": 2024, "last_year": 2024, "years_active": 1}}, {"type": "Feature", "geometry": {"type": "Point", "coordinates": [2.942231, 49.010495]}, "properties": {"street_name": "LA TERRE QUI CHOIT", "sales": 5, "sales_appt": 0, "sales_maison": 0, "median_price": 33125.08, "median_price_per_sqm": null, "turnover_score": 6.0, "turnover_rank": 18, "first_year": 2024, "last_year": 2024, "years_active": 1}}, {"type": "Feature", "geometry": {"type": "Point", "coordinates": [2.939705, 49.000791]}, "properties": {"street_name": "LA GREVE", "sales": 5, "sales_appt": 0, "sales_maison": 0, "median_price": 155000.0, "median_price_per_sqm": null, "turnover_score": 6.0, "turnover_rank": 18, "first_year": 2021, "last_year": 2023, "years_active": 2}}, {"type": "Feature", "geometry": {"type": "Point", "coordinates": [2.922952, 49.004363]}, "properties": {"street_name": "ALL DES BARRES DU CLOS", "sales": 4, "sales_appt": 0, "sales_maison": 2, "median_price": 380000.0, "median_price_per_sqm": 3140.495867768595, "turnover_score": 4.8, "turnover_rank": 19, "first_year": 2021, "last_year": 2021, "years_active": 1}}, {"type": "Feature", "geometry": {"type": "Point", "coordinates": [2.922817, 49.005218]}, "properties": {"street_name": "ALL DES RENOMS", "sales": 4, "sales_appt": 0, "sales_maison": 2, "median_price": 265000.0, "median_price_per_sqm": 3533.3333333333335, "turnover_score": 4.8, "turnover_rank": 19, "first_year": 2021, "last_year": 2021, "years_active": 1}}, {"type": "Feature", "geometry": {"type": "Point", "coordinates": [2.917155, 48.997325]}, "properties": {"street_name": "LE PLAT CUL", "sales": 4, "sales_appt": 0, "sales_maison": 0, "median_price": 920.7, "median_price_per_sqm": null, "turnover_score": 4.8, "turnover_rank": 19, "first_year": 2023, "last_year": 2025, "years_active": 3}}, {"type": "Feature", "geometry": {"type": "Point", "coordinates": [2.936166, 49.008317500000004]}, "properties": {"street_name": "LA MALADRIE", "sales": 4, "sales_appt": 0, "sales_maison": 0, "median_price": 208000.0, "median_price_per_sqm": null, "turnover_score": 4.8, "turnover_rank": 19, "first_year": 2022, "last_year": 2025, "years_active": 2}}, {"type": "Feature", "geometry": {"type": "Point", "coordinates": [2.928052, 48.999596]}, "properties": {"street_name": "RLE BESNARD", "sales": 4, "sales_appt": 0, "sales_maison": 2, "median_price": 320000.0, "median_price_per_sqm": 2133.3333333333335, "turnover_score": 4.8, "turnover_rank": 19, "first_year": 2022, "last_year": 2022, "years_active": 1}}, {"type": "Feature", "geometry": {"type": "Point", "coordinates": [2.92835, 49.0125245]}, "properties": {"street_name": "SOUS LA PIERRE A SON", "sales": 4, "sales_appt": 0, "sales_maison": 0, "median_price": 1400.0, "median_price_per_sqm": null, "turnover_score": 4.8, "turnover_rank": 19, "first_year": 2024, "last_year": 2025, "years_active": 2}}, {"type": "Feature", "geometry": {"type": "Point", "coordinates": [2.925283, 49.014735]}, "properties": {"street_name": "L ORME MORT", "sales": 3, "sales_appt": 0, "sales_maison": 0, "median_price": 1400.0, "median_price_per_sqm": null, "turnover_score": 3.6, "turnover_rank": 20, "first_year": 2023, "last_year": 2024, "years_active": 2}}, {"type": "Feature", "geometry": {"type": "Point", "coordinates": [2.914654, 49.007258]}, "properties": {"street_name": "LES RENOMS", "sales": 3, "sales_appt": 0, "sales_maison": 0, "median_price": 1289.0, "median_price_per_sqm": null, "turnover_score": 3.6, "turnover_rank": 20, "first_year": 2024, "last_year": 2025, "years_active": 2}}, {"type": "Feature", "geometry": {"type": "Point", "coordinates": [2.945913, 49.004708]}, "properties": {"street_name": "LES ILES JUBLINES SUD", "sales": 3, "sales_appt": 0, "sales_maison": 1, "median_price": 10000.0, "median_price_per_sqm": 500.0, "turnover_score": 3.6, "turnover_rank": 20, "first_year": 2024, "last_year": 2025, "years_active": 2}}, {"type": "Feature", "geometry": {"type": "Point", "coordinates": [2.92939, 48.999614]}, "properties": {"street_name": "PETITE RUE", "sales": 3, "sales_appt": 0, "sales_maison": 2, "median_price": 288000.0, "median_price_per_sqm": 2879.9741602067184, "turnover_score": 3.6, "turnover_rank": 20, "first_year": 2025, "last_year": 2025, "years_active": 1}}, {"type": "Feature", "geometry": {"type": "Point", "coordinates": [2.916027, 48.991018]}, "properties": {"street_name": "LA RUELLE DES BORDES", "sales": 3, "sales_appt": 0, "sales_maison": 0, "median_price": 681.4, "median_price_per_sqm": null, "turnover_score": 3.6, "turnover_rank": 20, "first_year": 2021, "last_year": 2025, "years_active": 2}}, {"type": "Feature", "geometry": {"type": "Point", "coordinates": [2.91304, 49.007266]}, "properties": {"street_name": "LA BOSSE", "sales": 3, "sales_appt": 0, "sales_maison": 0, "median_price": 1750.0, "median_price_per_sqm": null, "turnover_score": 3.6, "turnover_rank": 20, "first_year": 2023, "last_year": 2025, "years_active": 2}}, {"type": "Feature", "geometry": {"type": "Point", "coordinates": [2.915912, 48.996024]}, "properties": {"street_name": "LA FONTAINE GEORGETTE", "sales": 3, "sales_appt": 0, "sales_maison": 0, "median_price": 1289.0, "median_price_per_sqm": null, "turnover_score": 3.6, "turnover_rank": 20, "first_year": 2025, "last_year": 2025, "years_active": 1}}, {"type": "Feature", "geometry": {"type": "Point", "coordinates": [2.926243, 48.9986815]}, "properties": {"street_name": "LA FOSSE GALLERAND", "sales": 2, "sales_appt": 0, "sales_maison": 0, "median_price": 78250.0, "median_price_per_sqm": null, "turnover_score": 2.4, "turnover_rank": 21, "first_year": 2023, "last_year": 2025, "years_active": 2}}, {"type": "Feature", "geometry": {"type": "Point", "coordinates": [2.926504, 49.000002]}, "properties": {"street_name": "CHE DES BUTTES", "sales": 2, "sales_appt": 0, "sales_maison": 1, "median_price": 240000.0, "median_price_per_sqm": 2666.6666666666665, "turnover_score": 2.4, "turnover_rank": 21, "first_year": 2024, "last_year": 2024, "years_active": 1}}, {"type": "Feature", "geometry": {"type": "Point", "coordinates": [2.9365550000000002, 49.008419]}, "properties": {"street_name": "CHE DU NOYER THOMAS", "sales": 2, "sales_appt": 0, "sales_maison": 1, "median_price": 242450.0, "median_price_per_sqm": 2701.801801801802, "turnover_score": 2.4, "turnover_rank": 21, "first_year": 2021, "last_year": 2022, "years_active": 2}}, {"type": "Feature", "geometry": {"type": "Point", "coordinates": [2.91635, 49.006339499999996]}, "properties": {"street_name": "LE BAS DE LA BOSSE", "sales": 2, "sales_appt": 0, "sales_maison": 0, "median_price": 78144.5, "median_price_per_sqm": null, "turnover_score": 2.4, "turnover_rank": 21, "first_year": 2023, "last_year": 2025, "years_active": 2}}, {"type": "Feature", "geometry": {"type": "Point", "coordinates": [2.9236335, 48.9919015]}, "properties": {"street_name": "L ILE L EVEQUE", "sales": 2, "sales_appt": 0, "sales_maison": 0, "median_price": 155000.0, "median_price_per_sqm": null, "turnover_score": 2.4, "turnover_rank": 21, "first_year": 2023, "last_year": 2023, "years_active": 1}}, {"type": "Feature", "geometry": {"type": "Point", "coordinates": [2.932192, 49.005594]}, "properties": {"street_name": "RLE COUTURE L EVEQUE", "sales": 2, "sales_appt": 0, "sales_maison": 1, "median_price": 345000.0, "median_price_per_sqm": 3108.108108108108, "turnover_score": 2.4, "turnover_rank": 21, "first_year": 2021, "last_year": 2021, "years_active": 1}}, {"type": "Feature", "geometry": {"type": "Point", "coordinates": [2.9184295000000002, 48.992433500000004]}, "properties": {"street_name": "LES BASSES CARRIERES", "sales": 2, "sales_appt": 0, "sales_maison": 0, "median_price": 1289.0, "median_price_per_sqm": null, "turnover_score": 2.4, "turnover_rank": 21, "first_year": 2025, "last_year": 2025, "years_active": 1}}, {"type": "Feature", "geometry": {"type": "Point", "coordinates": [2.9166565, 49.005003]}, "properties": {"street_name": "LES BARRES DU CLOS", "sales": 2, "sales_appt": 0, "sales_maison": 0, "median_price": 1289.0, "median_price_per_sqm": null, "turnover_score": 2.4, "turnover_rank": 21, "first_year": 2025, "last_year": 2025, "years_active": 1}}, {"type": "Feature", "geometry": {"type": "Point", "coordinates": [2.9336445, 48.9975865]}, "properties": {"street_name": "SOUS VARREDDES", "sales": 2, "sales_appt": 0, "sales_maison": 0, "median_price": 33125.08, "median_price_per_sqm": null, "turnover_score": 2.4, "turnover_rank": 21, "first_year": 2024, "last_year": 2024, "years_active": 1}}, {"type": "Feature", "geometry": {"type": "Point", "coordinates": [2.928162, 49.015464]}, "properties": {"street_name": "SUR LA PIERRE A SON", "sales": 2, "sales_appt": 0, "sales_maison": 0, "median_price": 33125.08, "median_price_per_sqm": null, "turnover_score": 2.4, "turnover_rank": 21, "first_year": 2024, "last_year": 2024, "years_active": 1}}, {"type": "Feature", "geometry": {"type": "Point", "coordinates": [2.9311435, 49.0012125]}, "properties": {"street_name": "RUE DE L ECHAUDERIE", "sales": 2, "sales_appt": 0, "sales_maison": 0, "median_price": 55000.0, "median_price_per_sqm": null, "turnover_score": 2.4, "turnover_rank": 21, "first_year": 2022, "last_year": 2022, "years_active": 1}}, {"type": "Feature", "geometry": {"type": "Point", "coordinates": [2.9407855, 49.009904000000006]}, "properties": {"street_name": "SUR LA MALADRIE", "sales": 2, "sales_appt": 0, "sales_maison": 0, "median_price": 33125.08, "median_price_per_sqm": null, "turnover_score": 2.4, "turnover_rank": 21, "first_year": 2024, "last_year": 2024, "years_active": 1}}, {"type": "Feature", "geometry": {"type": "Point", "coordinates": [2.944863, 49.001835]}, "properties": {"street_name": "L ILE DU BAC", "sales": 1, "sales_appt": 0, "sales_maison": 0, "median_price": 155000.0, "median_price_per_sqm": null, "turnover_score": 1.2, "turnover_rank": 22, "first_year": 2023, "last_year": 2023, "years_active": 1}}, {"type": "Feature", "geometry": {"type": "Point", "coordinates": [2.911499, 48.992346]}, "properties": {"street_name": "LA JUSTICE", "sales": 1, "sales_appt": 0, "sales_maison": 0, "median_price": 1289.0, "median_price_per_sqm": null, "turnover_score": 1.2, "turnover_rank": 22, "first_year": 2025, "last_year": 2025, "years_active": 1}}, {"type": "Feature", "geometry": {"type": "Point", "coordinates": [2.928171, 49.014488]}, "properties": {"street_name": "LA PIERRE A SON", "sales": 1, "sales_appt": 0, "sales_maison": 0, "median_price": 681.4, "median_price_per_sqm": null, "turnover_score": 1.2, "turnover_rank": 22, "first_year": 2025, "last_year": 2025, "years_active": 1}}, {"type": "Feature", "geometry": {"type": "Point", "coordinates": [2.918528, 48.9955]}, "properties": {"street_name": "LE DESSOUS DU PLAT CUL", "sales": 1, "sales_appt": 0, "sales_maison": 0, "median_price": 1289.0, "median_price_per_sqm": null, "turnover_score": 1.2, "turnover_rank": 22, "first_year": 2025, "last_year": 2025, "years_active": 1}}, {"type": "Feature", "geometry": {"type": "Point", "coordinates": [2.911168, 49.003434]}, "properties": {"street_name": "LA TERRE EPAVE", "sales": 1, "sales_appt": 0, "sales_maison": 0, "median_price": 155000.0, "median_price_per_sqm": null, "turnover_score": 1.2, "turnover_rank": 22, "first_year": 2023, "last_year": 2023, "years_active": 1}}, {"type": "Feature", "geometry": {"type": "Point", "coordinates": [2.943412, 49.000038]}, "properties": {"street_name": "LE BAC", "sales": 1, "sales_appt": 0, "sales_maison": 0, "median_price": 155000.0, "median_price_per_sqm": null, "turnover_score": 1.2, "turnover_rank": 22, "first_year": 2023, "last_year": 2023, "years_active": 1}}, {"type": "Feature", "geometry": {"type": "Point", "coordinates": [2.921234, 49.003129]}, "properties": {"street_name": "LE BOURREAU", "sales": 1, "sales_appt": 0, "sales_maison": 0, "median_price": 20000.0, "median_price_per_sqm": null, "turnover_score": 1.2, "turnover_rank": 22, "first_year": 2022, "last_year": 2022, "years_active": 1}}, {"type": "Feature", "geometry": {"type": "Point", "coordinates": [2.931974, 49.008425]}, "properties": {"street_name": "LA VALLEE", "sales": 1, "sales_appt": 0, "sales_maison": 0, "median_price": 300.0, "median_price_per_sqm": null, "turnover_score": 1.2, "turnover_rank": 22, "first_year": 2021, "last_year": 2021, "years_active": 1}}, {"type": "Feature", "geometry": {"type": "Point", "coordinates": [2.924803, 48.997048]}, "properties": {"street_name": "PLAINE DU PLAT CUL", "sales": 1, "sales_appt": 0, "sales_maison": 0, "median_price": 34341.55, "median_price_per_sqm": null, "turnover_score": 1.2, "turnover_rank": 22, "first_year": 2024, "last_year": 2024, "years_active": 1}}, {"type": "Feature", "geometry": {"type": "Point", "coordinates": [2.916389, 49.011454]}, "properties": {"street_name": "LES LARRIS DE LA CERISIERE", "sales": 1, "sales_appt": 0, "sales_maison": 0, "median_price": 1400.0, "median_price_per_sqm": null, "turnover_score": 1.2, "turnover_rank": 22, "first_year": 2024, "last_year": 2024, "years_active": 1}}, {"type": "Feature", "geometry": {"type": "Point", "coordinates": [2.920039, 48.993006]}, "properties": {"street_name": "LES PRES", "sales": 1, "sales_appt": 0, "sales_maison": 0, "median_price": 33125.08, "median_price_per_sqm": null, "turnover_score": 1.2, "turnover_rank": 22, "first_year": 2024, "last_year": 2024, "years_active": 1}}]}