{"type": "FeatureCollection", "features": [{"type": "Feature", "geometry": {"type": "Polygon", "coordinates": [[[2.800342, 48.86252], [2.797766, 48.862043], [2.795516, 48.861639], [2.794557, 48.861461], [2.791401, 48.860887], [2.791393, 48.860896], [2.788632, 48.860386], [2.786761, 48.860032], [2.786709, 48.86005], [2.786702, 48.860458], [2.78665, 48.862145], [2.786874, 48.862768], [2.787787, 48.865411], [2.788321, 48.866901], [2.78916, 48.869317], [2.789187, 48.869376], [2.789707, 48.869614], [2.790149, 48.869886], [2.790871, 48.870404], [2.791429, 48.87086], [2.791776, 48.871239], [2.790402, 48.871782], [2.788072, 48.872713], [2.786894, 48.873189], [2.783513, 48.87454], [2.782776, 48.87469], [2.782218, 48.874825], [2.781489, 48.874941], [2.777466, 48.875595], [2.777429, 48.876094], [2.777492, 48.876361], [2.777673, 48.87685], [2.777821, 48.877346], [2.777959, 48.878588], [2.778002, 48.879379], [2.777889, 48.880006], [2.777751, 48.880404], [2.777319, 48.88121], [2.776735, 48.882151], [2.776675, 48.88252], [2.776697, 48.882959], [2.776861, 48.883392], [2.777115, 48.883858], [2.777938, 48.885306], [2.778008, 48.885676], [2.77798, 48.885872], [2.777834, 48.886315], [2.777547, 48.886864], [2.77798, 48.886972], [2.778375, 48.887137], [2.780031, 48.88798], [2.780644, 48.888403], [2.781046, 48.888648], [2.781323, 48.888782], [2.782309, 48.889204], [2.782663, 48.889344], [2.783475, 48.889719], [2.784337, 48.891084], [2.785379, 48.892717], [2.785852, 48.893528], [2.786179, 48.894244], [2.786571, 48.895003], [2.785569, 48.895001], [2.785247, 48.895042], [2.784825, 48.895133], [2.78398, 48.895347], [2.783397, 48.895476], [2.782774, 48.895647], [2.782243, 48.895855], [2.781908, 48.896052], [2.781844, 48.896255], [2.781759, 48.896327], [2.78116, 48.896591], [2.780011, 48.897148], [2.778195, 48.898044], [2.778165, 48.898018], [2.777539, 48.898706], [2.776506, 48.899804], [2.776089, 48.900188], [2.776288, 48.900185], [2.775352, 48.901241], [2.775099, 48.901673], [2.775009, 48.901878], [2.775755, 48.902044], [2.778958, 48.902788], [2.781441, 48.903181], [2.783718, 48.903544], [2.790529, 48.903566], [2.792713, 48.903569], [2.792765, 48.904158], [2.792832, 48.904504], [2.792948, 48.904849], [2.793086, 48.905178], [2.793253, 48.905661], [2.793442, 48.906154], [2.79358, 48.906386], [2.793726, 48.90687], [2.793958, 48.90751], [2.794026, 48.907767], [2.79426, 48.908307], [2.794436, 48.908802], [2.794652, 48.909699], [2.794785, 48.91008], [2.794903, 48.910549], [2.797911, 48.910361], [2.797842, 48.909911], [2.797709, 48.909489], [2.797598, 48.909026], [2.797626, 48.908997], [2.798005, 48.909001], [2.79785, 48.908659], [2.7977, 48.908096], [2.797564, 48.907779], [2.79753, 48.907331], [2.797463, 48.907125], [2.797429, 48.90669], [2.79739, 48.905908], [2.79852, 48.905917], [2.798832, 48.906028], [2.799228, 48.906426], [2.799578, 48.906854], [2.800949, 48.907371], [2.80145, 48.907548], [2.802134, 48.906306], [2.802259, 48.906141], [2.80252, 48.905963], [2.802751, 48.90544], [2.802778, 48.905316], [2.803522, 48.904778], [2.803673, 48.904372], [2.803744, 48.904124], [2.803811, 48.903697], [2.803525, 48.90099], [2.803195, 48.897679], [2.803122, 48.896825], [2.803127, 48.894832], [2.803382, 48.894936], [2.803876, 48.895093], [2.80422, 48.895168], [2.80499, 48.895237], [2.805837, 48.895206], [2.806693, 48.895062], [2.807583, 48.895917], [2.807747, 48.896065], [2.808335, 48.895076], [2.808386, 48.894792], [2.808437, 48.893695], [2.808447, 48.893216], [2.808309, 48.892717], [2.808578, 48.892672], [2.808417, 48.892271], [2.808108, 48.892323], [2.807713, 48.891258], [2.807566, 48.891002], [2.807047, 48.887649], [2.807329, 48.887587], [2.807893, 48.88765], [2.809457, 48.887779], [2.809996, 48.887862], [2.810668, 48.887932], [2.811895, 48.888014], [2.811999, 48.887718], [2.811992, 48.887444], [2.811849, 48.887024], [2.811711, 48.886706], [2.811464, 48.886289], [2.810553, 48.8851], [2.809021, 48.883375], [2.808462, 48.882752], [2.808322, 48.882622], [2.807864, 48.882264], [2.806787, 48.88094], [2.805083, 48.878791], [2.803877, 48.877226], [2.803761, 48.877111], [2.803485, 48.87698], [2.803119, 48.876769], [2.802572, 48.876348], [2.802273, 48.876066], [2.802463, 48.875785], [2.80274, 48.875258], [2.802989, 48.874632], [2.803526, 48.873749], [2.804058, 48.872899], [2.804176, 48.872689], [2.80361, 48.871949], [2.802979, 48.871099], [2.801854, 48.869615], [2.800397, 48.867725], [2.800404, 48.865434], [2.800392, 48.864025], [2.800375, 48.86341], [2.800339, 48.863141], [2.800342, 48.86252]]]}, "properties": {"code_iris": "771320000", "nom_iris": "Coupvray (commune entière)", "type_iris": "Z", "lat": 48.8853, "lng": 2.7935, "dvf_sales_total": 804, "dvf_sales_appt": 0, "dvf_sales_maison": 0, "dvf_median_price": 338400.0, "dvf_median_ppsqm": 3989.855072463768, "dvf_by_year": "[{\"year\": 2021, \"sales\": 158, \"median_price\": 241500.0}, {\"year\": 2022, \"sales\": 118, \"median_price\": 342755.0}, {\"year\": 2023, \"sales\": 119, \"median_price\": 340000.0}, {\"year\": 2024, \"sales\": 206, \"median_price\": 386500.0}, {\"year\": 2025, \"sales\": 203, \"median_price\": 350400.0}]", "population": 3066, "n_log": null, "n_rp": null, "pct_proprio": null, "pct_hlm": null, "pct_appart": null, "pct_cadres": null, "pct_bac5p": null, "pct_etrangers": null, "pct_0_14": null, "pct_65p": null, "bpe_total": null, "bpe_commerces": null, "bpe_enseignement": null, "bpe_sante": null, "dpe": null, "attractivity_score": null, "rank_attractivity_score": null, "rank_total_attractivity_score": 1, "commune_avg": null, "is_stub": true}}]}