{"type": "FeatureCollection", "features": [{"type": "Feature", "geometry": {"type": "Point", "coordinates": [2.915618, 48.79047]}, "properties": {"street_name": "RUE DU VINGT SEPT AOUT", "sales": 101, "sales_appt": 20, "sales_maison": 22, "median_price": 189000.0, "median_price_per_sqm": 3372.5068649885584, "turnover_score": 100.0, "turnover_rank": 1, "first_year": 2021, "last_year": 2025, "years_active": 5}}, {"type": "Feature", "geometry": {"type": "Point", "coordinates": [2.916129, 48.788321]}, "properties": {"street_name": "MORTCERF", "sales": 29, "sales_appt": 0, "sales_maison": 0, "median_price": 184000.0, "median_price_per_sqm": null, "turnover_score": 28.7, "turnover_rank": 2, "first_year": 2021, "last_year": 2025, "years_active": 5}}, {"type": "Feature", "geometry": {"type": "Point", "coordinates": [2.911687, 48.789407]}, "properties": {"street_name": "RUE DES VALLEES", "sales": 25, "sales_appt": 1, "sales_maison": 14, "median_price": 334850.0, "median_price_per_sqm": 3044.090909090909, "turnover_score": 24.8, "turnover_rank": 3, "first_year": 2021, "last_year": 2025, "years_active": 4}}, {"type": "Feature", "geometry": {"type": "Point", "coordinates": [2.917457, 48.792402]}, "properties": {"street_name": "RUE DU HUIT MAI 1945", "sales": 23, "sales_appt": 3, "sales_maison": 5, "median_price": 176000.0, "median_price_per_sqm": 2952.690166975881, "turnover_score": 22.8, "turnover_rank": 4, "first_year": 2021, "last_year": 2023, "years_active": 3}}, {"type": "Feature", "geometry": {"type": "Point", "coordinates": [2.912947, 48.78342]}, "properties": {"street_name": "RUE DU VIEUX CHATEAU", "sales": 17, "sales_appt": 0, "sales_maison": 6, "median_price": 181000.0, "median_price_per_sqm": 1754.3859649122808, "turnover_score": 16.8, "turnover_rank": 5, "first_year": 2021, "last_year": 2025, "years_active": 4}}, {"type": "Feature", "geometry": {"type": "Point", "coordinates": [2.916968, 48.783826]}, "properties": {"street_name": "RTE DE CREVECOEUR", "sales": 17, "sales_appt": 0, "sales_maison": 6, "median_price": 368000.0, "median_price_per_sqm": 2915.173575425374, "turnover_score": 16.8, "turnover_rank": 5, "first_year": 2021, "last_year": 2024, "years_active": 4}}, {"type": "Feature", "geometry": {"type": "Point", "coordinates": [2.916428, 48.789005]}, "properties": {"street_name": "RUE DES GRIMOINS", "sales": 14, "sales_appt": 2, "sales_maison": 3, "median_price": 209000.0, "median_price_per_sqm": 3161.2903225806454, "turnover_score": 13.9, "turnover_rank": 6, "first_year": 2021, "last_year": 2023, "years_active": 2}}, {"type": "Feature", "geometry": {"type": "Point", "coordinates": [2.918443, 48.786901]}, "properties": {"street_name": "RUE DE L EGALITE", "sales": 11, "sales_appt": 0, "sales_maison": 9, "median_price": 310000.0, "median_price_per_sqm": 3231.7073170731705, "turnover_score": 10.9, "turnover_rank": 7, "first_year": 2021, "last_year": 2025, "years_active": 4}}, {"type": "Feature", "geometry": {"type": "Point", "coordinates": [2.935061, 48.7812625]}, "properties": {"street_name": "LA MALMAISON", "sales": 8, "sales_appt": 0, "sales_maison": 2, "median_price": 360000.0, "median_price_per_sqm": 4772.532188841202, "turnover_score": 7.9, "turnover_rank": 8, "first_year": 2024, "last_year": 2024, "years_active": 1}}, {"type": "Feature", "geometry": {"type": "Point", "coordinates": [2.919126, 48.790365]}, "properties": {"street_name": "AV DU GENERAL LECLERC", "sales": 7, "sales_appt": 0, "sales_maison": 4, "median_price": 310000.0, "median_price_per_sqm": 3688.1720430107525, "turnover_score": 6.9, "turnover_rank": 9, "first_year": 2021, "last_year": 2022, "years_active": 2}}, {"type": "Feature", "geometry": {"type": "Point", "coordinates": [2.91025, 48.788082]}, "properties": {"street_name": "RUE DE LA FORET", "sales": 7, "sales_appt": 0, "sales_maison": 4, "median_price": 325000.0, "median_price_per_sqm": 2980.4189435336975, "turnover_score": 6.9, "turnover_rank": 9, "first_year": 2021, "last_year": 2025, "years_active": 3}}, {"type": "Feature", "geometry": {"type": "Point", "coordinates": [2.914401, 48.790053]}, "properties": {"street_name": "RUE MAX NERAUD", "sales": 7, "sales_appt": 0, "sales_maison": 5, "median_price": 305000.0, "median_price_per_sqm": 1337.719298245614, "turnover_score": 6.9, "turnover_rank": 9, "first_year": 2021, "last_year": 2024, "years_active": 2}}, {"type": "Feature", "geometry": {"type": "Point", "coordinates": [2.910545, 48.791581]}, "properties": {"street_name": "LES EGYPTES", "sales": 7, "sales_appt": 0, "sales_maison": 0, "median_price": 165000.0, "median_price_per_sqm": null, "turnover_score": 6.9, "turnover_rank": 9, "first_year": 2021, "last_year": 2025, "years_active": 3}}, {"type": "Feature", "geometry": {"type": "Point", "coordinates": [2.916244, 48.794206]}, "properties": {"street_name": "RTE DE DAMMARTIN", "sales": 6, "sales_appt": 0, "sales_maison": 4, "median_price": 182100.0, "median_price_per_sqm": 2987.103317706455, "turnover_score": 5.9, "turnover_rank": 10, "first_year": 2021, "last_year": 2025, "years_active": 4}}, {"type": "Feature", "geometry": {"type": "Point", "coordinates": [2.910013, 48.789017]}, "properties": {"street_name": "AV DE LA GARE", "sales": 6, "sales_appt": 0, "sales_maison": 4, "median_price": 295000.0, "median_price_per_sqm": 2207.7922077922076, "turnover_score": 5.9, "turnover_rank": 10, "first_year": 2022, "last_year": 2025, "years_active": 2}}, {"type": "Feature", "geometry": {"type": "Point", "coordinates": [2.9111659999999997, 48.7886505]}, "properties": {"street_name": "RUE JEAN NOEL GURGAND", "sales": 6, "sales_appt": 0, "sales_maison": 2, "median_price": 202500.0, "median_price_per_sqm": 2968.2343234323434, "turnover_score": 5.9, "turnover_rank": 10, "first_year": 2023, "last_year": 2025, "years_active": 3}}, {"type": "Feature", "geometry": {"type": "Point", "coordinates": [2.9175294999999997, 48.785669]}, "properties": {"street_name": "RUE D HAUTEFEUILLE", "sales": 6, "sales_appt": 0, "sales_maison": 4, "median_price": 303802.0, "median_price_per_sqm": 2663.6277777777777, "turnover_score": 5.9, "turnover_rank": 10, "first_year": 2023, "last_year": 2025, "years_active": 3}}, {"type": "Feature", "geometry": {"type": "Point", "coordinates": [2.917536, 48.785474]}, "properties": {"street_name": "RTE D HAUTEFEUILLE", "sales": 5, "sales_appt": 0, "sales_maison": 3, "median_price": 294480.0, "median_price_per_sqm": 2431.309523809524, "turnover_score": 5.0, "turnover_rank": 11, "first_year": 2021, "last_year": 2022, "years_active": 2}}, {"type": "Feature", "geometry": {"type": "Point", "coordinates": [2.91267, 48.7834]}, "properties": {"street_name": "BECOISEAU", "sales": 4, "sales_appt": 0, "sales_maison": 0, "median_price": 200000.0, "median_price_per_sqm": null, "turnover_score": 4.0, "turnover_rank": 12, "first_year": 2021, "last_year": 2022, "years_active": 2}}, {"type": "Feature", "geometry": {"type": "Point", "coordinates": [2.917784, 48.7836845]}, "properties": {"street_name": "RLE DES PRECHES", "sales": 4, "sales_appt": 0, "sales_maison": 0, "median_price": 402225.0, "median_price_per_sqm": null, "turnover_score": 4.0, "turnover_rank": 12, "first_year": 2021, "last_year": 2023, "years_active": 2}}, {"type": "Feature", "geometry": {"type": "Point", "coordinates": [2.916935, 48.784746]}, "properties": {"street_name": "IMP DE LA MASURE", "sales": 4, "sales_appt": 0, "sales_maison": 2, "median_price": 288515.0, "median_price_per_sqm": 3191.1795665634672, "turnover_score": 4.0, "turnover_rank": 12, "first_year": 2022, "last_year": 2023, "years_active": 2}}, {"type": "Feature", "geometry": {"type": "Point", "coordinates": [2.91574, 48.788213]}, "properties": {"street_name": "RUE BILLARDE", "sales": 4, "sales_appt": 0, "sales_maison": 2, "median_price": 329000.0, "median_price_per_sqm": 2798.0099502487565, "turnover_score": 4.0, "turnover_rank": 12, "first_year": 2021, "last_year": 2022, "years_active": 2}}, {"type": "Feature", "geometry": {"type": "Point", "coordinates": [2.9108, 48.791187]}, "properties": {"street_name": "RUE DES BOULARDS", "sales": 3, "sales_appt": 0, "sales_maison": 1, "median_price": 300000.0, "median_price_per_sqm": 4384.615384615385, "turnover_score": 3.0, "turnover_rank": 13, "first_year": 2021, "last_year": 2021, "years_active": 1}}, {"type": "Feature", "geometry": {"type": "Point", "coordinates": [2.908775, 48.784706]}, "properties": {"street_name": "SOUS LA VENTE SOQUET", "sales": 3, "sales_appt": 0, "sales_maison": 0, "median_price": 26000.0, "median_price_per_sqm": null, "turnover_score": 3.0, "turnover_rank": 13, "first_year": 2021, "last_year": 2023, "years_active": 2}}, {"type": "Feature", "geometry": {"type": "Point", "coordinates": [2.909398, 48.788195]}, "properties": {"street_name": "RUE DES MANIQUETS", "sales": 3, "sales_appt": 0, "sales_maison": 2, "median_price": 484690.0, "median_price_per_sqm": 2609.7806571815718, "turnover_score": 3.0, "turnover_rank": 13, "first_year": 2022, "last_year": 2023, "years_active": 2}}, {"type": "Feature", "geometry": {"type": "Point", "coordinates": [2.913327, 48.793735]}, "properties": {"street_name": "RUE AUX ANES", "sales": 3, "sales_appt": 0, "sales_maison": 2, "median_price": 720000.0, "median_price_per_sqm": 5704.66030320045, "turnover_score": 3.0, "turnover_rank": 13, "first_year": 2021, "last_year": 2021, "years_active": 1}}, {"type": "Feature", "geometry": {"type": "Point", "coordinates": [2.917856, 48.783863]}, "properties": {"street_name": "LES PRECHES", "sales": 2, "sales_appt": 0, "sales_maison": 0, "median_price": 402225.0, "median_price_per_sqm": null, "turnover_score": 2.0, "turnover_rank": 14, "first_year": 2021, "last_year": 2023, "years_active": 2}}, {"type": "Feature", "geometry": {"type": "Point", "coordinates": [2.920372, 48.792393]}, "properties": {"street_name": "LA BORDE", "sales": 2, "sales_appt": 0, "sales_maison": 0, "median_price": 80000.0, "median_price_per_sqm": null, "turnover_score": 2.0, "turnover_rank": 14, "first_year": 2023, "last_year": 2023, "years_active": 1}}, {"type": "Feature", "geometry": {"type": "Point", "coordinates": [2.921759, 48.785916]}, "properties": {"street_name": "CHE DU PORT", "sales": 2, "sales_appt": 0, "sales_maison": 2, "median_price": 299990.0, "median_price_per_sqm": 3370.674157303371, "turnover_score": 2.0, "turnover_rank": 14, "first_year": 2021, "last_year": 2021, "years_active": 1}}, {"type": "Feature", "geometry": {"type": "Point", "coordinates": [2.9128119999999997, 48.793706]}, "properties": {"street_name": "LA TUILERIE", "sales": 2, "sales_appt": 0, "sales_maison": 0, "median_price": 361500.0, "median_price_per_sqm": null, "turnover_score": 2.0, "turnover_rank": 14, "first_year": 2021, "last_year": 2021, "years_active": 1}}, {"type": "Feature", "geometry": {"type": "Point", "coordinates": [2.9369940000000003, 48.7667]}, "properties": {"street_name": "BOIS DE LA MALMAISON", "sales": 2, "sales_appt": 0, "sales_maison": 0, "median_price": 127500.0, "median_price_per_sqm": null, "turnover_score": 2.0, "turnover_rank": 14, "first_year": 2022, "last_year": 2025, "years_active": 2}}, {"type": "Feature", "geometry": {"type": "Point", "coordinates": [2.913947, 48.785187]}, "properties": {"street_name": "RUE DE PARIS", "sales": 2, "sales_appt": 0, "sales_maison": 2, "median_price": 340000.0, "median_price_per_sqm": 3400.0, "turnover_score": 2.0, "turnover_rank": 14, "first_year": 2025, "last_year": 2025, "years_active": 1}}, {"type": "Feature", "geometry": {"type": "Point", "coordinates": [2.918984, 48.789361]}, "properties": {"street_name": "RUE DES RANGEES", "sales": 2, "sales_appt": 0, "sales_maison": 0, "median_price": 175000.0, "median_price_per_sqm": null, "turnover_score": 2.0, "turnover_rank": 14, "first_year": 2023, "last_year": 2023, "years_active": 1}}, {"type": "Feature", "geometry": {"type": "Point", "coordinates": [2.911985, 48.789882]}, "properties": {"street_name": "LES VALLEES", "sales": 1, "sales_appt": 0, "sales_maison": 0, "median_price": 305000.0, "median_price_per_sqm": null, "turnover_score": 1.0, "turnover_rank": 15, "first_year": 2024, "last_year": 2024, "years_active": 1}}, {"type": "Feature", "geometry": {"type": "Point", "coordinates": [2.918498, 48.789435]}, "properties": {"street_name": "LES RANGEES", "sales": 1, "sales_appt": 0, "sales_maison": 0, "median_price": 200000.0, "median_price_per_sqm": null, "turnover_score": 1.0, "turnover_rank": 15, "first_year": 2022, "last_year": 2022, "years_active": 1}}]}