{"type": "FeatureCollection", "features": [{"type": "Feature", "geometry": {"coordinates": [[[2.431226691985857, 48.81535448914898], [2.431218697920279, 48.81533826232697], [2.431198418489937, 48.81532467519159], [2.431238547436937, 48.815266406557505], [2.431279783049686, 48.815231526986416], [2.431342904965509, 48.81518775772119], [2.431470382781318, 48.815111916863366], [2.431602053346266, 48.81502620264471], [2.4317037157254, 48.81494484253582], [2.431769893647941, 48.81487050872025], [2.43182648028683, 48.814801525552234], [2.431891492047654, 48.81470919856285], [2.431945589961966, 48.81461861843473], [2.431990165230117, 48.81452709365815], [2.432036072704977, 48.814438273320974], [2.432098800875658, 48.81430546332839], [2.432150585831436, 48.81417709820609], [2.432180288949795, 48.814075609528686], [2.432214155495679, 48.81396694557998], [2.432252430208003, 48.81382862305364], [2.432272698729629, 48.813718095735574], [2.432302537530108, 48.81347900268427], [2.432338939903153, 48.81326242521461], [2.432376723263487, 48.81304405549196], [2.432511769101044, 48.81227212962957], [2.432520536211908, 48.81221730907739], [2.432606324434182, 48.81159174774064], [2.432655093193611, 48.81111440815205], [2.432668089932955, 48.81092110296923], [2.432695513249254, 48.810528203618496], [2.432701996808874, 48.81043289998118], [2.432694805235105, 48.81034292773162], [2.43269131706966, 48.810288048920185], [2.432662241498618, 48.81020696662209], [2.432803311799038, 48.810132087959914], [2.432744338889607, 48.81004546753318], [2.433609980033876, 48.809580993954164], [2.434124896718529, 48.809311819041696], [2.434448159015028, 48.80913617048242], [2.435120566976508, 48.80878319423123], [2.435687549142814, 48.80848278009146], [2.436124415744616, 48.808251901404915], [2.436171653228957, 48.80829079765856], [2.436208105010683, 48.8083197498175], [2.436333771360009, 48.80853529482288], [2.436823168868262, 48.80924001875429], [2.437422458058984, 48.81010984410478], [2.4374455705749, 48.810239463731456], [2.437478937191794, 48.810807129982194], [2.437507065219002, 48.81148179750954], [2.437527082037247, 48.81215103018639], [2.437571672098799, 48.812940894828145], [2.437612164709121, 48.813605726047186], [2.437651088940624, 48.81416352352291], [2.437658299290283, 48.81425259583728], [2.437693327582682, 48.81491919929912], [2.437724387799257, 48.815574991171246], [2.437502776822543, 48.815540671853086], [2.437339615798161, 48.81551652034267], [2.437180462602297, 48.81549958248879], [2.437015707056263, 48.815497008072015], [2.436822286233324, 48.815500594048125], [2.436626132114465, 48.81550506620926], [2.436412274864169, 48.81550945460282], [2.43619839813105, 48.815515641275866], [2.435980465197651, 48.81551911030162], [2.435769341120332, 48.81552261106198], [2.435561028178533, 48.8155180303284], [2.435344603041841, 48.81550801465945], [2.434672129194788, 48.81548235249838], [2.434459750689955, 48.81547595186754], [2.434239211341809, 48.81546861286626], [2.43381582614201, 48.81545491680694], [2.433611618502916, 48.81544855336066], [2.433397888263006, 48.81544124506173], [2.432992187013482, 48.815429428639334], [2.432786637365151, 48.81542125866427], [2.432570183805175, 48.815413935964955], [2.432168578068867, 48.8154012368051], [2.432043324302585, 48.81539794375194], [2.431856800556836, 48.815393460062424], [2.431677105310997, 48.81538720978532], [2.43151783670009, 48.81538105636112], [2.43148109824904, 48.81537818354499], [2.431330039553435, 48.815368471398344], [2.431226691985857, 48.81535448914898]]], "type": "Polygon"}, "properties": {"code_iris": "940460205", "nom_iris": "Alfort 5", "type_iris": "iris d'habitat", "dvf_sales_total": 744, "dvf_sales_appt": 269, "dvf_sales_maison": 44, "dvf_median_price": 245900.0, "dvf_median_ppsqm": 5111.0, "dvf_by_year": [{"year": 2021, "sales": 148, "median_price": 260000.0}, {"year": 2022, "sales": 168, "median_price": 250300.0}, {"year": 2023, "sales": 106, "median_price": 226000.0}, {"year": 2024, "sales": 147, "median_price": 230000.0}, {"year": 2025, "sales": 175, "median_price": 255000.0}], "dpe_total": 336, "dpe_etiquettes": {"E": 152, "D": 143, "F": 23, "G": 12, "C": 6}, "dpe_pct_fg": 10.4, "dpe_pct_ab": 0.0, "annee_construction_median": 1948}}, {"type": "Feature", "geometry": {"coordinates": [[[2.431293832853153, 48.80557673514619], [2.431499628788401, 48.80543381239891], [2.431631412077102, 48.80533550667078], [2.431768954433005, 48.805208447833515], [2.431847412642844, 48.80513057422517], [2.432166914319412, 48.804798420291135], [2.432468624512442, 48.804474275430735], [2.432943813332487, 48.8039728743279], [2.433297718675723, 48.803605804222535], [2.433579993190272, 48.80331484144887], [2.433743715304751, 48.803158224444296], [2.434063046456459, 48.80283955497707], [2.434176744493073, 48.80290125155486], [2.434278267791749, 48.802955695304476], [2.434436796683728, 48.803026597659816], [2.434833889228696, 48.80319576176109], [2.43563221509235, 48.80352960851179], [2.436946971422067, 48.80407903793742], [2.437119093042158, 48.8041526988145], [2.43739015712048, 48.80426819690282], [2.438348348674088, 48.80467922510686], [2.439859557574499, 48.80532487931562], [2.440854375553338, 48.80575224740071], [2.439668504934401, 48.806378961687116], [2.439352143028705, 48.80654926068803], [2.438067700102255, 48.80722226442156], [2.437759516634419, 48.80739079880628], [2.436124415744616, 48.808251901404915], [2.435687549142814, 48.80848278009146], [2.435120566976508, 48.80878319423123], [2.434448159015028, 48.80913617048242], [2.434124896718529, 48.809311819041696], [2.433609980033876, 48.809580993954164], [2.433548009665211, 48.80951954237622], [2.433507639731715, 48.80947528137539], [2.433440799560413, 48.809360743122475], [2.433196628172169, 48.80889910202534], [2.433012637704457, 48.80853847652712], [2.432772597826651, 48.80807325625435], [2.432557903685774, 48.8076567223047], [2.432285850389816, 48.80713108997235], [2.432115106041298, 48.80680560135657], [2.431975130759243, 48.806530624127255], [2.431872427644753, 48.80633407026095], [2.431729555471927, 48.8060752677752], [2.4315746172346, 48.80579931936361], [2.431530304520002, 48.80574244738899], [2.431480437991149, 48.80569544221729], [2.431418239452107, 48.80565557344785], [2.431293832853153, 48.80557673514619]]], "type": "Polygon"}, "properties": {"code_iris": "940460103", "nom_iris": "Centre Vert de Maison 3", "type_iris": "iris d'habitat", "dvf_sales_total": 465, "dvf_sales_appt": 175, "dvf_sales_maison": 19, "dvf_median_price": 310000.0, "dvf_median_ppsqm": 6082.0, "dvf_by_year": [{"year": 2021, "sales": 97, "median_price": 292000.0}, {"year": 2022, "sales": 114, "median_price": 321000.0}, {"year": 2023, "sales": 87, "median_price": 295000.0}, {"year": 2024, "sales": 80, "median_price": 330000.0}, {"year": 2025, "sales": 87, "median_price": 324000.0}], "dpe_total": 107, "dpe_etiquettes": {"E": 32, "C": 22, "F": 12, "D": 34, "G": 6, "B": 1}, "dpe_pct_fg": 16.8, "dpe_pct_ab": 0.9, "annee_construction_median": 1955}}, {"type": "Feature", "geometry": {"coordinates": [[[2.415924536449185, 48.81624844727002], [2.416137575592828, 48.81595269301523], [2.416169379974119, 48.815909678166165], [2.416392321189292, 48.81558069473133], [2.416451803447953, 48.81549824223782], [2.416896022598229, 48.814866347490074], [2.417038304422627, 48.81468626612692], [2.41739468053131, 48.81423651483543], [2.417685693492589, 48.81390786026187], [2.418053932820948, 48.81349234096713], [2.41874502519584, 48.81282206706612], [2.419368165569917, 48.812260283951055], [2.419926013360843, 48.81181330138847], [2.420928197131639, 48.81108336515951], [2.42114140050066, 48.81089103058073], [2.421776916254653, 48.810314004609374], [2.422232361392308, 48.80988810056511], [2.422401256024753, 48.80976120436729], [2.422452253628495, 48.80970568902702], [2.422578426581655, 48.809747670104535], [2.422887304598488, 48.80989126401014], [2.422930627927536, 48.80991395770062], [2.422986146259138, 48.8099421065294], [2.423051912397745, 48.80990554925532], [2.423106636199839, 48.809882429396225], [2.423131264879262, 48.80987175565098], [2.423138122756606, 48.809867291830074], [2.423168327244126, 48.809844953009915], [2.423353956699408, 48.80968216091563], [2.423976293946345, 48.80906188887279], [2.424167582955152, 48.80887933626851], [2.424247290569564, 48.80881316581998], [2.424327694481474, 48.80880725734345], [2.424418832371413, 48.808815790624735], [2.423553090790792, 48.81014540380753], [2.423485098141225, 48.81026019685768], [2.423675180863976, 48.81031057936167], [2.423800113859434, 48.81034176055399], [2.424134193556817, 48.810423415240116], [2.424795617290008, 48.81058039369943], [2.425025170405878, 48.810632762693025], [2.425781746792485, 48.81080548271598], [2.4261675952357, 48.81088558153157], [2.426201498075148, 48.81089833559387], [2.426288347197471, 48.810925733839134], [2.426357574014283, 48.81094585241502], [2.42644722573765, 48.81096606894012], [2.426527355817949, 48.810985340342874], [2.426607426629667, 48.811010007694534], [2.426650772281251, 48.81103090134679], [2.426700866945121, 48.81105722363409], [2.426779091923292, 48.81112595169338], [2.426858698537875, 48.81119288755776], [2.427163678274705, 48.81144527653293], [2.427582153341688, 48.81177915237237], [2.427812947923831, 48.811967328308505], [2.427943906573431, 48.81207048435757], [2.428261240664435, 48.81231483497924], [2.428335502804096, 48.81237275041354], [2.427761558410526, 48.812679391388876], [2.427643751259537, 48.81274268343333], [2.427464321521919, 48.81283715856766], [2.426650573953959, 48.813278451832495], [2.42640674407191, 48.81340859167515], [2.426082076381159, 48.813583311956286], [2.426002680568677, 48.81362070473477], [2.425880981993308, 48.81366598874377], [2.425615915401382, 48.813745659736384], [2.424800205376245, 48.813991765537665], [2.42461575584461, 48.814046639512895], [2.424672006220026, 48.814132351205], [2.424759209780049, 48.814251488808495], [2.425008993481742, 48.81457017099665], [2.425765062846845, 48.81553613922253], [2.425899636493769, 48.8156824846469], [2.425725130579846, 48.81569963416178], [2.425437596744644, 48.8157162403232], [2.425210060402469, 48.81572593921845], [2.425068415348288, 48.81572705694902], [2.425009868681021, 48.81572587603202], [2.425017645802407, 48.81625564672187], [2.424918584931206, 48.81634690677438], [2.424476665885779, 48.8162845221651], [2.42401667703352, 48.81625532582711], [2.42369098944956, 48.81627354274782], [2.422687979250562, 48.81645757323734], [2.422130561076653, 48.816617667775574], [2.42192288893826, 48.81667782155172], [2.421375727217032, 48.8167723076245], [2.420741767306128, 48.81683399314638], [2.420169437390992, 48.816864495998146], [2.419988296643054, 48.81686541618708], [2.419841171124301, 48.8168691992855], [2.419759482527856, 48.816867004136505], [2.419673788577385, 48.81685759447427], [2.419528215080015, 48.816844296554216], [2.419024846580748, 48.816796882885264], [2.418692996489682, 48.81675659674025], [2.418153282303646, 48.81667122882865], [2.417196602176896, 48.81648489523148], [2.416449162215451, 48.816342745451976], [2.416271159563319, 48.81630680082478], [2.415924536449185, 48.81624844727002]]], "type": "Polygon"}, "properties": {"code_iris": "940460201", "nom_iris": "Alfort 1", "type_iris": "iris d'habitat", "dvf_sales_total": 783, "dvf_sales_appt": 329, "dvf_sales_maison": 12, "dvf_median_price": 379700.0, "dvf_median_ppsqm": 7000.0, "dvf_by_year": [{"year": 2021, "sales": 148, "median_price": 335550.0}, {"year": 2022, "sales": 219, "median_price": 428000.0}, {"year": 2023, "sales": 226, "median_price": 20300000.0}, {"year": 2024, "sales": 89, "median_price": 276900.0}, {"year": 2025, "sales": 101, "median_price": 290000.0}], "dpe_total": 1148, "dpe_etiquettes": {"D": 189, "C": 868, "E": 37, "G": 12, "F": 11, "B": 31}, "dpe_pct_fg": 2.0, "dpe_pct_ab": 2.7, "annee_construction_median": 1989}}, {"type": "Feature", "geometry": {"coordinates": [[[2.422452253628495, 48.80970568902702], [2.422576283369962, 48.80957228013549], [2.422971706789644, 48.809031861484776], [2.423315937631205, 48.80856404443231], [2.423322845041497, 48.80855508391815], [2.424333197430597, 48.80707507049768], [2.424801655125338, 48.80632903728609], [2.425131839336238, 48.80552657501883], [2.425330545076509, 48.805040063270084], [2.425524944722881, 48.80457331680757], [2.425562744949442, 48.80447906288097], [2.425655168035381, 48.80424656585241], [2.425760328736258, 48.80397005994143], [2.425945225449953, 48.80362378462767], [2.426285577706342, 48.80276020788145], [2.42652903420146, 48.802164182468026], [2.426531836156453, 48.80215700080448], [2.426547197458511, 48.8021219983573], [2.426646557477852, 48.801876941959954], [2.426712165247768, 48.80172975691845], [2.426854639575523, 48.801773610814955], [2.427046461069953, 48.80178712187718], [2.427047605157429, 48.80180691390901], [2.427069111251843, 48.80183219987163], [2.427150025967645, 48.80190273998229], [2.427399440341007, 48.80212698334147], [2.427443933045757, 48.80216676955159], [2.427812761444574, 48.802427559433475], [2.427892533665921, 48.802478306992], [2.428053676686853, 48.8025582242811], [2.428320361947273, 48.8026980057502], [2.428474511855415, 48.80279497736961], [2.428658147159562, 48.80268612995209], [2.429623553949289, 48.803175510309565], [2.430145041193599, 48.80342263081971], [2.430673438878593, 48.803660788023215], [2.430938991188472, 48.80378077155163], [2.431166609827599, 48.80388348561918], [2.43187507476919, 48.804216030283435], [2.432468624512442, 48.804474275430735], [2.432166914319412, 48.804798420291135], [2.431847412642844, 48.80513057422517], [2.431768954433005, 48.805208447833515], [2.431631412077102, 48.80533550667078], [2.431499628788401, 48.80543381239891], [2.431293832853153, 48.80557673514619], [2.431025366604632, 48.80572295679201], [2.430844703757529, 48.805808437723066], [2.430690125258324, 48.80587425613672], [2.430468635178128, 48.80595774327771], [2.430259594628971, 48.806023301643364], [2.430087521232059, 48.80607014880626], [2.429895034395654, 48.80611599898402], [2.429553864834968, 48.80618632221217], [2.429275423341999, 48.80624795011625], [2.427551699853527, 48.80661385223383], [2.427013957486537, 48.80672909534807], [2.426515806448711, 48.806834632751084], [2.426009315826939, 48.80695541757256], [2.425919087122424, 48.80698826152943], [2.425734346663066, 48.80707191635189], [2.425532811258427, 48.80719686186029], [2.425468283043953, 48.807245118507936], [2.425402274252682, 48.80730416061432], [2.425349980028351, 48.80735427476621], [2.425296225040843, 48.807413375713146], [2.425227116089093, 48.80750657941021], [2.424774943338218, 48.808257188811126], [2.424418832371413, 48.808815790624735], [2.424327694481474, 48.80880725734345], [2.424247290569564, 48.80881316581998], [2.424167582955152, 48.80887933626851], [2.423976293946345, 48.80906188887279], [2.423353956699408, 48.80968216091563], [2.423168327244126, 48.809844953009915], [2.423138122756606, 48.809867291830074], [2.423131264879262, 48.80987175565098], [2.423106636199839, 48.809882429396225], [2.423051912397745, 48.80990554925532], [2.422986146259138, 48.8099421065294], [2.422930627927536, 48.80991395770062], [2.422887304598488, 48.80989126401014], [2.422578426581655, 48.809747670104535], [2.422452253628495, 48.80970568902702]]], "type": "Polygon"}, "properties": {"code_iris": "940460101", "nom_iris": "Centre Vert de Maison 1", "type_iris": "iris d'habitat", "dvf_sales_total": 318, "dvf_sales_appt": 128, "dvf_sales_maison": 10, "dvf_median_price": 317500.0, "dvf_median_ppsqm": 5796.0, "dvf_by_year": [{"year": 2021, "sales": 61, "median_price": 317000.0}, {"year": 2022, "sales": 74, "median_price": 377000.0}, {"year": 2023, "sales": 53, "median_price": 259990.0}, {"year": 2024, "sales": 78, "median_price": 326425.0}, {"year": 2025, "sales": 52, "median_price": 314200.0}], "dpe_total": 134, "dpe_etiquettes": {"D": 33, "G": 10, "C": 10, "F": 19, "E": 62}, "dpe_pct_fg": 21.6, "dpe_pct_ab": 0.0, "annee_construction_median": 1948}}, {"type": "Feature", "geometry": {"coordinates": [[[2.428335502804096, 48.81237275041354], [2.428261240664435, 48.81231483497924], [2.427943906573431, 48.81207048435757], [2.427812947923831, 48.811967328308505], [2.427582153341688, 48.81177915237237], [2.427163678274705, 48.81144527653293], [2.426858698537875, 48.81119288755776], [2.426779091923292, 48.81112595169338], [2.426700866945121, 48.81105722363409], [2.426650772281251, 48.81103090134679], [2.426607426629667, 48.811010007694534], [2.426527355817949, 48.810985340342874], [2.42644722573765, 48.81096606894012], [2.426357574014283, 48.81094585241502], [2.426288347197471, 48.810925733839134], [2.426201498075148, 48.81089833559387], [2.4261675952357, 48.81088558153157], [2.425781746792485, 48.81080548271598], [2.425025170405878, 48.810632762693025], [2.424795617290008, 48.81058039369943], [2.424134193556817, 48.810423415240116], [2.423800113859434, 48.81034176055399], [2.423675180863976, 48.81031057936167], [2.423485098141225, 48.81026019685768], [2.423553090790792, 48.81014540380753], [2.424418832371413, 48.808815790624735], [2.424774943338218, 48.808257188811126], [2.425227116089093, 48.80750657941021], [2.425296225040843, 48.807413375713146], [2.425349980028351, 48.80735427476621], [2.425402274252682, 48.80730416061432], [2.425468283043953, 48.807245118507936], [2.425532811258427, 48.80719686186029], [2.425734346663066, 48.80707191635189], [2.425919087122424, 48.80698826152943], [2.426009315826939, 48.80695541757256], [2.426515806448711, 48.806834632751084], [2.427013957486537, 48.80672909534807], [2.427551699853527, 48.80661385223383], [2.429275423341999, 48.80624795011625], [2.429553864834968, 48.80618632221217], [2.429895034395654, 48.80611599898402], [2.430087521232059, 48.80607014880626], [2.430259594628971, 48.806023301643364], [2.430468635178128, 48.80595774327771], [2.430690125258324, 48.80587425613672], [2.430844703757529, 48.805808437723066], [2.431025366604632, 48.80572295679201], [2.431293832853153, 48.80557673514619], [2.431418239452107, 48.80565557344785], [2.431480437991149, 48.80569544221729], [2.431530304520002, 48.80574244738899], [2.4315746172346, 48.80579931936361], [2.431729555471927, 48.8060752677752], [2.431872427644753, 48.80633407026095], [2.431975130759243, 48.806530624127255], [2.432115106041298, 48.80680560135657], [2.432285850389816, 48.80713108997235], [2.432557903685774, 48.8076567223047], [2.432772597826651, 48.80807325625435], [2.433012637704457, 48.80853847652712], [2.433196628172169, 48.80889910202534], [2.433440799560413, 48.809360743122475], [2.433507639731715, 48.80947528137539], [2.433548009665211, 48.80951954237622], [2.433609980033876, 48.809580993954164], [2.432744338889607, 48.81004546753318], [2.432586880188619, 48.81012476525646], [2.429803764103319, 48.81159999933618], [2.428587542443054, 48.81223814890207], [2.428335502804096, 48.81237275041354]]], "type": "Polygon"}, "properties": {"code_iris": "940460202", "nom_iris": "Alfort 2", "type_iris": "iris d'habitat", "dvf_sales_total": 0, "dvf_sales_appt": 0, "dvf_sales_maison": 0, "dvf_median_price": null, "dvf_median_ppsqm": null, "dvf_by_year": [], "dpe_total": 0, "dpe_etiquettes": {}, "dpe_pct_fg": null, "dpe_pct_ab": null, "annee_construction_median": null}}, {"type": "Feature", "geometry": {"coordinates": [[[2.450535017992168, 48.81585849411034], [2.450375189647637, 48.81577591633626], [2.450235731669625, 48.81569882825967], [2.45012340541477, 48.81563175792758], [2.449994832945661, 48.815555618994495], [2.449820320976202, 48.815445092251096], [2.449694615318793, 48.815355475531696], [2.449583851615238, 48.815269524962005], [2.449488058250796, 48.81518454258733], [2.449396284031325, 48.81510587426979], [2.449322127570235, 48.81503538140531], [2.449253503849536, 48.814956819589085], [2.449097553423315, 48.814765433339915], [2.449006341171061, 48.81463370406262], [2.448923290387628, 48.8145029116926], [2.448845715530334, 48.814369446360615], [2.448800243093118, 48.81429099095143], [2.448749694577324, 48.814177436415655], [2.448729876876966, 48.81411978491736], [2.448711449482941, 48.814059441692244], [2.448686660302719, 48.8139567984027], [2.448663366069129, 48.813841570711325], [2.448649670618736, 48.81372009162738], [2.448641374603128, 48.81360313431556], [2.448638335356164, 48.813504188782716], [2.448632810388904, 48.81338274733885], [2.448640446237969, 48.81330453670195], [2.448652129187102, 48.81322994223341], [2.448678047275234, 48.81309695384792], [2.448713582777686, 48.812955915387384], [2.448761668153034, 48.81278705404481], [2.448802840142517, 48.81262805394598], [2.448849705798096, 48.81244569622397], [2.448878498448694, 48.81229833090379], [2.448905976764248, 48.8121464626071], [2.44892644691864, 48.81201344893296], [2.448947800736482, 48.811796797087425], [2.448910763881955, 48.8115645866155], [2.448933267448262, 48.81123911510273], [2.448911631607976, 48.81070928086976], [2.448892313468527, 48.81034674175201], [2.448860785854917, 48.80985103794166], [2.448852727584534, 48.80971159682717], [2.448789156444334, 48.808511529539956], [2.448778344519563, 48.808246162133095], [2.448765923985178, 48.80800417117312], [2.449220771913142, 48.80812768417886], [2.449858943194724, 48.80829880704703], [2.450673586039898, 48.808522002226], [2.450803939391248, 48.80855677762415], [2.451231650126267, 48.808672063774154], [2.45170822918796, 48.80880196260793], [2.452645215565197, 48.80904639098505], [2.453487123752821, 48.80926879218665], [2.453579421534257, 48.80929709488006], [2.453844155089704, 48.80937295317129], [2.454205178599039, 48.80948612510193], [2.45466502863754, 48.809654608954126], [2.455235868373223, 48.809887452775435], [2.45542699456864, 48.809971066480955], [2.455600420100544, 48.81005459926961], [2.456249202860749, 48.81038762414598], [2.456524079884383, 48.8105363722396], [2.45667017295844, 48.81062967233394], [2.45717763783157, 48.81093506824621], [2.456882914145636, 48.8111225992554], [2.45673487067428, 48.81121636138207], [2.455877439888908, 48.81195534862562], [2.454753104186645, 48.813082542856826], [2.45450121033376, 48.813339515092125], [2.454231762115092, 48.813582016586736], [2.454142402533431, 48.813662552566115], [2.453688706985747, 48.814073294266], [2.452724685591259, 48.81483875163297], [2.4520055657559, 48.81536429087109], [2.451544178918257, 48.81559691235848], [2.4512624880379, 48.815706243066714], [2.451120379763929, 48.81575145893035], [2.450787374935145, 48.81581918166699], [2.450535017992168, 48.81585849411034]]], "type": "Polygon"}, "properties": {"code_iris": "940460401", "nom_iris": "Planètes 1", "type_iris": "iris d'habitat", "dvf_sales_total": 428, "dvf_sales_appt": 148, "dvf_sales_maison": 68, "dvf_median_price": 494300.0, "dvf_median_ppsqm": 7281.0, "dvf_by_year": [{"year": 2021, "sales": 180, "median_price": 3500000.0}, {"year": 2022, "sales": 82, "median_price": 460000.0}, {"year": 2023, "sales": 51, "median_price": 433390.0}, {"year": 2024, "sales": 37, "median_price": 255000.0}, {"year": 2025, "sales": 78, "median_price": 350000.0}], "dpe_total": 113, "dpe_etiquettes": {"D": 16, "G": 25, "E": 17, "C": 35, "F": 13, "B": 7}, "dpe_pct_fg": 33.6, "dpe_pct_ab": 6.2, "annee_construction_median": 1976}}, {"type": "Feature", "geometry": {"coordinates": [[[2.431133891647532, 48.816246229686605], [2.431333107510759, 48.81608618890883], [2.431404874392887, 48.81574926386976], [2.431471281497523, 48.81540421880946], [2.43146175888887, 48.81540327415139], [2.431376065233082, 48.815393872863964], [2.431189512129945, 48.815392086125605], [2.43120868485645, 48.81538228418517], [2.431222439913235, 48.815369758337106], [2.431226691985857, 48.81535448914898], [2.431330039553435, 48.815368471398344], [2.43148109824904, 48.81537818354499], [2.43151783670009, 48.81538105636112], [2.431677105310997, 48.81538720978532], [2.431856800556836, 48.815393460062424], [2.432043324302585, 48.81539794375194], [2.432168578068867, 48.8154012368051], [2.432570183805175, 48.815413935964955], [2.432786637365151, 48.81542125866427], [2.432992187013482, 48.815429428639334], [2.433397888263006, 48.81544124506173], [2.433611618502916, 48.81544855336066], [2.43381582614201, 48.81545491680694], [2.434239211341809, 48.81546861286626], [2.434459750689955, 48.81547595186754], [2.434672129194788, 48.81548235249838], [2.435344603041841, 48.81550801465945], [2.435561028178533, 48.8155180303284], [2.435769341120332, 48.81552261106198], [2.435980465197651, 48.81551911030162], [2.43619839813105, 48.815515641275866], [2.436412274864169, 48.81550945460282], [2.436626132114465, 48.81550506620926], [2.436822286233324, 48.815500594048125], [2.437015707056263, 48.815497008072015], [2.437180462602297, 48.81549958248879], [2.437339615798161, 48.81551652034267], [2.437502776822543, 48.815540671853086], [2.437724387799257, 48.815574991171246], [2.437693327582682, 48.81491919929912], [2.437658299290283, 48.81425259583728], [2.437651088940624, 48.81416352352291], [2.437612164709121, 48.813605726047186], [2.437571672098799, 48.812940894828145], [2.437527082037247, 48.81215103018639], [2.437507065219002, 48.81148179750954], [2.437478937191794, 48.810807129982194], [2.4374455705749, 48.810239463731456], [2.437422458058984, 48.81010984410478], [2.440078527321454, 48.810040469760466], [2.442844747272763, 48.809984141164946], [2.443498475226407, 48.80997369531027], [2.443556454673551, 48.81066558872413], [2.44358863111046, 48.81135106593539], [2.443618200157123, 48.81202573803501], [2.443661731732106, 48.812795808810904], [2.443692808174959, 48.813456996365574], [2.443718457627521, 48.81411635951592], [2.443756152510398, 48.814795564602505], [2.443800849104922, 48.81545681430902], [2.443801769636332, 48.81549818990009], [2.443803878964693, 48.815683471207215], [2.443808309319366, 48.815778825680574], [2.443832408238709, 48.81620074506363], [2.44330931549463, 48.81621360010302], [2.441908937021192, 48.81624934247859], [2.441253122641657, 48.8163200283831], [2.440879527005733, 48.816361451976505], [2.439745716981689, 48.81655670542421], [2.438859747795934, 48.816753111527994], [2.438056440282345, 48.816860861402304], [2.437038904481298, 48.8168803579816], [2.436183724649174, 48.81674681833616], [2.435438282308913, 48.81654094127798], [2.434838304830628, 48.816359130960656], [2.434297469963033, 48.81624954753791], [2.43404041266502, 48.81621865161861], [2.433572336196943, 48.81618135939166], [2.432371792070381, 48.81612440144978], [2.431133891647532, 48.816246229686605]]], "type": "Polygon"}, "properties": {"code_iris": "940460301", "nom_iris": "Charentonneau 1", "type_iris": "iris d'habitat", "dvf_sales_total": 499, "dvf_sales_appt": 138, "dvf_sales_maison": 80, "dvf_median_price": 440000.0, "dvf_median_ppsqm": 6437.0, "dvf_by_year": [{"year": 2021, "sales": 106, "median_price": 366768.0}, {"year": 2022, "sales": 96, "median_price": 650000.0}, {"year": 2023, "sales": 98, "median_price": 401850.0}, {"year": 2024, "sales": 82, "median_price": 530000.0}, {"year": 2025, "sales": 117, "median_price": 371000.0}], "dpe_total": 140, "dpe_etiquettes": {"G": 29, "E": 32, "F": 20, "D": 32, "C": 26, "B": 1}, "dpe_pct_fg": 35.0, "dpe_pct_ab": 0.7, "annee_construction_median": 1947}}, {"type": "Feature", "geometry": {"coordinates": [[[2.437512203329528, 48.799895050075826], [2.437988755387369, 48.79925872529066], [2.438309276278686, 48.79882492730063], [2.438346584443827, 48.798773837391444], [2.438548360194262, 48.79849417567185], [2.439065680202163, 48.797735720287214], [2.439140496476435, 48.79761465362934], [2.439233916315501, 48.79753594557299], [2.439194208283485, 48.79743053052147], [2.439194865733852, 48.79736937501602], [2.439213626165904, 48.7972705300205], [2.439276798765403, 48.797092746951115], [2.439302056084882, 48.79702271292138], [2.43945450697091, 48.7965179699827], [2.439556103828948, 48.79618477206189], [2.439661957061968, 48.79583540485834], [2.439754852525641, 48.79555163237067], [2.439842089533278, 48.7952876198626], [2.44061453815808, 48.79548730533315], [2.441401918405288, 48.79569155249825], [2.442386563343939, 48.795908407020136], [2.442616139965252, 48.796208975380246], [2.442684623339923, 48.7962974351235], [2.443967013667709, 48.79808510127099], [2.445036511531462, 48.79928895819316], [2.445441833328707, 48.79970905526801], [2.445372413257502, 48.79970783377458], [2.445232202194873, 48.79970628369247], [2.445164133931603, 48.79970596774104], [2.444620796016071, 48.7997178345681], [2.443341189369731, 48.79970468689625], [2.443211850096433, 48.79970498385347], [2.443154624764252, 48.7997092142112], [2.442957025145621, 48.799727180640964], [2.442713436800266, 48.79971705127631], [2.442126976956581, 48.79968733381525], [2.442058927975756, 48.79968521740729], [2.441692836489602, 48.799672715280906], [2.441300802210716, 48.7996672858833], [2.440922304537197, 48.79966911363003], [2.440609123365769, 48.79967394405014], [2.440532877343986, 48.79967448657726], [2.440463418846139, 48.7996768596086], [2.440432097828465, 48.79967761237049], [2.440344912643036, 48.79968260051049], [2.440291713296069, 48.799692244684145], [2.440283535460201, 48.79969310577837], [2.439977151252355, 48.79969886576128], [2.439903676199405, 48.79969492392442], [2.43984518582156, 48.79969015287936], [2.43973763805104, 48.79968964881125], [2.439463936210299, 48.799694661279624], [2.438881136895119, 48.79970451817597], [2.438525733660923, 48.799710943697015], [2.438404543167496, 48.79971307250978], [2.437880674351208, 48.79981314032763], [2.437512203329528, 48.799895050075826]]], "type": "Polygon"}, "properties": {"code_iris": "940460111", "nom_iris": "Centre Vert de Maison 11", "type_iris": "iris d'habitat", "dvf_sales_total": 144, "dvf_sales_appt": 47, "dvf_sales_maison": 3, "dvf_median_price": 272500.0, "dvf_median_ppsqm": 4737.0, "dvf_by_year": [{"year": 2021, "sales": 29, "median_price": 251000.0}, {"year": 2022, "sales": 30, "median_price": 359000.0}, {"year": 2023, "sales": 18, "median_price": 334000.0}, {"year": 2024, "sales": 19, "median_price": 237000.0}, {"year": 2025, "sales": 48, "median_price": 250000.0}], "dpe_total": 1529, "dpe_etiquettes": {"D": 857, "C": 177, "E": 491, "F": 2, "B": 1, "G": 1}, "dpe_pct_fg": 0.2, "dpe_pct_ab": 0.1, "annee_construction_median": 1973}}, {"type": "Feature", "geometry": {"coordinates": [[[2.427643751259537, 48.81274268343333], [2.427761558410526, 48.812679391388876], [2.428335502804096, 48.81237275041354], [2.428587542443054, 48.81223814890207], [2.429803764103319, 48.81159999933618], [2.432586880188619, 48.81012476525646], [2.432744338889607, 48.81004546753318], [2.432803311799038, 48.810132087959914], [2.432662241498618, 48.81020696662209], [2.43269131706966, 48.810288048920185], [2.432694805235105, 48.81034292773162], [2.432701996808874, 48.81043289998118], [2.432695513249254, 48.810528203618496], [2.432668089932955, 48.81092110296923], [2.432655093193611, 48.81111440815205], [2.432606324434182, 48.81159174774064], [2.432520536211908, 48.81221730907739], [2.432511769101044, 48.81227212962957], [2.432376723263487, 48.81304405549196], [2.432338939903153, 48.81326242521461], [2.432302537530108, 48.81347900268427], [2.432272698729629, 48.813718095735574], [2.432252430208003, 48.81382862305364], [2.432214155495679, 48.81396694557998], [2.432180288949795, 48.814075609528686], [2.432150585831436, 48.81417709820609], [2.432098800875658, 48.81430546332839], [2.432036072704977, 48.814438273320974], [2.431990165230117, 48.81452709365815], [2.431945589961966, 48.81461861843473], [2.431891492047654, 48.81470919856285], [2.43182648028683, 48.814801525552234], [2.431769893647941, 48.81487050872025], [2.4317037157254, 48.81494484253582], [2.431602053346266, 48.81502620264471], [2.431470382781318, 48.815111916863366], [2.431342904965509, 48.81518775772119], [2.431279783049686, 48.815231526986416], [2.431238547436937, 48.815266406557505], [2.431198418489937, 48.81532467519159], [2.431218697920279, 48.81533826232697], [2.431226691985857, 48.81535448914898], [2.431222439913235, 48.815369758337106], [2.43120868485645, 48.81538228418517], [2.431189512129945, 48.815392086125605], [2.431156760904682, 48.81539822595222], [2.431119963595568, 48.81540074900936], [2.431087330095179, 48.81539609684868], [2.431061544713586, 48.815387879756216], [2.431042656514373, 48.81537160108285], [2.431037415484743, 48.8153526892171], [2.43086700749702, 48.81536896635138], [2.430638151184941, 48.81537507177439], [2.430500582696431, 48.81537711472549], [2.429808644940397, 48.815388206954665], [2.429491273182331, 48.81539388802547], [2.429118088354029, 48.815397503020435], [2.429106529670229, 48.81446299418162], [2.429113844800977, 48.81379479084851], [2.42909420648378, 48.81372274676805], [2.428942687486018, 48.81363118588556], [2.428206414595157, 48.81321665062891], [2.427700429311705, 48.81291383689859], [2.42764232004434, 48.81287308664165], [2.427643070199405, 48.81280473737572], [2.427643751259537, 48.81274268343333]]], "type": "Polygon"}, "properties": {"code_iris": "940460204", "nom_iris": "Alfort 4", "type_iris": "iris d'habitat", "dvf_sales_total": 607, "dvf_sales_appt": 237, "dvf_sales_maison": 24, "dvf_median_price": 350000.0, "dvf_median_ppsqm": 6359.0, "dvf_by_year": [{"year": 2021, "sales": 134, "median_price": 320000.0}, {"year": 2022, "sales": 139, "median_price": 400000.0}, {"year": 2023, "sales": 69, "median_price": 314940.0}, {"year": 2024, "sales": 111, "median_price": 262405.0}, {"year": 2025, "sales": 154, "median_price": 447000.0}], "dpe_total": 166, "dpe_etiquettes": {"E": 47, "F": 25, "G": 36, "C": 17, "D": 39, "B": 2}, "dpe_pct_fg": 36.7, "dpe_pct_ab": 1.2, "annee_construction_median": 1948}}, {"type": "Feature", "geometry": {"coordinates": [[[2.455232963872125, 48.805863607018736], [2.455496330123815, 48.80580814580086], [2.455997229531984, 48.80569350653334], [2.456188414723497, 48.8056395140535], [2.45649969443155, 48.80555908585339], [2.456603460367382, 48.80553167671155], [2.456719554797703, 48.80549712844455], [2.456807019754445, 48.80546604750748], [2.456943873743464, 48.80539921555512], [2.457290386485889, 48.805203824277065], [2.45746428989558, 48.80510927903186], [2.457723000784873, 48.80523906475252], [2.45777997856826, 48.80525910964549], [2.457826176480648, 48.80526831301931], [2.458645001329229, 48.8056119908269], [2.459790568503302, 48.80609204725919], [2.460323408599226, 48.806311205134534], [2.460658256124317, 48.806058191142284], [2.460848117707858, 48.80613189757668], [2.46087795062511, 48.80614372409521], [2.461143770871046, 48.806245653444755], [2.461416381284947, 48.80634941154622], [2.461888323126993, 48.80653321207225], [2.462681686404387, 48.806841671135096], [2.463532309413032, 48.80714408611045], [2.463675996827644, 48.8072067881504], [2.464012204243566, 48.807350398275695], [2.463558121526422, 48.80767933372745], [2.462821564493516, 48.808199465883916], [2.462151158353325, 48.808509435971374], [2.461517451868372, 48.80882496384402], [2.460591900258327, 48.80931455093162], [2.458655401431504, 48.810119736350615], [2.45850224425267, 48.81018199928969], [2.458012188127284, 48.81042890667417], [2.457487449867433, 48.81073681241104], [2.45717763783157, 48.81093506824621], [2.45667017295844, 48.81062967233394], [2.456524079884383, 48.8105363722396], [2.456647406023766, 48.81046228433279], [2.456781465728786, 48.81040353451526], [2.457031555163915, 48.81031743081605], [2.457650774025844, 48.81009000040339], [2.458053952477522, 48.809947928043705], [2.458715671660306, 48.80969190458623], [2.458899100165303, 48.80959919945906], [2.458652759342645, 48.809455982212285], [2.45821695189081, 48.809200382810104], [2.458065366878845, 48.80911155648753], [2.457581043116233, 48.80880806755356], [2.457290151169009, 48.80862866999051], [2.457111590212161, 48.808515436652264], [2.457061538819352, 48.80848373102036], [2.456496018805943, 48.808133100858306], [2.455953418678118, 48.80780505672339], [2.455781624396642, 48.80769634899249], [2.455747922874383, 48.80766381782904], [2.455726372317237, 48.80764123517479], [2.455648029426141, 48.807450209551625], [2.45550369312359, 48.80692881006974], [2.455309734375608, 48.80620482296527], [2.455232963872125, 48.805863607018736]]], "type": "Polygon"}, "properties": {"code_iris": "940460403", "nom_iris": "Planètes 3", "type_iris": "iris d'habitat", "dvf_sales_total": 9, "dvf_sales_appt": 2, "dvf_sales_maison": 3, "dvf_median_price": 419300.0, "dvf_median_ppsqm": 6086.0, "dvf_by_year": [{"year": 2021, "sales": 6, "median_price": 419300.0}, {"year": 2022, "sales": 1, "median_price": 235000.0}, {"year": 2023, "sales": 2, "median_price": 585000.0}], "dpe_total": 2176, "dpe_etiquettes": {"D": 714, "B": 52, "E": 1010, "F": 305, "G": 5, "C": 90}, "dpe_pct_fg": 14.2, "dpe_pct_ab": 2.4, "annee_construction_median": 2019}}, {"type": "Feature", "geometry": {"coordinates": [[[2.432830147334796, 48.7972718870606], [2.432847333605154, 48.79719372153865], [2.432837196121728, 48.79712442026915], [2.432782536878136, 48.79701803264509], [2.432619757125144, 48.79683918040651], [2.432042158121758, 48.796249133865416], [2.432028868513714, 48.79621939075747], [2.43202978893216, 48.796134852228356], [2.432066855913193, 48.79585621662692], [2.432222572752403, 48.794807364567625], [2.432257924184337, 48.79456109861922], [2.432301432833871, 48.79431577075048], [2.43239916134611, 48.79371633895381], [2.43242511117064, 48.7935833518012], [2.432496719953434, 48.79300717977271], [2.432573752286903, 48.79243283195874], [2.432673775930105, 48.791872083899015], [2.432717681319327, 48.791589881959176], [2.432764562753322, 48.79128430975504], [2.432767901057562, 48.791227663625634], [2.432801250822555, 48.791039848043205], [2.432882223404108, 48.79047810932571], [2.432901120400135, 48.79036757316207], [2.432935928000312, 48.790170770350315], [2.432999851097507, 48.78967460626267], [2.433025296330154, 48.7894624691239], [2.433186891839028, 48.78811953458734], [2.433204325535237, 48.78789296874158], [2.433250699423746, 48.78750824583546], [2.433274439640519, 48.787327579145476], [2.43342039237648, 48.786922642019185], [2.43350855886945, 48.786700008853295], [2.436026095240481, 48.786997026961224], [2.436004824265608, 48.7870760737239], [2.435869652813795, 48.78761867281955], [2.435714606630925, 48.78823672715004], [2.435556008655644, 48.78880529728825], [2.435325897077782, 48.7896928151891], [2.435294658170227, 48.78981228742905], [2.43529462896761, 48.78981498548314], [2.435179511289907, 48.79026414003586], [2.435139725238041, 48.790418648260356], [2.435097129059309, 48.79058123773907], [2.435084401765225, 48.79062524801649], [2.434993491208839, 48.79097558290776], [2.434854176716637, 48.79152175708835], [2.43481021759272, 48.79168433987008], [2.434753364666165, 48.791906221749905], [2.434485739011985, 48.792986928226654], [2.434426219395995, 48.793203400722604], [2.434312525985904, 48.79364536475657], [2.434275583990129, 48.79378819359399], [2.434137957119622, 48.794302894860934], [2.434044194254839, 48.79466400717497], [2.43396037838591, 48.79498649250326], [2.43378716185128, 48.79564402776544], [2.433686109419953, 48.79604917509605], [2.433654765314167, 48.79617763970068], [2.433494036736533, 48.79681274825993], [2.43333395879725, 48.79738760012054], [2.432830147334796, 48.7972718870606]]], "type": "Polygon"}, "properties": {"code_iris": "940460105", "nom_iris": "Centre Vert de Maison 5", "type_iris": "iris d'habitat", "dvf_sales_total": 155, "dvf_sales_appt": 48, "dvf_sales_maison": 17, "dvf_median_price": 242500.0, "dvf_median_ppsqm": 4747.0, "dvf_by_year": [{"year": 2021, "sales": 30, "median_price": 285500.0}, {"year": 2022, "sales": 51, "median_price": 254000.0}, {"year": 2023, "sales": 32, "median_price": 218000.0}, {"year": 2024, "sales": 18, "median_price": 260000.0}, {"year": 2025, "sales": 24, "median_price": 158750.0}], "dpe_total": 626, "dpe_etiquettes": {"G": 10, "C": 2, "E": 101, "F": 504, "D": 9}, "dpe_pct_fg": 82.1, "dpe_pct_ab": 0.0, "annee_construction_median": 1934}}, {"type": "Feature", "geometry": {"coordinates": [[[2.428893900413105, 48.79632497027388], [2.428895281379619, 48.79632317808724], [2.428989006900514, 48.79609338134977], [2.429120883227973, 48.795736052908495], [2.429202148770713, 48.795525083637976], [2.42956926072854, 48.79456988149228], [2.429890491103754, 48.79382581637392], [2.430104149841841, 48.79333306765736], [2.430585964195128, 48.79221741577584], [2.43133915271198, 48.790305287466765], [2.43142727499641, 48.79008805260342], [2.431603507566023, 48.78965448190847], [2.432025848653369, 48.78861948390091], [2.432125176804238, 48.78837262133012], [2.43259815728184, 48.78718496294068], [2.43269898770089, 48.786924615743104], [2.432831619233327, 48.78661854994704], [2.43350855886945, 48.786700008853295], [2.43342039237648, 48.786922642019185], [2.433274439640519, 48.787327579145476], [2.433250699423746, 48.78750824583546], [2.433204325535237, 48.78789296874158], [2.433186891839028, 48.78811953458734], [2.433025296330154, 48.7894624691239], [2.432999851097507, 48.78967460626267], [2.432935928000312, 48.790170770350315], [2.432901120400135, 48.79036757316207], [2.432882223404108, 48.79047810932571], [2.432801250822555, 48.791039848043205], [2.432767901057562, 48.791227663625634], [2.432764562753322, 48.79128430975504], [2.432717681319327, 48.791589881959176], [2.432673775930105, 48.791872083899015], [2.432573752286903, 48.79243283195874], [2.432496719953434, 48.79300717977271], [2.43242511117064, 48.7935833518012], [2.43239916134611, 48.79371633895381], [2.432301432833871, 48.79431577075048], [2.432257924184337, 48.79456109861922], [2.432222572752403, 48.794807364567625], [2.432066855913193, 48.79585621662692], [2.43202978893216, 48.796134852228356], [2.432028868513714, 48.79621939075747], [2.432042158121758, 48.796249133865416], [2.432619757125144, 48.79683918040651], [2.432782536878136, 48.79701803264509], [2.432837196121728, 48.79712442026915], [2.432847333605154, 48.79719372153865], [2.432830147334796, 48.7972718870606], [2.432607989676818, 48.79717010075644], [2.432434174129493, 48.797129702243296], [2.431668480170252, 48.79693539263131], [2.430986867933945, 48.79677115832829], [2.43069491754706, 48.79670321300825], [2.430565909606504, 48.79667381787943], [2.430363588909663, 48.79662608536976], [2.430246783774636, 48.796601245013846], [2.430078348298848, 48.79656716443092], [2.429032474853029, 48.79635081535632], [2.428893900413105, 48.79632497027388]]], "type": "Polygon"}, "properties": {"code_iris": "940460106", "nom_iris": "Centre Vert de Maison 6", "type_iris": "iris d'habitat", "dvf_sales_total": 75, "dvf_sales_appt": 36, "dvf_sales_maison": 0, "dvf_median_price": 4111800.0, "dvf_median_ppsqm": 69476.0, "dvf_by_year": [{"year": 2021, "sales": 1, "median_price": 1796.0}, {"year": 2022, "sales": 74, "median_price": 4111800.0}], "dpe_total": 277, "dpe_etiquettes": {"C": 74, "E": 93, "D": 110}, "dpe_pct_fg": 0.0, "dpe_pct_ab": 0.0, "annee_construction_median": 1961}}, {"type": "Feature", "geometry": {"coordinates": [[[2.431601945785001, 48.80116760717918], [2.431827439133894, 48.80108953305184], [2.43197019023495, 48.80110819929646], [2.432561479726382, 48.80119555030265], [2.432721890497723, 48.801217897033176], [2.432886473618611, 48.80123216884681], [2.433047158344312, 48.80122933356113], [2.433221613440562, 48.80121217314011], [2.433382513011044, 48.80118955187591], [2.433704702282651, 48.80110833500581], [2.433961445836542, 48.801035801246854], [2.434414126351792, 48.80084817309428], [2.434738375000792, 48.8007022071857], [2.435055006455673, 48.800630853658454], [2.435260809754925, 48.80061024087155], [2.435412167140626, 48.80058847118023], [2.435518676502903, 48.80055929439653], [2.435647133327866, 48.80051493153472], [2.435944897535113, 48.80042549878816], [2.436840157104622, 48.80010054384111], [2.437140707575458, 48.800004825507486], [2.437413932555518, 48.79991797169475], [2.437228339183517, 48.80033711267755], [2.436990039243729, 48.800845943832435], [2.436728260535595, 48.80138524286145], [2.436712848010903, 48.80142564269312], [2.436718128546218, 48.80144095717415], [2.436728825589312, 48.80145899534357], [2.436765234061992, 48.80149154487643], [2.437289047080589, 48.801903233411174], [2.437513248908917, 48.802070675357484], [2.437937044455845, 48.802415335443364], [2.438369004584529, 48.80276093164417], [2.439080218667035, 48.80334707367812], [2.440373072447763, 48.80441800621359], [2.441065675380035, 48.8049662740701], [2.441085924441688, 48.80498255767585], [2.441571924972104, 48.80537156443547], [2.440854375553338, 48.80575224740071], [2.439859557574499, 48.80532487931562], [2.438348348674088, 48.80467922510686], [2.43739015712048, 48.80426819690282], [2.437119093042158, 48.8041526988145], [2.436946971422067, 48.80407903793742], [2.43563221509235, 48.80352960851179], [2.434833889228696, 48.80319576176109], [2.434436796683728, 48.803026597659816], [2.434278267791749, 48.802955695304476], [2.434176744493073, 48.80290125155486], [2.434063046456459, 48.80283955497707], [2.43382903921563, 48.802698142424305], [2.433465067783449, 48.802488659427105], [2.433024094028277, 48.802223947400215], [2.432763020332887, 48.80206801406388], [2.432602067269456, 48.80197011625899], [2.432541263088845, 48.801927556380456], [2.432426540409775, 48.80183527411565], [2.432301005106242, 48.80173574527312], [2.431665412325652, 48.80121557656261], [2.431601945785001, 48.80116760717918]]], "type": "Polygon"}, "properties": {"code_iris": "940460107", "nom_iris": "Centre Vert de Maison 7", "type_iris": "iris d'habitat", "dvf_sales_total": 812, "dvf_sales_appt": 311, "dvf_sales_maison": 5, "dvf_median_price": 386100.0, "dvf_median_ppsqm": 6205.0, "dvf_by_year": [{"year": 2021, "sales": 249, "median_price": 560000.0}, {"year": 2022, "sales": 123, "median_price": 350000.0}, {"year": 2023, "sales": 121, "median_price": 390000.0}, {"year": 2024, "sales": 134, "median_price": 330000.0}, {"year": 2025, "sales": 185, "median_price": 310000.0}], "dpe_total": 152, "dpe_etiquettes": {"F": 16, "C": 57, "B": 9, "D": 29, "G": 11, "E": 27, "A": 3}, "dpe_pct_fg": 17.8, "dpe_pct_ab": 7.9, "annee_construction_median": 1983}}, {"type": "Feature", "geometry": {"coordinates": [[[2.427388014478521, 48.799943211838716], [2.427727401476646, 48.79903915120628], [2.427864433455891, 48.79870973080636], [2.427986074894576, 48.79841801093509], [2.428269945625817, 48.79773313352108], [2.428318862952393, 48.797617345977706], [2.428620874865763, 48.79689118201438], [2.428893900413105, 48.79632497027388], [2.429032474853029, 48.79635081535632], [2.430078348298848, 48.79656716443092], [2.430246783774636, 48.796601245013846], [2.430363588909663, 48.79662608536976], [2.430565909606504, 48.79667381787943], [2.43069491754706, 48.79670321300825], [2.430986867933945, 48.79677115832829], [2.431668480170252, 48.79693539263131], [2.432434174129493, 48.797129702243296], [2.432607989676818, 48.79717010075644], [2.432830147334796, 48.7972718870606], [2.43333395879725, 48.79738760012054], [2.433235797977766, 48.79777657114801], [2.433217065123022, 48.79787181778161], [2.433207812570244, 48.797971606317546], [2.433221741527342, 48.798067907210154], [2.433285785477544, 48.798187829886736], [2.433400964285924, 48.79836285776824], [2.433507122399647, 48.79849107444202], [2.434913907292429, 48.80020837324131], [2.435260809754925, 48.80061024087155], [2.435055006455673, 48.800630853658454], [2.434738375000792, 48.8007022071857], [2.434414126351792, 48.80084817309428], [2.433961445836542, 48.801035801246854], [2.433704702282651, 48.80110833500581], [2.433382513011044, 48.80118955187591], [2.433221613440562, 48.80121217314011], [2.433047158344312, 48.80122933356113], [2.432886473618611, 48.80123216884681], [2.432721890497723, 48.801217897033176], [2.432561479726382, 48.80119555030265], [2.43197019023495, 48.80110819929646], [2.431827439133894, 48.80108953305184], [2.431601945785001, 48.80116760717918], [2.431534424563076, 48.80111692030991], [2.431381890221095, 48.80099657607286], [2.431227857899443, 48.80088881594181], [2.431179122303011, 48.80086340113567], [2.431111464568389, 48.80082530480607], [2.430977393058202, 48.8007599106172], [2.430848571183549, 48.80071252905144], [2.43074952342771, 48.800681478150345], [2.430107443544347, 48.800508433967394], [2.429922786716578, 48.800462583938405], [2.429571171983917, 48.80037096748151], [2.429006324176734, 48.800232462661484], [2.428801337289737, 48.800178419251836], [2.428772827191375, 48.80017108788615], [2.428582756789806, 48.80012251172085], [2.428535197370898, 48.80011418983824], [2.428274306453049, 48.80006797272899], [2.428169677940927, 48.80004948442275], [2.427910030680361, 48.80001406514109], [2.427388014478521, 48.799943211838716]]], "type": "Polygon"}, "properties": {"code_iris": "940460104", "nom_iris": "Centre Vert de Maison 4", "type_iris": "iris d'habitat", "dvf_sales_total": 428, "dvf_sales_appt": 159, "dvf_sales_maison": 29, "dvf_median_price": 305276.0, "dvf_median_ppsqm": 6202.0, "dvf_by_year": [{"year": 2021, "sales": 97, "median_price": 310000.0}, {"year": 2022, "sales": 113, "median_price": 336000.0}, {"year": 2023, "sales": 74, "median_price": 322846.0}, {"year": 2024, "sales": 67, "median_price": 265000.0}, {"year": 2025, "sales": 77, "median_price": 292000.0}], "dpe_total": 396, "dpe_etiquettes": {"E": 166, "D": 38, "G": 30, "C": 33, "F": 129}, "dpe_pct_fg": 40.2, "dpe_pct_ab": 0.0, "annee_construction_median": 1965}}, {"type": "Feature", "geometry": {"coordinates": [[[2.441571924972104, 48.80537156443547], [2.441085924441688, 48.80498255767585], [2.441065675380035, 48.8049662740701], [2.440373072447763, 48.80441800621359], [2.439080218667035, 48.80334707367812], [2.438369004584529, 48.80276093164417], [2.437937044455845, 48.802415335443364], [2.437513248908917, 48.802070675357484], [2.437289047080589, 48.801903233411174], [2.436765234061992, 48.80149154487643], [2.436728825589312, 48.80145899534357], [2.436718128546218, 48.80144095717415], [2.436712848010903, 48.80142564269312], [2.436728260535595, 48.80138524286145], [2.436990039243729, 48.800845943832435], [2.437228339183517, 48.80033711267755], [2.437413932555518, 48.79991797169475], [2.437512203329528, 48.799895050075826], [2.437880674351208, 48.79981314032763], [2.438404543167496, 48.79971307250978], [2.438525733660923, 48.799710943697015], [2.438881136895119, 48.79970451817597], [2.439463936210299, 48.799694661279624], [2.43973763805104, 48.79968964881125], [2.43984518582156, 48.79969015287936], [2.439903676199405, 48.79969492392442], [2.439977151252355, 48.79969886576128], [2.440283535460201, 48.79969310577837], [2.440291713296069, 48.799692244684145], [2.440344912643036, 48.79968260051049], [2.440432097828465, 48.79967761237049], [2.440463418846139, 48.7996768596086], [2.440532877343986, 48.79967448657726], [2.440609123365769, 48.79967394405014], [2.440922304537197, 48.79966911363003], [2.441300802210716, 48.7996672858833], [2.441692836489602, 48.799672715280906], [2.442058927975756, 48.79968521740729], [2.442126976956581, 48.79968733381525], [2.442713436800266, 48.79971705127631], [2.442957025145621, 48.799727180640964], [2.442997189289515, 48.80004575143544], [2.443022702985082, 48.80046138779702], [2.443012212978606, 48.800551277741135], [2.443002231913006, 48.800593502475834], [2.442976612888543, 48.800697712114825], [2.44294241241093, 48.80084055543073], [2.442894367236495, 48.80100491950182], [2.442754355454621, 48.801366720107566], [2.442712523533266, 48.801459162000015], [2.442688927933204, 48.80150132320062], [2.442646253294997, 48.80154519420869], [2.442595467763625, 48.8015836310524], [2.442527002986557, 48.80162018664663], [2.442215273240803, 48.801742847838014], [2.442174247960631, 48.80175974474793], [2.442082638526768, 48.801796192070945], [2.441973243908327, 48.801840650780505], [2.441903503538923, 48.8018691055725], [2.441680581101694, 48.801962500190236], [2.441623073975153, 48.80199281073108], [2.441558663370474, 48.80203208286315], [2.441544827654559, 48.802052704127675], [2.44152406924563, 48.802084085691845], [2.441508775781239, 48.802113694011574], [2.44149341489207, 48.80214959772316], [2.441481936043751, 48.80220440669871], [2.441492326741521, 48.802251223374064], [2.441514854798642, 48.802308889399434], [2.441559146596624, 48.80236845587081], [2.441623686739939, 48.80244430587382], [2.441668354217759, 48.80246879796635], [2.441721045976477, 48.80250681832097], [2.441769653495196, 48.802544819577], [2.441818626800727, 48.802548645824345], [2.441859325621187, 48.802562326669346], [2.441891769218822, 48.80258406343655], [2.441932468086102, 48.80259774425622], [2.441962227340972, 48.80261587092421], [2.441989167522205, 48.80264297829072], [2.442014717426983, 48.80267277732041], [2.44204423624737, 48.80271338750894], [2.4420642346226, 48.8027530538645], [2.442198753693559, 48.80290567798798], [2.442337232910698, 48.803070012432855], [2.442790076270194, 48.80363064294564], [2.44328635280499, 48.80420496448688], [2.443454647663641, 48.80438292704882], [2.4435395962031, 48.80446066964428], [2.443262905078382, 48.80461587429082], [2.442964351513931, 48.80477817148748], [2.442791813250983, 48.80487000399115], [2.442615209095714, 48.80496001851326], [2.442412629989681, 48.80505980484471], [2.442272948710858, 48.80513470153369], [2.441711631326019, 48.805421683137524], [2.441571924972104, 48.80537156443547]]], "type": "Polygon"}, "properties": {"code_iris": "940460108", "nom_iris": "Centre Vert de Maison 8", "type_iris": "iris d'habitat", "dvf_sales_total": 340, "dvf_sales_appt": 133, "dvf_sales_maison": 5, "dvf_median_price": 300000.0, "dvf_median_ppsqm": 5453.0, "dvf_by_year": [{"year": 2021, "sales": 79, "median_price": 320000.0}, {"year": 2022, "sales": 82, "median_price": 319500.0}, {"year": 2023, "sales": 51, "median_price": 276000.0}, {"year": 2024, "sales": 57, "median_price": 273000.0}, {"year": 2025, "sales": 71, "median_price": 321200.0}], "dpe_total": 602, "dpe_etiquettes": {"B": 3, "F": 52, "D": 350, "E": 166, "C": 27, "G": 4}, "dpe_pct_fg": 9.3, "dpe_pct_ab": 0.5, "annee_construction_median": 1982}}, {"type": "Feature", "geometry": {"coordinates": [[[2.448216086847603, 48.80347413709342], [2.44839571590709, 48.80361167272516], [2.448557741869581, 48.80374013300805], [2.448650856299456, 48.803818809040806], [2.448708408882727, 48.80378399846116], [2.448908457095111, 48.803664403282646], [2.448945653824208, 48.80362320304054], [2.44905117082827, 48.803558933680485], [2.449432041215738, 48.803334942802095], [2.449939262330431, 48.80300720343744], [2.449967577795617, 48.80303341591927], [2.450120397997156, 48.803131252669594], [2.450128500362179, 48.80313758564094], [2.450417861881742, 48.803327787343505], [2.450448967011793, 48.803347716830075], [2.451016909185222, 48.80371817510171], [2.451223813804852, 48.803852234139484], [2.451234639364579, 48.803858579532545], [2.451461825397781, 48.804006222014664], [2.451476688164464, 48.80401708283483], [2.452889848998579, 48.80493733359959], [2.452756783025995, 48.80503205919855], [2.454548423881775, 48.80596121639869], [2.454879679776229, 48.80592405395246], [2.455232963872125, 48.805863607018736], [2.455309734375608, 48.80620482296527], [2.45550369312359, 48.80692881006974], [2.455648029426141, 48.807450209551625], [2.455726372317237, 48.80764123517479], [2.455747922874383, 48.80766381782904], [2.455781624396642, 48.80769634899249], [2.455953418678118, 48.80780505672339], [2.456496018805943, 48.808133100858306], [2.457061538819352, 48.80848373102036], [2.457111590212161, 48.808515436652264], [2.457290151169009, 48.80862866999051], [2.457581043116233, 48.80880806755356], [2.458065366878845, 48.80911155648753], [2.45821695189081, 48.809200382810104], [2.458652759342645, 48.809455982212285], [2.458899100165303, 48.80959919945906], [2.458715671660306, 48.80969190458623], [2.458053952477522, 48.809947928043705], [2.457650774025844, 48.81009000040339], [2.457031555163915, 48.81031743081605], [2.456781465728786, 48.81040353451526], [2.456647406023766, 48.81046228433279], [2.456524079884383, 48.8105363722396], [2.456249202860749, 48.81038762414598], [2.455600420100544, 48.81005459926961], [2.45542699456864, 48.809971066480955], [2.455235868373223, 48.809887452775435], [2.45466502863754, 48.809654608954126], [2.454205178599039, 48.80948612510193], [2.453844155089704, 48.80937295317129], [2.453579421534257, 48.80929709488006], [2.453487123752821, 48.80926879218665], [2.452645215565197, 48.80904639098505], [2.45170822918796, 48.80880196260793], [2.451231650126267, 48.808672063774154], [2.450803939391248, 48.80855677762415], [2.450673586039898, 48.808522002226], [2.449858943194724, 48.80829880704703], [2.449220771913142, 48.80812768417886], [2.448765923985178, 48.80800417117312], [2.448753532082489, 48.807759482145364], [2.448652176439035, 48.80601241345271], [2.44864092091228, 48.805917926274795], [2.448638682719975, 48.805872047391595], [2.448637796549905, 48.80582707412605], [2.448630720730398, 48.80572361237298], [2.448568283017079, 48.80518998972598], [2.448530471078525, 48.80490291173062], [2.448486405272424, 48.80469225247992], [2.448490307436936, 48.80458074680023], [2.4484363202199, 48.8042783044452], [2.4482729460005, 48.803633590765806], [2.448216086847603, 48.80347413709342]]], "type": "Polygon"}, "properties": {"code_iris": "940460402", "nom_iris": "Planètes 2", "type_iris": "iris d'habitat", "dvf_sales_total": 383, "dvf_sales_appt": 138, "dvf_sales_maison": 43, "dvf_median_price": 325000.0, "dvf_median_ppsqm": 5725.0, "dvf_by_year": [{"year": 2021, "sales": 90, "median_price": 300000.0}, {"year": 2022, "sales": 91, "median_price": 325000.0}, {"year": 2023, "sales": 69, "median_price": 301370.0}, {"year": 2024, "sales": 61, "median_price": 260000.0}, {"year": 2025, "sales": 72, "median_price": 345903.0}], "dpe_total": 311, "dpe_etiquettes": {"E": 58, "D": 222, "G": 8, "F": 18, "C": 5}, "dpe_pct_fg": 8.4, "dpe_pct_ab": 0.0, "annee_construction_median": 1948}}, {"type": "Feature", "geometry": {"coordinates": [[[2.4435395962031, 48.80446066964428], [2.443454647663641, 48.80438292704882], [2.44328635280499, 48.80420496448688], [2.442790076270194, 48.80363064294564], [2.442337232910698, 48.803070012432855], [2.442198753693559, 48.80290567798798], [2.4420642346226, 48.8027530538645], [2.44204423624737, 48.80271338750894], [2.442014717426983, 48.80267277732041], [2.441989167522205, 48.80264297829072], [2.441962227340972, 48.80261587092421], [2.441932468086102, 48.80259774425622], [2.441891769218822, 48.80258406343655], [2.441859325621187, 48.802562326669346], [2.441818626800727, 48.802548645824345], [2.441769653495196, 48.802544819577], [2.441721045976477, 48.80250681832097], [2.441668354217759, 48.80246879796635], [2.441623686739939, 48.80244430587382], [2.441559146596624, 48.80236845587081], [2.441514854798642, 48.802308889399434], [2.441492326741521, 48.802251223374064], [2.441481936043751, 48.80220440669871], [2.44149341489207, 48.80214959772316], [2.441508775781239, 48.802113694011574], [2.44152406924563, 48.802084085691845], [2.441544827654559, 48.802052704127675], [2.441558663370474, 48.80203208286315], [2.441623073975153, 48.80199281073108], [2.441680581101694, 48.801962500190236], [2.441903503538923, 48.8018691055725], [2.441973243908327, 48.801840650780505], [2.442082638526768, 48.801796192070945], [2.442174247960631, 48.80175974474793], [2.442215273240803, 48.801742847838014], [2.442527002986557, 48.80162018664663], [2.442595467763625, 48.8015836310524], [2.442646253294997, 48.80154519420869], [2.442688927933204, 48.80150132320062], [2.442712523533266, 48.801459162000015], [2.442754355454621, 48.801366720107566], [2.442894367236495, 48.80100491950182], [2.44294241241093, 48.80084055543073], [2.442976612888543, 48.800697712114825], [2.443002231913006, 48.800593502475834], [2.443012212978606, 48.800551277741135], [2.443022702985082, 48.80046138779702], [2.442997189289515, 48.80004575143544], [2.442957025145621, 48.799727180640964], [2.443154624764252, 48.7997092142112], [2.443211850096433, 48.79970498385347], [2.443341189369731, 48.79970468689625], [2.444620796016071, 48.7997178345681], [2.445164133931603, 48.79970596774104], [2.445232202194873, 48.79970628369247], [2.445372413257502, 48.79970783377458], [2.445441833328707, 48.79970905526801], [2.445763671849382, 48.80081139925104], [2.44587294162186, 48.80090634158259], [2.446002336677445, 48.80102925809967], [2.447345370445695, 48.80225504407681], [2.44697428649818, 48.8024547903708], [2.447041814920043, 48.802506367799765], [2.446639223995919, 48.80272395499237], [2.446462490585194, 48.80282746549841], [2.446444686787461, 48.80283727629845], [2.44620915245617, 48.80296479752788], [2.445713268285704, 48.803248503847286], [2.445505890761706, 48.803416626581736], [2.444900669352088, 48.80373849579656], [2.444739039294175, 48.803829482432775], [2.444306389792359, 48.80405501644458], [2.4435395962031, 48.80446066964428]]], "type": "Polygon"}, "properties": {"code_iris": "940460109", "nom_iris": "Centre Vert de Maison 9", "type_iris": "iris d'habitat", "dvf_sales_total": 352, "dvf_sales_appt": 89, "dvf_sales_maison": 3, "dvf_median_price": 295000.0, "dvf_median_ppsqm": 4647.0, "dvf_by_year": [{"year": 2021, "sales": 87, "median_price": 350000.0}, {"year": 2022, "sales": 79, "median_price": 310000.0}, {"year": 2023, "sales": 81, "median_price": 285380.0}, {"year": 2024, "sales": 28, "median_price": 265000.0}, {"year": 2025, "sales": 77, "median_price": 287000.0}], "dpe_total": 360, "dpe_etiquettes": {"D": 214, "E": 117, "F": 5, "C": 24}, "dpe_pct_fg": 1.4, "dpe_pct_ab": 0.0, "annee_construction_median": 1948}}, {"type": "Feature", "geometry": {"coordinates": [[[2.436124415744616, 48.808251901404915], [2.437759516634419, 48.80739079880628], [2.438067700102255, 48.80722226442156], [2.439352143028705, 48.80654926068803], [2.439668504934401, 48.806378961687116], [2.440854375553338, 48.80575224740071], [2.441571924972104, 48.80537156443547], [2.441711631326019, 48.805421683137524], [2.442272948710858, 48.80513470153369], [2.442412629989681, 48.80505980484471], [2.442535998244561, 48.805109846387325], [2.442640488231733, 48.80514271147209], [2.44288903880566, 48.805200531327024], [2.443265389472263, 48.80527603424073], [2.443348446430453, 48.8065517474572], [2.443388584070437, 48.807383863714456], [2.443431215829427, 48.80823757612147], [2.443442834295096, 48.80855241389656], [2.443447272981049, 48.80864686964899], [2.443469706572984, 48.809096664872506], [2.443498475226407, 48.80997369531027], [2.442844747272763, 48.809984141164946], [2.440078527321454, 48.810040469760466], [2.437422458058984, 48.81010984410478], [2.436823168868262, 48.80924001875429], [2.436333771360009, 48.80853529482288], [2.436208105010683, 48.8083197498175], [2.436171653228957, 48.80829079765856], [2.436124415744616, 48.808251901404915]]], "type": "Polygon"}, "properties": {"code_iris": "940460302", "nom_iris": "Charentonneau 2", "type_iris": "iris d'habitat", "dvf_sales_total": 432, "dvf_sales_appt": 148, "dvf_sales_maison": 53, "dvf_median_price": 374900.0, "dvf_median_ppsqm": 6577.0, "dvf_by_year": [{"year": 2021, "sales": 68, "median_price": 530000.0}, {"year": 2022, "sales": 135, "median_price": 445650.0}, {"year": 2023, "sales": 73, "median_price": 333240.0}, {"year": 2024, "sales": 48, "median_price": 320000.0}, {"year": 2025, "sales": 108, "median_price": 280410.0}], "dpe_total": 125, "dpe_etiquettes": {"D": 16, "F": 35, "G": 28, "E": 30, "C": 14, "B": 2}, "dpe_pct_fg": 50.4, "dpe_pct_ab": 1.6, "annee_construction_median": 1948}}, {"type": "Feature", "geometry": {"coordinates": [[[2.424918584931206, 48.81634690677438], [2.425017645802407, 48.81625564672187], [2.425009868681021, 48.81572587603202], [2.425068415348288, 48.81572705694902], [2.425210060402469, 48.81572593921845], [2.425437596744644, 48.8157162403232], [2.425725130579846, 48.81569963416178], [2.425899636493769, 48.8156824846469], [2.425765062846845, 48.81553613922253], [2.425008993481742, 48.81457017099665], [2.424759209780049, 48.814251488808495], [2.424672006220026, 48.814132351205], [2.42461575584461, 48.814046639512895], [2.424800205376245, 48.813991765537665], [2.425615915401382, 48.813745659736384], [2.425880981993308, 48.81366598874377], [2.426002680568677, 48.81362070473477], [2.426082076381159, 48.813583311956286], [2.42640674407191, 48.81340859167515], [2.426650573953959, 48.813278451832495], [2.427464321521919, 48.81283715856766], [2.427643751259537, 48.81274268343333], [2.427643070199405, 48.81280473737572], [2.42764232004434, 48.81287308664165], [2.427700429311705, 48.81291383689859], [2.428206414595157, 48.81321665062891], [2.428942687486018, 48.81363118588556], [2.42909420648378, 48.81372274676805], [2.429113844800977, 48.81379479084851], [2.429106529670229, 48.81446299418162], [2.429118088354029, 48.815397503020435], [2.429491273182331, 48.81539388802547], [2.429808644940397, 48.815388206954665], [2.430500582696431, 48.81537711472549], [2.430638151184941, 48.81537507177439], [2.43086700749702, 48.81536896635138], [2.431037415484743, 48.8153526892171], [2.431042656514373, 48.81537160108285], [2.431061544713586, 48.815387879756216], [2.431087330095179, 48.81539609684868], [2.431119963595568, 48.81540074900936], [2.431156760904682, 48.81539822595222], [2.431189512129945, 48.815392086125605], [2.431376065233082, 48.815393872863964], [2.43146175888887, 48.81540327415139], [2.431471281497523, 48.81540421880946], [2.431404874392887, 48.81574926386976], [2.431333107510759, 48.81608618890883], [2.431133891647532, 48.816246229686605], [2.429895975608606, 48.81636894442387], [2.428775089855749, 48.81649940054002], [2.428303610710289, 48.816524128428746], [2.427845759013675, 48.81654802029476], [2.426934357208265, 48.81657603309979], [2.426149170708946, 48.81652010336639], [2.425546427509349, 48.81646864265991], [2.424918584931206, 48.81634690677438]]], "type": "Polygon"}, "properties": {"code_iris": "940460203", "nom_iris": "Alfort 3", "type_iris": "iris d'habitat", "dvf_sales_total": 372, "dvf_sales_appt": 128, "dvf_sales_maison": 12, "dvf_median_price": 298000.0, "dvf_median_ppsqm": 5452.0, "dvf_by_year": [{"year": 2021, "sales": 70, "median_price": 288420.0}, {"year": 2022, "sales": 80, "median_price": 298000.0}, {"year": 2023, "sales": 84, "median_price": 300500.0}, {"year": 2024, "sales": 62, "median_price": 255243.0}, {"year": 2025, "sales": 76, "median_price": 334000.0}], "dpe_total": 87, "dpe_etiquettes": {"C": 12, "B": 4, "D": 21, "E": 33, "G": 11, "F": 6}, "dpe_pct_fg": 19.5, "dpe_pct_ab": 4.6, "annee_construction_median": 1948}}, {"type": "Feature", "geometry": {"coordinates": [[[2.443469706572984, 48.809096664872506], [2.444205225302347, 48.80907670273274], [2.445862849268571, 48.80903313300002], [2.448055639487748, 48.80898661602442], [2.448107556785805, 48.809870946995844], [2.448860785854917, 48.80985103794166], [2.448892313468527, 48.81034674175201], [2.448911631607976, 48.81070928086976], [2.448933267448262, 48.81123911510273], [2.448910763881955, 48.8115645866155], [2.448947800736482, 48.811796797087425], [2.44892644691864, 48.81201344893296], [2.448905976764248, 48.8121464626071], [2.448878498448694, 48.81229833090379], [2.448849705798096, 48.81244569622397], [2.448802840142517, 48.81262805394598], [2.448761668153034, 48.81278705404481], [2.448713582777686, 48.812955915387384], [2.448678047275234, 48.81309695384792], [2.448652129187102, 48.81322994223341], [2.448640446237969, 48.81330453670195], [2.448632810388904, 48.81338274733885], [2.448638335356164, 48.813504188782716], [2.448641374603128, 48.81360313431556], [2.448649670618736, 48.81372009162738], [2.448663366069129, 48.813841570711325], [2.448686660302719, 48.8139567984027], [2.448711449482941, 48.814059441692244], [2.448729876876966, 48.81411978491736], [2.448749694577324, 48.814177436415655], [2.448800243093118, 48.81429099095143], [2.448845715530334, 48.814369446360615], [2.448923290387628, 48.8145029116926], [2.449006341171061, 48.81463370406262], [2.449097553423315, 48.814765433339915], [2.449253503849536, 48.814956819589085], [2.449322127570235, 48.81503538140531], [2.449396284031325, 48.81510587426979], [2.449488058250796, 48.81518454258733], [2.449583851615238, 48.815269524962005], [2.449694615318793, 48.815355475531696], [2.449820320976202, 48.815445092251096], [2.449994832945661, 48.815555618994495], [2.45012340541477, 48.81563175792758], [2.450235731669625, 48.81569882825967], [2.450375189647637, 48.81577591633626], [2.450535017992168, 48.81585849411034], [2.450011418130982, 48.81591994239485], [2.449155350122101, 48.81599784465507], [2.448142692399291, 48.81607321939909], [2.447263878476776, 48.8161123299986], [2.447022783755107, 48.81611661145658], [2.446212344527776, 48.81612904927257], [2.445712432272972, 48.81613932405544], [2.444425048109322, 48.816179217159274], [2.443832408238709, 48.81620074506363], [2.443808309319366, 48.815778825680574], [2.443803878964693, 48.815683471207215], [2.443801769636332, 48.81549818990009], [2.443800849104922, 48.81545681430902], [2.443756152510398, 48.814795564602505], [2.443718457627521, 48.81411635951592], [2.443692808174959, 48.813456996365574], [2.443661731732106, 48.812795808810904], [2.443618200157123, 48.81202573803501], [2.44358863111046, 48.81135106593539], [2.443556454673551, 48.81066558872413], [2.443498475226407, 48.80997369531027], [2.443469706572984, 48.809096664872506]]], "type": "Polygon"}, "properties": {"code_iris": "940460303", "nom_iris": "Charentonneau 3", "type_iris": "iris d'habitat", "dvf_sales_total": 359, "dvf_sales_appt": 112, "dvf_sales_maison": 46, "dvf_median_price": 407825.0, "dvf_median_ppsqm": 6381.0, "dvf_by_year": [{"year": 2021, "sales": 89, "median_price": 539400.0}, {"year": 2022, "sales": 71, "median_price": 459000.0}, {"year": 2023, "sales": 53, "median_price": 400000.0}, {"year": 2024, "sales": 55, "median_price": 444200.0}, {"year": 2025, "sales": 91, "median_price": 293000.0}], "dpe_total": 368, "dpe_etiquettes": {"G": 31, "C": 21, "F": 16, "B": 5, "E": 228, "D": 67}, "dpe_pct_fg": 12.8, "dpe_pct_ab": 1.4, "annee_construction_median": 1948}}, {"type": "Feature", "geometry": {"coordinates": [[[2.426712165247768, 48.80172975691845], [2.426716348338484, 48.801720783094915], [2.427044452509772, 48.800854445944324], [2.427061312771305, 48.80080685912906], [2.427195936984945, 48.80044954734864], [2.42722959768779, 48.80035976969109], [2.427292696382182, 48.80019278555212], [2.427331970094456, 48.80008774511363], [2.427388014478521, 48.799943211838716], [2.427910030680361, 48.80001406514109], [2.428169677940927, 48.80004948442275], [2.428274306453049, 48.80006797272899], [2.428535197370898, 48.80011418983824], [2.428582756789806, 48.80012251172085], [2.428772827191375, 48.80017108788615], [2.428801337289737, 48.800178419251836], [2.429006324176734, 48.800232462661484], [2.429571171983917, 48.80037096748151], [2.429922786716578, 48.800462583938405], [2.430107443544347, 48.800508433967394], [2.43074952342771, 48.800681478150345], [2.430848571183549, 48.80071252905144], [2.430977393058202, 48.8007599106172], [2.431111464568389, 48.80082530480607], [2.431179122303011, 48.80086340113567], [2.431227857899443, 48.80088881594181], [2.431381890221095, 48.80099657607286], [2.431534424563076, 48.80111692030991], [2.431601945785001, 48.80116760717918], [2.431665412325652, 48.80121557656261], [2.432301005106242, 48.80173574527312], [2.432426540409775, 48.80183527411565], [2.432541263088845, 48.801927556380456], [2.432602067269456, 48.80197011625899], [2.432763020332887, 48.80206801406388], [2.433024094028277, 48.802223947400215], [2.433465067783449, 48.802488659427105], [2.43382903921563, 48.802698142424305], [2.434063046456459, 48.80283955497707], [2.433743715304751, 48.803158224444296], [2.433579993190272, 48.80331484144887], [2.433297718675723, 48.803605804222535], [2.432943813332487, 48.8039728743279], [2.432468624512442, 48.804474275430735], [2.43187507476919, 48.804216030283435], [2.431166609827599, 48.80388348561918], [2.430938991188472, 48.80378077155163], [2.430673438878593, 48.803660788023215], [2.430145041193599, 48.80342263081971], [2.429623553949289, 48.803175510309565], [2.428658147159562, 48.80268612995209], [2.428474511855415, 48.80279497736961], [2.428320361947273, 48.8026980057502], [2.428053676686853, 48.8025582242811], [2.427892533665921, 48.802478306992], [2.427812761444574, 48.802427559433475], [2.427443933045757, 48.80216676955159], [2.427399440341007, 48.80212698334147], [2.427150025967645, 48.80190273998229], [2.427069111251843, 48.80183219987163], [2.427047605157429, 48.80180691390901], [2.427046461069953, 48.80178712187718], [2.426854639575523, 48.801773610814955], [2.426712165247768, 48.80172975691845]]], "type": "Polygon"}, "properties": {"code_iris": "940460102", "nom_iris": "Centre Vert de Maison 2", "type_iris": "iris d'habitat", "dvf_sales_total": 352, "dvf_sales_appt": 124, "dvf_sales_maison": 7, "dvf_median_price": 295000.0, "dvf_median_ppsqm": 6077.0, "dvf_by_year": [{"year": 2021, "sales": 59, "median_price": 328000.0}, {"year": 2022, "sales": 81, "median_price": 325000.0}, {"year": 2023, "sales": 54, "median_price": 289250.0}, {"year": 2024, "sales": 65, "median_price": 258210.0}, {"year": 2025, "sales": 93, "median_price": 295000.0}], "dpe_total": 318, "dpe_etiquettes": {"C": 37, "D": 143, "F": 43, "G": 22, "E": 73}, "dpe_pct_fg": 20.4, "dpe_pct_ab": 0.0, "annee_construction_median": 1948}}, {"type": "Feature", "geometry": {"coordinates": [[[2.442412629989681, 48.80505980484471], [2.442615209095714, 48.80496001851326], [2.442791813250983, 48.80487000399115], [2.442964351513931, 48.80477817148748], [2.443262905078382, 48.80461587429082], [2.4435395962031, 48.80446066964428], [2.444306389792359, 48.80405501644458], [2.444739039294175, 48.803829482432775], [2.444900669352088, 48.80373849579656], [2.445505890761706, 48.803416626581736], [2.445713268285704, 48.803248503847286], [2.44620915245617, 48.80296479752788], [2.446444686787461, 48.80283727629845], [2.446462490585194, 48.80282746549841], [2.446639223995919, 48.80272395499237], [2.447041814920043, 48.802506367799765], [2.447045861099903, 48.802509984062716], [2.447084990089622, 48.80254344235988], [2.447113332467123, 48.80256695750196], [2.447164628724825, 48.802608566525116], [2.447290165898738, 48.802710777705435], [2.447769365217021, 48.80310152725646], [2.447931349976953, 48.803233585813196], [2.448216086847603, 48.80347413709342], [2.4482729460005, 48.803633590765806], [2.4484363202199, 48.8042783044452], [2.448490307436936, 48.80458074680023], [2.448486405272424, 48.80469225247992], [2.448530471078525, 48.80490291173062], [2.448568283017079, 48.80518998972598], [2.448630720730398, 48.80572361237298], [2.448637796549905, 48.80582707412605], [2.448638682719975, 48.805872047391595], [2.44864092091228, 48.805917926274795], [2.448652176439035, 48.80601241345271], [2.448753532082489, 48.807759482145364], [2.448765923985178, 48.80800417117312], [2.448778344519563, 48.808246162133095], [2.448789156444334, 48.808511529539956], [2.448852727584534, 48.80971159682717], [2.448860785854917, 48.80985103794166], [2.448107556785805, 48.809870946995844], [2.448055639487748, 48.80898661602442], [2.445862849268571, 48.80903313300002], [2.444205225302347, 48.80907670273274], [2.443469706572984, 48.809096664872506], [2.443447272981049, 48.80864686964899], [2.443442834295096, 48.80855241389656], [2.443431215829427, 48.80823757612147], [2.443388584070437, 48.807383863714456], [2.443348446430453, 48.8065517474572], [2.443265389472263, 48.80527603424073], [2.44288903880566, 48.805200531327024], [2.442640488231733, 48.80514271147209], [2.442535998244561, 48.805109846387325], [2.442412629989681, 48.80505980484471]]], "type": "Polygon"}, "properties": {"code_iris": "940460304", "nom_iris": "Charentonneau 4", "type_iris": "iris d'habitat", "dvf_sales_total": 568, "dvf_sales_appt": 207, "dvf_sales_maison": 40, "dvf_median_price": 303000.0, "dvf_median_ppsqm": 5445.0, "dvf_by_year": [{"year": 2021, "sales": 113, "median_price": 311000.0}, {"year": 2022, "sales": 106, "median_price": 307500.0}, {"year": 2023, "sales": 178, "median_price": 250000.0}, {"year": 2024, "sales": 97, "median_price": 360000.0}, {"year": 2025, "sales": 74, "median_price": 326450.0}], "dpe_total": 191, "dpe_etiquettes": {"D": 33, "C": 21, "E": 55, "F": 32, "G": 38, "A": 1, "B": 11}, "dpe_pct_fg": 36.6, "dpe_pct_ab": 6.3, "annee_construction_median": 1948}}, {"type": "Feature", "geometry": {"coordinates": [[[2.435260809754925, 48.80061024087155], [2.434913907292429, 48.80020837324131], [2.433507122399647, 48.79849107444202], [2.433400964285924, 48.79836285776824], [2.433285785477544, 48.798187829886736], [2.433221741527342, 48.798067907210154], [2.433207812570244, 48.797971606317546], [2.433217065123022, 48.79787181778161], [2.433235797977766, 48.79777657114801], [2.43333395879725, 48.79738760012054], [2.433494036736533, 48.79681274825993], [2.433654765314167, 48.79617763970068], [2.433686109419953, 48.79604917509605], [2.43378716185128, 48.79564402776544], [2.43396037838591, 48.79498649250326], [2.434044194254839, 48.79466400717497], [2.434137957119622, 48.794302894860934], [2.434275583990129, 48.79378819359399], [2.434312525985904, 48.79364536475657], [2.434426219395995, 48.793203400722604], [2.434485739011985, 48.792986928226654], [2.434753364666165, 48.791906221749905], [2.43481021759272, 48.79168433987008], [2.434854176716637, 48.79152175708835], [2.434993491208839, 48.79097558290776], [2.435084401765225, 48.79062524801649], [2.435097129059309, 48.79058123773907], [2.435139725238041, 48.790418648260356], [2.435179511289907, 48.79026414003586], [2.43529462896761, 48.78981498548314], [2.435294658170227, 48.78981228742905], [2.435325897077782, 48.7896928151891], [2.435556008655644, 48.78880529728825], [2.435714606630925, 48.78823672715004], [2.435857080852159, 48.78827787277938], [2.436025337801089, 48.78832633510873], [2.436557186262009, 48.7884853393039], [2.436775571218658, 48.78855562246452], [2.437357638694623, 48.78872835069551], [2.43907725155415, 48.78918973126238], [2.43901763197872, 48.789291083318574], [2.438474384986039, 48.79018972783164], [2.438085431317567, 48.7907895958925], [2.437988747344308, 48.790919553707774], [2.43784936369547, 48.79109607918122], [2.437552927719508, 48.79144634822878], [2.43738049526241, 48.7916577939752], [2.437043062773441, 48.79202225893114], [2.43690792150023, 48.79218351342751], [2.436832115572908, 48.79227039757076], [2.436774218237157, 48.792337579367356], [2.438883076463914, 48.792942898890864], [2.440911981004921, 48.7935190260368], [2.440770706972125, 48.793618197783175], [2.4406702204441, 48.79372205722337], [2.440405376252813, 48.79404639795216], [2.440201841815586, 48.7943656288466], [2.439959726765084, 48.7949814782265], [2.439870511906091, 48.795176228377926], [2.439842089533278, 48.7952876198626], [2.439754852525641, 48.79555163237067], [2.439661957061968, 48.79583540485834], [2.439556103828948, 48.79618477206189], [2.43945450697091, 48.7965179699827], [2.439302056084882, 48.79702271292138], [2.439276798765403, 48.797092746951115], [2.439213626165904, 48.7972705300205], [2.439194865733852, 48.79736937501602], [2.439194208283485, 48.79743053052147], [2.439233916315501, 48.79753594557299], [2.439140496476435, 48.79761465362934], [2.439065680202163, 48.797735720287214], [2.438548360194262, 48.79849417567185], [2.438346584443827, 48.798773837391444], [2.438309276278686, 48.79882492730063], [2.437988755387369, 48.79925872529066], [2.437512203329528, 48.799895050075826], [2.437413932555518, 48.79991797169475], [2.437140707575458, 48.800004825507486], [2.436840157104622, 48.80010054384111], [2.435944897535113, 48.80042549878816], [2.435647133327866, 48.80051493153472], [2.435518676502903, 48.80055929439653], [2.435412167140626, 48.80058847118023], [2.435260809754925, 48.80061024087155]]], "type": "Polygon"}, "properties": {"code_iris": "940460110", "nom_iris": "Centre Vert de Maison 10", "type_iris": "iris d'habitat", "dvf_sales_total": 240, "dvf_sales_appt": 88, "dvf_sales_maison": 39, "dvf_median_price": 328000.0, "dvf_median_ppsqm": 5312.0, "dvf_by_year": [{"year": 2021, "sales": 50, "median_price": 409500.0}, {"year": 2022, "sales": 75, "median_price": 285000.0}, {"year": 2023, "sales": 36, "median_price": 310000.0}, {"year": 2024, "sales": 34, "median_price": 244040.0}, {"year": 2025, "sales": 45, "median_price": 303000.0}], "dpe_total": 333, "dpe_etiquettes": {"E": 29, "G": 68, "B": 1, "F": 18, "D": 21, "C": 196}, "dpe_pct_fg": 25.8, "dpe_pct_ab": 0.3, "annee_construction_median": 1980}}]}