{"type": "FeatureCollection", "features": [{"type": "Feature", "geometry": {"type": "Point", "coordinates": [2.734779, 48.272365]}, "properties": {"street_name": "RTE DE MONTEREAU", "sales": 75, "sales_appt": 10, "sales_maison": 23, "median_price": 225000.0, "median_price_per_sqm": 2642.3357664233577, "turnover_score": 100.0, "turnover_rank": 1, "first_year": 2021, "last_year": 2025, "years_active": 5}}, {"type": "Feature", "geometry": {"type": "Point", "coordinates": [2.7362815, 48.2705315]}, "properties": {"street_name": "DARVAULT", "sales": 42, "sales_appt": 0, "sales_maison": 0, "median_price": 188500.0, "median_price_per_sqm": null, "turnover_score": 56.0, "turnover_rank": 2, "first_year": 2021, "last_year": 2025, "years_active": 5}}, {"type": "Feature", "geometry": {"type": "Point", "coordinates": [2.730185, 48.268648]}, "properties": {"street_name": "RUE DE LA BARAUDERIE", "sales": 30, "sales_appt": 0, "sales_maison": 13, "median_price": 160000.0, "median_price_per_sqm": 1490.4568210262828, "turnover_score": 40.0, "turnover_rank": 3, "first_year": 2021, "last_year": 2025, "years_active": 5}}, {"type": "Feature", "geometry": {"type": "Point", "coordinates": [2.735665, 48.270102]}, "properties": {"street_name": "RUE DE LA LIBERTE", "sales": 27, "sales_appt": 0, "sales_maison": 14, "median_price": 188500.0, "median_price_per_sqm": 2235.7142857142853, "turnover_score": 36.0, "turnover_rank": 4, "first_year": 2021, "last_year": 2025, "years_active": 5}}, {"type": "Feature", "geometry": {"type": "Point", "coordinates": [2.732231, 48.272436]}, "properties": {"street_name": "CHE DE LA VALLEE", "sales": 21, "sales_appt": 0, "sales_maison": 6, "median_price": 104000.0, "median_price_per_sqm": 2554.054054054054, "turnover_score": 28.0, "turnover_rank": 5, "first_year": 2021, "last_year": 2025, "years_active": 5}}, {"type": "Feature", "geometry": {"type": "Point", "coordinates": [2.7300835, 48.272017500000004]}, "properties": {"street_name": "LA VALLEE DE DARVAULT", "sales": 18, "sales_appt": 0, "sales_maison": 0, "median_price": 156050.0, "median_price_per_sqm": null, "turnover_score": 24.0, "turnover_rank": 6, "first_year": 2021, "last_year": 2025, "years_active": 4}}, {"type": "Feature", "geometry": {"type": "Point", "coordinates": [2.733114, 48.273082]}, "properties": {"street_name": "ALL DU CLOS SAINT JEAN", "sales": 15, "sales_appt": 0, "sales_maison": 0, "median_price": 84500.0, "median_price_per_sqm": null, "turnover_score": 20.0, "turnover_rank": 7, "first_year": 2022, "last_year": 2023, "years_active": 2}}, {"type": "Feature", "geometry": {"type": "Point", "coordinates": [2.7292285, 48.2665815]}, "properties": {"street_name": "LA BARAUDERIE", "sales": 14, "sales_appt": 0, "sales_maison": 0, "median_price": 120000.0, "median_price_per_sqm": null, "turnover_score": 18.7, "turnover_rank": 8, "first_year": 2021, "last_year": 2025, "years_active": 3}}, {"type": "Feature", "geometry": {"type": "Point", "coordinates": [2.727347, 48.269021]}, "properties": {"street_name": "RUE DU PETIT CHATELET", "sales": 13, "sales_appt": 0, "sales_maison": 10, "median_price": 170000.0, "median_price_per_sqm": 2123.2876712328766, "turnover_score": 17.3, "turnover_rank": 9, "first_year": 2021, "last_year": 2025, "years_active": 5}}, {"type": "Feature", "geometry": {"type": "Point", "coordinates": [2.730486, 48.269848]}, "properties": {"street_name": "IMP DARVEIA", "sales": 12, "sales_appt": 0, "sales_maison": 1, "median_price": 145000.0, "median_price_per_sqm": 1779.4117647058824, "turnover_score": 16.0, "turnover_rank": 10, "first_year": 2021, "last_year": 2023, "years_active": 3}}, {"type": "Feature", "geometry": {"type": "Point", "coordinates": [2.7312070000000004, 48.272583999999995]}, "properties": {"street_name": "ALL DE LA MARDELLE", "sales": 12, "sales_appt": 0, "sales_maison": 0, "median_price": 84500.0, "median_price_per_sqm": null, "turnover_score": 16.0, "turnover_rank": 10, "first_year": 2022, "last_year": 2025, "years_active": 4}}, {"type": "Feature", "geometry": {"type": "Point", "coordinates": [2.746036, 48.276711]}, "properties": {"street_name": "LE CLOS AU ROI", "sales": 11, "sales_appt": 0, "sales_maison": 0, "median_price": 254058.0, "median_price_per_sqm": null, "turnover_score": 14.7, "turnover_rank": 11, "first_year": 2021, "last_year": 2025, "years_active": 2}}, {"type": "Feature", "geometry": {"type": "Point", "coordinates": [2.740967, 48.27227]}, "properties": {"street_name": "ALL DU CHATEAU", "sales": 11, "sales_appt": 0, "sales_maison": 5, "median_price": 160000.0, "median_price_per_sqm": 2317.916666666667, "turnover_score": 14.7, "turnover_rank": 11, "first_year": 2021, "last_year": 2025, "years_active": 5}}, {"type": "Feature", "geometry": {"type": "Point", "coordinates": [2.734293, 48.270061]}, "properties": {"street_name": "RUE DE LA MONTAGNE", "sales": 11, "sales_appt": 0, "sales_maison": 7, "median_price": 159000.0, "median_price_per_sqm": 2208.3333333333335, "turnover_score": 14.7, "turnover_rank": 11, "first_year": 2021, "last_year": 2024, "years_active": 4}}, {"type": "Feature", "geometry": {"type": "Point", "coordinates": [2.7372569999999996, 48.2653125]}, "properties": {"street_name": "LES HAUTS DE DARVAULT", "sales": 10, "sales_appt": 0, "sales_maison": 0, "median_price": 54500.0, "median_price_per_sqm": null, "turnover_score": 13.3, "turnover_rank": 12, "first_year": 2025, "last_year": 2025, "years_active": 1}}, {"type": "Feature", "geometry": {"type": "Point", "coordinates": [2.728172, 48.279312]}, "properties": {"street_name": "LE CHEMIN DE CHERELLE", "sales": 8, "sales_appt": 0, "sales_maison": 6, "median_price": 657000.0, "median_price_per_sqm": 7756.25, "turnover_score": 10.7, "turnover_rank": 13, "first_year": 2025, "last_year": 2025, "years_active": 1}}, {"type": "Feature", "geometry": {"type": "Point", "coordinates": [2.745209, 48.278276]}, "properties": {"street_name": "L ALISIER", "sales": 7, "sales_appt": 0, "sales_maison": 0, "median_price": 254058.0, "median_price_per_sqm": null, "turnover_score": 9.3, "turnover_rank": 14, "first_year": 2022, "last_year": 2025, "years_active": 2}}, {"type": "Feature", "geometry": {"type": "Point", "coordinates": [2.736005, 48.272322]}, "properties": {"street_name": "RUE DE L EGLISE", "sales": 7, "sales_appt": 0, "sales_maison": 1, "median_price": 290000.0, "median_price_per_sqm": 3372.093023255814, "turnover_score": 9.3, "turnover_rank": 14, "first_year": 2022, "last_year": 2025, "years_active": 2}}, {"type": "Feature", "geometry": {"type": "Point", "coordinates": [2.7101305, 48.282452]}, "properties": {"street_name": "LES MAZES", "sales": 6, "sales_appt": 0, "sales_maison": 0, "median_price": 461029.0, "median_price_per_sqm": null, "turnover_score": 8.0, "turnover_rank": 15, "first_year": 2025, "last_year": 2025, "years_active": 1}}, {"type": "Feature", "geometry": {"type": "Point", "coordinates": [2.7272615, 48.269268499999995]}, "properties": {"street_name": "LE PETIT CHATELET", "sales": 6, "sales_appt": 0, "sales_maison": 0, "median_price": 201000.0, "median_price_per_sqm": null, "turnover_score": 8.0, "turnover_rank": 15, "first_year": 2021, "last_year": 2025, "years_active": 4}}, {"type": "Feature", "geometry": {"type": "Point", "coordinates": [2.7347194999999997, 48.272885]}, "properties": {"street_name": "LE SAUT DE LOUP", "sales": 6, "sales_appt": 0, "sales_maison": 0, "median_price": 103500.0, "median_price_per_sqm": null, "turnover_score": 8.0, "turnover_rank": 15, "first_year": 2021, "last_year": 2025, "years_active": 4}}, {"type": "Feature", "geometry": {"type": "Point", "coordinates": [2.734558, 48.280308]}, "properties": {"street_name": "LA PETITE BRUYERE", "sales": 6, "sales_appt": 0, "sales_maison": 0, "median_price": 668000.0, "median_price_per_sqm": null, "turnover_score": 8.0, "turnover_rank": 15, "first_year": 2025, "last_year": 2025, "years_active": 1}}, {"type": "Feature", "geometry": {"type": "Point", "coordinates": [2.703784, 48.286283]}, "properties": {"street_name": "LES BATRANNES", "sales": 5, "sales_appt": 0, "sales_maison": 0, "median_price": 54500.0, "median_price_per_sqm": null, "turnover_score": 6.7, "turnover_rank": 16, "first_year": 2024, "last_year": 2025, "years_active": 2}}, {"type": "Feature", "geometry": {"type": "Point", "coordinates": [2.733852, 48.288982]}, "properties": {"street_name": "LE FOND DE BASSE PLEIGNE", "sales": 5, "sales_appt": 0, "sales_maison": 0, "median_price": 254058.0, "median_price_per_sqm": null, "turnover_score": 6.7, "turnover_rank": 16, "first_year": 2025, "last_year": 2025, "years_active": 1}}, {"type": "Feature", "geometry": {"type": "Point", "coordinates": [2.719452, 48.280201]}, "properties": {"street_name": "LE BAS DES GUICHETTES", "sales": 5, "sales_appt": 0, "sales_maison": 0, "median_price": 34942.0, "median_price_per_sqm": null, "turnover_score": 6.7, "turnover_rank": 16, "first_year": 2025, "last_year": 2025, "years_active": 1}}, {"type": "Feature", "geometry": {"type": "Point", "coordinates": [2.7388500000000002, 48.2861025]}, "properties": {"street_name": "LES CLICQUARDS", "sales": 4, "sales_appt": 0, "sales_maison": 0, "median_price": 54500.0, "median_price_per_sqm": null, "turnover_score": 5.3, "turnover_rank": 17, "first_year": 2022, "last_year": 2025, "years_active": 2}}, {"type": "Feature", "geometry": {"type": "Point", "coordinates": [2.706162, 48.286723]}, "properties": {"street_name": "LES HAUTS ROUGEMONTS", "sales": 3, "sales_appt": 0, "sales_maison": 0, "median_price": 54500.0, "median_price_per_sqm": null, "turnover_score": 4.0, "turnover_rank": 18, "first_year": 2025, "last_year": 2025, "years_active": 1}}, {"type": "Feature", "geometry": {"type": "Point", "coordinates": [2.70053, 48.287146]}, "properties": {"street_name": "LES FROMONVILLES", "sales": 3, "sales_appt": 0, "sales_maison": 0, "median_price": 668000.0, "median_price_per_sqm": null, "turnover_score": 4.0, "turnover_rank": 18, "first_year": 2025, "last_year": 2025, "years_active": 1}}, {"type": "Feature", "geometry": {"type": "Point", "coordinates": [2.750135, 48.278152]}, "properties": {"street_name": "LES BEAUGEREAULTS", "sales": 3, "sales_appt": 0, "sales_maison": 0, "median_price": 668000.0, "median_price_per_sqm": null, "turnover_score": 4.0, "turnover_rank": 18, "first_year": 2022, "last_year": 2025, "years_active": 2}}, {"type": "Feature", "geometry": {"type": "Point", "coordinates": [2.703719, 48.282113]}, "properties": {"street_name": "LE BOIS ROUSSEAU", "sales": 3, "sales_appt": 0, "sales_maison": 0, "median_price": 54500.0, "median_price_per_sqm": null, "turnover_score": 4.0, "turnover_rank": 18, "first_year": 2025, "last_year": 2025, "years_active": 1}}, {"type": "Feature", "geometry": {"type": "Point", "coordinates": [2.731087, 48.282656]}, "properties": {"street_name": "LA BUTTE", "sales": 3, "sales_appt": 0, "sales_maison": 0, "median_price": 254058.0, "median_price_per_sqm": null, "turnover_score": 4.0, "turnover_rank": 18, "first_year": 2023, "last_year": 2025, "years_active": 2}}, {"type": "Feature", "geometry": {"type": "Point", "coordinates": [2.696196, 48.28877]}, "properties": {"street_name": "LES ROUGEATS", "sales": 3, "sales_appt": 0, "sales_maison": 0, "median_price": 668000.0, "median_price_per_sqm": null, "turnover_score": 4.0, "turnover_rank": 18, "first_year": 2025, "last_year": 2025, "years_active": 1}}, {"type": "Feature", "geometry": {"type": "Point", "coordinates": [2.693862, 48.288430000000005]}, "properties": {"street_name": "LES LARRIS", "sales": 2, "sales_appt": 0, "sales_maison": 0, "median_price": 154279.0, "median_price_per_sqm": null, "turnover_score": 2.7, "turnover_rank": 19, "first_year": 2025, "last_year": 2025, "years_active": 1}}, {"type": "Feature", "geometry": {"type": "Point", "coordinates": [2.716038, 48.28116]}, "properties": {"street_name": "SOUS LA RUELLE DES MAZES", "sales": 2, "sales_appt": 0, "sales_maison": 0, "median_price": 154279.0, "median_price_per_sqm": null, "turnover_score": 2.7, "turnover_rank": 19, "first_year": 2025, "last_year": 2025, "years_active": 1}}, {"type": "Feature", "geometry": {"type": "Point", "coordinates": [2.7263954999999997, 48.264507]}, "properties": {"street_name": "LES FOURNEAUX", "sales": 2, "sales_appt": 0, "sales_maison": 0, "median_price": 307.5, "median_price_per_sqm": null, "turnover_score": 2.7, "turnover_rank": 19, "first_year": 2025, "last_year": 2025, "years_active": 1}}, {"type": "Feature", "geometry": {"type": "Point", "coordinates": [2.745144, 48.28102]}, "properties": {"street_name": "L EPINE", "sales": 2, "sales_appt": 0, "sales_maison": 0, "median_price": 254058.0, "median_price_per_sqm": null, "turnover_score": 2.7, "turnover_rank": 19, "first_year": 2025, "last_year": 2025, "years_active": 1}}, {"type": "Feature", "geometry": {"type": "Point", "coordinates": [2.729617, 48.2714895]}, "properties": {"street_name": "ALL DES BOIS", "sales": 2, "sales_appt": 0, "sales_maison": 2, "median_price": 174445.0, "median_price_per_sqm": 1882.5659229208925, "turnover_score": 2.7, "turnover_rank": 19, "first_year": 2023, "last_year": 2025, "years_active": 2}}, {"type": "Feature", "geometry": {"type": "Point", "coordinates": [2.734719, 48.271592999999996]}, "properties": {"street_name": "ALL DE LA CHAUMETTE", "sales": 2, "sales_appt": 0, "sales_maison": 2, "median_price": 219600.0, "median_price_per_sqm": 3049.9324715415783, "turnover_score": 2.7, "turnover_rank": 19, "first_year": 2021, "last_year": 2024, "years_active": 2}}, {"type": "Feature", "geometry": {"type": "Point", "coordinates": [2.7177635, 48.278423000000004]}, "properties": {"street_name": "LES GUICHETTES", "sales": 2, "sales_appt": 0, "sales_maison": 0, "median_price": 21271.0, "median_price_per_sqm": null, "turnover_score": 2.7, "turnover_rank": 19, "first_year": 2023, "last_year": 2025, "years_active": 2}}, {"type": "Feature", "geometry": {"type": "Point", "coordinates": [2.742629, 48.266103]}, "properties": {"street_name": "ENTRE LES GARENNES", "sales": 1, "sales_appt": 0, "sales_maison": 0, "median_price": 54500.0, "median_price_per_sqm": null, "turnover_score": 1.3, "turnover_rank": 20, "first_year": 2025, "last_year": 2025, "years_active": 1}}, {"type": "Feature", "geometry": {"type": "Point", "coordinates": [2.739097, 48.271609]}, "properties": {"street_name": "LA GRANDE GARENNE", "sales": 1, "sales_appt": 0, "sales_maison": 0, "median_price": 106000.0, "median_price_per_sqm": null, "turnover_score": 1.3, "turnover_rank": 20, "first_year": 2024, "last_year": 2024, "years_active": 1}}, {"type": "Feature", "geometry": {"type": "Point", "coordinates": [2.729233, 48.288745]}, "properties": {"street_name": "LA CROIX DE BASSE PLEIGNE", "sales": 1, "sales_appt": 0, "sales_maison": 0, "median_price": 668000.0, "median_price_per_sqm": null, "turnover_score": 1.3, "turnover_rank": 20, "first_year": 2025, "last_year": 2025, "years_active": 1}}, {"type": "Feature", "geometry": {"type": "Point", "coordinates": [2.707711, 48.27819]}, "properties": {"street_name": "LE BOIS DES PLANTES", "sales": 1, "sales_appt": 0, "sales_maison": 0, "median_price": 54500.0, "median_price_per_sqm": null, "turnover_score": 1.3, "turnover_rank": 20, "first_year": 2025, "last_year": 2025, "years_active": 1}}, {"type": "Feature", "geometry": {"type": "Point", "coordinates": [2.750435, 48.27643]}, "properties": {"street_name": "LE BOIS MINA", "sales": 1, "sales_appt": 0, "sales_maison": 0, "median_price": 400.0, "median_price_per_sqm": null, "turnover_score": 1.3, "turnover_rank": 20, "first_year": 2022, "last_year": 2022, "years_active": 1}}, {"type": "Feature", "geometry": {"type": "Point", "coordinates": [2.739259, 48.289512]}, "properties": {"street_name": "LE TERTRE A LA GRUE", "sales": 1, "sales_appt": 0, "sales_maison": 0, "median_price": 254058.0, "median_price_per_sqm": null, "turnover_score": 1.3, "turnover_rank": 20, "first_year": 2025, "last_year": 2025, "years_active": 1}}, {"type": "Feature", "geometry": {"type": "Point", "coordinates": [2.704152, 48.280565]}, "properties": {"street_name": "LA POINTE DE LA CROIX ROUG", "sales": 1, "sales_appt": 0, "sales_maison": 0, "median_price": 54500.0, "median_price_per_sqm": null, "turnover_score": 1.3, "turnover_rank": 20, "first_year": 2025, "last_year": 2025, "years_active": 1}}, {"type": "Feature", "geometry": {"type": "Point", "coordinates": [2.728982, 48.269851]}, "properties": {"street_name": "RUE DE PREFLEURY", "sales": 1, "sales_appt": 0, "sales_maison": 1, "median_price": 295000.0, "median_price_per_sqm": 2322.834645669291, "turnover_score": 1.3, "turnover_rank": 20, "first_year": 2021, "last_year": 2021, "years_active": 1}}, {"type": "Feature", "geometry": {"type": "Point", "coordinates": [2.709449, 48.284901]}, "properties": {"street_name": "SUR LES MAZES", "sales": 1, "sales_appt": 0, "sales_maison": 0, "median_price": 54500.0, "median_price_per_sqm": null, "turnover_score": 1.3, "turnover_rank": 20, "first_year": 2025, "last_year": 2025, "years_active": 1}}]}