{"type": "FeatureCollection", "features": [{"type": "Feature", "geometry": {"type": "Polygon", "coordinates": [[[2.934916, 48.901593], [2.935402, 48.901288], [2.935936, 48.900928], [2.93647, 48.900597], [2.936683, 48.900485], [2.936964, 48.900382], [2.938876, 48.899867], [2.939236, 48.899729], [2.939446, 48.899584], [2.939579, 48.899373], [2.939698, 48.898939], [2.94036, 48.896192], [2.940591, 48.895764], [2.941439, 48.894578], [2.941647, 48.894171], [2.941859, 48.893685], [2.942244, 48.892872], [2.942369, 48.892701], [2.942683, 48.892357], [2.942823, 48.892235], [2.943035, 48.892116], [2.943077, 48.892041], [2.943683, 48.890692], [2.944503, 48.889125], [2.944966, 48.888175], [2.945241, 48.887216], [2.945238, 48.886324], [2.944908, 48.886431], [2.944381, 48.886553], [2.943878, 48.886639], [2.942033, 48.886929], [2.941081, 48.887073], [2.940115, 48.887261], [2.940955, 48.886516], [2.941468, 48.885984], [2.941761, 48.885661], [2.941886, 48.885483], [2.942099, 48.885075], [2.942998, 48.883571], [2.94336, 48.883009], [2.943817, 48.882407], [2.943997, 48.882143], [2.943275, 48.882087], [2.942959, 48.882044], [2.94267, 48.881973], [2.942338, 48.881859], [2.94188, 48.881621], [2.941705, 48.881436], [2.941461, 48.88106], [2.940936, 48.880184], [2.940796, 48.879971], [2.940491, 48.880187], [2.939049, 48.881155], [2.938095, 48.881991], [2.936528, 48.8813], [2.935407, 48.880796], [2.935164, 48.881097], [2.934695, 48.88111], [2.934496, 48.881169], [2.933273, 48.881158], [2.932313, 48.881173], [2.932056, 48.881744], [2.931863, 48.882639], [2.931696, 48.88271], [2.931318, 48.882672], [2.930693, 48.882677], [2.929833, 48.882729], [2.929696, 48.882763], [2.929235, 48.882775], [2.928767, 48.88276], [2.928595, 48.882733], [2.928263, 48.88263], [2.928129, 48.882621], [2.926602, 48.882581], [2.926595, 48.882515], [2.925356, 48.882353], [2.922518, 48.885263], [2.922973, 48.88559], [2.923996, 48.886399], [2.921797, 48.887701], [2.922387, 48.888053], [2.922748, 48.888379], [2.921377, 48.88895], [2.920802, 48.889231], [2.92023, 48.889495], [2.919721, 48.889698], [2.917899, 48.890227], [2.91684, 48.890564], [2.917107, 48.891465], [2.91772, 48.893461], [2.916383, 48.893648], [2.915501, 48.893756], [2.913306, 48.893971], [2.912755, 48.894002], [2.912529, 48.893984], [2.912381, 48.894076], [2.912095, 48.894187], [2.910803, 48.895083], [2.910023, 48.895602], [2.909764, 48.89573], [2.907978, 48.896545], [2.906877, 48.897055], [2.906122, 48.897384], [2.905763, 48.897554], [2.904886, 48.897921], [2.904968, 48.898018], [2.905181, 48.898023], [2.905202, 48.897902], [2.905408, 48.897861], [2.905964, 48.897918], [2.9061, 48.897985], [2.906455, 48.898], [2.906843, 48.898092], [2.907086, 48.898217], [2.907663, 48.898424], [2.908061, 48.898417], [2.90841, 48.898471], [2.908639, 48.898554], [2.909018, 48.89863], [2.909322, 48.898629], [2.909498, 48.898678], [2.909821, 48.898888], [2.910165, 48.899005], [2.910395, 48.899185], [2.910969, 48.899118], [2.91113, 48.899271], [2.911688, 48.899584], [2.911836, 48.899537], [2.912389, 48.899798], [2.912997, 48.899932], [2.91321, 48.899755], [2.913233, 48.899582], [2.913328, 48.899545], [2.913499, 48.899589], [2.913601, 48.899494], [2.914066, 48.899462], [2.914234, 48.899364], [2.914355, 48.899388], [2.914907, 48.899743], [2.915075, 48.899819], [2.915327, 48.899838], [2.915727, 48.899806], [2.915743, 48.899919], [2.91651, 48.899934], [2.916989, 48.899876], [2.916985, 48.900268], [2.918242, 48.900058], [2.918326, 48.900064], [2.919414, 48.899669], [2.919632, 48.899612], [2.92018, 48.899527], [2.920641, 48.899556], [2.921009, 48.899546], [2.92156, 48.899486], [2.92226, 48.89938], [2.92372, 48.899047], [2.923763, 48.899164], [2.924242, 48.899072], [2.924278, 48.899018], [2.925135, 48.898845], [2.925167, 48.898782], [2.925492, 48.898679], [2.925604, 48.898842], [2.926231, 48.898715], [2.926781, 48.898671], [2.927288, 48.898768], [2.927605, 48.898548], [2.927849, 48.898563], [2.928336, 48.898769], [2.929554, 48.899138], [2.930188, 48.89922], [2.930777, 48.899275], [2.931235, 48.899394], [2.931658, 48.899641], [2.932213, 48.900077], [2.933079, 48.900699], [2.933653, 48.901028], [2.933895, 48.901121], [2.934156, 48.901266], [2.934916, 48.901593]]]}, "properties": {"code_iris": "771300000", "nom_iris": "Coulommes (commune entière)", "type_iris": "Z", "lat": 48.8908, "lng": 2.9251, "dvf_sales_total": 174, "dvf_sales_appt": 0, "dvf_sales_maison": 0, "dvf_median_price": 155000.0, "dvf_median_ppsqm": 3181.818181818182, "dvf_by_year": "[{\"year\": 2021, \"sales\": 42, \"median_price\": 210000.0}, {\"year\": 2022, \"sales\": 32, \"median_price\": 165500.0}, {\"year\": 2023, \"sales\": 46, \"median_price\": 155000.0}, {\"year\": 2024, \"sales\": 20, \"median_price\": 102000.0}, {\"year\": 2025, \"sales\": 34, \"median_price\": 70000.0}]", "population": 542, "n_log": null, "n_rp": null, "pct_proprio": null, "pct_hlm": null, "pct_appart": null, "pct_cadres": null, "pct_bac5p": null, "pct_etrangers": null, "pct_0_14": null, "pct_65p": null, "bpe_total": null, "bpe_commerces": null, "bpe_enseignement": null, "bpe_sante": null, "dpe": null, "attractivity_score": null, "rank_attractivity_score": null, "rank_total_attractivity_score": 1, "commune_avg": null, "is_stub": true}}]}