{"type": "FeatureCollection", "features": [{"type": "Feature", "geometry": {"type": "Point", "coordinates": [2.7146030000000003, 49.060471]}, "properties": {"street_name": "RUE DES SEMAILLES", "sales": 16, "sales_appt": 0, "sales_maison": 10, "median_price": 296950.0, "median_price_per_sqm": 3759.177215189873, "turnover_score": 100.0, "turnover_rank": 1, "first_year": 2021, "last_year": 2025, "years_active": 5}}, {"type": "Feature", "geometry": {"type": "Point", "coordinates": [2.712856, 49.060344]}, "properties": {"street_name": "RUE DES MOISSONS", "sales": 15, "sales_appt": 0, "sales_maison": 10, "median_price": 330000.0, "median_price_per_sqm": 4085.769230769231, "turnover_score": 93.8, "turnover_rank": 2, "first_year": 2021, "last_year": 2025, "years_active": 5}}, {"type": "Feature", "geometry": {"type": "Point", "coordinates": [2.7176905, 49.0595425]}, "properties": {"street_name": "RUE DU BASSIN", "sales": 12, "sales_appt": 0, "sales_maison": 0, "median_price": 145000.0, "median_price_per_sqm": null, "turnover_score": 75.0, "turnover_rank": 3, "first_year": 2021, "last_year": 2022, "years_active": 2}}, {"type": "Feature", "geometry": {"type": "Point", "coordinates": [2.715987, 49.064656]}, "properties": {"street_name": "ALL DU MAIL", "sales": 11, "sales_appt": 0, "sales_maison": 7, "median_price": 310000.0, "median_price_per_sqm": 3370.7865168539324, "turnover_score": 68.8, "turnover_rank": 4, "first_year": 2022, "last_year": 2025, "years_active": 4}}, {"type": "Feature", "geometry": {"type": "Point", "coordinates": [2.7170275000000004, 49.062808000000004]}, "properties": {"street_name": "RUE DU CHATEAU D EAU", "sales": 8, "sales_appt": 0, "sales_maison": 5, "median_price": 298750.0, "median_price_per_sqm": 3500.0, "turnover_score": 50.0, "turnover_rank": 5, "first_year": 2021, "last_year": 2024, "years_active": 3}}, {"type": "Feature", "geometry": {"type": "Point", "coordinates": [2.7137785, 49.059976]}, "properties": {"street_name": "RUE DES CHENES", "sales": 6, "sales_appt": 0, "sales_maison": 4, "median_price": 324000.0, "median_price_per_sqm": 3271.8844984802436, "turnover_score": 37.5, "turnover_rank": 6, "first_year": 2022, "last_year": 2025, "years_active": 3}}, {"type": "Feature", "geometry": {"type": "Point", "coordinates": [2.716277, 49.05864]}, "properties": {"street_name": "RUE DES CHAMPS", "sales": 6, "sales_appt": 0, "sales_maison": 5, "median_price": 302000.0, "median_price_per_sqm": 3833.3333333333335, "turnover_score": 37.5, "turnover_rank": 6, "first_year": 2022, "last_year": 2025, "years_active": 3}}, {"type": "Feature", "geometry": {"type": "Point", "coordinates": [2.716397, 49.059238]}, "properties": {"street_name": "RUE DES PATURAGES", "sales": 5, "sales_appt": 0, "sales_maison": 4, "median_price": 305000.0, "median_price_per_sqm": 3189.503834426684, "turnover_score": 31.2, "turnover_rank": 7, "first_year": 2021, "last_year": 2025, "years_active": 4}}, {"type": "Feature", "geometry": {"type": "Point", "coordinates": [2.720062, 49.063294]}, "properties": {"street_name": "RUE DU COLOMBIER", "sales": 5, "sales_appt": 0, "sales_maison": 3, "median_price": 326000.0, "median_price_per_sqm": 3619.5652173913045, "turnover_score": 31.2, "turnover_rank": 7, "first_year": 2022, "last_year": 2023, "years_active": 2}}, {"type": "Feature", "geometry": {"type": "Point", "coordinates": [2.7106, 49.06804]}, "properties": {"street_name": "LA JARRIE", "sales": 4, "sales_appt": 0, "sales_maison": 0, "median_price": 9010.5, "median_price_per_sqm": null, "turnover_score": 25.0, "turnover_rank": 8, "first_year": 2025, "last_year": 2025, "years_active": 1}}, {"type": "Feature", "geometry": {"type": "Point", "coordinates": [2.719017, 49.0615875]}, "properties": {"street_name": "RUE DE L EGLISE", "sales": 4, "sales_appt": 0, "sales_maison": 0, "median_price": 130000.0, "median_price_per_sqm": null, "turnover_score": 25.0, "turnover_rank": 8, "first_year": 2025, "last_year": 2025, "years_active": 1}}, {"type": "Feature", "geometry": {"type": "Point", "coordinates": [2.7187025, 49.0625195]}, "properties": {"street_name": "RUE DE LESSARTS", "sales": 4, "sales_appt": 0, "sales_maison": 2, "median_price": 258500.0, "median_price_per_sqm": 3310.583822570124, "turnover_score": 25.0, "turnover_rank": 8, "first_year": 2024, "last_year": 2025, "years_active": 2}}, {"type": "Feature", "geometry": {"type": "Point", "coordinates": [2.71939, 49.062678]}, "properties": {"street_name": "COUR DES JARDINS", "sales": 3, "sales_appt": 0, "sales_maison": 1, "median_price": 229000.0, "median_price_per_sqm": 2063.063063063063, "turnover_score": 18.8, "turnover_rank": 9, "first_year": 2022, "last_year": 2022, "years_active": 1}}, {"type": "Feature", "geometry": {"type": "Point", "coordinates": [2.715822, 49.062974]}, "properties": {"street_name": "ALL LA FONTAINE", "sales": 3, "sales_appt": 0, "sales_maison": 3, "median_price": 384000.0, "median_price_per_sqm": 3692.3076923076924, "turnover_score": 18.8, "turnover_rank": 9, "first_year": 2023, "last_year": 2024, "years_active": 2}}, {"type": "Feature", "geometry": {"type": "Point", "coordinates": [2.716078, 49.063921]}, "properties": {"street_name": "ALL DES JEUX", "sales": 3, "sales_appt": 0, "sales_maison": 3, "median_price": 325000.0, "median_price_per_sqm": 3095.2380952380954, "turnover_score": 18.8, "turnover_rank": 9, "first_year": 2021, "last_year": 2025, "years_active": 2}}, {"type": "Feature", "geometry": {"type": "Point", "coordinates": [2.716861, 49.061601]}, "properties": {"street_name": "COUR DES VERGERS", "sales": 3, "sales_appt": 0, "sales_maison": 1, "median_price": 260000.0, "median_price_per_sqm": 2300.8849557522126, "turnover_score": 18.8, "turnover_rank": 9, "first_year": 2025, "last_year": 2025, "years_active": 1}}, {"type": "Feature", "geometry": {"type": "Point", "coordinates": [2.716479, 49.061517]}, "properties": {"street_name": "RUE DES VERGERS", "sales": 3, "sales_appt": 0, "sales_maison": 1, "median_price": 329000.0, "median_price_per_sqm": 3427.0833333333335, "turnover_score": 18.8, "turnover_rank": 9, "first_year": 2025, "last_year": 2025, "years_active": 1}}, {"type": "Feature", "geometry": {"type": "Point", "coordinates": [2.715572, 49.059891]}, "properties": {"street_name": "GRANDE RUE", "sales": 3, "sales_appt": 0, "sales_maison": 1, "median_price": 275000.0, "median_price_per_sqm": 2570.0934579439254, "turnover_score": 18.8, "turnover_rank": 9, "first_year": 2025, "last_year": 2025, "years_active": 1}}, {"type": "Feature", "geometry": {"type": "Point", "coordinates": [2.7160545, 49.0614115]}, "properties": {"street_name": "LE GRAND JARDIN", "sales": 2, "sales_appt": 0, "sales_maison": 0, "median_price": 130000.0, "median_price_per_sqm": null, "turnover_score": 12.5, "turnover_rank": 10, "first_year": 2021, "last_year": 2021, "years_active": 1}}, {"type": "Feature", "geometry": {"type": "Point", "coordinates": [2.726883, 49.066434]}, "properties": {"street_name": "LA GRANDE BARRE", "sales": 2, "sales_appt": 0, "sales_maison": 0, "median_price": 8035.875, "median_price_per_sqm": null, "turnover_score": 12.5, "turnover_rank": 10, "first_year": 2022, "last_year": 2025, "years_active": 2}}, {"type": "Feature", "geometry": {"type": "Point", "coordinates": [2.714882, 49.064583]}, "properties": {"street_name": "ALL DES TILLEULS", "sales": 2, "sales_appt": 0, "sales_maison": 2, "median_price": 340000.0, "median_price_per_sqm": 2698.4126984126983, "turnover_score": 12.5, "turnover_rank": 10, "first_year": 2022, "last_year": 2022, "years_active": 1}}, {"type": "Feature", "geometry": {"type": "Point", "coordinates": [2.718886, 49.061316]}, "properties": {"street_name": "LE JARDIN A MAULNY", "sales": 2, "sales_appt": 0, "sales_maison": 0, "median_price": 130000.0, "median_price_per_sqm": null, "turnover_score": 12.5, "turnover_rank": 10, "first_year": 2025, "last_year": 2025, "years_active": 1}}, {"type": "Feature", "geometry": {"type": "Point", "coordinates": [2.716893, 49.066122500000006]}, "properties": {"street_name": "LES BUTTES", "sales": 2, "sales_appt": 0, "sales_maison": 0, "median_price": 3531.0, "median_price_per_sqm": null, "turnover_score": 12.5, "turnover_rank": 10, "first_year": 2024, "last_year": 2025, "years_active": 2}}, {"type": "Feature", "geometry": {"type": "Point", "coordinates": [2.716055, 49.061006500000005]}, "properties": {"street_name": "RUE DU GRAND JARDIN", "sales": 2, "sales_appt": 0, "sales_maison": 1, "median_price": 237500.0, "median_price_per_sqm": 3484.848484848485, "turnover_score": 12.5, "turnover_rank": 10, "first_year": 2023, "last_year": 2023, "years_active": 1}}, {"type": "Feature", "geometry": {"type": "Point", "coordinates": [2.71694, 49.061218]}, "properties": {"street_name": "GR GRANDE RUE", "sales": 1, "sales_appt": 0, "sales_maison": 0, "median_price": 88000.0, "median_price_per_sqm": null, "turnover_score": 6.2, "turnover_rank": 11, "first_year": 2024, "last_year": 2024, "years_active": 1}}, {"type": "Feature", "geometry": {"type": "Point", "coordinates": [2.721956, 49.078443]}, "properties": {"street_name": "LA COURONNE", "sales": 1, "sales_appt": 0, "sales_maison": 0, "median_price": 4348.5, "median_price_per_sqm": null, "turnover_score": 6.2, "turnover_rank": 11, "first_year": 2025, "last_year": 2025, "years_active": 1}}, {"type": "Feature", "geometry": {"type": "Point", "coordinates": [2.714837, 49.054018]}, "properties": {"street_name": "LA MARE PLATTE", "sales": 1, "sales_appt": 0, "sales_maison": 0, "median_price": 56581.7, "median_price_per_sqm": null, "turnover_score": 6.2, "turnover_rank": 11, "first_year": 2023, "last_year": 2023, "years_active": 1}}, {"type": "Feature", "geometry": {"type": "Point", "coordinates": [2.718129, 49.062284]}, "properties": {"street_name": "COUR SAINT PIERRE", "sales": 1, "sales_appt": 0, "sales_maison": 1, "median_price": 249000.0, "median_price_per_sqm": 2829.5454545454545, "turnover_score": 6.2, "turnover_rank": 11, "first_year": 2021, "last_year": 2021, "years_active": 1}}, {"type": "Feature", "geometry": {"type": "Point", "coordinates": [2.716629, 49.062082]}, "properties": {"street_name": "RUE DES ECOLES", "sales": 1, "sales_appt": 0, "sales_maison": 0, "median_price": 274.0, "median_price_per_sqm": null, "turnover_score": 6.2, "turnover_rank": 11, "first_year": 2021, "last_year": 2021, "years_active": 1}}, {"type": "Feature", "geometry": {"type": "Point", "coordinates": [2.707903, 49.051731]}, "properties": {"street_name": "LE MONT-ROLAND", "sales": 1, "sales_appt": 0, "sales_maison": 0, "median_price": 555.0, "median_price_per_sqm": null, "turnover_score": 6.2, "turnover_rank": 11, "first_year": 2025, "last_year": 2025, "years_active": 1}}]}